{
 "type": "FeatureCollection",
 "_note": "Generated by scripts/build.py from Wikidata. Do not edit by hand — put manual fixes in the painter's overlay (data/overlay/*.json). Each feature carries _source (scraped base or manual addition) and, when edited, _overrides.",
 "features": [
  {
   "type": "Feature",
   "geometry": {
    "type": "Point",
    "coordinates": [
     9.18782,
     45.47196
    ]
   },
   "properties": {
    "painter": "Bramante",
    "title": "Man with a Halbard",
    "year": "1486",
    "city": "Milan",
    "country": "Italy",
    "location": "Pinacoteca di Brera",
    "kind": "museum",
    "attribution": "attributed",
    "status": "present",
    "image": "https://commons.wikimedia.org/wiki/Special:FilePath/Bramante%2C%20uomo%20dall%27alabarda%2C%201486-87%20brera.JPG?width=420",
    "wikidata": "https://www.wikidata.org/wiki/Q134606506",
    "creation_place": "Milan",
    "creation_lat": 45.4642,
    "creation_lon": 9.19,
    "_source": {
     "source": "Wikidata",
     "url": "https://www.wikidata.org/wiki/Q134606506",
     "retrieved_at": "2026-09-25"
    },
    "_overrides": {
     "creation": {
      "at": "2026-09-25",
      "source": "derived from start date + Caravaggio's documented itinerary (approximate)"
     },
     "qid": {
      "at": "2026-09-25",
      "source": "Wikidata reconciliation",
      "note": "matched to Q134606506 by normalised title + year (±8), same creator (merge_wd_extras)"
     }
    },
    "qid": "Q134606506",
    "museum_id": "pinacoteca-di-brera",
    "location_src": "Pinacoteca di Brera",
    "form": "painting"
   }
  },
  {
   "type": "Feature",
   "geometry": {
    "type": "Point",
    "coordinates": [
     9.18782,
     45.47196
    ]
   },
   "properties": {
    "painter": "Bramante",
    "title": "Man with a Broadsword",
    "year": "1481",
    "city": "Milan",
    "country": "Italy",
    "location": "Pinacoteca di Brera",
    "kind": "museum",
    "attribution": "attributed",
    "status": "present",
    "dimensions": "285 × 127 cm",
    "image": "https://commons.wikimedia.org/wiki/Special:FilePath/Donato%20Bramante%20-%20Man%20with%20a%20Broadsword%20-%20WGA3052.jpg?width=420",
    "wikidata": "https://www.wikidata.org/wiki/Q140958328",
    "creation_place": "Milan",
    "creation_lat": 45.4642,
    "creation_lon": 9.19,
    "_source": {
     "source": "Wikidata",
     "url": "https://www.wikidata.org/wiki/Q140958328",
     "retrieved_at": "2026-09-25"
    },
    "_overrides": {
     "creation": {
      "at": "2026-09-25",
      "source": "derived from start date + Caravaggio's documented itinerary (approximate)"
     },
     "qid": {
      "at": "2026-09-25",
      "source": "Wikidata reconciliation",
      "note": "matched to Q140958328 by normalised title + year (±8), same creator (merge_wd_extras)"
     }
    },
    "qid": "Q140958328",
    "museum_id": "pinacoteca-di-brera",
    "location_src": "Pinacoteca di Brera",
    "form": "painting"
   }
  },
  {
   "type": "Feature",
   "geometry": {
    "type": "Point",
    "coordinates": [
     9.18782,
     45.47196
    ]
   },
   "properties": {
    "painter": "Bramante",
    "title": "Christ at the Column",
    "year": "1487",
    "city": "Milan",
    "country": "Italy",
    "location": "Pinacoteca di Brera",
    "kind": "museum",
    "attribution": "generally accepted",
    "status": "present",
    "medium": "Panel",
    "dimensions": "93.7 × 62.5 cm",
    "genre": "religious art",
    "image": "https://commons.wikimedia.org/wiki/Special:FilePath/Bramante-cristo-alla-colonna.jpg?width=420",
    "wikipedia_en": "https://en.wikipedia.org/wiki/Christ_at_the_Column_(Bramante)",
    "wikipedia_it": "https://it.wikipedia.org/wiki/Cristo_alla_colonna_(Bramante)",
    "wikidata": "https://www.wikidata.org/wiki/Q3697588",
    "creation_place": "Milan",
    "creation_lat": 45.4642,
    "creation_lon": 9.19,
    "_source": {
     "source": "Wikidata",
     "url": "https://www.wikidata.org/wiki/Q3697588",
     "retrieved_at": "2026-09-25"
    },
    "_overrides": {
     "creation": {
      "at": "2026-09-25",
      "source": "derived from start date + Caravaggio's documented itinerary (approximate)"
     },
     "qid": {
      "at": "2026-09-25",
      "source": "Wikidata reconciliation",
      "note": "matched to Q3697588 by normalised title + year (±8), same creator (merge_wd_extras)"
     }
    },
    "qid": "Q3697588",
    "museum_id": "pinacoteca-di-brera",
    "location_src": "Pinacoteca di Brera",
    "form": "painting"
   }
  },
  {
   "type": "Feature",
   "geometry": {
    "type": "Point",
    "coordinates": [
     9.18782,
     45.47196
    ]
   },
   "properties": {
    "painter": "Bramante",
    "title": "Heraclitus and Democritus",
    "year": "1477",
    "city": "Milan",
    "country": "Italy",
    "location": "Pinacoteca di Brera",
    "kind": "museum",
    "attribution": "generally accepted",
    "status": "present",
    "medium": "Canvas",
    "dimensions": "102 × 127 cm",
    "genre": "portrait",
    "image": "https://commons.wikimedia.org/wiki/Special:FilePath/Bramante%20heracleitus%20and%20democritus.jpeg?width=420",
    "wikipedia_es": "https://es.wikipedia.org/wiki/Her%C3%A1clito_y_Dem%C3%B3crito_(Bramante)",
    "wikidata": "https://www.wikidata.org/wiki/Q5896513",
    "creation_place": "Milan",
    "creation_lat": 45.4642,
    "creation_lon": 9.19,
    "_source": {
     "source": "Wikidata",
     "url": "https://www.wikidata.org/wiki/Q5896513",
     "retrieved_at": "2026-09-25"
    },
    "_overrides": {
     "creation": {
      "at": "2026-09-25",
      "source": "derived from start date + Caravaggio's documented itinerary (approximate)"
     }
    },
    "museum_id": "pinacoteca-di-brera",
    "location_src": "Pinacoteca di Brera",
    "form": "painting"
   }
  },
  {
   "type": "Feature",
   "geometry": {
    "type": "Point",
    "coordinates": [
     12.453416666,
     41.902222222
    ]
   },
   "properties": {
    "painter": "Bramante",
    "title": "St. Peter's Basilica",
    "year": "1506",
    "qid": "Q12512",
    "image": "http://commons.wikimedia.org/wiki/Special:FilePath/Basilica%20di%20San%20Pietro%20in%20Vaticano%20September%202015-1a.jpg",
    "form": "architecture",
    "kind": "church",
    "location": "St. Peter's Basilica",
    "city": "Vatican City",
    "country": "Vatican City",
    "medium": "major basilica",
    "wikidata": "https://www.wikidata.org/wiki/Q12512",
    "attribution": "generally accepted",
    "_source": {
     "source": "Wikidata (P84 architect)",
     "at": "2026-09-27",
     "url": "https://www.wikidata.org/wiki/Q12512"
    },
    "museum_id": "st-peter-s-basilica",
    "location_src": "St. Peter's Basilica"
   }
  },
  {
   "type": "Feature",
   "geometry": {
    "type": "Point",
    "coordinates": [
     12.45639,
     41.90361
    ]
   },
   "properties": {
    "painter": "Bramante",
    "title": "Apostolic Palace",
    "year": "1589",
    "qid": "Q145093",
    "image": "http://commons.wikimedia.org/wiki/Special:FilePath/2018-03-18%20Apostolischer%20Palast.jpg",
    "form": "architecture",
    "kind": "museum",
    "location": "Apostolic Palace",
    "city": "Vatican City",
    "country": "Vatican City",
    "medium": "palace",
    "wikidata": "https://www.wikidata.org/wiki/Q145093",
    "attribution": "generally accepted",
    "_source": {
     "source": "Wikidata (P84 architect)",
     "at": "2026-09-27",
     "url": "https://www.wikidata.org/wiki/Q145093"
    },
    "museum_id": "apostolic-palace",
    "location_src": "Apostolic Palace"
   }
  },
  {
   "type": "Feature",
   "geometry": {
    "type": "Point",
    "coordinates": [
     9.171111111,
     45.465833333
    ]
   },
   "properties": {
    "painter": "Bramante",
    "title": "Santa Maria delle Grazie",
    "year": "1401",
    "qid": "Q244952",
    "image": "http://commons.wikimedia.org/wiki/Special:FilePath/3048%20-%20Milano%20-%20S.%20Maria%20delle%20Grazie%20-%20Facciata%20-%20Foto%20Giovanni%20Dall%27Orto%20-%206-Mar-2008.jpg",
    "form": "architecture",
    "kind": "church",
    "location": "Santa Maria delle Grazie",
    "city": "Senigallia",
    "country": "Italy",
    "medium": "church building",
    "wikidata": "https://www.wikidata.org/wiki/Q244952",
    "attribution": "generally accepted",
    "_source": {
     "source": "Wikidata (P84 architect)",
     "at": "2026-09-27",
     "url": "https://www.wikidata.org/wiki/Q244952"
    },
    "museum_id": "santa-maria-delle-grazie",
    "location_src": "Santa Maria delle Grazie"
   }
  },
  {
   "type": "Feature",
   "geometry": {
    "type": "Point",
    "coordinates": [
     9.188035,
     45.462608
    ]
   },
   "properties": {
    "painter": "Bramante",
    "title": "Santa Maria presso San Satiro",
    "year": "1600",
    "qid": "Q589462",
    "image": "http://commons.wikimedia.org/wiki/Special:FilePath/Milan%20Santa%20Maria%20presso%20San%20Satiro%20016%204771.jpg",
    "form": "architecture",
    "kind": "church",
    "location": "Santa Maria presso San Satiro",
    "city": "Milan",
    "country": "Italy",
    "medium": "church building",
    "wikidata": "https://www.wikidata.org/wiki/Q589462",
    "attribution": "generally accepted",
    "_source": {
     "source": "Wikidata (P84 architect)",
     "at": "2026-09-27",
     "url": "https://www.wikidata.org/wiki/Q589462"
    },
    "museum_id": "santa-maria-presso-san-satiro",
    "location_src": "Santa Maria presso San Satiro"
   }
  },
  {
   "type": "Feature",
   "geometry": {
    "type": "Point",
    "coordinates": [
     9.15361111,
     45.18458333
    ]
   },
   "properties": {
    "painter": "Bramante",
    "title": "Pavia Cathedral",
    "year": "1488",
    "qid": "Q602102",
    "image": "http://commons.wikimedia.org/wiki/Special:FilePath/Pavia%20Cattedrale%20di%20Santa%20Maria%20Assunta%20e%20Santo%20Stefano%20Protomartire%20Esterno%20Facciata%2002.jpg",
    "form": "architecture",
    "kind": "church",
    "location": "Pavia Cathedral",
    "city": "Pavia",
    "country": "Italy",
    "medium": "cathedral",
    "wikidata": "https://www.wikidata.org/wiki/Q602102",
    "attribution": "generally accepted",
    "_source": {
     "source": "Wikidata (P84 architect)",
     "at": "2026-09-27",
     "url": "https://www.wikidata.org/wiki/Q602102"
    },
    "museum_id": "pavia-cathedral",
    "location_src": "Pavia Cathedral"
   }
  },
  {
   "type": "Feature",
   "geometry": {
    "type": "Point",
    "coordinates": [
     13.61092,
     43.44093
    ]
   },
   "properties": {
    "painter": "Bramante",
    "title": "Pontifical basilica of the Holy House of Loreto",
    "year": "1468",
    "qid": "Q654996",
    "image": "http://commons.wikimedia.org/wiki/Special:FilePath/Basilica%20Pontificia%20della%20Santa%20Casa%20di%20Loreto.jpg",
    "form": "architecture",
    "kind": "church",
    "location": "Pontifical basilica of the Holy House of Loreto",
    "city": "Loreto",
    "country": "Italy",
    "medium": "minor basilica",
    "wikidata": "https://www.wikidata.org/wiki/Q654996",
    "attribution": "generally accepted",
    "_source": {
     "source": "Wikidata (P84 architect)",
     "at": "2026-09-27",
     "url": "https://www.wikidata.org/wiki/Q654996"
    },
    "museum_id": "pontifical-basilica-of-the-holy-house-of-loreto",
    "location_src": "Pontifical basilica of the Holy House of Loreto"
   }
  },
  {
   "type": "Feature",
   "geometry": {
    "type": "Point",
    "coordinates": [
     12.47007,
     41.89417
    ]
   },
   "properties": {
    "painter": "Bramante",
    "title": "via Giulia",
    "year": "",
    "qid": "Q782187",
    "image": "http://commons.wikimedia.org/wiki/Special:FilePath/ViaGiulia.jpg",
    "form": "architecture",
    "kind": "public",
    "location": "via Giulia",
    "city": "Rome",
    "country": "Italy",
    "medium": "thoroughfare",
    "wikidata": "https://www.wikidata.org/wiki/Q782187",
    "attribution": "generally accepted",
    "_source": {
     "source": "Wikidata (P84 architect)",
     "at": "2026-09-27",
     "url": "https://www.wikidata.org/wiki/Q782187"
    },
    "museum_id": "via-giulia",
    "location_src": "via Giulia"
   }
  },
  {
   "type": "Feature",
   "geometry": {
    "type": "Point",
    "coordinates": [
     9.236915,
     45.416027
    ]
   },
   "properties": {
    "painter": "Bramante",
    "title": "Chiaravalle Abbey",
    "year": "1101",
    "qid": "Q860569",
    "image": "http://commons.wikimedia.org/wiki/Special:FilePath/AbbaziaChiaravalle.jpg",
    "form": "architecture",
    "kind": "church",
    "location": "Chiaravalle Abbey",
    "city": "Milan",
    "country": "Italy",
    "medium": "abbey",
    "wikidata": "https://www.wikidata.org/wiki/Q860569",
    "attribution": "generally accepted",
    "_source": {
     "source": "Wikidata (P84 architect)",
     "at": "2026-09-27",
     "url": "https://www.wikidata.org/wiki/Q860569"
    },
    "museum_id": "chiaravalle-abbey",
    "location_src": "Chiaravalle Abbey"
   }
  },
  {
   "type": "Feature",
   "geometry": {
    "type": "Point",
    "coordinates": [
     12.46651,
     41.88857
    ]
   },
   "properties": {
    "painter": "Bramante",
    "title": "San Pietro in Montorio",
    "year": "1401",
    "qid": "Q1258576",
    "image": "http://commons.wikimedia.org/wiki/Special:FilePath/San%20Pietro%20in%20Montorio%20-%20esterno.jpg",
    "form": "architecture",
    "kind": "church",
    "location": "San Pietro in Montorio",
    "city": "Rome",
    "country": "Italy",
    "medium": "church building",
    "wikidata": "https://www.wikidata.org/wiki/Q1258576",
    "attribution": "generally accepted",
    "_source": {
     "source": "Wikidata (P84 architect)",
     "at": "2026-09-27",
     "url": "https://www.wikidata.org/wiki/Q1258576"
    },
    "museum_id": "san-pietro-in-montorio",
    "location_src": "San Pietro in Montorio",
    "city_src": "Roma Capitale"
   }
  },
  {
   "type": "Feature",
   "geometry": {
    "type": "Point",
    "coordinates": [
     12.47167,
     41.89986
    ]
   },
   "properties": {
    "painter": "Bramante",
    "title": "Santa Maria della Pace",
    "year": "1401",
    "qid": "Q1514683",
    "image": "http://commons.wikimedia.org/wiki/Special:FilePath/Ponte-%20Chiesa%20di%20S.Maria%20della%20Pace.jpg",
    "form": "architecture",
    "kind": "church",
    "location": "Santa Maria della Pace",
    "city": "Rome",
    "country": "Italy",
    "medium": "church building",
    "wikidata": "https://www.wikidata.org/wiki/Q1514683",
    "attribution": "generally accepted",
    "_source": {
     "source": "Wikidata (P84 architect)",
     "at": "2026-09-27",
     "url": "https://www.wikidata.org/wiki/Q1514683"
    },
    "museum_id": "santa-maria-della-pace",
    "location_src": "Santa Maria della Pace"
   }
  },
  {
   "type": "Feature",
   "geometry": {
    "type": "Point",
    "coordinates": [
     12.502138888,
     41.876611111
    ]
   },
   "properties": {
    "painter": "Bramante",
    "title": "San Giovanni in Oleo",
    "year": "0401",
    "qid": "Q1814304",
    "image": "http://commons.wikimedia.org/wiki/Special:FilePath/Celio%20-%20Porta%20Latina%20e%20oratorio%20di%20san%20Giovanni%20in%20Oleo%202042.JPG",
    "form": "architecture",
    "kind": "church",
    "location": "San Giovanni in Oleo",
    "city": "Rome",
    "country": "Italy",
    "medium": "church building",
    "wikidata": "https://www.wikidata.org/wiki/Q1814304",
    "attribution": "generally accepted",
    "_source": {
     "source": "Wikidata (P84 architect)",
     "at": "2026-09-27",
     "url": "https://www.wikidata.org/wiki/Q1814304"
    },
    "museum_id": "san-giovanni-in-oleo",
    "location_src": "San Giovanni in Oleo"
   }
  },
  {
   "type": "Feature",
   "geometry": {
    "type": "Point",
    "coordinates": [
     12.46674,
     41.90074
    ]
   },
   "properties": {
    "painter": "Bramante",
    "title": "Santi Celso e Giuliano",
    "year": "1735",
    "qid": "Q1849406",
    "image": "http://commons.wikimedia.org/wiki/Special:FilePath/Santi%20Celso%20e%20Giuliano.jpg",
    "form": "architecture",
    "kind": "church",
    "location": "Santi Celso e Giuliano",
    "city": "Rome",
    "country": "Italy",
    "medium": "church building",
    "wikidata": "https://www.wikidata.org/wiki/Q1849406",
    "attribution": "generally accepted",
    "_source": {
     "source": "Wikidata (P84 architect)",
     "at": "2026-09-27",
     "url": "https://www.wikidata.org/wiki/Q1849406"
    },
    "museum_id": "santi-celso-e-giuliano",
    "location_src": "Santi Celso e Giuliano"
   }
  },
  {
   "type": "Feature",
   "geometry": {
    "type": "Point",
    "coordinates": [
     12.471521,
     41.896687
    ]
   },
   "properties": {
    "painter": "Bramante",
    "title": "Palazzo della Cancelleria",
    "year": "1513",
    "qid": "Q2031943",
    "image": "http://commons.wikimedia.org/wiki/Special:FilePath/Parione%20-%20palazzo%20Riario%20o%20Cancelleria%20nuova%201628.JPG",
    "form": "architecture",
    "kind": "public",
    "location": "Palazzo della Cancelleria",
    "city": "Rome",
    "country": "Italy",
    "medium": "city palace",
    "wikidata": "https://www.wikidata.org/wiki/Q2031943",
    "attribution": "generally accepted",
    "_source": {
     "source": "Wikidata (P84 architect)",
     "at": "2026-09-27",
     "url": "https://www.wikidata.org/wiki/Q2031943"
    },
    "museum_id": "palazzo-della-cancelleria",
    "location_src": "Palazzo della Cancelleria"
   }
  },
  {
   "type": "Feature",
   "geometry": {
    "type": "Point",
    "coordinates": [
     12.460611,
     41.902611
    ]
   },
   "properties": {
    "painter": "Bramante",
    "title": "Palazzo Caprini",
    "year": "",
    "qid": "Q2047517",
    "image": "http://commons.wikimedia.org/wiki/Special:FilePath/Speculum%20Romanae%20Magnificentiae-%20House%20of%20Raphael%20MET%20DP870359.jpg",
    "form": "architecture",
    "kind": "public",
    "location": "Palazzo Caprini",
    "city": "Rome",
    "country": "Italy",
    "medium": "Palazzo",
    "wikidata": "https://www.wikidata.org/wiki/Q2047517",
    "attribution": "generally accepted",
    "_source": {
     "source": "Wikidata (P84 architect)",
     "at": "2026-09-27",
     "url": "https://www.wikidata.org/wiki/Q2047517"
    },
    "museum_id": "palazzo-caprini",
    "location_src": "Palazzo Caprini"
   }
  },
  {
   "type": "Feature",
   "geometry": {
    "type": "Point",
    "coordinates": [
     12.472154884,
     41.899713078
    ]
   },
   "properties": {
    "painter": "Bramante",
    "title": "Santa Maria dell'Anima",
    "year": "1522",
    "qid": "Q2140145",
    "image": "http://commons.wikimedia.org/wiki/Special:FilePath/Santa%20Maria%20del%20Anima%20I.jpg",
    "form": "architecture",
    "kind": "church",
    "location": "Santa Maria dell'Anima",
    "city": "Rome",
    "country": "Italy",
    "medium": "church building",
    "wikidata": "https://www.wikidata.org/wiki/Q2140145",
    "attribution": "generally accepted",
    "_source": {
     "source": "Wikidata (P84 architect)",
     "at": "2026-09-27",
     "url": "https://www.wikidata.org/wiki/Q2140145"
    },
    "museum_id": "santa-maria-dell-anima",
    "location_src": "Santa Maria dell'Anima"
   }
  },
  {
   "type": "Feature",
   "geometry": {
    "type": "Point",
    "coordinates": [
     12.454722222,
     41.904166666
    ]
   },
   "properties": {
    "painter": "Bramante",
    "title": "Cortile del Belvedere",
    "year": "1506",
    "qid": "Q2547111",
    "image": "http://commons.wikimedia.org/wiki/Special:FilePath/Patio%20del%20Belvedere%2C%20Ciudad%20del%20Vaticano%2C%202022-09-14%2C%20DD%2073-75%20HDR.jpg",
    "form": "architecture",
    "kind": "public",
    "location": "Cortile del Belvedere",
    "city": "Vatican City",
    "country": "Vatican City",
    "medium": "square",
    "wikidata": "https://www.wikidata.org/wiki/Q2547111",
    "attribution": "generally accepted",
    "_source": {
     "source": "Wikidata (P84 architect)",
     "at": "2026-09-27",
     "url": "https://www.wikidata.org/wiki/Q2547111"
    },
    "museum_id": "cortile-del-belvedere",
    "location_src": "Cortile del Belvedere"
   }
  },
  {
   "type": "Feature",
   "geometry": {
    "type": "Point",
    "coordinates": [
     8.915509,
     45.399058
    ]
   },
   "properties": {
    "painter": "Bramante",
    "title": "Santa Maria Nuova",
    "year": "1935",
    "qid": "Q2887132",
    "image": "http://commons.wikimedia.org/wiki/Special:FilePath/Abbiategrasso-chiesa%20santa%20maria%20nuova-esterno1.jpg",
    "form": "architecture",
    "kind": "church",
    "location": "Santa Maria Nuova",
    "city": "Abbiategrasso",
    "country": "Italy",
    "medium": "church building",
    "wikidata": "https://www.wikidata.org/wiki/Q2887132",
    "attribution": "generally accepted",
    "_source": {
     "source": "Wikidata (P84 architect)",
     "at": "2026-09-27",
     "url": "https://www.wikidata.org/wiki/Q2887132"
    },
    "museum_id": "santa-maria-nuova",
    "location_src": "Santa Maria Nuova"
   }
  },
  {
   "type": "Feature",
   "geometry": {
    "type": "Point",
    "coordinates": [
     8.857839,
     45.317575
    ]
   },
   "properties": {
    "painter": "Bramante",
    "title": "piazza Ducale",
    "year": "",
    "qid": "Q3382247",
    "image": "http://commons.wikimedia.org/wiki/Special:FilePath/2012-04-28%20Vigevano%20Piazza%20Ducale.jpg",
    "form": "architecture",
    "kind": "public",
    "location": "piazza Ducale",
    "city": "Vigevano",
    "country": "Italy",
    "medium": "square",
    "wikidata": "https://www.wikidata.org/wiki/Q3382247",
    "attribution": "generally accepted",
    "_source": {
     "source": "Wikidata (P84 architect)",
     "at": "2026-09-27",
     "url": "https://www.wikidata.org/wiki/Q3382247"
    },
    "museum_id": "piazza-ducale",
    "location_src": "piazza Ducale"
   }
  },
  {
   "type": "Feature",
   "geometry": {
    "type": "Point",
    "coordinates": [
     9.20686944,
     45.484675
    ]
   },
   "properties": {
    "painter": "Bramante",
    "title": "Cascina Pozzobonelli in Milan",
    "year": "",
    "qid": "Q3661590",
    "image": "http://commons.wikimedia.org/wiki/Special:FilePath/Cascina%20Pozzobonelli%205.jpg",
    "form": "architecture",
    "kind": "public",
    "location": "Cascina Pozzobonelli in Milan",
    "city": "Milan",
    "country": "Italy",
    "medium": "villa",
    "wikidata": "https://www.wikidata.org/wiki/Q3661590",
    "attribution": "generally accepted",
    "_source": {
     "source": "Wikidata (P84 architect)",
     "at": "2026-09-27",
     "url": "https://www.wikidata.org/wiki/Q3661590"
    },
    "museum_id": "cascina-pozzobonelli-in-milan",
    "location_src": "Cascina Pozzobonelli in Milan"
   }
  },
  {
   "type": "Feature",
   "geometry": {
    "type": "Point",
    "coordinates": [
     9.176503,
     45.461993
    ]
   },
   "properties": {
    "painter": "Bramante",
    "title": "Cloisters of Sant'Ambrogio",
    "year": "",
    "qid": "Q3675059",
    "image": "http://commons.wikimedia.org/wiki/Special:FilePath/HDR%20-%20Chiostro%20Universit%C3%A0%20Cattolica.jpg",
    "form": "architecture",
    "kind": "public",
    "location": "Cloisters of Sant'Ambrogio",
    "city": "Milan",
    "country": "Italy",
    "medium": "cloister",
    "wikidata": "https://www.wikidata.org/wiki/Q3675059",
    "attribution": "generally accepted",
    "_source": {
     "source": "Wikidata (P84 architect)",
     "at": "2026-09-27",
     "url": "https://www.wikidata.org/wiki/Q3675059"
    },
    "museum_id": "cloisters-of-sant-ambrogio",
    "location_src": "Cloisters of Sant'Ambrogio"
   }
  },
  {
   "type": "Feature",
   "geometry": {
    "type": "Point",
    "coordinates": [
     12.456388888,
     41.903611111
    ]
   },
   "properties": {
    "painter": "Bramante",
    "title": "Vatican loggias",
    "year": "",
    "qid": "Q3836415",
    "image": "http://commons.wikimedia.org/wiki/Special:FilePath/Loge%20du%202%C3%A8me%20%C3%A9tage%20du%20palais%20apostolique%20du%20Vatican.jpg",
    "form": "architecture",
    "kind": "public",
    "location": "Vatican loggias",
    "city": null,
    "country": "Vatican City",
    "medium": "loggia",
    "wikidata": "https://www.wikidata.org/wiki/Q3836415",
    "attribution": "generally accepted",
    "_source": {
     "source": "Wikidata (P84 architect)",
     "at": "2026-09-27",
     "url": "https://www.wikidata.org/wiki/Q3836415"
    },
    "museum_id": "vatican-loggias",
    "location_src": "Vatican loggias"
   }
  },
  {
   "type": "Feature",
   "geometry": {
    "type": "Point",
    "coordinates": [
     13.608952,
     43.44112
    ]
   },
   "properties": {
    "painter": "Bramante",
    "title": "Apostolic Palace",
    "year": "",
    "qid": "Q3889544",
    "image": "http://commons.wikimedia.org/wiki/Special:FilePath/Loreto%20Palazzo%20Apostolico%2005.jpg",
    "form": "architecture",
    "kind": "public",
    "location": "Apostolic Palace",
    "city": "Loreto",
    "country": "Italy",
    "medium": "palace",
    "wikidata": "https://www.wikidata.org/wiki/Q3889544",
    "attribution": "generally accepted",
    "_source": {
     "source": "Wikidata (P84 architect)",
     "at": "2026-09-27",
     "url": "https://www.wikidata.org/wiki/Q3889544"
    },
    "museum_id": "apostolic-palace-2",
    "location_src": "Apostolic Palace"
   }
  },
  {
   "type": "Feature",
   "geometry": {
    "type": "Point",
    "coordinates": [
     9.19358,
     45.4683
    ]
   },
   "properties": {
    "painter": "Bramante",
    "title": "Palazzo Bigli",
    "year": "",
    "qid": "Q3889666",
    "image": "http://commons.wikimedia.org/wiki/Special:FilePath/Palazzo%20Bigli%2C%20Milano.jpg",
    "form": "architecture",
    "kind": "public",
    "location": "Palazzo Bigli",
    "city": "Milan",
    "country": "Italy",
    "medium": "Palazzo",
    "wikidata": "https://www.wikidata.org/wiki/Q3889666",
    "attribution": "generally accepted",
    "_source": {
     "source": "Wikidata (P84 architect)",
     "at": "2026-09-27",
     "url": "https://www.wikidata.org/wiki/Q3889666"
    },
    "museum_id": "palazzo-bigli",
    "location_src": "Palazzo Bigli"
   }
  },
  {
   "type": "Feature",
   "geometry": {
    "type": "Point",
    "coordinates": [
     12.466658,
     41.899959
    ]
   },
   "properties": {
    "painter": "Bramante",
    "title": "Palazzo della Zecca vecchia",
    "year": "",
    "qid": "Q3891243",
    "image": "http://commons.wikimedia.org/wiki/Special:FilePath/Palazzo%20d%27Antica%20Zecca.jpg",
    "form": "architecture",
    "kind": "public",
    "location": "Palazzo della Zecca vecchia",
    "city": "Rome",
    "country": "Italy",
    "medium": "Palazzo",
    "wikidata": "https://www.wikidata.org/wiki/Q3891243",
    "attribution": "generally accepted",
    "_source": {
     "source": "Wikidata (P84 architect)",
     "at": "2026-09-27",
     "url": "https://www.wikidata.org/wiki/Q3891243"
    },
    "museum_id": "palazzo-della-zecca-vecchia",
    "location_src": "Palazzo della Zecca vecchia"
   }
  },
  {
   "type": "Feature",
   "geometry": {
    "type": "Point",
    "coordinates": [
     10.2195,
     45.53983
    ]
   },
   "properties": {
    "painter": "Bramante",
    "title": "Palazzo della Loggia",
    "year": "",
    "qid": "Q3891454",
    "image": "http://commons.wikimedia.org/wiki/Special:FilePath/Palazzo%20della%20Loggia%20piazza%20Brescia-edit.jpg",
    "form": "architecture",
    "kind": "public",
    "location": "Palazzo della Loggia",
    "city": "Brescia",
    "country": "Italy",
    "medium": "palace",
    "wikidata": "https://www.wikidata.org/wiki/Q3891454",
    "attribution": "generally accepted",
    "_source": {
     "source": "Wikidata (P84 architect)",
     "at": "2026-09-27",
     "url": "https://www.wikidata.org/wiki/Q3891454"
    },
    "museum_id": "palazzo-della-loggia",
    "location_src": "Palazzo della Loggia"
   }
  },
  {
   "type": "Feature",
   "geometry": {
    "type": "Point",
    "coordinates": [
     14.5548,
     50.9534
    ]
   },
   "properties": {
    "painter": "Bramante",
    "title": "Loretokapelle",
    "year": "1701",
    "qid": "Q8408381",
    "image": "http://commons.wikimedia.org/wiki/Special:FilePath/Loreto-Rumburg4.jpg",
    "form": "architecture",
    "kind": "church",
    "location": "Loretokapelle",
    "city": "Rumburk",
    "country": "Czech Republic",
    "medium": "church building",
    "wikidata": "https://www.wikidata.org/wiki/Q8408381",
    "attribution": "generally accepted",
    "_source": {
     "source": "Wikidata (P84 architect)",
     "at": "2026-09-27",
     "url": "https://www.wikidata.org/wiki/Q8408381"
    },
    "museum_id": "loretokapelle",
    "location_src": "Loretokapelle"
   }
  },
  {
   "type": "Feature",
   "geometry": {
    "type": "Point",
    "coordinates": [
     12.46641667,
     41.88875
    ]
   },
   "properties": {
    "painter": "Bramante",
    "title": "Tempietto",
    "year": "1500",
    "qid": "Q12960184",
    "image": "http://commons.wikimedia.org/wiki/Special:FilePath/Tempietto%20di%20San%20Pietro%20in%20Montorio.jpg",
    "form": "architecture",
    "kind": "church",
    "location": "Tempietto",
    "city": "Rome",
    "country": "Italy",
    "medium": "church building",
    "wikidata": "https://www.wikidata.org/wiki/Q12960184",
    "attribution": "generally accepted",
    "_source": {
     "source": "Wikidata (P84 architect)",
     "at": "2026-09-27",
     "url": "https://www.wikidata.org/wiki/Q12960184"
    },
    "museum_id": "tempietto",
    "location_src": "Tempietto"
   }
  },
  {
   "type": "Feature",
   "geometry": {
    "type": "Point",
    "coordinates": [
     8.919143,
     45.594921
    ]
   },
   "properties": {
    "painter": "Bramante",
    "title": "High church of Saint Magnus",
    "year": "1513",
    "qid": "Q18378294",
    "image": "http://commons.wikimedia.org/wiki/Special:FilePath/Legnano%20San%20Magno.jpg",
    "form": "architecture",
    "kind": "church",
    "location": "High church of Saint Magnus",
    "city": "Legnano",
    "country": "Italy",
    "medium": "church building",
    "wikidata": "https://www.wikidata.org/wiki/Q18378294",
    "attribution": "generally accepted",
    "_source": {
     "source": "Wikidata (P84 architect)",
     "at": "2026-09-27",
     "url": "https://www.wikidata.org/wiki/Q18378294"
    },
    "museum_id": "high-church-of-saint-magnus",
    "location_src": "High church of Saint Magnus"
   }
  },
  {
   "type": "Feature",
   "geometry": {
    "type": "Point",
    "coordinates": [
     12.460611,
     41.902694
    ]
   },
   "properties": {
    "painter": "Bramante",
    "title": "Palazzo dei Convertendi",
    "year": "",
    "qid": "Q20652595",
    "image": "http://commons.wikimedia.org/wiki/Special:FilePath/V%20d%20Conciliazione%20-%20pal%20Convertendi%20P1090089.JPG",
    "form": "architecture",
    "kind": "public",
    "location": "Palazzo dei Convertendi",
    "city": "Rome",
    "country": "Italy",
    "medium": "palace",
    "wikidata": "https://www.wikidata.org/wiki/Q20652595",
    "attribution": "generally accepted",
    "_source": {
     "source": "Wikidata (P84 architect)",
     "at": "2026-09-27",
     "url": "https://www.wikidata.org/wiki/Q20652595"
    },
    "museum_id": "palazzo-dei-convertendi",
    "location_src": "Palazzo dei Convertendi"
   }
  },
  {
   "type": "Feature",
   "geometry": {
    "type": "Point",
    "coordinates": [
     12.471596686,
     41.900073496
    ]
   },
   "properties": {
    "painter": "Bramante",
    "title": "cloister of Bramante",
    "year": "1504",
    "qid": "Q25100007",
    "image": "http://commons.wikimedia.org/wiki/Special:FilePath/Santa%20maria%20della%20pace%2C%20chiostro%20del%20bramante%2001.JPG",
    "form": "architecture",
    "kind": "church",
    "location": "cloister of Bramante",
    "city": "Rome",
    "country": "Italy",
    "medium": "church building",
    "wikidata": "https://www.wikidata.org/wiki/Q25100007",
    "attribution": "generally accepted",
    "_source": {
     "source": "Wikidata (P84 architect)",
     "at": "2026-09-27",
     "url": "https://www.wikidata.org/wiki/Q25100007"
    },
    "museum_id": "cloister-of-bramante",
    "location_src": "cloister of Bramante"
   }
  },
  {
   "type": "Feature",
   "geometry": {
    "type": "Point",
    "coordinates": [
     12.466194444,
     41.89825
    ]
   },
   "properties": {
    "painter": "Bramante",
    "title": "Palazzo dei Tribunali",
    "year": "",
    "qid": "Q25295909",
    "image": "http://commons.wikimedia.org/wiki/Special:FilePath/Hotel%20St%20George%20%288158615987%29.jpg",
    "form": "architecture",
    "kind": "public",
    "location": "Palazzo dei Tribunali",
    "city": "Rome",
    "country": "Italy",
    "medium": "palace",
    "wikidata": "https://www.wikidata.org/wiki/Q25295909",
    "attribution": "generally accepted",
    "_source": {
     "source": "Wikidata (P84 architect)",
     "at": "2026-09-27",
     "url": "https://www.wikidata.org/wiki/Q25295909"
    },
    "museum_id": "palazzo-dei-tribunali",
    "location_src": "Palazzo dei Tribunali"
   }
  },
  {
   "type": "Feature",
   "geometry": {
    "type": "Point",
    "coordinates": [
     9.188065158,
     45.454481162
    ]
   },
   "properties": {
    "painter": "Bramante",
    "title": "Monastero di S. Celso (Corso Italia, Milano)",
    "year": "1000",
    "qid": "Q107111139",
    "image": null,
    "form": "architecture",
    "kind": "church",
    "location": "Monastero di S. Celso (Corso Italia, Milano)",
    "city": "Milan",
    "country": "Italy",
    "medium": "church building",
    "wikidata": "https://www.wikidata.org/wiki/Q107111139",
    "attribution": "generally accepted",
    "_source": {
     "source": "Wikidata (P84 architect)",
     "at": "2026-09-27",
     "url": "https://www.wikidata.org/wiki/Q107111139"
    },
    "museum_id": "monastero-di-s-celso-corso-italia-milano",
    "location_src": "Monastero di S. Celso (Corso Italia, Milano)"
   }
  },
  {
   "type": "Feature",
   "geometry": {
    "type": "Point",
    "coordinates": [
     9.191158,
     45.458881
    ]
   },
   "properties": {
    "painter": "Bramante",
    "title": "Monastero del Lentasio",
    "year": "1400",
    "qid": "Q112143043",
    "image": null,
    "form": "architecture",
    "kind": "church",
    "location": "Monastero del Lentasio",
    "city": "Milan",
    "country": "Italy",
    "medium": "monastery",
    "wikidata": "https://www.wikidata.org/wiki/Q112143043",
    "attribution": "generally accepted",
    "_source": {
     "source": "Wikidata (P84 architect)",
     "at": "2026-09-27",
     "url": "https://www.wikidata.org/wiki/Q112143043"
    },
    "museum_id": "monastero-del-lentasio",
    "location_src": "Monastero del Lentasio"
   }
  },
  {
   "type": "Feature",
   "geometry": {
    "type": "Point",
    "coordinates": [
     12.453333333,
     41.902222222
    ]
   },
   "properties": {
    "painter": "Bramante",
    "title": "Bramante's Tegurium",
    "year": "1513",
    "qid": "Q124333897",
    "image": "http://commons.wikimedia.org/wiki/Special:FilePath/Maarten%20van%20Heemskerck%20013.jpg",
    "form": "architecture",
    "kind": "public",
    "location": "Bramante's Tegurium",
    "city": "Rome",
    "country": "Papal States",
    "medium": "destroyed building or structure",
    "wikidata": "https://www.wikidata.org/wiki/Q124333897",
    "attribution": "generally accepted",
    "_source": {
     "source": "Wikidata (P84 architect)",
     "at": "2026-09-27",
     "url": "https://www.wikidata.org/wiki/Q124333897"
    },
    "museum_id": "bramante-s-tegurium",
    "location_src": "Bramante's Tegurium"
   }
  }
 ]
}