{"type": "FeatureCollection", "features": [{"type": "Feature", "properties": {"painter": "Antonio Canova", "title": "Daedalus and Icarus", "qid": "Q3704613", "form": "sculpture", "kind": "museum", "year": "1779", "location": "Museo Correr", "city": "Venice", "country": "Italy", "material": "marble", "medium": "marble", "image": "https://commons.wikimedia.org/wiki/Special:FilePath/%28Venice%29%20Dedalo%20e%20Icaro%20by%20Antonio%20Canova%20-%20Museo%20Correr%202.jpg", "attribution": "generally accepted", "_source": {"source": "Wikidata: sculptures by Antonio Canova (Q5547)"}, "museum_id": "museo-correr", "location_src": "Museo Correr"}, "geometry": {"type": "Point", "coordinates": [12.33713, 45.43393]}}, {"type": "Feature", "properties": {"painter": "Antonio Canova", "title": "Hebe", "qid": "Q3717843", "form": "sculpture", "kind": "museum", "year": "1796", "location": "Staatliche Museen zu Berlin", "city": "Berlin", "country": "Germany", "material": "marble", "medium": "marble", "image": "https://commons.wikimedia.org/wiki/Special:FilePath/Canova-Hebe%2030%20degree%20view.jpg", "attribution": "generally accepted", "_source": {"source": "Wikidata: sculptures by Antonio Canova (Q5547)"}, "museum_id": "staatliche-museen-zu-berlin", "location_src": "Staatliche Museen zu Berlin"}, "geometry": {"type": "Point", "coordinates": [13.3645, 52.50929]}}, {"type": "Feature", "properties": {"painter": "Antonio Canova", "title": "Hercules and Lychas", "qid": "Q3731231", "form": "sculpture", "kind": "museum", "year": "1795", "location": "Galleria Nazionale d'Arte Moderna", "city": "Rome", "country": "Italy", "material": "marble", "medium": "marble", "image": "https://commons.wikimedia.org/wiki/Special:FilePath/Canova%20ErcoleLica%201.jpg", "attribution": "generally accepted", "_source": {"source": "Wikidata: sculptures by Antonio Canova (Q5547)"}, "museum_id": "galleria-nazionale-d-arte-moderna", "location_src": "Galleria Nazionale d'Arte Moderna e Contemporanea di Roma", "city_src": "Roma Capitale"}, "geometry": {"type": "Point", "coordinates": [12.47998, 41.91705]}}, {"type": "Feature", "properties": {"painter": "Antonio Canova", "title": "Cenotaph of Archduchess Maria Christina", "qid": "Q3862685", "form": "sculpture", "kind": "church", "year": "1798", "location": "Augustinian Church", "city": "Innere Stadt", "country": "Austria", "material": "marble", "medium": "marble", "image": "https://commons.wikimedia.org/wiki/Special:FilePath/Wien%20Augustinerkirche%20Kenotaph%20Maria%20Christina%201.jpg", "attribution": "generally accepted", "_source": {"source": "Wikidata: sculptures by Antonio Canova (Q5547)"}, "museum_id": "augustinian-church", "location_src": "Augustinian Church"}, "geometry": {"type": "Point", "coordinates": [16.3677, 48.205669444]}}, {"type": "Feature", "properties": {"painter": "Antonio Canova", "title": "Orfeo ed Euridice", "qid": "Q3885616", "form": "sculpture", "kind": "museum", "year": "1775", "location": "Museo Correr", "city": "Venice", "country": "Italy", "material": "pietra di Vicenza", "medium": "pietra di Vicenza", "image": "https://commons.wikimedia.org/wiki/Special:FilePath/%28Venice%29%20Orpheus%20and%20Eurydice%20by%20Antonio%20Canova%20-%20Museo%20Correr.jpg", "attribution": "generally accepted", "_source": {"source": "Wikidata: sculptures by Antonio Canova (Q5547)"}, "museum_id": "museo-correr", "location_src": "Museo Correr"}, "geometry": {"type": "Point", "coordinates": [12.33713, 45.43393]}}, {"type": "Feature", "properties": {"painter": "Antonio Canova", "title": "Paride", "qid": "Q3895836", "form": "sculpture", "kind": "museum", "location": "Hermitage Museum", "city": "Saint Petersburg", "country": "Russia", "material": "marble", "medium": "marble", "image": "https://commons.wikimedia.org/wiki/Special:FilePath/Antonio%20canova%2C%20paride%2C%20ermitage%2C%2001.JPG", "attribution": "generally accepted", "_source": {"source": "Wikidata: sculptures by Antonio Canova (Q5547)"}, "museum_id": "hermitage-museum", "location_src": "Hermitage Museum"}, "geometry": {"type": "Point", "coordinates": [30.31361, 59.94056]}}, {"type": "Feature", "properties": {"painter": "Antonio Canova", "title": "Perseus", "qid": "Q3900155", "form": "sculpture", "kind": "museum", "year": "1797", "location": "Vatican Museums", "city": "Vatican City", "country": "Vatican City", "material": "marble", "medium": "marble", "image": "https://commons.wikimedia.org/wiki/Special:FilePath/Persus-with-the-head-of-med.jpg", "attribution": "generally accepted", "_source": {"source": "Wikidata: sculptures by Antonio Canova (Q5547)"}, "museum_id": "vatican-museums", "location_src": "Vatican Museums"}, "geometry": {"type": "Point", "coordinates": [12.4544, 41.9064]}}, {"type": "Feature", "properties": {"painter": "Antonio Canova", "title": "Helen of Troy", "qid": "Q3985173", "form": "sculpture", "kind": "museum", "year": "1811", "location": "Hermitage Museum", "city": "Saint Petersburg", "country": "Russia", "material": "marble", "medium": "marble", "image": "https://commons.wikimedia.org/wiki/Special:FilePath/Canova%20-%20Helen%20of%20Troy%2C%20A.46-1930%2C%202019MA8629.jpg", "attribution": "generally accepted", "_source": {"source": "Wikidata: sculptures by Antonio Canova (Q5547)"}, "museum_id": "hermitage-museum", "location_src": "Hermitage Museum"}, "geometry": {"type": "Point", "coordinates": [30.31361, 59.94056]}}, {"type": "Feature", "properties": {"painter": "Antonio Canova", "title": "Dancer", "qid": "Q17628534", "form": "sculpture", "kind": "museum", "year": "2000", "location": "Bode Museum", "city": "Berlin", "country": "Germany", "material": "marble", "medium": "marble", "image": "https://commons.wikimedia.org/wiki/Special:FilePath/Canova%20Bode%20Museum%2004.JPG", "attribution": "generally accepted", "_source": {"source": "Wikidata: sculptures by Antonio Canova (Q5547)"}, "museum_id": "bode-museum", "location_src": "Bode Museum", "city_src": "Bezirk Mitte"}, "geometry": {"type": "Point", "coordinates": [13.39472, 52.52194]}}, {"type": "Feature", "properties": {"painter": "Antonio Canova", "title": "Endymion sleeping", "qid": "Q17629542", "form": "sculpture", "kind": "museum", "year": "1819", "location": "Chatsworth House", "city": "Bakewell", "country": "United Kingdom", "material": "marble", "medium": "marble", "image": "https://commons.wikimedia.org/wiki/Special:FilePath/Antonio%20Canova%2C%20Endymion%20%281%29.JPG", "attribution": "generally accepted", "_source": {"source": "Wikidata: sculptures by Antonio Canova (Q5547)"}, "museum_id": "chatsworth-house", "location_src": "Chatsworth House"}, "geometry": {"type": "Point", "coordinates": [-1.61, 53.22778]}}, {"type": "Feature", "properties": {"painter": "Antonio Canova", "title": "Ritratto di Letizia Ramolino Bonaparte", "qid": "Q17651983", "form": "sculpture", "kind": "museum", "year": "1804", "location": "Chatsworth House", "city": "Bakewell", "country": "United Kingdom", "material": "marble", "medium": "marble", "image": "https://commons.wikimedia.org/wiki/Special:FilePath/Compi%C3%A8gne%20Ch%C3%A2teau%2033.jpg", "attribution": "generally accepted", "_source": {"source": "Wikidata: sculptures by Antonio Canova (Q5547)"}, "museum_id": "chatsworth-house", "location_src": "Chatsworth House"}, "geometry": {"type": "Point", "coordinates": [-1.61, 53.22778]}}, {"type": "Feature", "properties": {"painter": "Antonio Canova", "title": "Ritratto di Maria Luigia d'Asburgo in veste di Concordia", "qid": "Q17651984", "form": "sculpture", "kind": "museum", "year": "1812", "location": "Parma National Gallery", "city": "Parma", "country": "Italy", "material": "marble", "medium": "marble", "image": "https://commons.wikimedia.org/wiki/Special:FilePath/Maria%20Luigia%20d%27Asburgo%20in%20veste%20di%20Concordia%2C%20Antonio%20Canova.jpg", "attribution": "generally accepted", "_source": {"source": "Wikidata: sculptures by Antonio Canova (Q5547)"}, "museum_id": "parma-national-gallery", "location_src": "Galleria nazionale di Parma"}, "geometry": {"type": "Point", "coordinates": [10.32586, 44.80472]}}, {"type": "Feature", "properties": {"painter": "Antonio Canova", "title": "The Three Graces", "qid": "Q19347884", "form": "sculpture", "kind": "museum", "year": "1810", "location": "Victoria and Albert Museum", "city": "London", "country": "United Kingdom", "material": "marble", "medium": "marble", "image": "https://commons.wikimedia.org/wiki/Special:FilePath/Antonio%20Canova%20%281757%E2%80%931822%29%20%E2%80%93%20The%20Three%20Graces%2C%20Woburn%20Abbey%20version%20%281814%E2%80%931817%29%20front%20close%20up%2C%20Victoria%20and%20Albert%20Museum%2C%20August%202013.png", "attribution": "generally accepted", "_source": {"source": "Wikidata: sculptures by Antonio Canova (Q5547)"}, "museum_id": "victoria-and-albert-museum", "location_src": "Victoria and Albert Museum", "city_src": "Royal Borough of Kensington and Chelsea"}, "geometry": {"type": "Point", "coordinates": [-0.17162, 51.49685]}}, {"type": "Feature", "properties": {"painter": "Antonio Canova", "title": "Paris", "qid": "Q20032140", "form": "sculpture", "kind": "museum", "year": "1812", "location": "Alte Pinakothek", "city": "Munich", "country": "Germany", "material": "marble", "medium": "marble", "image": "https://commons.wikimedia.org/wiki/Special:FilePath/Paris%20-%20Antonio%20Canova%20%28Front%29.jpg", "attribution": "generally accepted", "_source": {"source": "Wikidata: sculptures by Antonio Canova (Q5547)"}, "museum_id": "alte-pinakothek", "location_src": "Alte Pinakothek", "venue_of": "Bavarian State Painting Collections"}, "geometry": {"type": "Point", "coordinates": [11.57, 48.14833]}}, {"type": "Feature", "properties": {"painter": "Antonio Canova", "title": "Equestrian statue of Carlo III", "qid": "Q21141642", "form": "sculpture", "kind": "public", "location": "piazza del Plebiscito", "city": "Naples", "country": "Italy", "medium": "Sculpture", "image": "https://commons.wikimedia.org/wiki/Special:FilePath/Piazza%20del%20Plebiscito%20monument%20to%20Charles%20III.%20Napoli%2C%20Campania%2C%20Italy%2C%20South%20Europe.jpg", "attribution": "generally accepted", "in_situ": true, "_source": {"source": "Wikidata: sculptures by Antonio Canova (Q5547)"}, "museum_id": "piazza-del-plebiscito", "location_src": "piazza del Plebiscito"}, "geometry": {"type": "Point", "coordinates": [14.248, 40.8357]}}, {"type": "Feature", "properties": {"painter": "Antonio Canova", "title": "Venus and Adonis", "qid": "Q23642601", "form": "sculpture", "kind": "museum", "year": "1795", "location": "Museum of Art and History Geneva", "city": "Geneva", "country": "Switzerland", "material": "Carrara marble", "medium": "Carrara marble", "image": "https://commons.wikimedia.org/wiki/Special:FilePath/Antonio%20Canova-Venus%20and%20Adonis-LG%204929-IMG%209116-gradient.jpg", "attribution": "generally accepted", "_source": {"source": "Wikidata: sculptures by Antonio Canova (Q5547)"}, "museum_id": "museum-of-art-and-history-geneva", "location_src": "Museum of Art and History Geneva"}, "geometry": {"type": "Point", "coordinates": [6.15157, 46.1993]}}, {"type": "Feature", "properties": {"painter": "Antonio Canova", "title": "The three graces", "qid": "Q27031453", "form": "sculpture", "kind": "museum", "year": "1810", "location": "Hermitage Museum", "city": "Saint Petersburg", "country": "Russia", "material": "marble", "medium": "marble", "image": "https://commons.wikimedia.org/wiki/Special:FilePath/The%20Three%20Graces%20in%20the%20Hermitage%20by%20Antonio%20Canova.jpg", "attribution": "generally accepted", "_source": {"source": "Wikidata: sculptures by Antonio Canova (Q5547)"}, "museum_id": "hermitage-museum", "location_src": "Hermitage Museum"}, "geometry": {"type": "Point", "coordinates": [30.31361, 59.94056]}}, {"type": "Feature", "properties": {"painter": "Antonio Canova", "title": "Theseus and Centaur by Antonio Canova", "qid": "Q27031521", "form": "sculpture", "kind": "museum", "year": "1900", "location": "Kunsthistorisches Museum", "city": "Vienna", "country": "Austria", "material": "marble", "medium": "marble", "image": "https://commons.wikimedia.org/wiki/Special:FilePath/Theseus%20and%20Centaur%20by%20Antonio%20Canova%201.jpg", "attribution": "generally accepted", "_source": {"source": "Wikidata: sculptures by Antonio Canova (Q5547)"}, "museum_id": "kunsthistorisches-museum", "location_src": "Kunsthistorisches Museum"}, "geometry": {"type": "Point", "coordinates": [16.3616, 48.20388]}}, {"type": "Feature", "properties": {"painter": "Antonio Canova", "title": "Apollino", "qid": "Q28669553", "form": "sculpture", "kind": "museum", "year": "1797", "location": "Bologna City Art Collections", "city": "Bologna", "country": "Italy", "material": "marble", "medium": "marble", "image": "https://commons.wikimedia.org/wiki/Special:FilePath/Bologna%20Apollino%20di%20Canova.jpg", "attribution": "generally accepted", "_source": {"source": "Wikidata: sculptures by Antonio Canova (Q5547)"}, "museum_id": "bologna-city-art-collections", "location_src": "Bologna City Art Collections"}, "geometry": {"type": "Point", "coordinates": [11.3424, 44.49383]}}, {"type": "Feature", "properties": {"painter": "Antonio Canova", "title": "Perseus with the Head of Medusa", "qid": "Q29383614", "form": "sculpture", "kind": "museum", "year": "1805", "location": "Italy", "country": "Italy", "medium": "Sculpture", "image": "https://commons.wikimedia.org/wiki/Special:FilePath/Perseus%20with%20the%20Head%20of%20Medusa%20MET%20DP249451.jpg", "attribution": "generally accepted", "_source": {"source": "Wikidata: sculptures by Antonio Canova (Q5547)"}, "museum_id": "italy", "location_src": "Italy"}, "geometry": {"type": "Point", "coordinates": [12.5, 42.5]}}, {"type": "Feature", "properties": {"painter": "Antonio Canova", "title": "Winged Victory", "qid": "Q63860709", "form": "sculpture", "kind": "museum", "year": "1803", "location": "National Gallery of Art", "city": "Washington, D.C.", "country": "United States", "material": "bronze", "medium": "bronze", "image": "https://commons.wikimedia.org/wiki/Special:FilePath/Antonio%20Canova%2C%20after%20the%20Antique%2C%20Winged%20Victory%2C%20c.%201803-1806%2C%20NGA%2073399.jpg", "attribution": "generally accepted", "_source": {"source": "Wikidata: sculptures by Antonio Canova (Q5547)"}, "museum_id": "national-gallery-of-art", "location_src": "National Gallery of Art"}, "geometry": {"type": "Point", "coordinates": [-77.02, 38.89139]}}, {"type": "Feature", "properties": {"painter": "Antonio Canova", "title": "Dancer with Finger on Chin", "qid": "Q63861623", "form": "sculpture", "kind": "museum", "location": "National Gallery of Art", "city": "Washington, D.C.", "country": "United States", "material": "marble", "medium": "marble", "image": "https://commons.wikimedia.org/wiki/Special:FilePath/Antonio%20Canova%2C%20Dancer%20with%20Finger%20on%20Chin%2C%20model%201809-1814%2C%20carved%201819-1823%2C%20NGA%20127590.jpg", "attribution": "generally accepted", "_source": {"source": "Wikidata: sculptures by Antonio Canova (Q5547)"}, "museum_id": "national-gallery-of-art", "location_src": "National Gallery of Art"}, "geometry": {"type": "Point", "coordinates": [-77.02, 38.89139]}}, {"type": "Feature", "properties": {"painter": "Antonio Canova", "title": "La Zingarella", "qid": "Q29652285", "form": "sculpture", "kind": "museum", "year": "1800", "location": "Myślewicki Palace", "city": "Warsaw", "country": "Poland", "material": "marble", "medium": "marble", "image": "https://commons.wikimedia.org/wiki/Special:FilePath/Canova%20La%20Zingarella%2001.jpg", "attribution": "generally accepted", "_source": {"source": "Wikidata: sculptures by Antonio Canova (Q5547)"}, "museum_id": "myslewicki-palace", "location_src": "Myślewicki Palace"}, "geometry": {"type": "Point", "coordinates": [21.03831, 52.2155]}}, {"type": "Feature", "properties": {"painter": "Antonio Canova", "title": "Giovanni Volpatos gravstele", "qid": "Q31843821", "form": "sculpture", "kind": "church", "year": "1807", "location": "Santi Apostoli", "city": "Rome", "country": "Italy", "material": "white marble", "medium": "white marble", "image": "https://commons.wikimedia.org/wiki/Special:FilePath/Antonio%20canova%2C%20monumento%20a%20giovanni%20volpato%2C%201807%2C%2001.jpg", "attribution": "generally accepted", "_source": {"source": "Wikidata: sculptures by Antonio Canova (Q5547)"}, "museum_id": "santi-apostoli", "location_src": "Santi Apostoli", "_title_was": "Q31843821", "_title_src": "wikidata label (sv)"}, "geometry": {"type": "Point", "coordinates": [12.483205555, 41.898105555]}}, {"type": "Feature", "properties": {"painter": "Antonio Canova", "title": "Eros i Psique", "qid": "Q47285000", "form": "sculpture", "kind": "museum", "location": "Paris", "city": "Grand Paris", "country": "France", "material": "marble", "medium": "marble", "image": "https://commons.wikimedia.org/wiki/Special:FilePath/Eros%20e%20Psyche.jpg", "attribution": "generally accepted", "_source": {"source": "Wikidata: sculptures by Antonio Canova (Q5547)"}, "museum_id": "paris", "location_src": "Paris", "_title_was": "Q47285000", "_title_src": "wikidata label (ca)"}, "geometry": {"type": "Point", "coordinates": [2.35222, 48.85667]}}, {"type": "Feature", "properties": {"painter": "Antonio Canova", "title": "Terpsichore Lyran (Muse of Lyric Poetry)", "qid": "Q60780833", "form": "sculpture", "kind": "museum", "year": "1816", "location": "Cleveland Museum of Art", "city": "Cleveland", "country": "United States", "medium": "Sculpture", "image": "https://commons.wikimedia.org/wiki/Special:FilePath/Clevelandart%201968.212.jpg", "attribution": "generally accepted", "_source": {"source": "Wikidata: sculptures by Antonio Canova (Q5547)"}, "museum_id": "cleveland-museum-of-art", "location_src": "Cleveland Museum of Art"}, "geometry": {"type": "Point", "coordinates": [-81.61167, 41.50889]}}, {"type": "Feature", "properties": {"painter": "Antonio Canova", "title": "Naiad", "qid": "Q63861624", "form": "sculpture", "kind": "museum", "location": "National Gallery of Art", "city": "Washington, D.C.", "country": "United States", "material": "marble", "medium": "marble", "image": "https://commons.wikimedia.org/wiki/Special:FilePath/Antonio%20Canova%2C%20Naiad%2C%20model%201815-1817%2C%20carved%201820-1823%2C%20NGA%20127591.jpg", "attribution": "generally accepted", "_source": {"source": "Wikidata: sculptures by Antonio Canova (Q5547)"}, "museum_id": "national-gallery-of-art", "location_src": "National Gallery of Art"}, "geometry": {"type": "Point", "coordinates": [-77.02, 38.89139]}}, {"type": "Feature", "properties": {"painter": "Antonio Canova", "title": "Endymion sleeping", "qid": "Q65683834", "form": "sculpture", "kind": "museum", "year": "1819", "location": "Gipsoteca canoviana", "city": "Possagno", "country": "Italy", "material": "plaster", "medium": "plaster", "image": "https://commons.wikimedia.org/wiki/Special:FilePath/Lune%20Grand%20Palais%20-%20Endymion%20endormi%20-%20Canova%2001.jpg", "attribution": "generally accepted", "_source": {"source": "Wikidata: sculptures by Antonio Canova (Q5547)"}, "museum_id": "gipsoteca-canoviana", "location_src": "Gipsoteca canoviana"}, "geometry": {"type": "Point", "coordinates": [11.87491, 45.85175]}}, {"type": "Feature", "properties": {"painter": "Antonio Canova", "title": "Head of Venus Italica", "qid": "Q105095990", "form": "sculpture", "kind": "museum", "year": "1800", "location": "Vanderbilt Museum of Art", "city": "Nashville", "country": "United States", "medium": "Sculpture", "image": "https://commons.wikimedia.org/wiki/Special:FilePath/Head%20of%20Venus%20Italica%20-%20Vanderbilt%20Fine%20Arts%20Gallery%20-%201976.002.jpg", "attribution": "generally accepted", "_source": {"source": "Wikidata: sculptures by Antonio Canova (Q5547)"}, "museum_id": "vanderbilt-museum-of-art", "location_src": "Vanderbilt Museum of Art"}, "geometry": {"type": "Point", "coordinates": [-86.80139, 36.14583]}}, {"type": "Feature", "properties": {"painter": "Antonio Canova", "title": "Bust of Jérôme Bonaparte by Antonio Canova", "qid": "Q106555417", "form": "sculpture", "kind": "museum", "year": "1800", "location": "Museum of Patriotic War 1812", "city": "Moscow", "country": "Russia", "material": "marble", "medium": "marble", "image": "https://commons.wikimedia.org/wiki/Special:FilePath/Bust%20of%20J%C3%A9r%C3%B4me%20Bonaparte%2001.jpg", "attribution": "generally accepted", "_source": {"source": "Wikidata: sculptures by Antonio Canova (Q5547)"}, "museum_id": "museum-of-patriotic-war-1812", "location_src": "Museum of Patriotic War 1812"}, "geometry": {"type": "Point", "coordinates": [37.61844, 55.75629]}}, {"type": "Feature", "properties": {"painter": "Antonio Canova", "title": "Bust of Joseph Bonaparte by Antonio Canova", "qid": "Q106557823", "form": "sculpture", "kind": "museum", "year": "1800", "location": "Museum of Patriotic War 1812", "city": "Moscow", "country": "Russia", "material": "marble", "medium": "marble", "image": "https://commons.wikimedia.org/wiki/Special:FilePath/Bust%20of%20Joseph%20Bonaparte%20by%20Antonio%20Canova%2001.jpg", "attribution": "generally accepted", "_source": {"source": "Wikidata: sculptures by Antonio Canova (Q5547)"}, "museum_id": "museum-of-patriotic-war-1812", "location_src": "Museum of Patriotic War 1812"}, "geometry": {"type": "Point", "coordinates": [37.61844, 55.75629]}}, {"type": "Feature", "properties": {"painter": "Antonio Canova", "title": "Bust of Caroline Bonaparte by Antonio Canova", "qid": "Q106558897", "form": "sculpture", "kind": "museum", "year": "1800", "location": "Museum of Patriotic War 1812", "city": "Moscow", "country": "Russia", "material": "marble", "medium": "marble", "image": "https://commons.wikimedia.org/wiki/Special:FilePath/Bust%20of%20Caroline%20Bonaparte%20by%20Antonio%20Canova.jpg", "attribution": "generally accepted", "_source": {"source": "Wikidata: sculptures by Antonio Canova (Q5547)"}, "museum_id": "museum-of-patriotic-war-1812", "location_src": "Museum of Patriotic War 1812"}, "geometry": {"type": "Point", "coordinates": [37.61844, 55.75629]}}, {"type": "Feature", "properties": {"painter": "Antonio Canova", "title": "Bust of Joachim Murat by Antonio Canova", "qid": "Q106559097", "form": "sculpture", "kind": "museum", "year": "1800", "location": "Museum of Patriotic War 1812", "city": "Moscow", "country": "Russia", "material": "marble", "medium": "marble", "image": "https://commons.wikimedia.org/wiki/Special:FilePath/Bust%20of%20Joachim%20Murat%20by%20Antonio%20Canova.jpg", "attribution": "generally accepted", "_source": {"source": "Wikidata: sculptures by Antonio Canova (Q5547)"}, "museum_id": "museum-of-patriotic-war-1812", "location_src": "Museum of Patriotic War 1812"}, "geometry": {"type": "Point", "coordinates": [37.61844, 55.75629]}}, {"type": "Feature", "properties": {"painter": "Antonio Canova", "title": "Bust of Pauline Bonaparte by Antonio Canova", "qid": "Q106562367", "form": "sculpture", "kind": "museum", "year": "1800", "location": "Museum of Patriotic War 1812", "city": "Moscow", "country": "Russia", "material": "marble", "medium": "marble", "image": "https://commons.wikimedia.org/wiki/Special:FilePath/Bust%20of%20Pauline%20Bonaparte%20by%20Antonio%20Canova.jpg", "attribution": "generally accepted", "_source": {"source": "Wikidata: sculptures by Antonio Canova (Q5547)"}, "museum_id": "museum-of-patriotic-war-1812", "location_src": "Museum of Patriotic War 1812"}, "geometry": {"type": "Point", "coordinates": [37.61844, 55.75629]}}, {"type": "Feature", "properties": {"painter": "Antonio Canova", "title": "Standing Psyche and Love", "qid": "Q110400211", "form": "sculpture", "kind": "museum", "year": "1797", "location": "Louvre", "country": "France", "material": "Carrara marble", "medium": "Carrara marble", "image": "https://commons.wikimedia.org/wiki/Special:FilePath/Standing%20Psyche%20and%20Love%2C%20Louvre.jpg", "attribution": "generally accepted", "_source": {"source": "Wikidata: sculptures by Antonio Canova (Q5547)"}, "museum_id": "louvre", "location_src": "Department of Sculptures of the Louvre", "city": "Paris"}, "geometry": {"type": "Point", "coordinates": [2.3358, 48.8611]}}, {"type": "Feature", "properties": {"painter": "Antonio Canova", "title": "Canto de la cosechadora", "qid": "Q111696580", "form": "sculpture", "kind": "museum", "location": "Buenos Aires Botanical Garden", "city": "Buenos Aires", "country": "Argentina", "material": "marble", "medium": "marble", "image": "https://commons.wikimedia.org/wiki/Special:FilePath/Canto%20de%20la%20cosechadora%202021.jpg", "attribution": "generally accepted", "_source": {"source": "Wikidata: sculptures by Antonio Canova (Q5547)"}, "museum_id": "buenos-aires-botanical-garden", "location_src": "Buenos Aires Botanical Garden"}, "geometry": {"type": "Point", "coordinates": [-58.41788, -34.58373]}}, {"type": "Feature", "properties": {"painter": "Antonio Canova", "title": "Piédestal cylindrique avec base et corniche sculptées de l'Amour et Psyché", "qid": "Q115727588", "form": "sculpture", "kind": "museum", "year": "1797", "location": "Louvre", "country": "France", "material": "metal", "medium": "metal", "attribution": "generally accepted", "_source": {"source": "Wikidata: sculptures by Antonio Canova (Q5547)"}, "museum_id": "louvre", "location_src": "Department of Sculptures of the Louvre", "city": "Paris", "_title_was": "Q115727588", "_title_src": "wikidata label (fr)"}, "geometry": {"type": "Point", "coordinates": [2.3358, 48.8611]}}, {"type": "Feature", "properties": {"painter": "Antonio Canova", "title": "James Smithson Memorial Tablet", "qid": "Q116810571", "form": "sculpture", "kind": "museum", "location": "Smithsonian American Art Museum", "city": "Washington, D.C.", "country": "United States", "material": "plaster", "medium": "plaster", "image": "https://commons.wikimedia.org/wiki/Special:FilePath/James%20Smithson%20Memorial%20Tablet%20SAAM-1969.193%201.jpg", "attribution": "generally accepted", "_source": {"source": "Wikidata: sculptures by Antonio Canova (Q5547)"}, "museum_id": "smithsonian-american-art-museum", "location_src": "Smithsonian American Art Museum"}, "geometry": {"type": "Point", "coordinates": [-77.02333, 38.89778]}}, {"type": "Feature", "properties": {"painter": "Antonio Canova", "title": "Une Muse", "qid": "Q117834829", "form": "sculpture", "kind": "museum", "year": "1811", "location": "Musée Fabre", "city": "Montpellier", "country": "France", "material": "marble", "medium": "marble", "image": "https://commons.wikimedia.org/wiki/Special:FilePath/Canova%20-%20Une%20Muse%2C%201811%2C%20825.1.246.jpg", "attribution": "generally accepted", "_source": {"source": "Wikidata: sculptures by Antonio Canova (Q5547)"}, "museum_id": "musee-fabre", "location_src": "Musée Fabre"}, "geometry": {"type": "Point", "coordinates": [3.88019, 43.61174]}}, {"type": "Feature", "properties": {"painter": "Antonio Canova", "title": "Venus Italica", "qid": "Q121790161", "form": "sculpture", "kind": "museum", "year": "1807", "location": "Museum of Art and History Geneva", "city": "Geneva", "country": "Switzerland", "material": "plaster", "medium": "plaster", "image": "https://commons.wikimedia.org/wiki/Special:FilePath/Venus%20Italica-Antonio%20Canova-MAHG%201846-0003-IMG%208876.JPG", "attribution": "generally accepted", "_source": {"source": "Wikidata: sculptures by Antonio Canova (Q5547)"}, "museum_id": "museum-of-art-and-history-geneva", "location_src": "Museum of Art and History Geneva"}, "geometry": {"type": "Point", "coordinates": [6.15157, 46.1993]}}, {"type": "Feature", "properties": {"painter": "Antonio Canova", "title": "Herm of a Vestal Virgin", "qid": "Q123783714", "form": "sculpture", "kind": "museum", "year": "1820", "location": "Getty Center", "city": "Los Angeles", "country": "United States", "material": "marble", "medium": "marble", "image": "https://commons.wikimedia.org/wiki/Special:FilePath/Canova%20-%20Herm%20of%20a%20Vestal%20Virgin%2C%201821%E2%80%931822%2C%2085.SA.353.jpg", "attribution": "generally accepted", "_source": {"source": "Wikidata: sculptures by Antonio Canova (Q5547)"}, "museum_id": "getty-center", "location_src": "Getty Center", "venue_of": "J. Paul Getty Museum"}, "geometry": {"type": "Point", "coordinates": [-118.475, 34.0775]}}, {"type": "Feature", "properties": {"painter": "Antonio Canova", "title": "Le Pape Clément XIII", "qid": "Q124693548", "form": "sculpture", "kind": "museum", "year": "1787", "location": "Nantes Museum of Arts", "city": "Nantes", "country": "France", "material": "plaster", "medium": "plaster", "image": "https://commons.wikimedia.org/wiki/Special:FilePath/Mus%C3%A9e%20d%27arts%20de%20Nantes%20-%20166%20-%20Le%20Pape%20Cl%C3%A9ment%20XIII%2C%20Antonio%20Canova%2C%201787.jpg", "attribution": "generally accepted", "_source": {"source": "Wikidata: sculptures by Antonio Canova (Q5547)"}, "museum_id": "nantes-museum-of-arts", "location_src": "Nantes Museum of Arts", "_title_was": "Q124693548", "_title_src": "wikidata label (fr)"}, "geometry": {"type": "Point", "coordinates": [-1.54722, 47.21944]}}, {"type": "Feature", "properties": {"painter": "Antonio Canova", "title": "Bust of Leopoldo Cicognara", "qid": "Q125775047", "form": "sculpture", "kind": "museum", "location": "Musei civici di arte antica - Palazzo Schifanoia", "city": "Ferrara", "country": "Italy", "medium": "Sculpture", "image": "https://commons.wikimedia.org/wiki/Special:FilePath/Antonio%20Canova%2C%20Busto%20di%20Leopoldo%20Cicognara%2C%20Musei%20civici%20Arte%20Antica%20-%20palazzo%20Schifanoia%20%28Ferrara%29%200.jpg", "attribution": "generally accepted", "_source": {"source": "Wikidata: sculptures by Antonio Canova (Q5547)"}, "museum_id": "musei-civici-di-arte-antica-palazzo-schifanoia", "location_src": "Musei civici di arte antica - Palazzo Schifanoia"}, "geometry": {"type": "Point", "coordinates": [11.62927, 44.83037]}}, {"type": "Feature", "properties": {"painter": "Antonio Canova", "title": "Tomb of Vittorio Alfieri", "qid": "Q126003986", "form": "sculpture", "kind": "church", "location": "Basilica of Santa Croce", "city": "Florence", "country": "Italy", "medium": "Sculpture", "image": "https://commons.wikimedia.org/wiki/Special:FilePath/Florence%2C%20Santa%20Croce%2C%20Antonio%20Canova%2C%20tomb%20of%20Vittorio%20Alfieri%2C%201810.jpg", "attribution": "generally accepted", "_source": {"source": "Wikidata: sculptures by Antonio Canova (Q5547)"}, "museum_id": "basilica-of-santa-croce", "location_src": "Basilica of Santa Croce"}, "geometry": {"type": "Point", "coordinates": [11.26274, 43.76845]}}, {"type": "Feature", "properties": {"painter": "Antonio Canova", "title": "Ferdinand I of Bourbon as Athena", "qid": "Q126727119", "form": "sculpture", "kind": "museum", "location": "Naples National Archaeological Museum", "city": "Naples", "country": "Italy", "medium": "Sculpture", "attribution": "generally accepted", "_source": {"source": "Wikidata: sculptures by Antonio Canova (Q5547)"}, "museum_id": "naples-national-archaeological-museum", "location_src": "Naples National Archaeological Museum"}, "geometry": {"type": "Point", "coordinates": [14.25056, 40.85361]}}, {"type": "Feature", "properties": {"painter": "Antonio Canova", "title": "Saint George", "qid": "Q127508672", "form": "sculpture", "kind": "museum", "location": "Doge's Palace", "city": "Venice", "country": "Italy", "medium": "Sculpture", "image": "https://commons.wikimedia.org/wiki/Special:FilePath/Palazzo%20Ducale%2C%20Venice%20%2830641967520%29.jpg", "attribution": "generally accepted", "_source": {"source": "Wikidata: sculptures by Antonio Canova (Q5547)"}, "museum_id": "doge-s-palace", "location_src": "Doge's Palace"}, "geometry": {"type": "Point", "coordinates": [12.34042, 45.43367]}}, {"type": "Feature", "properties": {"painter": "Antonio Canova", "title": "Letizia Ramolino Bonaparte", "qid": "Q127788811", "form": "sculpture", "kind": "museum", "location": "Museo di Capodimonte", "city": "Naples", "country": "Italy", "material": "gesso", "medium": "gesso", "image": "https://commons.wikimedia.org/wiki/Special:FilePath/Antonio%20canova%2C%20ritratto%20di%20letizia%20ramolino%20bonaparte%2C%20gesso%2002.JPG", "attribution": "generally accepted", "_source": {"source": "Wikidata: sculptures by Antonio Canova (Q5547)"}, "museum_id": "museo-di-capodimonte", "location_src": "Museo di Capodimonte"}, "geometry": {"type": "Point", "coordinates": [14.25053, 40.86701]}}, {"type": "Feature", "properties": {"painter": "Antonio Canova", "title": "Tersicore", "qid": "Q130314462", "form": "sculpture", "kind": "museum", "year": "1811", "location": "Fondazione Magnani-Rocca", "city": "Traversetolo", "country": "Italy", "medium": "Sculpture", "image": "https://commons.wikimedia.org/wiki/Special:FilePath/Antonio%20Canova%2C%20Tersicore%2C%20Traversetolo%20-%20Fondazione%20Magnani-Rocca%20-%202024-09-15%2019-06-10%20001.JPG", "attribution": "generally accepted", "_source": {"source": "Wikidata: sculptures by Antonio Canova (Q5547)"}, "museum_id": "fondazione-magnani-rocca", "location_src": "Fondazione Magnani-Rocca"}, "geometry": {"type": "Point", "coordinates": [10.34847, 44.66765]}}, {"type": "Feature", "properties": {"painter": "Antonio Canova", "title": "Bust of Napoleon", "qid": "Q131542561", "form": "sculpture", "kind": "museum", "location": "Gallerie dell'Accademia", "city": "Venice", "country": "Italy", "medium": "Sculpture", "attribution": "generally accepted", "_source": {"source": "Wikidata: sculptures by Antonio Canova (Q5547)"}, "museum_id": "gallerie-dell-accademia", "location_src": "Gallerie dell'Accademia"}, "geometry": {"type": "Point", "coordinates": [12.32814, 45.43108]}}, {"type": "Feature", "properties": {"painter": "Antonio Canova", "title": "Apollo", "qid": "Q131543584", "form": "sculpture", "kind": "museum", "location": "Gallerie dell'Accademia", "city": "Venice", "country": "Italy", "medium": "Sculpture", "attribution": "generally accepted", "_source": {"source": "Wikidata: sculptures by Antonio Canova (Q5547)"}, "museum_id": "gallerie-dell-accademia", "location_src": "Gallerie dell'Accademia"}, "geometry": {"type": "Point", "coordinates": [12.32814, 45.43108]}}, {"type": "Feature", "properties": {"painter": "Antonio Canova", "title": "Bust of Francis I", "qid": "Q131543694", "form": "sculpture", "kind": "museum", "location": "Gipsoteca canoviana", "city": "Possagno", "country": "Italy", "medium": "Sculpture", "attribution": "generally accepted", "_source": {"source": "Wikidata: sculptures by Antonio Canova (Q5547)"}, "museum_id": "gipsoteca-canoviana", "location_src": "Gipsoteca canoviana"}, "geometry": {"type": "Point", "coordinates": [11.87491, 45.85175]}}, {"type": "Feature", "properties": {"painter": "Antonio Canova", "title": "Bust of Francis I", "qid": "Q131543696", "form": "sculpture", "kind": "museum", "location": "Bassano Civic Museum", "city": "Bassano del Grappa", "country": "Italy", "medium": "Sculpture", "attribution": "generally accepted", "_source": {"source": "Wikidata: sculptures by Antonio Canova (Q5547)"}, "museum_id": "bassano-civic-museum", "location_src": "Bassano Civic Museum"}, "geometry": {"type": "Point", "coordinates": [11.7352, 45.76642]}}, {"type": "Feature", "properties": {"painter": "Antonio Canova", "title": "Funeral stele of Willem George d'Orange", "qid": "Q131557343", "form": "sculpture", "kind": "museum", "location": "Gallerie dell'Accademia", "city": "Venice", "country": "Italy", "medium": "Sculpture", "attribution": "generally accepted", "_source": {"source": "Wikidata: sculptures by Antonio Canova (Q5547)"}, "museum_id": "gallerie-dell-accademia", "location_src": "Gallerie dell'Accademia"}, "geometry": {"type": "Point", "coordinates": [12.32814, 45.43108]}}, {"type": "Feature", "properties": {"painter": "Antonio Canova", "title": "Model of the monument to Titian", "qid": "Q131559193", "form": "sculpture", "kind": "museum", "year": "1790", "location": "Gallerie dell'Accademia", "city": "Venice", "country": "Italy", "material": "wood", "medium": "wood", "attribution": "generally accepted", "_source": {"source": "Wikidata: sculptures by Antonio Canova (Q5547)"}, "museum_id": "gallerie-dell-accademia", "location_src": "Gallerie dell'Accademia"}, "geometry": {"type": "Point", "coordinates": [12.32814, 45.43108]}}, {"type": "Feature", "properties": {"painter": "Antonio Canova", "title": "Theseus defeating the Centaur", "qid": "Q131561685", "form": "sculpture", "kind": "museum", "location": "Gipsoteca canoviana", "city": "Possagno", "country": "Italy", "medium": "Sculpture", "attribution": "generally accepted", "_source": {"source": "Wikidata: sculptures by Antonio Canova (Q5547)"}, "museum_id": "gipsoteca-canoviana", "location_src": "Gipsoteca canoviana"}, "geometry": {"type": "Point", "coordinates": [11.87491, 45.85175]}}, {"type": "Feature", "properties": {"painter": "Antonio Canova", "title": "Venus Italica", "qid": "Q131604563", "form": "sculpture", "kind": "museum", "location": "Metropolitan Museum of Art", "city": "New York", "country": "United States", "medium": "Sculpture", "attribution": "generally accepted", "_source": {"source": "Wikidata: sculptures by Antonio Canova (Q5547)"}, "museum_id": "metropolitan-museum-of-art", "location_src": "Metropolitan Museum of Art"}, "geometry": {"type": "Point", "coordinates": [-73.9631, 40.7794]}}, {"type": "Feature", "properties": {"painter": "Antonio Canova", "title": "Venus Italica", "qid": "Q131604564", "form": "sculpture", "kind": "museum", "location": "Museo Correr", "city": "Venice", "country": "Italy", "medium": "Sculpture", "attribution": "generally accepted", "_source": {"source": "Wikidata: sculptures by Antonio Canova (Q5547)"}, "museum_id": "museo-correr", "location_src": "Museo Correr"}, "geometry": {"type": "Point", "coordinates": [12.33713, 45.43393]}}, {"type": "Feature", "properties": {"painter": "Antonio Canova", "title": "Vestale", "qid": "Q131604576", "form": "sculpture", "kind": "museum", "location": "Galleria d'arte moderna di Milano", "city": "Milan", "country": "Italy", "medium": "Sculpture", "attribution": "generally accepted", "_source": {"source": "Wikidata: sculptures by Antonio Canova (Q5547)"}, "museum_id": "galleria-d-arte-moderna-di-milano", "location_src": "Galleria d'arte moderna di Milano"}, "geometry": {"type": "Point", "coordinates": [9.19972, 45.4725]}}, {"type": "Feature", "properties": {"painter": "Antonio Canova", "title": "Hebe", "qid": "Q131613638", "form": "sculpture", "kind": "museum", "location": "Galleria d'arte moderna di Milano", "city": "Milan", "country": "Italy", "medium": "Sculpture", "attribution": "generally accepted", "_source": {"source": "Wikidata: sculptures by Antonio Canova (Q5547)"}, "museum_id": "galleria-d-arte-moderna-di-milano", "location_src": "Galleria d'arte moderna di Milano"}, "geometry": {"type": "Point", "coordinates": [9.19972, 45.4725]}}, {"type": "Feature", "properties": {"painter": "Antonio Canova", "title": "Wrestlers", "qid": "Q131613725", "form": "sculpture", "kind": "museum", "location": "Gallerie dell'Accademia", "city": "Venice", "country": "Italy", "medium": "Sculpture", "attribution": "generally accepted", "_source": {"source": "Wikidata: sculptures by Antonio Canova (Q5547)"}, "museum_id": "gallerie-dell-accademia", "location_src": "Gallerie dell'Accademia"}, "geometry": {"type": "Point", "coordinates": [12.32814, 45.43108]}}, {"type": "Feature", "properties": {"painter": "Antonio Canova", "title": "Madame Letizia Bonaparte", "qid": "Q131613728", "form": "sculpture", "kind": "museum", "location": "Gallerie dell'Accademia", "city": "Venice", "country": "Italy", "medium": "Sculpture", "attribution": "generally accepted", "_source": {"source": "Wikidata: sculptures by Antonio Canova (Q5547)"}, "museum_id": "gallerie-dell-accademia", "location_src": "Gallerie dell'Accademia"}, "geometry": {"type": "Point", "coordinates": [12.32814, 45.43108]}}, {"type": "Feature", "properties": {"painter": "Antonio Canova", "title": "The Vestal", "qid": "Q131613965", "form": "sculpture", "kind": "museum", "location": "Metropolitan Museum of Art", "city": "New York", "country": "United States", "medium": "Sculpture", "attribution": "generally accepted", "_source": {"source": "Wikidata: sculptures by Antonio Canova (Q5547)"}, "museum_id": "metropolitan-museum-of-art", "location_src": "Metropolitan Museum of Art"}, "geometry": {"type": "Point", "coordinates": [-73.9631, 40.7794]}}, {"type": "Feature", "properties": {"painter": "Antonio Canova", "title": "Statue of Napoleon Bonaparte", "qid": "Q131676022", "form": "sculpture", "kind": "museum", "location": "Pinacoteca di Brera", "city": "Milan", "country": "Italy", "medium": "Sculpture", "attribution": "generally accepted", "_source": {"source": "Wikidata: sculptures by Antonio Canova (Q5547)"}, "museum_id": "pinacoteca-di-brera", "location_src": "Pinacoteca di Brera"}, "geometry": {"type": "Point", "coordinates": [9.18782, 45.47196]}}, {"type": "Feature", "properties": {"painter": "Antonio Canova", "title": "Dance of the Children of Alcinous", "qid": "Q131719678", "form": "sculpture", "kind": "museum", "location": "Museo Correr", "city": "Venice", "country": "Italy", "medium": "Sculpture", "attribution": "generally accepted", "_source": {"source": "Wikidata: sculptures by Antonio Canova (Q5547)"}, "museum_id": "museo-correr", "location_src": "Museo Correr"}, "geometry": {"type": "Point", "coordinates": [12.33713, 45.43393]}}, {"type": "Feature", "properties": {"painter": "Antonio Canova", "title": "Death of Priam", "qid": "Q131719689", "form": "sculpture", "kind": "museum", "location": "Gallerie dell'Accademia", "city": "Venice", "country": "Italy", "medium": "Sculpture", "attribution": "generally accepted", "_source": {"source": "Wikidata: sculptures by Antonio Canova (Q5547)"}, "museum_id": "gallerie-dell-accademia", "location_src": "Gallerie dell'Accademia"}, "geometry": {"type": "Point", "coordinates": [12.32814, 45.43108]}}, {"type": "Feature", "properties": {"painter": "Antonio Canova", "title": "Socrates discharges the Family", "qid": "Q131719721", "form": "sculpture", "kind": "museum", "location": "Gallerie dell'Accademia", "city": "Venice", "country": "Italy", "medium": "Sculpture", "attribution": "generally accepted", "_source": {"source": "Wikidata: sculptures by Antonio Canova (Q5547)"}, "museum_id": "gallerie-dell-accademia", "location_src": "Gallerie dell'Accademia"}, "geometry": {"type": "Point", "coordinates": [12.32814, 45.43108]}}, {"type": "Feature", "properties": {"painter": "Antonio Canova", "title": "lions of the Tomb of Clement XIII", "qid": "Q131628784", "form": "sculpture", "kind": "museum", "location": "Gallerie dell'Accademia", "city": "Venice", "country": "Italy", "medium": "Sculpture", "attribution": "generally accepted", "_source": {"source": "Wikidata: sculptures by Antonio Canova (Q5547)"}, "museum_id": "gallerie-dell-accademia", "location_src": "Gallerie dell'Accademia"}, "geometry": {"type": "Point", "coordinates": [12.32814, 45.43108]}}, {"type": "Feature", "properties": {"painter": "Antonio Canova", "title": "Terracotta sketch of Cupid and Psyche", "qid": "Q131632021", "form": "sculpture", "kind": "museum", "year": "1787", "location": "Museo Correr", "city": "Venice", "country": "Italy", "medium": "Sculpture", "attribution": "generally accepted", "_source": {"source": "Wikidata: sculptures by Antonio Canova (Q5547)"}, "museum_id": "museo-correr", "location_src": "Museo Correr"}, "geometry": {"type": "Point", "coordinates": [12.33713, 45.43393]}}, {"type": "Feature", "properties": {"painter": "Antonio Canova", "title": "Creugas", "qid": "Q131674349", "form": "sculpture", "kind": "museum", "location": "Gallerie dell'Accademia", "city": "Venice", "country": "Italy", "medium": "Sculpture", "attribution": "generally accepted", "_source": {"source": "Wikidata: sculptures by Antonio Canova (Q5547)"}, "museum_id": "gallerie-dell-accademia", "location_src": "Gallerie dell'Accademia"}, "geometry": {"type": "Point", "coordinates": [12.32814, 45.43108]}}, {"type": "Feature", "properties": {"painter": "Antonio Canova", "title": "Self-portrait", "qid": "Q131748779", "form": "sculpture", "kind": "museum", "location": "Bassano Civic Museum", "city": "Bassano del Grappa", "country": "Italy", "medium": "Sculpture", "attribution": "generally accepted", "_source": {"source": "Wikidata: sculptures by Antonio Canova (Q5547)"}, "museum_id": "bassano-civic-museum", "location_src": "Bassano Civic Museum"}, "geometry": {"type": "Point", "coordinates": [11.7352, 45.76642]}}, {"type": "Feature", "properties": {"painter": "Antonio Canova", "title": "Self-portrait", "qid": "Q131748780", "form": "sculpture", "kind": "museum", "location": "Museo Correr", "city": "Venice", "country": "Italy", "medium": "Sculpture", "attribution": "generally accepted", "_source": {"source": "Wikidata: sculptures by Antonio Canova (Q5547)"}, "museum_id": "museo-correr", "location_src": "Museo Correr"}, "geometry": {"type": "Point", "coordinates": [12.33713, 45.43393]}}, {"type": "Feature", "properties": {"painter": "Antonio Canova", "title": "Bust of Helen", "qid": "Q131753923", "form": "sculpture", "kind": "museum", "year": "1811", "location": "Gallerie dell'Accademia", "city": "Venice", "country": "Italy", "medium": "Sculpture", "image": "https://commons.wikimedia.org/wiki/Special:FilePath/%28Venise%29%20Elena%20-%20Antonio%20Canova%20-%20gallerie%20Accademia%20Venice.jpg", "attribution": "generally accepted", "_source": {"source": "Wikidata: sculptures by Antonio Canova (Q5547)"}, "museum_id": "gallerie-dell-accademia", "location_src": "Gallerie dell'Accademia"}, "geometry": {"type": "Point", "coordinates": [12.32814, 45.43108]}}, {"type": "Feature", "properties": {"painter": "Antonio Canova", "title": "Eurydice", "qid": "Q131753949", "form": "sculpture", "kind": "museum", "location": "Museo Correr", "city": "Venice", "country": "Italy", "medium": "Sculpture", "image": "https://commons.wikimedia.org/wiki/Special:FilePath/%28Venice%29%20Eurydice%20by%20Antonio%20Canova%20-%20Museo%20Correr.jpg", "attribution": "generally accepted", "_source": {"source": "Wikidata: sculptures by Antonio Canova (Q5547)"}, "museum_id": "museo-correr", "location_src": "Museo Correr"}, "geometry": {"type": "Point", "coordinates": [12.33713, 45.43393]}}, {"type": "Feature", "properties": {"painter": "Antonio Canova", "title": "Funeral stele of Giovanni Volpato", "qid": "Q131812943", "form": "sculpture", "kind": "museum", "location": "Gallerie dell'Accademia", "city": "Venice", "country": "Italy", "medium": "Sculpture", "attribution": "generally accepted", "_source": {"source": "Wikidata: sculptures by Antonio Canova (Q5547)"}, "museum_id": "gallerie-dell-accademia", "location_src": "Gallerie dell'Accademia"}, "geometry": {"type": "Point", "coordinates": [12.32814, 45.43108]}}, {"type": "Feature", "properties": {"painter": "Antonio Canova", "title": "Funeral stele of Giovanni Falier", "qid": "Q131812941", "form": "sculpture", "kind": "museum", "location": "Gallerie dell'Accademia", "city": "Venice", "country": "Italy", "medium": "Sculpture", "attribution": "generally accepted", "_source": {"source": "Wikidata: sculptures by Antonio Canova (Q5547)"}, "museum_id": "gallerie-dell-accademia", "location_src": "Gallerie dell'Accademia"}, "geometry": {"type": "Point", "coordinates": [12.32814, 45.43108]}}, {"type": "Feature", "properties": {"painter": "Antonio Canova", "title": "Funerary stele of Alexandre de Souza Holstein", "qid": "Q131812955", "form": "sculpture", "kind": "museum", "location": "Gallerie dell'Accademia", "city": "Venice", "country": "Italy", "medium": "Sculpture", "attribution": "generally accepted", "_source": {"source": "Wikidata: sculptures by Antonio Canova (Q5547)"}, "museum_id": "gallerie-dell-accademia", "location_src": "Gallerie dell'Accademia"}, "geometry": {"type": "Point", "coordinates": [12.32814, 45.43108]}}, {"type": "Feature", "properties": {"painter": "Antonio Canova", "title": "Hecuba offers the peplum to Athena Pallas", "qid": "Q131825301", "form": "sculpture", "kind": "museum", "location": "Museo Correr", "city": "Venice", "country": "Italy", "material": "gypsum", "medium": "gypsum", "image": "https://commons.wikimedia.org/wiki/Special:FilePath/%28Venice%29%20Ecuba%20e%20le%20donne%20troiane%20offrono%20il%20peplo%20a%20pallade%20-%20Antonio%20Canova%20-%20Museo%20Correr.jpg", "attribution": "generally accepted", "_source": {"source": "Wikidata: sculptures by Antonio Canova (Q5547)"}, "museum_id": "museo-correr", "location_src": "Museo Correr"}, "geometry": {"type": "Point", "coordinates": [12.33713, 45.43393]}}, {"type": "Feature", "properties": {"painter": "Antonio Canova", "title": "Herm of Sappho", "qid": "Q131825311", "form": "sculpture", "kind": "museum", "location": "Turin Civic Gallery of Modern and Contemporary Art", "city": "Turin", "country": "Italy", "medium": "Sculpture", "attribution": "generally accepted", "_source": {"source": "Wikidata: sculptures by Antonio Canova (Q5547)"}, "museum_id": "turin-civic-gallery-of-modern-and-contemporary-art", "location_src": "Turin Civic Gallery of Modern and Contemporary Art"}, "geometry": {"type": "Point", "coordinates": [7.66931, 45.06507]}}, {"type": "Feature", "properties": {"painter": "Antonio Canova", "title": "Orpheus", "qid": "Q132166265", "form": "sculpture", "kind": "museum", "location": "Museo Correr", "city": "Venice", "country": "Italy", "medium": "Sculpture", "attribution": "generally accepted", "_source": {"source": "Wikidata: sculptures by Antonio Canova (Q5547)"}, "museum_id": "museo-correr", "location_src": "Museo Correr"}, "geometry": {"type": "Point", "coordinates": [12.33713, 45.43393]}}, {"type": "Feature", "properties": {"painter": "Antonio Canova", "title": "Paris", "qid": "Q132247445", "form": "sculpture", "kind": "museum", "location": "Gallerie dell'Accademia", "city": "Venice", "country": "Italy", "medium": "Sculpture", "attribution": "generally accepted", "_source": {"source": "Wikidata: sculptures by Antonio Canova (Q5547)"}, "museum_id": "gallerie-dell-accademia", "location_src": "Gallerie dell'Accademia"}, "geometry": {"type": "Point", "coordinates": [12.32814, 45.43108]}}, {"type": "Feature", "properties": {"painter": "Antonio Canova", "title": "Original model for the statue for Letizia Bonaparte", "qid": "Q132397618", "form": "sculpture", "kind": "museum", "year": "1804", "location": "Pinacoteca Querini Stampalia", "city": "Venice", "country": "Italy", "medium": "Sculpture", "attribution": "generally accepted", "_source": {"source": "Wikidata: sculptures by Antonio Canova (Q5547)"}, "museum_id": "pinacoteca-querini-stampalia", "location_src": "Pinacoteca Querini Stampalia"}, "geometry": {"type": "Point", "coordinates": [12.34107, 45.43642]}}, {"type": "Feature", "properties": {"painter": "Antonio Canova", "title": "Psyche revived terracotta", "qid": "Q132397685", "form": "sculpture", "kind": "museum", "location": "Metropolitan Museum of Art", "city": "New York", "country": "United States", "medium": "Sculpture", "attribution": "generally accepted", "_source": {"source": "Wikidata: sculptures by Antonio Canova (Q5547)"}, "museum_id": "metropolitan-museum-of-art", "location_src": "Metropolitan Museum of Art"}, "geometry": {"type": "Point", "coordinates": [-73.9631, 40.7794]}}, {"type": "Feature", "properties": {"painter": "Antonio Canova", "title": "Head of an old man", "qid": "Q135670722", "form": "sculpture", "kind": "museum", "year": "1850", "location": "Bologna City Art Collections", "city": "Bologna", "country": "Italy", "material": "marble, terracotta", "medium": "marble, terracotta", "image": "https://commons.wikimedia.org/wiki/Special:FilePath/Antonio%20Canova%2C%20Testa%20di%20vecchio%2C%20Collezioni%20Comunali%20d%27Arte%20di%20Bologna%20abc1.jpg", "attribution": "generally accepted", "_source": {"source": "Wikidata: sculptures by Antonio Canova (Q5547)"}, "museum_id": "bologna-city-art-collections", "location_src": "Bologna City Art Collections"}, "geometry": {"type": "Point", "coordinates": [11.3424, 44.49383]}}, {"type": "Feature", "properties": {"painter": "Antonio Canova", "title": "Palamedes", "qid": "Q136449762", "form": "sculpture", "kind": "museum", "year": "1803", "location": "Tremezzo", "city": "Tremezzina", "country": "Italy", "material": "marble", "medium": "marble", "image": "https://commons.wikimedia.org/wiki/Special:FilePath/Villa%20Carlotta%20Antonio%20Canova%20Statua%20di%20Palamede.jpg", "attribution": "generally accepted", "_source": {"source": "Wikidata: sculptures by Antonio Canova (Q5547)"}, "museum_id": "tremezzo", "location_src": "Tremezzo"}, "geometry": {"type": "Point", "coordinates": [9.23333, 45.98333]}}, {"type": "Feature", "properties": {"painter": "Antonio Canova", "title": "Damouceno", "qid": "Q137858668", "form": "sculpture", "kind": "museum", "year": "1940", "location": "Barrio Universitario de Concepción", "city": "Concepción", "country": "Chile", "material": "cement, lime, sand", "medium": "cement, lime, sand", "image": "https://commons.wikimedia.org/wiki/Special:FilePath/Damouceno%20UdeC.jpg", "attribution": "generally accepted", "_source": {"source": "Wikidata: sculptures by Antonio Canova (Q5547)"}, "museum_id": "barrio-universitario-de-concepcion", "location_src": "Barrio Universitario de Concepción"}, "geometry": {"type": "Point", "coordinates": [-73.03697, -36.82654]}}, {"type": "Feature", "properties": {"painter": "Antonio Canova", "title": "Greugante", "qid": "Q137859233", "form": "sculpture", "kind": "museum", "year": "1940", "location": "Barrio Universitario de Concepción", "city": "Concepción", "country": "Chile", "material": "cement, lime, sand", "medium": "cement, lime, sand", "image": "https://commons.wikimedia.org/wiki/Special:FilePath/Greugante%20UdeC.jpg", "attribution": "generally accepted", "_source": {"source": "Wikidata: sculptures by Antonio Canova (Q5547)"}, "museum_id": "barrio-universitario-de-concepcion", "location_src": "Barrio Universitario de Concepción"}, "geometry": {"type": "Point", "coordinates": [-73.03697, -36.82654]}}, {"type": "Feature", "properties": {"painter": "Antonio Canova", "title": "Psyche Revived by Cupid's Kiss", "qid": "Q517408", "form": "sculpture", "kind": "museum", "year": "1794", "location": "Louvre", "country": "France", "material": "marble", "medium": "marble", "image": "https://commons.wikimedia.org/wiki/Special:FilePath/0%20Psych%C3%A9%20ranim%C3%A9e%20par%20le%20baiser%20de%20l%27Amour%20-%20Canova%20-%20Louvre%201.JPG", "wikipedia_en": "https://en.wikipedia.org/wiki/Psyche_Revived_by_Cupid%27s_Kiss", "attribution": "generally accepted", "_source": {"source": "Wikidata: sculptures by Antonio Canova (Q5547)"}, "museum_id": "louvre", "location_src": "Department of Sculptures of the Louvre", "city": "Paris"}, "geometry": {"type": "Point", "coordinates": [2.3358, 48.8611]}}, {"type": "Feature", "properties": {"painter": "Antonio Canova", "title": "Aphrodite of Syracuse", "qid": "Q618530", "form": "sculpture", "kind": "museum", "year": "200", "location": "National Archaeological Museum of Athens", "city": "Athens", "country": "Greece", "material": "Parian marble", "medium": "Parian marble", "image": "https://commons.wikimedia.org/wiki/Special:FilePath/Statue%20of%20Aphrodite%2C%202nd%20c.%20BC.jpg", "wikipedia_en": "https://en.wikipedia.org/wiki/Aphrodite_of_Syracuse", "attribution": "generally accepted", "_source": {"source": "Wikidata: sculptures by Antonio Canova (Q5547)"}, "museum_id": "national-archaeological-museum-of-athens", "location_src": "National Archaeological Museum of Athens", "city_src": "Athens Municipality"}, "geometry": {"type": "Point", "coordinates": [23.7318, 37.9891]}}, {"type": "Feature", "properties": {"painter": "Antonio Canova", "title": "Venus Victrix", "qid": "Q1093113", "form": "sculpture", "kind": "museum", "year": "1800", "location": "Galleria Borghese", "city": "Rome", "country": "Italy", "material": "Carrara marble", "medium": "Carrara marble", "image": "https://commons.wikimedia.org/wiki/Special:FilePath/Paolina%20Borghese%20%28Canova%29.jpg", "wikipedia_en": "https://en.wikipedia.org/wiki/Venus_Victrix_(Canova)", "attribution": "generally accepted", "_source": {"source": "Wikidata: sculptures by Antonio Canova (Q5547)"}, "museum_id": "galleria-borghese", "location_src": "Galleria Borghese", "city_src": "Roma Capitale"}, "geometry": {"type": "Point", "coordinates": [12.49214, 41.91421]}}, {"type": "Feature", "properties": {"painter": "Antonio Canova", "title": "Napoleon as Mars the Peacemaker", "qid": "Q1439502", "form": "sculpture", "kind": "museum", "year": "1806", "location": "Louvre", "city": "London", "country": "United Kingdom", "material": "marble", "medium": "marble", "image": "https://commons.wikimedia.org/wiki/Special:FilePath/Napoleon-Canova-London%20JBU01.jpg", "wikipedia_en": "https://en.wikipedia.org/wiki/Napoleon_as_Mars_the_Peacemaker", "attribution": "generally accepted", "_source": {"source": "Wikidata: sculptures by Antonio Canova (Q5547)"}, "museum_id": "louvre-2", "location_src": "Louvre Museum"}, "geometry": {"type": "Point", "coordinates": [-0.15167, 51.50361]}}, {"type": "Feature", "properties": {"painter": "Antonio Canova", "title": "Penitent Magdalene", "qid": "Q3842294", "form": "sculpture", "kind": "museum", "year": "1793", "location": "Palazzo Doria Tursi", "city": "Genoa", "country": "Italy", "material": "marble", "medium": "marble", "image": "https://commons.wikimedia.org/wiki/Special:FilePath/Canova%2C%20maddalena%20penitente%2C%2002.JPG", "wikipedia_en": "https://en.wikipedia.org/wiki/Penitent_Magdalene_(Canova)", "attribution": "generally accepted", "_source": {"source": "Wikidata: sculptures by Antonio Canova (Q5547)"}, "museum_id": "palazzo-doria-tursi", "location_src": "Palazzo Doria Tursi"}, "geometry": {"type": "Point", "coordinates": [8.93281, 44.41133]}}, {"type": "Feature", "properties": {"painter": "Antonio Canova", "title": "Theseus and the Minotaur", "qid": "Q3984954", "form": "sculpture", "kind": "museum", "year": "1781", "location": "Victoria and Albert Museum", "city": "London", "country": "United Kingdom", "material": "marble", "medium": "marble", "image": "https://commons.wikimedia.org/wiki/Special:FilePath/Antonio%20Canova-Theseus%20and%20the%20Minotaur-Victoria%20and%20Albert%20Museum.jpg", "wikipedia_en": "https://en.wikipedia.org/wiki/Theseus_and_the_Minotaur_(sculpture)", "attribution": "generally accepted", "_source": {"source": "Wikidata: sculptures by Antonio Canova (Q5547)"}, "museum_id": "victoria-and-albert-museum", "location_src": "Victoria and Albert Museum", "city_src": "Royal Borough of Kensington and Chelsea"}, "geometry": {"type": "Point", "coordinates": [-0.17162, 51.49685]}}, {"type": "Feature", "properties": {"painter": "Antonio Canova", "title": "Venus Italica", "qid": "Q4009586", "form": "sculpture", "kind": "museum", "year": "1804", "location": "Galleria Palatina", "city": "Florence", "country": "Italy", "material": "marble", "medium": "marble", "image": "https://commons.wikimedia.org/wiki/Special:FilePath/Antonio%20canova%2C%20venere%20italica%2C%201804-1812%2C%2003.jpg", "wikipedia_en": "https://en.wikipedia.org/wiki/Venus_Italica", "attribution": "generally accepted", "_source": {"source": "Wikidata: sculptures by Antonio Canova (Q5547)"}, "museum_id": "galleria-palatina", "location_src": "Galleria Palatina"}, "geometry": {"type": "Point", "coordinates": [11.25, 43.7652]}}, {"type": "Feature", "properties": {"painter": "Antonio Canova", "title": "Canova Lions", "qid": "Q5033460", "form": "sculpture", "kind": "museum", "year": "1860", "location": "Corcoran Gallery of Art", "city": "Washington, D.C.", "country": "United States", "medium": "Sculpture", "image": "https://commons.wikimedia.org/wiki/Special:FilePath/USA-Corcoran%20Gallery%20of%20Art2.jpg", "wikipedia_en": "https://en.wikipedia.org/wiki/Canova_Lions", "attribution": "generally accepted", "_source": {"source": "Wikidata: sculptures by Antonio Canova (Q5547)"}, "museum_id": "corcoran-gallery-of-art", "location_src": "Corcoran Gallery of Art"}, "geometry": {"type": "Point", "coordinates": [-77.03988, 38.89585]}}, {"type": "Feature", "properties": {"painter": "Antonio Canova", "title": "Tomb of Pope Clement XIV", "qid": "Q24942415", "form": "sculpture", "kind": "church", "year": "1780", "location": "Santi Apostoli", "city": "Rome", "country": "Italy", "material": "Carrara marble, lumachella", "medium": "Carrara marble, lumachella", "image": "https://commons.wikimedia.org/wiki/Special:FilePath/Antonio%20canova%2C%20monumento%20funebre%20a%20papa%20clemente%20XIV%2C%201789%2C%2002%2C2.jpg", "wikipedia_en": "https://en.wikipedia.org/wiki/Tomb_of_Pope_Clement_XIV", "attribution": "generally accepted", "_source": {"source": "Wikidata: sculptures by Antonio Canova (Q5547)"}, "museum_id": "santi-apostoli", "location_src": "Santi Apostoli"}, "geometry": {"type": "Point", "coordinates": [12.483205555, 41.898105555]}}, {"type": "Feature", "properties": {"painter": "Antonio Canova", "title": "Napoleon as Mars the Peacemaker", "qid": "Q41799096", "form": "sculpture", "kind": "museum", "year": "1807", "location": "honorary courtyard of the Palazzo di Brera", "city": "Milan", "country": "Italy", "material": "bronze", "medium": "bronze", "image": "https://commons.wikimedia.org/wiki/Special:FilePath/IMG%203972%20-%20Canova%20-%20Napoleone%20Bonaparte%20-%20Milano%2C%20Cortile%20del%20Palazzo%20di%20Brera%20-%20Foto%20Giovanni%20Dall%27Orto%2019-jan%202007.jpg", "wikipedia_en": "https://en.wikipedia.org/wiki/Napoleon_as_Mars_the_Peacemaker_(Milan)", "attribution": "generally accepted", "_source": {"source": "Wikidata: sculptures by Antonio Canova (Q5547)"}, "museum_id": "honorary-courtyard-of-the-palazzo-di-brera", "location_src": "honorary courtyard of the Palazzo di Brera"}, "geometry": {"type": "Point", "coordinates": [9.18815, 45.47199]}}, {"type": "Feature", "properties": {"painter": "Antonio Canova", "title": "George Washington", "qid": "Q60676720", "form": "sculpture", "kind": "museum", "year": "1820", "location": "Raleigh", "city": "Wake County", "country": "United States", "material": "marble", "medium": "marble", "image": "https://commons.wikimedia.org/wiki/Special:FilePath/Giorgio%20Washington%2C%20engraving%20by%20Bertini%2C%20after%20Canova.jpg", "wikipedia_en": "https://en.wikipedia.org/wiki/George_Washington_(Canova)", "attribution": "generally accepted", "_source": {"source": "Wikidata: sculptures by Antonio Canova (Q5547)"}, "museum_id": "raleigh", "location_src": "Raleigh"}, "geometry": {"type": "Point", "coordinates": [-78.64, 35.78]}}, {"type": "Feature", "properties": {"painter": "Antonio Canova", "title": "Venere di Canova", "qid": "Q138766494", "form": "sculpture", "kind": "museum", "year": "1892", "location": "Adelaide", "city": "South Australia", "country": "Australia", "material": "Carrara marble", "medium": "Carrara marble", "image": "https://commons.wikimedia.org/wiki/Special:FilePath/J150W-statue-VenereDiCanova.jpg", "attribution": "generally accepted", "_source": {"source": "Wikidata: sculptures by Antonio Canova (Q5547)"}, "museum_id": "adelaide", "location_src": "Adelaide"}, "geometry": {"type": "Point", "coordinates": [138.6007, -34.92105]}}, {"type": "Feature", "geometry": {"type": "Point", "coordinates": [12.33713, 45.43393]}, "properties": {"painter": "Antonio Canova", "title": "Porträt des Amadeo Svajer (1726-1791)", "year": "1790", "city": "Venice", "country": "Italy", "location": "Museo Correr", "kind": "museum", "attribution": "attributed", "status": "present", "medium": "Oil on canvas", "dimensions": "107 × 87 cm", "image": "https://commons.wikimedia.org/wiki/Special:FilePath/Antonio%20Canova%20-%20Portrait%20of%20Amadeo%20Svajer%20-%20WGA04039.jpg?width=420", "wikidata": "https://www.wikidata.org/wiki/Q127823425", "creation_place": "Rome", "creation_lat": 41.9028, "creation_lon": 12.4964, "_source": {"source": "Wikidata", "url": "https://www.wikidata.org/wiki/Q127823425", "retrieved_at": "2026-09-25"}, "_overrides": {"creation": {"at": "2026-09-25", "source": "derived from start date + Caravaggio's documented itinerary (approximate)"}}, "museum_id": "museo-correr", "location_src": "Museo Correr", "form": "painting"}}, {"type": "Feature", "geometry": {"type": "Point", "coordinates": [11.87491, 45.85175]}, "properties": {"painter": "Antonio Canova", "title": "Mercato degli Amorini", "city": "Possagno", "country": "Italy", "location": "Gipsoteca canoviana", "kind": "museum", "attribution": "attributed", "status": "present", "wikidata": "https://www.wikidata.org/wiki/Q131753974", "_source": {"source": "Wikidata", "url": "https://www.wikidata.org/wiki/Q131753974", "retrieved_at": "2026-09-25"}, "museum_id": "gipsoteca-canoviana", "location_src": "Gipsoteca canoviana", "form": "painting"}}, {"type": "Feature", "geometry": {"type": "Point", "coordinates": [11.87491, 45.85175]}, "properties": {"painter": "Antonio Canova", "title": "Astragali Female Players", "city": "Possagno", "country": "Italy", "location": "Gipsoteca canoviana", "kind": "museum", "attribution": "attributed", "status": "present", "image": "https://commons.wikimedia.org/wiki/Special:FilePath/Canova%20-%20Astragali%20Female%20Players.jpg?width=420", "wikidata": "https://www.wikidata.org/wiki/Q135987067", "_source": {"source": "Wikidata", "url": "https://www.wikidata.org/wiki/Q135987067", "retrieved_at": "2026-09-25"}, "museum_id": "gipsoteca-canoviana", "location_src": "Gipsoteca canoviana", "form": "painting"}}, {"type": "Feature", "geometry": {"type": "Point", "coordinates": [11.87491, 45.85175]}, "properties": {"painter": "Antonio Canova", "title": "Five dancers with veil and crowns", "year": "1798", "city": "Possagno", "country": "Italy", "location": "Gipsoteca canoviana", "kind": "museum", "attribution": "attributed", "status": "present", "image": "https://commons.wikimedia.org/wiki/Special:FilePath/Canova%20-%20Five%20dancers%20with%20veil%20and%20crowns%2C%201798-1799.jpg?width=420", "wikidata": "https://www.wikidata.org/wiki/Q135987080", "creation_place": "Rome", "creation_lat": 41.9028, "creation_lon": 12.4964, "_source": {"source": "Wikidata", "url": "https://www.wikidata.org/wiki/Q135987080", "retrieved_at": "2026-09-25"}, "_overrides": {"creation": {"at": "2026-09-25", "source": "derived from start date + Caravaggio's documented itinerary (approximate)"}}, "museum_id": "gipsoteca-canoviana", "location_src": "Gipsoteca canoviana", "form": "painting"}}, {"type": "Feature", "geometry": {"type": "Point", "coordinates": [11.87491, 45.85175]}, "properties": {"painter": "Antonio Canova", "title": "Polyhymnia & Mnemosyne", "year": "1799", "city": "Possagno", "country": "Italy", "location": "Gipsoteca canoviana", "kind": "museum", "attribution": "attributed", "status": "present", "image": "https://commons.wikimedia.org/wiki/Special:FilePath/Canova%20-%20Polyhymnia%20%26%20Mnemosyne%2C%201799.jpg?width=420", "wikidata": "https://www.wikidata.org/wiki/Q135987084", "creation_place": "Rome", "creation_lat": 41.9028, "creation_lon": 12.4964, "_source": {"source": "Wikidata", "url": "https://www.wikidata.org/wiki/Q135987084", "retrieved_at": "2026-09-25"}, "_overrides": {"creation": {"at": "2026-09-25", "source": "derived from start date + Caravaggio's documented itinerary (approximate)"}}, "museum_id": "gipsoteca-canoviana", "location_src": "Gipsoteca canoviana", "form": "painting"}}, {"type": "Feature", "geometry": {"type": "Point", "coordinates": [11.87491, 45.85175]}, "properties": {"painter": "Antonio Canova", "title": "Three dancing graces", "year": "1799", "city": "Possagno", "country": "Italy", "location": "Gipsoteca canoviana", "kind": "museum", "attribution": "attributed", "status": "present", "medium": "Paper", "genre": "mythological painting", "image": "https://commons.wikimedia.org/wiki/Special:FilePath/Antonio%20Canova%20-%20The%20Three%20Graces%20Dancing%20-%20WGA04023.jpg?width=420", "wikidata": "https://www.wikidata.org/wiki/Q17086321", "creation_place": "Rome", "creation_lat": 41.9028, "creation_lon": 12.4964, "_source": {"source": "Wikidata", "url": "https://www.wikidata.org/wiki/Q17086321", "retrieved_at": "2026-09-25"}, "_overrides": {"creation": {"at": "2026-09-25", "source": "derived from start date + Caravaggio's documented itinerary (approximate)"}}, "museum_id": "gipsoteca-canoviana", "location_src": "Gipsoteca canoviana", "form": "painting"}}, {"type": "Feature", "geometry": {"type": "Point", "coordinates": [11.25528, 43.76833]}, "properties": {"painter": "Antonio Canova", "title": "Self-portrait", "year": "1792", "city": "Florence", "country": "Italy", "location": "Uffizi Gallery", "kind": "museum", "attribution": "attributed", "status": "present", "medium": "Oil on canvas", "dimensions": "68 × 55 cm", "genre": "self-portrait", "image": "https://commons.wikimedia.org/wiki/Special:FilePath/Antonio%20Canova%20Selfportrait%201792.jpg?width=420", "wikidata": "https://www.wikidata.org/wiki/Q52337226", "creation_place": "Rome", "creation_lat": 41.9028, "creation_lon": 12.4964, "_source": {"source": "Wikidata", "url": "https://www.wikidata.org/wiki/Q52337226", "retrieved_at": "2026-09-25"}, "_overrides": {"creation": {"at": "2026-09-25", "source": "derived from start date + Caravaggio's documented itinerary (approximate)"}}, "museum_id": "uffizi-gallery", "location_src": "Vasari Corridor", "form": "painting"}}]}