{
 "type": "FeatureCollection",
 "_note": "Generated by scripts/build.py from Wikidata. Do not edit by hand — put manual fixes in the painter's overlay (data/overlay/*.json). Each feature carries _source (scraped base or manual addition) and, when edited, _overrides.",
 "features": [
  {
   "type": "Feature",
   "geometry": {
    "type": "Point",
    "coordinates": [
     14.25053,
     40.86701
    ]
   },
   "properties": {
    "painter": "Masaccio",
    "title": "Crucifixion",
    "year": "1426",
    "city": "Naples",
    "country": "Italy",
    "location": "Museo di Capodimonte",
    "kind": "museum",
    "attribution": "generally accepted",
    "status": "present",
    "medium": "Panel",
    "dimensions": "83 × 63 cm",
    "genre": "religious art",
    "image": "https://commons.wikimedia.org/wiki/Special:FilePath/Masaccio%20-%20Crocifissione%20%28Cuspide%20di%20Polittico%20di%20Pisa%29.jpg?width=420",
    "wikipedia_es": "https://es.wikipedia.org/wiki/Crucifixi%C3%B3n_(Masaccio)",
    "wikipedia_en": "https://en.wikipedia.org/wiki/Crucifixion_(Masaccio)",
    "wikipedia_it": "https://it.wikipedia.org/wiki/Crocifissione_(Masaccio)",
    "wikidata": "https://www.wikidata.org/wiki/Q1054459",
    "creation_place": "Pisa",
    "creation_lat": 43.7228,
    "creation_lon": 10.4017,
    "_source": {
     "source": "Wikidata",
     "url": "https://www.wikidata.org/wiki/Q1054459",
     "retrieved_at": "2026-08-23"
    },
    "_overrides": {
     "creation": {
      "at": "2026-08-23",
      "source": "derived from start date + Caravaggio's documented itinerary (approximate)"
     }
    },
    "museum_id": "museo-di-capodimonte",
    "qid": "Q1054459",
    "wga_url": "https://www.wga.hu/html/m/masaccio/pisa/crucifix.html"
   }
  },
  {
   "type": "Feature",
   "geometry": {
    "type": "Point",
    "coordinates": [
     13.36472,
     52.50861
    ]
   },
   "properties": {
    "painter": "Masaccio",
    "title": "Q107436009",
    "year": "1426",
    "city": "Bezirk Mitte",
    "country": "Germany",
    "location": "Gemäldegalerie Berlin",
    "kind": "museum",
    "attribution": "attributed",
    "status": "present",
    "medium": "Paint, poplar panel",
    "wikidata": "https://www.wikidata.org/wiki/Q107436009",
    "creation_place": "Pisa",
    "creation_lat": 43.7228,
    "creation_lon": 10.4017,
    "_source": {
     "source": "Wikidata",
     "url": "https://www.wikidata.org/wiki/Q107436009",
     "retrieved_at": "2026-08-23"
    },
    "_overrides": {
     "creation": {
      "at": "2026-08-23",
      "source": "derived from start date + Caravaggio's documented itinerary (approximate)"
     }
    },
    "museum_id": "gemaldegalerie-berlin",
    "qid": "Q107436009"
   }
  },
  {
   "type": "Feature",
   "geometry": {
    "type": "Point",
    "coordinates": [
     12.4449,
     50.9919
    ]
   },
   "properties": {
    "painter": "Masaccio",
    "title": "The agony of Christ in the garden of Gethsemane, St. Jerome as penitent",
    "year": "1424",
    "city": "Altenburg",
    "country": "Germany",
    "location": "Lindenau museum",
    "kind": "museum",
    "attribution": "attributed",
    "status": "present",
    "dimensions": "62 × 43.5 cm",
    "genre": "religious art",
    "wikidata": "https://www.wikidata.org/wiki/Q116898418",
    "creation_place": "Florence",
    "creation_lat": 43.7696,
    "creation_lon": 11.2558,
    "_source": {
     "source": "Wikidata",
     "url": "https://www.wikidata.org/wiki/Q116898418",
     "retrieved_at": "2026-08-23"
    },
    "_overrides": {
     "creation": {
      "at": "2026-08-23",
      "source": "derived from start date + Caravaggio's documented itinerary (approximate)"
     }
    },
    "museum_id": "lindenau-museum",
    "qid": "Q116898418"
   }
  },
  {
   "type": "Feature",
   "geometry": {
    "type": "Point",
    "coordinates": [
     -5.0548,
     50.2637
    ]
   },
   "properties": {
    "painter": "Masaccio",
    "title": "The Martyrdom of St Dionysius",
    "year": "1430",
    "city": "Cornwall",
    "country": "United Kingdom",
    "location": "Q1251321",
    "kind": "museum",
    "attribution": "attributed",
    "status": "present",
    "medium": "Panel",
    "dimensions": "26.5 × 41 cm",
    "wikidata": "https://www.wikidata.org/wiki/Q118630274",
    "_source": {
     "source": "Wikidata",
     "url": "https://www.wikidata.org/wiki/Q118630274",
     "retrieved_at": "2026-08-23"
    },
    "museum_id": "q1251321",
    "qid": "Q118630274"
   }
  },
  {
   "type": "Feature",
   "geometry": {
    "type": "Point",
    "coordinates": [
     10.40775,
     43.7152
    ]
   },
   "properties": {
    "painter": "Masaccio",
    "title": "Saint Paul",
    "year": "1426",
    "city": "Pisa",
    "country": "Italy",
    "location": "National Museum of San Matteo",
    "kind": "museum",
    "attribution": "generally accepted",
    "status": "present",
    "medium": "Panel",
    "dimensions": "51 × 30 cm",
    "genre": "religious art",
    "image": "https://commons.wikimedia.org/wiki/Special:FilePath/Masaccio%2C%20san%20paolo%2C%20pisa.jpg?width=420",
    "wikipedia_es": "https://es.wikipedia.org/wiki/San_Pablo_(Masaccio)",
    "wikipedia_en": "https://en.wikipedia.org/wiki/Saint_Paul_(Masaccio)",
    "wikipedia_it": "https://it.wikipedia.org/wiki/San_Paolo_(Masaccio)",
    "wikidata": "https://www.wikidata.org/wiki/Q2884282",
    "creation_place": "Pisa",
    "creation_lat": 43.7228,
    "creation_lon": 10.4017,
    "_source": {
     "source": "Wikidata",
     "url": "https://www.wikidata.org/wiki/Q2884282",
     "retrieved_at": "2026-08-23"
    },
    "_overrides": {
     "creation": {
      "at": "2026-08-23",
      "source": "derived from start date + Caravaggio's documented itinerary (approximate)"
     }
    },
    "museum_id": "national-museum-of-san-matteo",
    "qid": "Q2884282",
    "wga_url": "https://www.wga.hu/html/m/masaccio/z_panels/st_paul.html"
   }
  },
  {
   "type": "Feature",
   "geometry": {
    "type": "Point",
    "coordinates": [
     11.25528,
     43.76833
    ]
   },
   "properties": {
    "painter": "Masaccio",
    "title": "Virgin and Child with Saint Anne",
    "year": "1424",
    "city": "Florence",
    "country": "Italy",
    "location": "Uffizi Gallery",
    "kind": "museum",
    "attribution": "generally accepted",
    "status": "present",
    "medium": "Panel",
    "dimensions": "175 × 103 cm",
    "genre": "religious art",
    "image": "https://commons.wikimedia.org/wiki/Special:FilePath/Masolino%2C%20Masaccio%2C%20Virgin%20and%20Child%20with%20Saint%20Anne%2C%20c1424-25%2C%20Uffizi.jpg?width=420",
    "wikipedia_es": "https://es.wikipedia.org/wiki/Virgen_con_el_Ni%C3%B1o_y_Santa_Ana_(Masaccio)",
    "wikipedia_en": "https://en.wikipedia.org/wiki/Virgin_and_Child_with_Saint_Anne_(Masaccio)",
    "wikipedia_it": "https://it.wikipedia.org/wiki/Sant%27Anna_Metterza",
    "wikidata": "https://www.wikidata.org/wiki/Q32381",
    "creation_place": "Florence",
    "creation_lat": 43.7696,
    "creation_lon": 11.2558,
    "_source": {
     "source": "Wikidata",
     "url": "https://www.wikidata.org/wiki/Q32381",
     "retrieved_at": "2026-08-23"
    },
    "_overrides": {
     "creation": {
      "at": "2026-08-23",
      "source": "derived from start date + Caravaggio's documented itinerary (approximate)"
     }
    },
    "museum_id": "uffizi-gallery",
    "qid": "Q32381",
    "wga_url": "https://www.wga.hu/html/m/masaccio/z_panels/st_anne.html"
   }
  },
  {
   "type": "Feature",
   "geometry": {
    "type": "Point",
    "coordinates": [
     13.36472,
     52.50861
    ]
   },
   "properties": {
    "painter": "Masaccio",
    "title": "The Adoration of the Magi",
    "year": "1426",
    "city": "Bezirk Mitte",
    "country": "Germany",
    "location": "Gemäldegalerie Berlin",
    "kind": "museum",
    "attribution": "generally accepted",
    "status": "present",
    "medium": "Paint, poplar panel",
    "dimensions": "22.3 × 61.7 cm",
    "genre": "religious art",
    "image": "https://commons.wikimedia.org/wiki/Special:FilePath/Masaccio.%20Adoration%20of%20the%20Magi.%201426.%20Berlin-Dahlem.jpg?width=420",
    "wikipedia_it": "https://it.wikipedia.org/wiki/Adorazione_dei_Magi_(Masaccio)",
    "wikidata": "https://www.wikidata.org/wiki/Q3605535",
    "creation_place": "Pisa",
    "creation_lat": 43.7228,
    "creation_lon": 10.4017,
    "_source": {
     "source": "Wikidata",
     "url": "https://www.wikidata.org/wiki/Q3605535",
     "retrieved_at": "2026-08-23"
    },
    "_overrides": {
     "creation": {
      "at": "2026-08-23",
      "source": "derived from start date + Caravaggio's documented itinerary (approximate)"
     }
    },
    "museum_id": "gemaldegalerie-berlin",
    "qid": "Q3605535",
    "wga_url": "https://www.wga.hu/html/m/masaccio/pisa/pisa_pr1.html"
   }
  },
  {
   "type": "Feature",
   "geometry": {
    "type": "Point",
    "coordinates": [
     -0.1283,
     51.5089
    ]
   },
   "properties": {
    "painter": "Masaccio",
    "title": "Madonna and Child",
    "year": "1426",
    "city": "London",
    "country": "United Kingdom",
    "location": "National Gallery",
    "kind": "museum",
    "attribution": "generally accepted",
    "status": "present",
    "medium": "Panel",
    "dimensions": "134.8 × 73.5 cm",
    "genre": "religious art",
    "image": "https://commons.wikimedia.org/wiki/Special:FilePath/Masaccio.%20Madonna%20and%20Child.%201426.%20National%20Gallery%2C%20London.jpg?width=420",
    "wikipedia_es": "https://es.wikipedia.org/wiki/Virgen_y_el_Ni%C3%B1o_(Masaccio)",
    "wikipedia_en": "https://en.wikipedia.org/wiki/Madonna_and_Child_(Masaccio)",
    "wikipedia_it": "https://it.wikipedia.org/wiki/Maest%C3%A0_(Masaccio)",
    "wikidata": "https://www.wikidata.org/wiki/Q369582",
    "creation_place": "Pisa",
    "creation_lat": 43.7228,
    "creation_lon": 10.4017,
    "_source": {
     "source": "Wikidata",
     "url": "https://www.wikidata.org/wiki/Q369582",
     "retrieved_at": "2026-08-23"
    },
    "_overrides": {
     "creation": {
      "at": "2026-08-23",
      "source": "derived from start date + Caravaggio's documented itinerary (approximate)"
     }
    },
    "museum_id": "national-gallery",
    "qid": "Q369582",
    "wga_url": "https://www.wga.hu/html/m/masaccio/pisa/pisa_cen.html"
   }
  },
  {
   "type": "Feature",
   "geometry": {
    "type": "Point",
    "coordinates": [
     13.36472,
     52.50861
    ]
   },
   "properties": {
    "painter": "Masaccio",
    "title": "The Crucifixion of Saint Peter",
    "year": "1426",
    "city": "Bezirk Mitte",
    "country": "Germany",
    "location": "Gemäldegalerie Berlin",
    "kind": "museum",
    "attribution": "generally accepted",
    "status": "present",
    "medium": "Panel",
    "dimensions": "22 × 31 cm",
    "genre": "religious art",
    "image": "https://commons.wikimedia.org/wiki/Special:FilePath/Masaccio%2C%20Crucifixion%20of%20St%20Peter%2C%20predella%20of%20the%20altar%20for%20St%20Maria%20del%20Carmine%2C%20Pisa%2C%20c1426%2C%20tempera%2C%20Berlin%2C%20Gem%C3%A4ldegalerie.jpg?width=420",
    "wikipedia_it": "https://it.wikipedia.org/wiki/Crocifissione_di_san_Pietro_(Masaccio)",
    "wikidata": "https://www.wikidata.org/wiki/Q3698230",
    "creation_place": "Pisa",
    "creation_lat": 43.7228,
    "creation_lon": 10.4017,
    "_source": {
     "source": "Wikidata",
     "url": "https://www.wikidata.org/wiki/Q3698230",
     "retrieved_at": "2026-08-23"
    },
    "_overrides": {
     "creation": {
      "at": "2026-08-23",
      "source": "derived from start date + Caravaggio's documented itinerary (approximate)"
     }
    },
    "museum_id": "gemaldegalerie-berlin",
    "qid": "Q3698230",
    "wga_url": "https://www.wga.hu/html/m/masaccio/pisa/pisa_pr3.html"
   }
  },
  {
   "type": "Feature",
   "geometry": {
    "type": "Point",
    "coordinates": [
     13.36472,
     52.50861
    ]
   },
   "properties": {
    "painter": "Masaccio",
    "title": "Desco da parto",
    "year": "1500",
    "city": "Bezirk Mitte",
    "country": "Germany",
    "location": "Gemäldegalerie Berlin",
    "kind": "museum",
    "attribution": "copy or later version",
    "status": "present",
    "medium": "Poplar panel",
    "genre": "religious art",
    "image": "https://commons.wikimedia.org/wiki/Special:FilePath/Masaccio%20-%20Desco%20da%20parto.jpg?width=420",
    "wikipedia_es": "https://es.wikipedia.org/wiki/Natividad_(Masaccio)",
    "wikipedia_en": "https://en.wikipedia.org/wiki/Desco_da_parto_(Masaccio)",
    "wikipedia_it": "https://it.wikipedia.org/wiki/Desco_da_parto_(Masaccio)",
    "wikidata": "https://www.wikidata.org/wiki/Q3705918",
    "_source": {
     "source": "Wikidata",
     "url": "https://www.wikidata.org/wiki/Q3705918",
     "retrieved_at": "2026-08-23"
    },
    "museum_id": "gemaldegalerie-berlin",
    "qid": "Q3705918",
    "wga_url": "https://www.wga.hu/html/m/masaccio/z_panels/tondo.html",
    "_overrides": {
     "attribution": {
      "at": "2026-08-24",
      "source": "tier-2 cleaning",
      "was": "generally accepted",
      "note": "dated 1500, after death (1401–1428) → later copy / not autograph at this date (Timeline anomaly)"
     }
    }
   }
  },
  {
   "type": "Feature",
   "geometry": {
    "type": "Point",
    "coordinates": [
     11.243611,
     43.767778
    ]
   },
   "properties": {
    "painter": "Masaccio",
    "title": "The Distribution of Alms and Death of Ananias",
    "year": "1425",
    "city": "Florence",
    "country": "Italy",
    "location": "Santa Maria del Carmine",
    "kind": "church",
    "attribution": "generally accepted",
    "status": "present",
    "medium": "Fresco",
    "dimensions": "230 × 162 cm",
    "genre": "religious art",
    "image": "https://commons.wikimedia.org/wiki/Special:FilePath/The%20Distribution%20of%20Alms%20and%20Death%20of%20Ananias.jpg?width=420",
    "wikipedia_it": "https://it.wikipedia.org/wiki/Distribuzione_delle_elemosine_e_morte_di_Anania",
    "wikidata": "https://www.wikidata.org/wiki/Q3711791",
    "creation_place": "Florence",
    "creation_lat": 43.7696,
    "creation_lon": 11.2558,
    "_source": {
     "source": "Wikidata",
     "url": "https://www.wikidata.org/wiki/Q3711791",
     "retrieved_at": "2026-08-23"
    },
    "_overrides": {
     "creation": {
      "at": "2026-08-23",
      "source": "derived from start date + Caravaggio's documented itinerary (approximate)"
     }
    },
    "museum_id": "santa-maria-del-carmine",
    "qid": "Q3711791",
    "wga_url": "https://www.wga.hu/html/m/masaccio/brancacc/st_peter/distrib1.html"
   }
  },
  {
   "type": "Feature",
   "geometry": {
    "type": "Point",
    "coordinates": [
     11.25528,
     43.76833
    ]
   },
   "properties": {
    "painter": "Masaccio",
    "title": "Madonna Casini",
    "year": "1426",
    "city": "Florence",
    "country": "Italy",
    "location": "Uffizi Gallery",
    "kind": "museum",
    "attribution": "generally accepted",
    "status": "present",
    "medium": "Panel",
    "dimensions": "24.5 × 18.2 cm",
    "genre": "religious art",
    "image": "https://commons.wikimedia.org/wiki/Special:FilePath/Masaccio%2C%20Madonna-del-Solletico.jpg?width=420",
    "wikipedia_it": "https://it.wikipedia.org/wiki/Madonna_del_solletico",
    "wikidata": "https://www.wikidata.org/wiki/Q3842642",
    "creation_place": "Pisa",
    "creation_lat": 43.7228,
    "creation_lon": 10.4017,
    "_source": {
     "source": "Wikidata",
     "url": "https://www.wikidata.org/wiki/Q3842642",
     "retrieved_at": "2026-08-23"
    },
    "_overrides": {
     "creation": {
      "at": "2026-08-23",
      "source": "derived from start date + Caravaggio's documented itinerary (approximate)"
     }
    },
    "museum_id": "uffizi-gallery",
    "qid": "Q3842642"
   }
  },
  {
   "type": "Feature",
   "geometry": {
    "type": "Point",
    "coordinates": [
     -77.02,
     38.8914
    ]
   },
   "properties": {
    "painter": "Masaccio",
    "title": "Madonna dell'Umiltà",
    "year": "1424",
    "city": "Washington",
    "country": "United States",
    "location": "National Gallery of Art",
    "kind": "museum",
    "attribution": "generally accepted",
    "status": "present",
    "medium": "Panel",
    "dimensions": "105.6 × 54.1 cm",
    "genre": "religious art",
    "image": "https://commons.wikimedia.org/wiki/Special:FilePath/Masaccio%2C%20madonna%20dell%27umilt%C3%A0%2C%20washington.jpg?width=420",
    "wikipedia_it": "https://it.wikipedia.org/wiki/Madonna_dell%27Umilt%C3%A0_(Masaccio)",
    "wikidata": "https://www.wikidata.org/wiki/Q3842651",
    "creation_place": "Florence",
    "creation_lat": 43.7696,
    "creation_lon": 11.2558,
    "_source": {
     "source": "Wikidata",
     "url": "https://www.wikidata.org/wiki/Q3842651",
     "retrieved_at": "2026-08-23"
    },
    "_overrides": {
     "creation": {
      "at": "2026-08-23",
      "source": "derived from start date + Caravaggio's documented itinerary (approximate)"
     }
    },
    "museum_id": "national-gallery-of-art",
    "qid": "Q3842651"
   }
  },
  {
   "type": "Feature",
   "geometry": {
    "type": "Point",
    "coordinates": [
     13.36472,
     52.50861
    ]
   },
   "properties": {
    "painter": "Masaccio",
    "title": "The Decapitation of Saint John the Baptist",
    "year": "1426",
    "city": "Bezirk Mitte",
    "country": "Germany",
    "location": "Gemäldegalerie Berlin",
    "kind": "museum",
    "attribution": "generally accepted",
    "status": "present",
    "dimensions": "30.5 × 21 cm",
    "genre": "religious art",
    "image": "https://commons.wikimedia.org/wiki/Special:FilePath/Masaccio%20martirio%20di%20san%20giovanni%20Battista.jpg?width=420",
    "wikipedia_es": "https://es.wikipedia.org/wiki/Martirio_de_san_Juan_Bautista_(Masaccio)",
    "wikipedia_it": "https://it.wikipedia.org/wiki/Martirio_di_San_Giovanni_Battista",
    "wikidata": "https://www.wikidata.org/wiki/Q3850304",
    "creation_place": "Pisa",
    "creation_lat": 43.7228,
    "creation_lon": 10.4017,
    "_source": {
     "source": "Wikidata",
     "url": "https://www.wikidata.org/wiki/Q3850304",
     "retrieved_at": "2026-08-23"
    },
    "_overrides": {
     "creation": {
      "at": "2026-08-23",
      "source": "derived from start date + Caravaggio's documented itinerary (approximate)"
     }
    },
    "museum_id": "gemaldegalerie-berlin",
    "qid": "Q3850304"
   }
  },
  {
   "type": "Feature",
   "geometry": {
    "type": "Point",
    "coordinates": [
     11.243611,
     43.767778
    ]
   },
   "properties": {
    "painter": "Masaccio",
    "title": "Repentance of Saint Peter",
    "year": "1425",
    "city": "Florence",
    "country": "Italy",
    "location": "Santa Maria del Carmine",
    "kind": "church",
    "attribution": "generally accepted",
    "status": "present",
    "genre": "religious art",
    "image": "https://commons.wikimedia.org/wiki/Special:FilePath/Masaccio%2C%20sinopia%20del%20pentimento%20di%20san%20pietro%2C%20cappella%20brancacci.jpg?width=420",
    "wikipedia_it": "https://it.wikipedia.org/wiki/Pentimento_di_Pietro",
    "wikidata": "https://www.wikidata.org/wiki/Q3899272",
    "creation_place": "Florence",
    "creation_lat": 43.7696,
    "creation_lon": 11.2558,
    "_source": {
     "source": "Wikidata",
     "url": "https://www.wikidata.org/wiki/Q3899272",
     "retrieved_at": "2026-08-23"
    },
    "_overrides": {
     "creation": {
      "at": "2026-08-23",
      "source": "derived from start date + Caravaggio's documented itinerary (approximate)"
     }
    },
    "museum_id": "santa-maria-del-carmine",
    "qid": "Q3899272"
   }
  },
  {
   "type": "Feature",
   "geometry": {
    "type": "Point",
    "coordinates": [
     11.2437,
     43.76777
    ]
   },
   "properties": {
    "painter": "Masaccio",
    "title": "Raising of the Son of Teophilus and St. Peter Enthroned",
    "year": "1427",
    "city": "Florence",
    "country": "Italy",
    "location": "Brancacci Chapel",
    "kind": "museum",
    "attribution": "generally accepted",
    "status": "present",
    "medium": "Fresco",
    "dimensions": "230 × 599 cm",
    "genre": "religious art",
    "image": "https://commons.wikimedia.org/wiki/Special:FilePath/Cappella%20brancacci%2C%20Resurrezione%20del%20figlio%20di%20Teofilo%20e%20San%20Pietro%20in%20cattedra%20%28restaurato%29%2C%20Masaccio.jpg?width=420",
    "wikipedia_it": "https://it.wikipedia.org/wiki/Resurrezione_del_figlio_di_Teofilo_e_san_Pietro_in_cattedra",
    "wikidata": "https://www.wikidata.org/wiki/Q3933568",
    "creation_place": "Florence",
    "creation_lat": 43.7696,
    "creation_lon": 11.2558,
    "_source": {
     "source": "Wikidata",
     "url": "https://www.wikidata.org/wiki/Q3933568",
     "retrieved_at": "2026-08-23"
    },
    "_overrides": {
     "creation": {
      "at": "2026-08-23",
      "source": "derived from start date + Caravaggio's documented itinerary (approximate)"
     }
    },
    "museum_id": "brancacci-chapel",
    "qid": "Q3933568",
    "wga_url": "https://www.wga.hu/html/m/masaccio/brancacc/st_peter/theo_pet.html"
   }
  },
  {
   "type": "Feature",
   "geometry": {
    "type": "Point",
    "coordinates": [
     13.36472,
     52.50861
    ]
   },
   "properties": {
    "painter": "Masaccio",
    "title": "Saint Jerome",
    "year": "1426",
    "city": "Bezirk Mitte",
    "country": "Germany",
    "location": "Gemäldegalerie Berlin",
    "kind": "museum",
    "attribution": "generally accepted",
    "status": "present",
    "medium": "Paint, poplar panel",
    "dimensions": "38 × 12 cm",
    "genre": "religious art",
    "image": "https://commons.wikimedia.org/wiki/Special:FilePath/Masaccio%2C%20polittico%20di%20pisa%2C%20san%20girolamo%2C%20berlino%2C%2038x12%20cm.jpg?width=420",
    "wikipedia_it": "https://it.wikipedia.org/wiki/San_Girolamo_(Masaccio)",
    "wikidata": "https://www.wikidata.org/wiki/Q3947289",
    "creation_place": "Pisa",
    "creation_lat": 43.7228,
    "creation_lon": 10.4017,
    "_source": {
     "source": "Wikidata",
     "url": "https://www.wikidata.org/wiki/Q3947289",
     "retrieved_at": "2026-08-23"
    },
    "_overrides": {
     "creation": {
      "at": "2026-08-23",
      "source": "derived from start date + Caravaggio's documented itinerary (approximate)"
     }
    },
    "museum_id": "gemaldegalerie-berlin",
    "qid": "Q3947289"
   }
  },
  {
   "type": "Feature",
   "geometry": {
    "type": "Point",
    "coordinates": [
     11.243611,
     43.767778
    ]
   },
   "properties": {
    "painter": "Masaccio",
    "title": "St. Peter Healing the Sick with His Shadow",
    "year": "1425",
    "city": "Florence",
    "country": "Italy",
    "location": "Santa Maria del Carmine",
    "kind": "church",
    "attribution": "generally accepted",
    "status": "present",
    "medium": "Fresco",
    "dimensions": "230 × 162 cm",
    "genre": "religious art",
    "image": "https://commons.wikimedia.org/wiki/Special:FilePath/St.%20Peter%20Healing%20the%20Sick%20with%20His%20Shadow%2000.jpg?width=420",
    "wikipedia_es": "https://es.wikipedia.org/wiki/San_Pedro_cura_a_los_enfermos_con_su_sombra",
    "wikipedia_it": "https://it.wikipedia.org/wiki/San_Pietro_risana_gli_infermi_con_la_sua_ombra",
    "wikidata": "https://www.wikidata.org/wiki/Q3947827",
    "creation_place": "Florence",
    "creation_lat": 43.7696,
    "creation_lon": 11.2558,
    "_source": {
     "source": "Wikidata",
     "url": "https://www.wikidata.org/wiki/Q3947827",
     "retrieved_at": "2026-08-23"
    },
    "_overrides": {
     "creation": {
      "at": "2026-08-23",
      "source": "derived from start date + Caravaggio's documented itinerary (approximate)"
     }
    },
    "museum_id": "santa-maria-del-carmine",
    "qid": "Q3947827",
    "wga_url": "https://www.wga.hu/html/m/masaccio/brancacc/st_peter/shadow_d.html"
   }
  },
  {
   "type": "Feature",
   "geometry": {
    "type": "Point",
    "coordinates": [
     13.36472,
     52.50861
    ]
   },
   "properties": {
    "painter": "Masaccio",
    "title": "Saint Augustine",
    "year": "1426",
    "city": "Bezirk Mitte",
    "country": "Germany",
    "location": "Gemäldegalerie Berlin",
    "kind": "museum",
    "attribution": "generally accepted",
    "status": "present",
    "medium": "Paint, poplar panel",
    "dimensions": "38 × 12 cm",
    "genre": "religious art",
    "image": "https://commons.wikimedia.org/wiki/Special:FilePath/Masaccio%2C%20polittico%20di%20pisa%2C%20sant%27agostino%2C%20berlino%2C%2038x12%20cm.jpg?width=420",
    "wikipedia_it": "https://it.wikipedia.org/wiki/Sant%27Agostino_(Masaccio)",
    "wikidata": "https://www.wikidata.org/wiki/Q3948660",
    "creation_place": "Pisa",
    "creation_lat": 43.7228,
    "creation_lon": 10.4017,
    "_source": {
     "source": "Wikidata",
     "url": "https://www.wikidata.org/wiki/Q3948660",
     "retrieved_at": "2026-08-23"
    },
    "_overrides": {
     "creation": {
      "at": "2026-08-23",
      "source": "derived from start date + Caravaggio's documented itinerary (approximate)"
     }
    },
    "museum_id": "gemaldegalerie-berlin",
    "qid": "Q3948660"
   }
  },
  {
   "type": "Feature",
   "geometry": {
    "type": "Point",
    "coordinates": [
     -118.475,
     34.0775
    ]
   },
   "properties": {
    "painter": "Masaccio",
    "title": "Saint Andrew",
    "year": "1426",
    "city": "Los Angeles",
    "country": "United States",
    "location": "Getty Center",
    "kind": "museum",
    "attribution": "generally accepted",
    "status": "present",
    "dimensions": "524 × 321 cm",
    "genre": "religious art",
    "image": "https://commons.wikimedia.org/wiki/Special:FilePath/Masaccio%2C%20polittico%20di%20pisa%2C%20sant%27andrea%2C%20malibu%2C%2051x31%20cm.jpg?width=420",
    "wikipedia_it": "https://it.wikipedia.org/wiki/Sant%27Andrea_(Masaccio)",
    "wikidata": "https://www.wikidata.org/wiki/Q3948700",
    "creation_place": "Pisa",
    "creation_lat": 43.7228,
    "creation_lon": 10.4017,
    "_source": {
     "source": "Wikidata",
     "url": "https://www.wikidata.org/wiki/Q3948700",
     "retrieved_at": "2026-08-23"
    },
    "_overrides": {
     "creation": {
      "at": "2026-08-23",
      "source": "derived from start date + Caravaggio's documented itinerary (approximate)"
     }
    },
    "museum_id": "getty-center",
    "qid": "Q3948700"
   }
  },
  {
   "type": "Feature",
   "geometry": {
    "type": "Point",
    "coordinates": [
     11.257717,
     43.770433
    ]
   },
   "properties": {
    "painter": "Masaccio",
    "title": "Saint Yves",
    "city": "Florence",
    "country": "Italy",
    "location": "Badia Fiorentina",
    "kind": "church",
    "attribution": "generally accepted",
    "status": "present",
    "genre": "religious art",
    "wikipedia_it": "https://it.wikipedia.org/wiki/Sant%27Ivo_(Masaccio)",
    "wikidata": "https://www.wikidata.org/wiki/Q3948886",
    "_source": {
     "source": "Wikidata",
     "url": "https://www.wikidata.org/wiki/Q3948886",
     "retrieved_at": "2026-08-23"
    },
    "museum_id": "badia-fiorentina",
    "qid": "Q3948886"
   }
  },
  {
   "type": "Feature",
   "geometry": {
    "type": "Point",
    "coordinates": [
     -0.1283,
     51.5089
    ]
   },
   "properties": {
    "painter": "Masaccio",
    "title": "Saints Jerome and John the Baptist",
    "year": "1428",
    "city": "London",
    "country": "United Kingdom",
    "location": "National Gallery",
    "kind": "museum",
    "attribution": "generally accepted",
    "status": "present",
    "dimensions": "125 × 59 cm",
    "genre": "religious art",
    "image": "https://commons.wikimedia.org/wiki/Special:FilePath/Masaccio%2C%20pala%20colonna%2C%20santi%20girolamo%20e%20giovanni%20battista.jpg?width=420",
    "wikipedia_it": "https://it.wikipedia.org/wiki/Santi_Girolamo_e_Giovanni_Battista",
    "wikidata": "https://www.wikidata.org/wiki/Q3949351",
    "creation_place": "Florence",
    "creation_lat": 43.7696,
    "creation_lon": 11.2558,
    "_source": {
     "source": "Wikidata",
     "url": "https://www.wikidata.org/wiki/Q3949351",
     "retrieved_at": "2026-08-23"
    },
    "_overrides": {
     "creation": {
      "at": "2026-08-23",
      "source": "derived from start date + Caravaggio's documented itinerary (approximate)"
     }
    },
    "museum_id": "national-gallery",
    "qid": "Q3949351",
    "wga_url": "https://www.wga.hu/html/m/masaccio/z_panels/jerome_d.html"
   }
  },
  {
   "type": "Feature",
   "geometry": {
    "type": "Point",
    "coordinates": [
     13.36472,
     52.50861
    ]
   },
   "properties": {
    "painter": "Masaccio",
    "title": "A Bearded Carmelite Saint",
    "year": "1426",
    "city": "Bezirk Mitte",
    "country": "Germany",
    "location": "Gemäldegalerie Berlin",
    "kind": "museum",
    "attribution": "generally accepted",
    "status": "present",
    "medium": "Paint, poplar panel",
    "dimensions": "38 × 12 cm",
    "genre": "religious art",
    "image": "https://commons.wikimedia.org/wiki/Special:FilePath/Masaccio%2C%20polittico%20di%20pisa%2C%20santo%20carmelitano%20barbuto%2C%20berlino%2C%2038x12%20cm.jpg?width=420",
    "wikipedia_it": "https://it.wikipedia.org/wiki/Santo_carmelitano_barbuto",
    "wikidata": "https://www.wikidata.org/wiki/Q3949530",
    "creation_place": "Pisa",
    "creation_lat": 43.7228,
    "creation_lon": 10.4017,
    "_source": {
     "source": "Wikidata",
     "url": "https://www.wikidata.org/wiki/Q3949530",
     "retrieved_at": "2026-08-23"
    },
    "_overrides": {
     "creation": {
      "at": "2026-08-23",
      "source": "derived from start date + Caravaggio's documented itinerary (approximate)"
     }
    },
    "museum_id": "gemaldegalerie-berlin",
    "qid": "Q3949530"
   }
  },
  {
   "type": "Feature",
   "geometry": {
    "type": "Point",
    "coordinates": [
     13.36472,
     52.50861
    ]
   },
   "properties": {
    "painter": "Masaccio",
    "title": "A Beardless Carmelite Saint",
    "year": "1426",
    "city": "Bezirk Mitte",
    "country": "Germany",
    "location": "Gemäldegalerie Berlin",
    "kind": "museum",
    "attribution": "generally accepted",
    "status": "present",
    "medium": "Paint, poplar panel",
    "dimensions": "38 × 12 cm",
    "genre": "religious art",
    "image": "https://commons.wikimedia.org/wiki/Special:FilePath/Masaccio%2C%20polittico%20di%20pisa%2C%20santo%20carmelitano%20imberbe%2C%20berlino%2C%2038x12%20cm.jpg?width=420",
    "wikipedia_it": "https://it.wikipedia.org/wiki/Santo_carmelitano_imberbe",
    "wikidata": "https://www.wikidata.org/wiki/Q3949531",
    "creation_place": "Pisa",
    "creation_lat": 43.7228,
    "creation_lon": 10.4017,
    "_source": {
     "source": "Wikidata",
     "url": "https://www.wikidata.org/wiki/Q3949531",
     "retrieved_at": "2026-08-23"
    },
    "_overrides": {
     "creation": {
      "at": "2026-08-23",
      "source": "derived from start date + Caravaggio's documented itinerary (approximate)"
     }
    },
    "museum_id": "gemaldegalerie-berlin",
    "qid": "Q3949531"
   }
  },
  {
   "type": "Feature",
   "geometry": {
    "type": "Point",
    "coordinates": [
     13.36472,
     52.50861
    ]
   },
   "properties": {
    "painter": "Masaccio",
    "title": "Altar predella; Right panel: The parricide of St. Julian - The miracle of St. Nicholas of Bari",
    "year": "1426",
    "city": "Bezirk Mitte",
    "country": "Germany",
    "location": "Gemäldegalerie Berlin",
    "kind": "museum",
    "attribution": "generally accepted",
    "status": "present",
    "medium": "Poplar panel, tempera",
    "dimensions": "22.2 × 62.7 cm",
    "genre": "religious art",
    "image": "https://commons.wikimedia.org/wiki/Special:FilePath/Masaccio.%20Stories%20of%20St%20Julian%20and%20St.%20Nicholas.%201426.%20Berlin-Dahlem.jpg?width=420",
    "wikipedia_it": "https://it.wikipedia.org/wiki/Storie_di_san_Giuliano_e_san_Nicola",
    "wikidata": "https://www.wikidata.org/wiki/Q3974493",
    "creation_place": "Pisa",
    "creation_lat": 43.7228,
    "creation_lon": 10.4017,
    "_source": {
     "source": "Wikidata",
     "url": "https://www.wikidata.org/wiki/Q3974493",
     "retrieved_at": "2026-08-23"
    },
    "_overrides": {
     "creation": {
      "at": "2026-08-23",
      "source": "derived from start date + Caravaggio's documented itinerary (approximate)"
     }
    },
    "museum_id": "gemaldegalerie-berlin",
    "qid": "Q3974493",
    "wga_url": "https://www.wga.hu/html/m/masaccio/pisa/pisa_pr4.html"
   }
  },
  {
   "type": "Feature",
   "geometry": {
    "type": "Point",
    "coordinates": [
     11.2542,
     43.7687
    ]
   },
   "properties": {
    "painter": "Masaccio",
    "title": "Carnesecchi Triptych",
    "year": "1423",
    "city": "Florence",
    "country": "Italy",
    "location": "Museo diocesano di Santo Stefano al Ponte",
    "kind": "museum",
    "attribution": "generally accepted",
    "status": "present",
    "genre": "religious art",
    "image": "https://commons.wikimedia.org/wiki/Special:FilePath/Masolino%2C%20trittico%20carnesecchi%2C%20opera%20trafugata%20nel%201923.jpg?width=420",
    "wikipedia_en": "https://en.wikipedia.org/wiki/Carnesecchi_Triptych",
    "wikipedia_it": "https://it.wikipedia.org/wiki/Trittico_Carnesecchi",
    "wikidata": "https://www.wikidata.org/wiki/Q3999092",
    "creation_place": "Florence",
    "creation_lat": 43.7696,
    "creation_lon": 11.2558,
    "_source": {
     "source": "Wikidata",
     "url": "https://www.wikidata.org/wiki/Q3999092",
     "retrieved_at": "2026-08-23"
    },
    "_overrides": {
     "creation": {
      "at": "2026-08-23",
      "source": "derived from start date + Caravaggio's documented itinerary (approximate)"
     }
    },
    "museum_id": "museo-diocesano-di-santo-stefano-al-ponte",
    "qid": "Q3999092"
   }
  },
  {
   "type": "Feature",
   "geometry": {
    "type": "Point",
    "coordinates": [
     11.53025,
     43.67545
    ]
   },
   "properties": {
    "painter": "Masaccio",
    "title": "San Giovenale Triptych",
    "year": "1422",
    "city": "Reggello",
    "country": "Italy",
    "location": "Masaccio Museum",
    "kind": "museum",
    "attribution": "generally accepted",
    "status": "present",
    "dimensions": "110 × 65 cm",
    "genre": "religious art",
    "image": "https://commons.wikimedia.org/wiki/Special:FilePath/Masaccio%2C%20trittico%20di%20san%20giovenale%2C%201422%2C%2001.JPG?width=420",
    "wikipedia_es": "https://es.wikipedia.org/wiki/Tr%C3%ADptico_de_San_Juvenal",
    "wikipedia_en": "https://en.wikipedia.org/wiki/San_Giovenale_Triptych",
    "wikipedia_it": "https://it.wikipedia.org/wiki/Trittico_di_San_Giovenale",
    "wikidata": "https://www.wikidata.org/wiki/Q3999132",
    "creation_place": "Florence",
    "creation_lat": 43.7696,
    "creation_lon": 11.2558,
    "_source": {
     "source": "Wikidata",
     "url": "https://www.wikidata.org/wiki/Q3999132",
     "retrieved_at": "2026-08-23"
    },
    "_overrides": {
     "creation": {
      "at": "2026-08-23",
      "source": "derived from start date + Caravaggio's documented itinerary (approximate)"
     }
    },
    "museum_id": "masaccio-museum",
    "qid": "Q3999132"
   }
  },
  {
   "type": "Feature",
   "geometry": {
    "type": "Point",
    "coordinates": [
     -71.05778,
     42.36028
    ]
   },
   "properties": {
    "painter": "Masaccio",
    "title": "A Young Man in a scarlet turban",
    "year": "1426",
    "city": "Boston",
    "country": "United States",
    "location": "Isabella Stewart Gardner Museum",
    "kind": "museum",
    "attribution": "attributed",
    "status": "present",
    "medium": "Panel",
    "dimensions": "41 × 30 cm",
    "genre": "portrait",
    "image": "https://commons.wikimedia.org/wiki/Special:FilePath/Masaccio%20-%20A%20Young%20Man%20in%20a%20Scarlet%20Turban%20-%20P15e26%20-%20Isabella%20Stewart%20Gardner%20Museum.jpg?width=420",
    "wikidata": "https://www.wikidata.org/wiki/Q66377761",
    "creation_place": "Pisa",
    "creation_lat": 43.7228,
    "creation_lon": 10.4017,
    "_source": {
     "source": "Wikidata",
     "url": "https://www.wikidata.org/wiki/Q66377761",
     "retrieved_at": "2026-08-23"
    },
    "_overrides": {
     "creation": {
      "at": "2026-08-23",
      "source": "derived from start date + Caravaggio's documented itinerary (approximate)"
     }
    },
    "museum_id": "isabella-stewart-gardner-museum",
    "qid": "Q66377761"
   }
  },
  {
   "type": "Feature",
   "geometry": {
    "type": "Point",
    "coordinates": [
     13.3645,
     52.50929
    ]
   },
   "properties": {
    "painter": "Masaccio",
    "title": "The Crucifixion of Saint Peter and the Decapitation of Saint John the Baptist",
    "year": "1426",
    "city": "Berlin",
    "country": "Germany",
    "location": "Staatliche Museen zu Berlin",
    "kind": "museum",
    "attribution": "attributed",
    "status": "present",
    "medium": "Panel",
    "dimensions": "22 × 62.2 cm",
    "genre": "religious art",
    "image": "https://commons.wikimedia.org/wiki/Special:FilePath/Masaccio.%20Crucifixion%20of%20St.%20Peter%20and%20Beheading%20of%20St.%20John%20the%20Baptist..jpg?width=420",
    "wikidata": "https://www.wikidata.org/wiki/Q99227759",
    "creation_place": "Pisa",
    "creation_lat": 43.7228,
    "creation_lon": 10.4017,
    "_source": {
     "source": "Wikidata",
     "url": "https://www.wikidata.org/wiki/Q99227759",
     "retrieved_at": "2026-08-23"
    },
    "_overrides": {
     "creation": {
      "at": "2026-08-23",
      "source": "derived from start date + Caravaggio's documented itinerary (approximate)"
     }
    },
    "museum_id": "staatliche-museen-zu-berlin",
    "qid": "Q99227759",
    "wga_url": "https://www.wga.hu/html/m/masaccio/pisa/pisa_pr2.html"
   }
  }
 ]
}