{"type": "FeatureCollection", "_note": "Generated by scripts/build.py from Wikidata. Do not edit by hand — put manual fixes in the painter's overlay (data/overlay/*.json). Each feature carries _source (scraped base or manual addition) and, when edited, _overrides.", "features": [{"type": "Feature", "geometry": {"type": "Point", "coordinates": [13.36472, 52.50861]}, "properties": {"painter": "Orazio Gentileschi", "title": "Bildnis einer jungen Frau mit Lamm (als Heilige Agnes)", "city": "Berlin", "country": "Germany", "location": "Gemäldegalerie Berlin", "kind": "museum", "attribution": "attributed", "status": "present", "medium": "Oil on canvas", "wikidata": "https://www.wikidata.org/wiki/Q107445446", "_source": {"source": "Wikidata", "url": "https://www.wikidata.org/wiki/Q107445446", "retrieved_at": "2026-09-25"}, "museum_id": "gemaldegalerie-berlin", "location_src": "Gemäldegalerie Berlin", "form": "painting", "city_src": "Bezirk Mitte", "_title_was": "Q107445446", "_title_src": "wikidata label (de)"}}, {"type": "Feature", "geometry": {"type": "Point", "coordinates": [8.930361, 44.411556]}, "properties": {"painter": "Orazio Gentileschi", "title": "Annunciation", "year": "1639", "city": "Genoa", "country": "Italy", "location": "San Siro", "kind": "church", "attribution": "attributed", "status": "present", "genre": "religious art", "wikidata": "https://www.wikidata.org/wiki/Q131450109", "creation_place": "London", "creation_lat": 51.5074, "creation_lon": -0.1278, "_source": {"source": "Wikidata", "url": "https://www.wikidata.org/wiki/Q131450109", "retrieved_at": "2026-09-25"}, "_overrides": {"creation": {"at": "2026-09-25", "source": "derived from start date + Caravaggio's documented itinerary (approximate)"}}, "museum_id": "san-siro", "location_src": "San Siro", "form": "painting"}}, {"type": "Feature", "geometry": {"type": "Point", "coordinates": [-2.93785, 43.26597]}, "properties": {"painter": "Orazio Gentileschi", "title": "Judith et sa servante", "year": "1612", "city": "Bilbao", "country": "Spain", "location": "Bilbao Fine Arts Museum", "kind": "museum", "attribution": "attributed", "status": "present", "medium": "Oil on canvas", "dimensions": "131 × 101 cm", "genre": "religious art", "image": "https://commons.wikimedia.org/wiki/Special:FilePath/Judith%20et%20sa%20servante%2C%20par%20Orazio%20Gentileschi.jpg?width=420", "wikidata": "https://www.wikidata.org/wiki/Q133653767", "creation_place": "Rome", "creation_lat": 41.9028, "creation_lon": 12.4964, "_source": {"source": "Wikidata", "url": "https://www.wikidata.org/wiki/Q133653767", "retrieved_at": "2026-09-25"}, "_overrides": {"creation": {"at": "2026-09-25", "source": "derived from start date + Caravaggio's documented itinerary (approximate)"}}, "museum_id": "bilbao-fine-arts-museum", "location_src": "Bilbao Fine Arts Museum", "form": "painting", "_title_was": "Q133653767", "_title_src": "wikidata label (fr)"}}, {"type": "Feature", "geometry": {"type": "Point", "coordinates": [-1.54722, 47.21944]}, "properties": {"painter": "Orazio Gentileschi", "title": "Diana the Huntress", "year": "1700", "city": "Nantes", "country": "France", "location": "Nantes Museum of Arts", "kind": "museum", "attribution": "generally accepted", "status": "present", "medium": "Oil on canvas", "dimensions": "215 × 135 cm", "genre": "mythological painting", "image": "https://commons.wikimedia.org/wiki/Special:FilePath/Diane%20Chasseresse%20%28Gentileschi%29.jpg?width=420", "wikipedia_it": "https://it.wikipedia.org/wiki/Diana_cacciatrice_(Orazio_Gentileschi)", "wikidata": "https://www.wikidata.org/wiki/Q17627591", "_source": {"source": "Wikidata", "url": "https://www.wikidata.org/wiki/Q17627591", "retrieved_at": "2026-09-25"}, "qid": "Q17627591", "_overrides": {"qid": {"at": "2026-09-25", "source": "Wikidata reconciliation", "note": "matched to Q17627591 by normalised title + year (±8), same creator (merge_wd_extras)"}}, "museum_id": "nantes-museum-of-arts", "location_src": "Nantes Museum of Arts", "form": "painting"}}, {"type": "Feature", "geometry": {"type": "Point", "coordinates": [2.3358, 48.8611]}, "properties": {"painter": "Orazio Gentileschi", "title": "Public Felicity Triumphant over Dangers", "year": "1623", "country": "France", "location": "Louvre", "kind": "museum", "attribution": "attributed", "status": "present", "medium": "Oil on canvas", "dimensions": "267 × 170 cm", "genre": "allegory", "image": "https://commons.wikimedia.org/wiki/Special:FilePath/Gentileschi%2C%20Orazio%20-%20Public%20Felicity%20Triumphant%20over%20Dangers%20-%201624-1625.jpg?width=420", "wikidata": "https://www.wikidata.org/wiki/Q18572437", "creation_place": "Genoa", "creation_lat": 44.4056, "creation_lon": 8.9463, "_source": {"source": "Wikidata", "url": "https://www.wikidata.org/wiki/Q18572437", "retrieved_at": "2026-09-25"}, "_overrides": {"creation": {"at": "2026-09-25", "source": "derived from start date + Caravaggio's documented itinerary (approximate)"}, "qid": {"at": "2026-09-25", "source": "Wikidata reconciliation", "note": "matched to Q18572437 by normalised title + year (±8), same creator (merge_wd_extras)"}}, "qid": "Q18572437", "museum_id": "louvre", "location_src": "Department of Paintings of the Louvre", "form": "painting", "city": "Paris"}}, {"type": "Feature", "geometry": {"type": "Point", "coordinates": [-2.93785, 43.26597]}, "properties": {"painter": "Orazio Gentileschi", "title": "Lot and His Daughters", "year": "1628", "city": "Bilbao", "country": "Spain", "location": "Bilbao Fine Arts Museum", "kind": "museum", "attribution": "generally accepted", "status": "present", "medium": "Oil on canvas", "dimensions": "226 × 282 cm", "genre": "religious art", "image": "https://commons.wikimedia.org/wiki/Special:FilePath/Orazio%20Gentileschi%20-%20Lot%20and%20His%20Daughters%20-%20Google%20Art%20Project.jpg?width=420", "wikipedia_es": "https://es.wikipedia.org/wiki/Lot_y_sus_hijas_(Museo_de_Bellas_Artes_de_Bilbao)", "wikipedia_en": "https://en.wikipedia.org/wiki/Lot_and_His_Daughters_(Orazio_Gentileschi,_Bilbao)", "wikidata": "https://www.wikidata.org/wiki/Q5966543", "creation_place": "London", "creation_lat": 51.5074, "creation_lon": -0.1278, "_source": {"source": "Wikidata", "url": "https://www.wikidata.org/wiki/Q18688278", "retrieved_at": "2026-09-25"}, "_overrides": {"creation": {"at": "2026-09-25", "source": "derived from start date + Caravaggio's documented itinerary (approximate)"}, "qid": {"at": "2026-09-25", "source": "Wikidata reconciliation", "note": "matched to Q5966543 by normalised title + year (±8), same creator (merge_wd_extras)"}}, "qid": "Q5966543", "museum_id": "bilbao-fine-arts-museum", "location_src": "Bilbao Fine Arts Museum", "form": "painting"}}, {"type": "Feature", "geometry": {"type": "Point", "coordinates": [-77.02, 38.89139]}, "properties": {"painter": "Orazio Gentileschi", "title": "Saint Cecilia with an Angel", "year": "1618", "city": "Washington, D.C.", "country": "United States", "location": "National Gallery of Art", "kind": "museum", "attribution": "attributed", "status": "present", "medium": "Oil on canvas", "dimensions": "87.5 × 108 cm", "genre": "religious art", "image": "https://commons.wikimedia.org/wiki/Special:FilePath/Orazio%20Gentileschi%20-%20Saint%20Cecilia%20with%20an%20Angel.JPG?width=420", "wikidata": "https://www.wikidata.org/wiki/Q19931311", "creation_place": "Rome", "creation_lat": 41.9028, "creation_lon": 12.4964, "_source": {"source": "Wikidata", "url": "https://www.wikidata.org/wiki/Q19931311", "retrieved_at": "2026-09-25"}, "_overrides": {"creation": {"at": "2026-09-25", "source": "derived from start date + Caravaggio's documented itinerary (approximate)"}, "qid": {"at": "2026-09-25", "source": "Wikidata reconciliation", "note": "matched to Q19931311 by normalised title + year (±8), same creator (merge_wd_extras)"}}, "qid": "Q19931311", "museum_id": "national-gallery-of-art", "location_src": "National Gallery of Art", "form": "painting"}}, {"type": "Feature", "geometry": {"type": "Point", "coordinates": [-77.02, 38.89139]}, "properties": {"painter": "Orazio Gentileschi", "title": "The Lute Player", "year": "1612", "city": "Washington, D.C.", "country": "United States", "location": "National Gallery of Art", "kind": "museum", "attribution": "generally accepted", "status": "present", "medium": "Oil on canvas", "dimensions": "143.5 × 129 cm", "image": "https://commons.wikimedia.org/wiki/Special:FilePath/Orazio%20Gentileschi%20-%20Il%20suonatore%20di%20liuto%20%28National%20Gallery%20of%20Art%29.jpg?width=420", "wikipedia_en": "https://en.wikipedia.org/wiki/The_Lute_Player_(Orazio_Gentileschi)", "wikipedia_it": "https://it.wikipedia.org/wiki/Suonatrice_di_liuto_(Orazio_Gentileschi)", "wikidata": "https://www.wikidata.org/wiki/Q20176925", "creation_place": "Rome", "creation_lat": 41.9028, "creation_lon": 12.4964, "_source": {"source": "Wikidata", "url": "https://www.wikidata.org/wiki/Q20176925", "retrieved_at": "2026-09-25"}, "_overrides": {"creation": {"at": "2026-09-25", "source": "derived from start date + Caravaggio's documented itinerary (approximate)"}, "qid": {"at": "2026-09-25", "source": "Wikidata reconciliation", "note": "matched to Q20176925 by normalised title + year (±8), same creator (merge_wd_extras)"}}, "qid": "Q20176925", "museum_id": "national-gallery-of-art", "location_src": "National Gallery of Art", "form": "painting"}}, {"type": "Feature", "geometry": {"type": "Point", "coordinates": [-118.475, 34.0775]}, "properties": {"painter": "Orazio Gentileschi", "title": "Lot and his Daughters", "year": "1622", "city": "Los Angeles", "country": "United States", "location": "Getty Center", "kind": "museum", "attribution": "generally accepted", "status": "present", "medium": "Oil on canvas", "dimensions": "151.8 × 189.2 cm", "genre": "religious art", "image": "https://commons.wikimedia.org/wiki/Special:FilePath/Orazio%20Gentileschi%20-%20Lot%20e%20le%20figlie%20%28Getty%20Center%29.jpg?width=420", "wikipedia_en": "https://en.wikipedia.org/wiki/Lot_and_His_Daughters_(Orazio_Gentileschi,_Los_Angeles)", "wikidata": "https://www.wikidata.org/wiki/Q20178589", "creation_place": "Genoa", "creation_lat": 44.4056, "creation_lon": 8.9463, "_source": {"source": "Wikidata", "url": "https://www.wikidata.org/wiki/Q20178589", "retrieved_at": "2026-09-25"}, "_overrides": {"creation": {"at": "2026-09-25", "source": "derived from start date + Caravaggio's documented itinerary (approximate)"}}, "museum_id": "getty-center", "location_src": "Getty Center", "form": "painting", "venue_of": "J. Paul Getty Museum"}}, {"type": "Feature", "geometry": {"type": "Point", "coordinates": [144.96889, -37.8225]}, "properties": {"painter": "Orazio Gentileschi", "title": "The Mocking of Christ", "city": "City of Melbourne", "country": "Australia", "location": "National Gallery of Victoria", "kind": "museum", "attribution": "attributed", "status": "present", "medium": "Oil on canvas", "dimensions": "124.5 × 159.5 cm", "genre": "religious art", "wikidata": "https://www.wikidata.org/wiki/Q29057068", "_source": {"source": "Wikidata", "url": "https://www.wikidata.org/wiki/Q20426102", "retrieved_at": "2026-09-25"}, "qid": "Q29057068", "_overrides": {"qid": {"at": "2026-09-25", "source": "Wikidata reconciliation", "note": "matched to Q29057068 by normalised title + year (±8), same creator (merge_wd_extras)"}}, "museum_id": "national-gallery-of-victoria", "location_src": "National Gallery of Victoria", "form": "painting"}}, {"type": "Feature", "geometry": {"type": "Point", "coordinates": [-71.09417, 42.33944]}, "properties": {"painter": "Orazio Gentileschi", "title": "Saint Francis Supported by an Angel", "year": "1600", "city": "Boston", "country": "United States", "location": "Museum of Fine Arts Boston", "kind": "museum", "attribution": "attributed", "status": "present", "medium": "Oil on canvas", "dimensions": "139.4 × 101 cm", "genre": "religious art", "image": "https://commons.wikimedia.org/wiki/Special:FilePath/Orazio%20Gentileschi%20-%20St.%20Francis%20Supported%20by%20an%20Angel%20-%20MFA%202010.374.jpg?width=420", "wikidata": "https://www.wikidata.org/wiki/Q20553378", "creation_place": "Rome", "creation_lat": 41.9028, "creation_lon": 12.4964, "_source": {"source": "Wikidata", "url": "https://www.wikidata.org/wiki/Q20553378", "retrieved_at": "2026-09-25"}, "_overrides": {"creation": {"at": "2026-09-25", "source": "derived from start date + Caravaggio's documented itinerary (approximate)"}, "qid": {"at": "2026-09-25", "source": "Wikidata reconciliation", "note": "matched to Q20553378 by normalised title + year (±8), same creator (merge_wd_extras)"}}, "qid": "Q20553378", "museum_id": "museum-of-fine-arts-boston", "location_src": "Museum of Fine Arts Boston", "form": "painting"}}, {"type": "Feature", "geometry": {"type": "Point", "coordinates": [30.31361, 59.94056]}, "properties": {"painter": "Orazio Gentileschi", "title": "Cupid and Psyche", "year": "1610", "city": "Saint Petersburg", "country": "Russia", "location": "Hermitage Museum", "kind": "museum", "attribution": "attributed", "status": "present", "medium": "Oil on canvas", "dimensions": "136.5 × 160 cm", "genre": "mythological painting", "image": "https://commons.wikimedia.org/wiki/Special:FilePath/Hermitageoraziogentileschicupidandpsyche.jpg?width=420", "wikidata": "https://www.wikidata.org/wiki/Q21722622", "creation_place": "Rome", "creation_lat": 41.9028, "creation_lon": 12.4964, "_source": {"source": "Wikidata", "url": "https://www.wikidata.org/wiki/Q21722622", "retrieved_at": "2026-09-25"}, "_overrides": {"creation": {"at": "2026-09-25", "source": "derived from start date + Caravaggio's documented itinerary (approximate)"}, "qid": {"at": "2026-09-25", "source": "Wikidata reconciliation", "note": "matched to Q21722622 by normalised title + year (±8), same creator (merge_wd_extras)"}}, "qid": "Q21722622", "museum_id": "hermitage-museum", "location_src": "Hermitage Museum", "form": "painting"}}, {"type": "Feature", "geometry": {"type": "Point", "coordinates": [-118.475, 34.0775]}, "properties": {"painter": "Orazio Gentileschi", "title": "Danaë", "year": "1623", "city": "Los Angeles", "country": "United States", "location": "Getty Center", "kind": "museum", "attribution": "generally accepted", "status": "present", "medium": "Oil on canvas", "dimensions": "161.5 × 227.1 cm", "genre": "mythological painting", "image": "https://commons.wikimedia.org/wiki/Special:FilePath/Orazio%20Gentileschi%20-%20Dana%C3%AB%20and%20the%20Shower%20of%20Gold%20-%202016.6%20-%20J.%20Paul%20Getty%20Museum.jpg?width=420", "wikipedia_en": "https://en.wikipedia.org/wiki/Dana%C3%AB_(Orazio_Gentileschi)", "wikipedia_it": "https://it.wikipedia.org/wiki/Danae_(Orazio_Gentileschi)", "wikidata": "https://www.wikidata.org/wiki/Q22329907", "creation_place": "Genoa", "creation_lat": 44.4056, "creation_lon": 8.9463, "_source": {"source": "Wikidata", "url": "https://www.wikidata.org/wiki/Q22329907", "retrieved_at": "2026-09-25"}, "_overrides": {"creation": {"at": "2026-09-25", "source": "derived from start date + Caravaggio's documented itinerary (approximate)"}, "qid": {"at": "2026-09-25", "source": "Wikidata reconciliation", "note": "matched to Q22329907 by normalised title + year (±8), same creator (merge_wd_extras)"}}, "qid": "Q22329907", "museum_id": "getty-center", "location_src": "Getty Center", "form": "painting", "venue_of": "J. Paul Getty Museum"}}, {"type": "Feature", "geometry": {"type": "Point", "coordinates": [-0.1283, 51.5089]}, "properties": {"painter": "Orazio Gentileschi", "title": "The Finding of Moses", "year": "1634", "city": "London", "country": "United Kingdom", "location": "National Gallery", "kind": "museum", "attribution": "generally accepted", "status": "present", "medium": "Oil on canvas", "dimensions": "257 × 301 cm", "genre": "religious art", "image": "https://commons.wikimedia.org/wiki/Special:FilePath/Orazio%20Gentileschi%20-%20Mos%C3%A8%20salvato%20dalle%20acque%20%28National%20Gallery%2C%20London%29.jpg?width=420", "wikipedia_en": "https://en.wikipedia.org/wiki/The_Finding_of_Moses_(Orazio_Gentileschi)", "wikipedia_it": "https://it.wikipedia.org/wiki/Mos%C3%A8_salvato_dalle_acque_(Orazio_Gentileschi)", "wikidata": "https://www.wikidata.org/wiki/Q26713329", "creation_place": "London", "creation_lat": 51.5074, "creation_lon": -0.1278, "_source": {"source": "Wikidata", "url": "https://www.wikidata.org/wiki/Q26713329", "retrieved_at": "2026-09-25"}, "_overrides": {"creation": {"at": "2026-09-25", "source": "derived from start date + Caravaggio's documented itinerary (approximate)"}, "qid": {"at": "2026-09-25", "source": "Wikidata reconciliation", "note": "matched to Q26713329 by normalised title + year (±8), same creator (merge_wd_extras)"}}, "qid": "Q26713329", "museum_id": "national-gallery", "location_src": "National Gallery", "form": "painting"}}, {"type": "Feature", "geometry": {"type": "Point", "coordinates": [-3.6922, 40.4139]}, "properties": {"painter": "Orazio Gentileschi", "title": "Saint Francis supported by an Angel", "year": "1607", "city": "Madrid", "country": "Spain", "location": "Museo del Prado", "kind": "museum", "attribution": "attributed", "status": "present", "medium": "Oil on canvas", "dimensions": "126 × 98 cm", "genre": "religious art", "image": "https://commons.wikimedia.org/wiki/Special:FilePath/Orazio%20Gentileschi%20-%20St%20Francis%20Supported%20by%20an%20Angel%20-%20WGA8583.jpg?width=420", "wikidata": "https://www.wikidata.org/wiki/Q27699363", "creation_place": "Rome", "creation_lat": 41.9028, "creation_lon": 12.4964, "_source": {"source": "Wikidata", "url": "https://www.wikidata.org/wiki/Q27699363", "retrieved_at": "2026-09-25"}, "_overrides": {"creation": {"at": "2026-09-25", "source": "derived from start date + Caravaggio's documented itinerary (approximate)"}}, "museum_id": "museo-del-prado", "location_src": "Museo del Prado", "form": "painting"}}, {"type": "Feature", "geometry": {"type": "Point", "coordinates": [-3.6922, 40.4139]}, "properties": {"painter": "Orazio Gentileschi", "title": "The Finding of Moses", "year": "1633", "city": "Madrid", "country": "Spain", "location": "Museo del Prado", "kind": "museum", "attribution": "generally accepted", "status": "present", "medium": "Oil on canvas", "dimensions": "242 × 281 cm", "genre": "religious art", "image": "https://commons.wikimedia.org/wiki/Special:FilePath/Mois%C3%A9s%20salvado%20de%20las%20aguas%20%28Orazio%20Gentileschi%29.jpg?width=420", "wikipedia_es": "https://es.wikipedia.org/wiki/Mois%C3%A9s_salvado_de_las_aguas_(O._Gentileschi)", "wikipedia_en": "https://en.wikipedia.org/wiki/The_Finding_of_Moses_(Gentileschi,_Madrid)", "wikidata": "https://www.wikidata.org/wiki/Q27700846", "creation_place": "London", "creation_lat": 51.5074, "creation_lon": -0.1278, "_source": {"source": "Wikidata", "url": "https://www.wikidata.org/wiki/Q27700846", "retrieved_at": "2026-09-25"}, "_overrides": {"creation": {"at": "2026-09-25", "source": "derived from start date + Caravaggio's documented itinerary (approximate)"}}, "museum_id": "museo-del-prado", "location_src": "Museo del Prado", "form": "painting"}}, {"type": "Feature", "geometry": {"type": "Point", "coordinates": [16.3616, 48.20388]}, "properties": {"painter": "Orazio Gentileschi", "title": "Carrying the Cross", "year": "1607", "city": "Vienna", "country": "Austria", "location": "Kunsthistorisches Museum", "kind": "museum", "attribution": "attributed", "status": "present", "medium": "Oil on panel", "dimensions": "138.5 × 173 cm", "genre": "religious art", "image": "https://commons.wikimedia.org/wiki/Special:FilePath/Orazio%20Gentileschi%20-%20Carrying%20the%20Cross%20GG%201553.jpg?width=420", "wikidata": "https://www.wikidata.org/wiki/Q27981974", "creation_place": "Rome", "creation_lat": 41.9028, "creation_lon": 12.4964, "_source": {"source": "Wikidata", "url": "https://www.wikidata.org/wiki/Q27981974", "retrieved_at": "2026-09-25"}, "_overrides": {"creation": {"at": "2026-09-25", "source": "derived from start date + Caravaggio's documented itinerary (approximate)"}, "qid": {"at": "2026-09-25", "source": "Wikidata reconciliation", "note": "matched to Q27981974 by normalised title + year (±8), same creator (merge_wd_extras)"}}, "qid": "Q27981974", "museum_id": "kunsthistorisches-museum", "location_src": "Kunsthistorisches Museum", "form": "painting"}}, {"type": "Feature", "geometry": {"type": "Point", "coordinates": [-0.142, 51.501]}, "properties": {"painter": "Orazio Gentileschi", "title": "The Muses: Euterpe and Calliope", "country": "United Kingdom", "location": "Buckingham Palace", "kind": "museum", "attribution": "attributed", "status": "present", "image": "https://commons.wikimedia.org/wiki/Special:FilePath/Orazio%20Gentileschi%20%28Pisa%201563-London%201639%29%20-%20The%20Muses%2C%20Euterpe%20and%20Calliope%20-%20RCIN%20408472%20-%20Royal%20Collection.jpg?width=420", "wikidata": "https://www.wikidata.org/wiki/Q28021777", "_source": {"source": "Wikidata", "url": "https://www.wikidata.org/wiki/Q28021777", "retrieved_at": "2026-09-25"}, "qid": "Q28021777", "_overrides": {"qid": {"at": "2026-09-25", "source": "Wikidata reconciliation", "note": "matched to Q28021777 by normalised title + year (±8), same creator (merge_wd_extras)"}}, "location_src": "Royal Collection", "museum_id": "buckingham-palace", "form": "painting", "venue_of": "Royal Collection", "city": "England"}}, {"type": "Feature", "geometry": {"type": "Point", "coordinates": [-0.13583, 51.505]}, "properties": {"painter": "Orazio Gentileschi", "title": "An Allegory of Peace and the Arts", "year": "1639", "city": "London", "country": "United Kingdom", "location": "Marlborough House", "kind": "museum", "attribution": "attributed", "status": "present", "medium": "Oil on canvas", "genre": "allegory", "image": "https://commons.wikimedia.org/wiki/Special:FilePath/Orazio%20Gentileschi%20%28Pisa%201563-London%201639%29%20-%20An%20Allegory%20of%20Peace%20and%20the%20Arts%20-%20RCIN%20408464%20-%20Royal%20Collection.jpg?width=420", "wikidata": "https://www.wikidata.org/wiki/Q28027610", "creation_place": "London", "creation_lat": 51.5074, "creation_lon": -0.1278, "_source": {"source": "Wikidata", "url": "https://www.wikidata.org/wiki/Q28027610", "retrieved_at": "2026-09-25"}, "_overrides": {"creation": {"at": "2026-09-25", "source": "derived from start date + Caravaggio's documented itinerary (approximate)"}, "qid": {"at": "2026-09-25", "source": "Wikidata reconciliation", "note": "matched to Q28027610 by normalised title + year (±8), same creator (merge_wd_extras)"}}, "qid": "Q28027610", "museum_id": "marlborough-house", "location_src": "Marlborough House", "form": "painting"}}, {"type": "Feature", "geometry": {"type": "Point", "coordinates": [-0.142, 51.501]}, "properties": {"painter": "Orazio Gentileschi", "title": "Personification of Music", "year": "1636", "country": "United Kingdom", "location": "Buckingham Palace", "kind": "museum", "attribution": "attributed", "status": "present", "image": "https://commons.wikimedia.org/wiki/Special:FilePath/Orazio%20Gentileschi%20%28Pisa%201563-London%201639%29%20-%20Personification%20of%20Music%20-%20RCIN%20408465%20-%20Royal%20Collection.jpg?width=420", "wikidata": "https://www.wikidata.org/wiki/Q28027612", "creation_place": "London", "creation_lat": 51.5074, "creation_lon": -0.1278, "_source": {"source": "Wikidata", "url": "https://www.wikidata.org/wiki/Q28027612", "retrieved_at": "2026-09-25"}, "_overrides": {"creation": {"at": "2026-09-25", "source": "derived from start date + Caravaggio's documented itinerary (approximate)"}, "qid": {"at": "2026-09-25", "source": "Wikidata reconciliation", "note": "matched to Q28027612 by normalised title + year (±8), same creator (merge_wd_extras)"}}, "qid": "Q28027612", "location_src": "Royal Collection", "museum_id": "buckingham-palace", "form": "painting", "venue_of": "Royal Collection", "city": "England"}}, {"type": "Feature", "geometry": {"type": "Point", "coordinates": [-0.142, 51.501]}, "properties": {"painter": "Orazio Gentileschi", "title": "Personification of Painting", "year": "1636", "country": "United Kingdom", "location": "Buckingham Palace", "kind": "museum", "attribution": "attributed", "status": "present", "image": "https://commons.wikimedia.org/wiki/Special:FilePath/Orazio%20Gentileschi%20%28Pisa%201563-London%201639%29%20-%20Personification%20of%20Painting%20-%20RCIN%20408466%20-%20Royal%20Collection.jpg?width=420", "wikidata": "https://www.wikidata.org/wiki/Q28027614", "creation_place": "London", "creation_lat": 51.5074, "creation_lon": -0.1278, "_source": {"source": "Wikidata", "url": "https://www.wikidata.org/wiki/Q28027614", "retrieved_at": "2026-09-25"}, "_overrides": {"creation": {"at": "2026-09-25", "source": "derived from start date + Caravaggio's documented itinerary (approximate)"}, "qid": {"at": "2026-09-25", "source": "Wikidata reconciliation", "note": "matched to Q28027614 by normalised title + year (±8), same creator (merge_wd_extras)"}}, "qid": "Q28027614", "location_src": "Royal Collection", "museum_id": "buckingham-palace", "form": "painting", "venue_of": "Royal Collection", "city": "England"}}, {"type": "Feature", "geometry": {"type": "Point", "coordinates": [-0.142, 51.501]}, "properties": {"painter": "Orazio Gentileschi", "title": "Personification of Architecture", "year": "1636", "country": "United Kingdom", "location": "Buckingham Palace", "kind": "museum", "attribution": "attributed", "status": "present", "image": "https://commons.wikimedia.org/wiki/Special:FilePath/Orazio%20Gentileschi%20%28Pisa%201563-London%201639%29%20-%20Personification%20of%20Architecture%20-%20RCIN%20408467%20-%20Royal%20Collection.jpg?width=420", "wikidata": "https://www.wikidata.org/wiki/Q28027615", "creation_place": "London", "creation_lat": 51.5074, "creation_lon": -0.1278, "_source": {"source": "Wikidata", "url": "https://www.wikidata.org/wiki/Q28027615", "retrieved_at": "2026-09-25"}, "_overrides": {"creation": {"at": "2026-09-25", "source": "derived from start date + Caravaggio's documented itinerary (approximate)"}, "qid": {"at": "2026-09-25", "source": "Wikidata reconciliation", "note": "matched to Q28027615 by normalised title + year (±8), same creator (merge_wd_extras)"}}, "qid": "Q28027615", "location_src": "Royal Collection", "museum_id": "buckingham-palace", "form": "painting", "venue_of": "Royal Collection", "city": "England"}}, {"type": "Feature", "geometry": {"type": "Point", "coordinates": [-0.142, 51.501]}, "properties": {"painter": "Orazio Gentileschi", "title": "Personification of Sculpture", "year": "1636", "country": "United Kingdom", "location": "Buckingham Palace", "kind": "museum", "attribution": "attributed", "status": "present", "medium": "Oil on canvas", "image": "https://commons.wikimedia.org/wiki/Special:FilePath/Orazio%20Gentileschi%20%28Pisa%201563-London%201639%29%20-%20Personification%20of%20Sculpture%20-%20RCIN%20408468%20-%20Royal%20Collection.jpg?width=420", "wikidata": "https://www.wikidata.org/wiki/Q28027617", "creation_place": "London", "creation_lat": 51.5074, "creation_lon": -0.1278, "_source": {"source": "Wikidata", "url": "https://www.wikidata.org/wiki/Q28027617", "retrieved_at": "2026-09-25"}, "_overrides": {"creation": {"at": "2026-09-25", "source": "derived from start date + Caravaggio's documented itinerary (approximate)"}, "qid": {"at": "2026-09-25", "source": "Wikidata reconciliation", "note": "matched to Q28027617 by normalised title + year (±8), same creator (merge_wd_extras)"}}, "qid": "Q28027617", "location_src": "Royal Collection", "museum_id": "buckingham-palace", "form": "painting", "venue_of": "Royal Collection", "city": "England"}}, {"type": "Feature", "geometry": {"type": "Point", "coordinates": [-0.142, 51.501]}, "properties": {"painter": "Orazio Gentileschi", "title": "The Muses: Urania, Calliope and Melpomene", "year": "1636", "country": "United Kingdom", "location": "Buckingham Palace", "kind": "museum", "attribution": "attributed", "status": "present", "image": "https://commons.wikimedia.org/wiki/Special:FilePath/Orazio%20Gentileschi%20%28Pisa%201563-London%201639%29%20-%20The%20Muses%2C%20Urania%2C%20Calliope%20and%20Melpomene%20-%20RCIN%20408469%20-%20Royal%20Collection.jpg?width=420", "wikidata": "https://www.wikidata.org/wiki/Q28027618", "creation_place": "London", "creation_lat": 51.5074, "creation_lon": -0.1278, "_source": {"source": "Wikidata", "url": "https://www.wikidata.org/wiki/Q28027618", "retrieved_at": "2026-09-25"}, "_overrides": {"creation": {"at": "2026-09-25", "source": "derived from start date + Caravaggio's documented itinerary (approximate)"}, "qid": {"at": "2026-09-25", "source": "Wikidata reconciliation", "note": "matched to Q28027618 by normalised title + year (±8), same creator (merge_wd_extras)"}}, "qid": "Q28027618", "location_src": "Royal Collection", "museum_id": "buckingham-palace", "form": "painting", "venue_of": "Royal Collection", "city": "England"}}, {"type": "Feature", "geometry": {"type": "Point", "coordinates": [-0.142, 51.501]}, "properties": {"painter": "Orazio Gentileschi", "title": "Two Muses", "year": "1636", "country": "United Kingdom", "location": "Buckingham Palace", "kind": "museum", "attribution": "attributed", "status": "present", "image": "https://commons.wikimedia.org/wiki/Special:FilePath/Orazio%20Gentileschi%20%28Pisa%201563-London%201639%29%20-%20Two%20Muses%20-%20RCIN%20408470%20-%20Royal%20Collection.jpg?width=420", "wikidata": "https://www.wikidata.org/wiki/Q28027620", "creation_place": "London", "creation_lat": 51.5074, "creation_lon": -0.1278, "_source": {"source": "Wikidata", "url": "https://www.wikidata.org/wiki/Q28027620", "retrieved_at": "2026-09-25"}, "_overrides": {"creation": {"at": "2026-09-25", "source": "derived from start date + Caravaggio's documented itinerary (approximate)"}, "qid": {"at": "2026-09-25", "source": "Wikidata reconciliation", "note": "matched to Q28027620 by normalised title + year (±8), same creator (merge_wd_extras)"}}, "qid": "Q28027620", "location_src": "Royal Collection", "museum_id": "buckingham-palace", "form": "painting", "venue_of": "Royal Collection", "city": "England"}}, {"type": "Feature", "geometry": {"type": "Point", "coordinates": [-0.142, 51.501]}, "properties": {"painter": "Orazio Gentileschi", "title": "Two Muses", "year": "1636", "country": "United Kingdom", "location": "Buckingham Palace", "kind": "museum", "attribution": "attributed", "status": "present", "dimensions": "162.5 × 566.4 cm", "image": "https://commons.wikimedia.org/wiki/Special:FilePath/Orazio%20Gentileschi%20%28Pisa%201563-London%201639%29%20-%20Two%20Muses%20-%20RCIN%20408471%20-%20Royal%20Collection.jpg?width=420", "wikidata": "https://www.wikidata.org/wiki/Q28027625", "creation_place": "London", "creation_lat": 51.5074, "creation_lon": -0.1278, "_source": {"source": "Wikidata", "url": "https://www.wikidata.org/wiki/Q28027625", "retrieved_at": "2026-09-25"}, "_overrides": {"creation": {"at": "2026-09-25", "source": "derived from start date + Caravaggio's documented itinerary (approximate)"}}, "location_src": "Royal Collection", "museum_id": "buckingham-palace", "form": "painting", "venue_of": "Royal Collection", "city": "England"}}, {"type": "Feature", "geometry": {"type": "Point", "coordinates": [-0.142, 51.501]}, "properties": {"painter": "Orazio Gentileschi", "title": "Joseph and Potiphar's Wife", "year": "1632", "country": "United Kingdom", "location": "Buckingham Palace", "kind": "museum", "attribution": "generally accepted", "status": "present", "medium": "Oil on canvas", "dimensions": "206 × 261.9 cm", "genre": "religious art", "image": "https://commons.wikimedia.org/wiki/Special:FilePath/Orazio%20Gentileschi%20%28Pisa%201563-London%201639%29%20-%20Joseph%20and%20Potiphar%27s%20wife%20-%20RCIN%20405477%20-%20Royal%20Collection.jpg?width=420", "wikipedia_en": "https://en.wikipedia.org/wiki/Joseph_and_Potiphar%27s_Wife_(Orazio_Gentileschi)", "wikidata": "https://www.wikidata.org/wiki/Q28031064", "creation_place": "London", "creation_lat": 51.5074, "creation_lon": -0.1278, "_source": {"source": "Wikidata", "url": "https://www.wikidata.org/wiki/Q28031064", "retrieved_at": "2026-09-25"}, "_overrides": {"creation": {"at": "2026-09-25", "source": "derived from start date + Caravaggio's documented itinerary (approximate)"}, "qid": {"at": "2026-09-25", "source": "Wikidata reconciliation", "note": "matched to Q28031064 by normalised title + year (±8), same creator (merge_wd_extras)"}}, "qid": "Q28031064", "location_src": "Royal Collection", "museum_id": "buckingham-palace", "form": "painting", "venue_of": "Royal Collection", "city": "England"}}, {"type": "Feature", "geometry": {"type": "Point", "coordinates": [-0.142, 51.501]}, "properties": {"painter": "Orazio Gentileschi", "title": "A Sibyl", "year": "1630", "country": "United Kingdom", "location": "Buckingham Palace", "kind": "museum", "attribution": "attributed", "status": "present", "medium": "Oil on canvas", "dimensions": "59.9 × 68.7 cm", "genre": "mythological painting", "image": "https://commons.wikimedia.org/wiki/Special:FilePath/Orazio%20Gentileschi%20%28Pisa%201563-London%201639%29%20-%20A%20Sibyl%20-%20RCIN%20405560%20-%20Royal%20Collection.jpg?width=420", "wikidata": "https://www.wikidata.org/wiki/Q28031072", "creation_place": "London", "creation_lat": 51.5074, "creation_lon": -0.1278, "_source": {"source": "Wikidata", "url": "https://www.wikidata.org/wiki/Q28031072", "retrieved_at": "2026-09-25"}, "_overrides": {"creation": {"at": "2026-09-25", "source": "derived from start date + Caravaggio's documented itinerary (approximate)"}, "qid": {"at": "2026-09-25", "source": "Wikidata reconciliation", "note": "matched to Q28031072 by normalised title + year (±8), same creator (merge_wd_extras)"}}, "qid": "Q28031072", "location_src": "Royal Collection", "museum_id": "buckingham-palace", "form": "painting", "venue_of": "Royal Collection", "city": "England"}}, {"type": "Feature", "geometry": {"type": "Point", "coordinates": [-95.39054, 29.72561]}, "properties": {"painter": "Orazio Gentileschi", "title": "Portrait of a Young Woman as a Sibyl", "year": "1620", "city": "Houston", "country": "United States", "location": "Museum of Fine Arts, Houston", "kind": "museum", "attribution": "attributed", "status": "present", "medium": "Oil on canvas", "dimensions": "816.1 × 730.2 cm", "genre": "portrait", "image": "https://commons.wikimedia.org/wiki/Special:FilePath/Orazio%20Gentileschi%20-%20Portrait%20of%20a%20Young%20Woman%20as%20a%20Sibyl%20-%20Google%20Art%20Project.jpg?width=420", "wikidata": "https://www.wikidata.org/wiki/Q28042942", "creation_place": "Rome", "creation_lat": 41.9028, "creation_lon": 12.4964, "_source": {"source": "Wikidata", "url": "https://www.wikidata.org/wiki/Q28042942", "retrieved_at": "2026-09-25"}, "_overrides": {"creation": {"at": "2026-09-25", "source": "derived from start date + Caravaggio's documented itinerary (approximate)"}, "qid": {"at": "2026-09-25", "source": "Wikidata reconciliation", "note": "matched to Q28042942 by normalised title + year (±8), same creator (merge_wd_extras)"}}, "qid": "Q28042942", "museum_id": "museum-of-fine-arts-houston", "location_src": "Museum of Fine Arts, Houston", "form": "painting"}}, {"type": "Feature", "geometry": {"type": "Point", "coordinates": [-95.39054, 29.72561]}, "properties": {"painter": "Orazio Gentileschi", "title": "The Stigmatization of Saint Francis", "year": "1601", "city": "Houston", "country": "United States", "location": "Museum of Fine Arts, Houston", "kind": "museum", "attribution": "attributed", "status": "present", "medium": "Oil on canvas", "dimensions": "165.1 × 116.2 cm", "genre": "religious art", "image": "https://commons.wikimedia.org/wiki/Special:FilePath/Orazio%20Gentileschi%20-%20The%20Stigmatization%20of%20Saint%20Francis%20-%20Google%20Art%20Project.jpg?width=420", "wikidata": "https://www.wikidata.org/wiki/Q28093481", "creation_place": "Rome", "creation_lat": 41.9028, "creation_lon": 12.4964, "_source": {"source": "Wikidata", "url": "https://www.wikidata.org/wiki/Q28093481", "retrieved_at": "2026-09-25"}, "_overrides": {"creation": {"at": "2026-09-25", "source": "derived from start date + Caravaggio's documented itinerary (approximate)"}, "qid": {"at": "2026-09-25", "source": "Wikidata reconciliation", "note": "matched to Q28093481 by normalised title + year (±8), same creator (merge_wd_extras)"}}, "qid": "Q28093481", "museum_id": "museum-of-fine-arts-houston", "location_src": "Museum of Fine Arts, Houston", "form": "painting"}}, {"type": "Feature", "geometry": {"type": "Point", "coordinates": [8.93212, 44.41125]}, "properties": {"painter": "Orazio Gentileschi", "title": "Madonna and Child in a landscape", "year": "1650", "city": "Genoa", "country": "Italy", "location": "Palazzo Rosso", "kind": "museum", "attribution": "generally accepted", "status": "present", "dimensions": "308 × 234 cm", "genre": "religious art", "image": "https://commons.wikimedia.org/wiki/Special:FilePath/Orazio%20Gentileschi%20-%20Madonna%20and%20Child%20in%20a%20landscape%20-%20Google%20Art%20Project.jpg?width=420", "wikipedia_it": "https://it.wikipedia.org/wiki/Madonna_col_Bambino_dormiente_(Orazio_Gentileschi)", "wikidata": "https://www.wikidata.org/wiki/Q28810709", "_source": {"source": "Wikidata", "url": "https://www.wikidata.org/wiki/Q28810709", "retrieved_at": "2026-09-25"}, "qid": "Q28810709", "_overrides": {"qid": {"at": "2026-09-25", "source": "Wikidata reconciliation", "note": "matched to Q28810709 by normalised title + year (±8), same creator (merge_wd_extras)"}}, "museum_id": "palazzo-rosso", "location_src": "Palazzo Rosso", "form": "painting", "venue_of": "Musei di Strada Nuova"}}, {"type": "Feature", "geometry": {"type": "Point", "coordinates": [16.3616, 48.20388]}, "properties": {"painter": "Orazio Gentileschi", "title": "Rest on the Flight into Egypt", "year": "1622-1628", "city": "Vienna", "country": "Austria", "location": "Kunsthistorisches Museum", "kind": "museum", "attribution": "attributed", "status": "present", "medium": "Oil on canvas", "dimensions": "54 × 85 cm", "genre": "religious art", "image": "https://commons.wikimedia.org/wiki/Special:FilePath/Orazio%20Lomi%20Gentileschi%2C%20Kunsthistorisches%20Museum%20Wien%2C%20Gem%C3%A4ldegalerie%20-%20Ruhe%20auf%20der%20Flucht%20nach%20%C3%84gypten%20-%20GG%20180%20-%20Kunsthistorisches%20Museum.jpg?width=420", "wikidata": "https://www.wikidata.org/wiki/Q29024499", "creation_place": "Genoa", "creation_lat": 44.4056, "creation_lon": 8.9463, "_source": {"source": "Wikidata", "url": "https://www.wikidata.org/wiki/Q29024499", "retrieved_at": "2026-09-25"}, "_overrides": {"creation": {"at": "2026-09-25", "source": "derived from start date + Caravaggio's documented itinerary (approximate)"}, "qid": {"at": "2026-09-25", "source": "Wikidata reconciliation", "note": "matched to Q29024499 by normalised title + year (±8), same creator (merge_wd_extras)"}}, "qid": "Q29024499", "museum_id": "kunsthistorisches-museum", "location_src": "Kunsthistorisches Museum", "form": "painting"}}, {"type": "Feature", "geometry": {"type": "Point", "coordinates": [16.3616, 48.20388]}, "properties": {"painter": "Orazio Gentileschi", "title": "Penitent Magdalene", "year": "1622-1628", "city": "Vienna", "country": "Austria", "location": "Kunsthistorisches Museum", "kind": "museum", "attribution": "attributed", "status": "present", "medium": "Oil on canvas", "dimensions": "163 × 208 cm", "genre": "religious art", "image": "https://commons.wikimedia.org/wiki/Special:FilePath/Orazio%20Gentileschi%20-%20Penitent%20Magdalene%20GG%20179.jpg?width=420", "wikidata": "https://www.wikidata.org/wiki/Q29024815", "creation_place": "Genoa", "creation_lat": 44.4056, "creation_lon": 8.9463, "_source": {"source": "Wikidata", "url": "https://www.wikidata.org/wiki/Q29024815", "retrieved_at": "2026-09-25"}, "_overrides": {"creation": {"at": "2026-09-25", "source": "derived from start date + Caravaggio's documented itinerary (approximate)"}, "qid": {"at": "2026-09-25", "source": "Wikidata reconciliation", "note": "matched to Q29024815 by normalised title + year (±8), same creator (merge_wd_extras)"}}, "qid": "Q29024815", "museum_id": "kunsthistorisches-museum", "location_src": "Kunsthistorisches Museum", "form": "painting"}}, {"type": "Feature", "geometry": {"type": "Point", "coordinates": [-3.6922, 40.4139]}, "properties": {"painter": "Orazio Gentileschi", "title": "Young Jesus sleeping on the Cross", "year": "1601-1630", "city": "Madrid", "country": "Spain", "location": "Museo del Prado", "kind": "museum", "attribution": "attributed", "status": "present", "medium": "Oil paint", "dimensions": "75 × 100 cm", "genre": "religious art", "image": "https://commons.wikimedia.org/wiki/Special:FilePath/Orazio%20Gentileschi%20-%20J%C3%A9sus%20endormi%20sur%20la%20croix.jpg?width=420", "wikidata": "https://www.wikidata.org/wiki/Q29025481", "creation_place": "Rome", "creation_lat": 41.9028, "creation_lon": 12.4964, "_source": {"source": "Wikidata", "url": "https://www.wikidata.org/wiki/Q29025481", "retrieved_at": "2026-09-25"}, "_overrides": {"creation": {"at": "2026-09-25", "source": "derived from start date + Caravaggio's documented itinerary (approximate)"}, "qid": {"at": "2026-09-25", "source": "Wikidata reconciliation", "note": "matched to Q29025481 by normalised title + year (±8), same creator (merge_wd_extras)"}}, "qid": "Q29025481", "museum_id": "museo-del-prado", "location_src": "Museo del Prado", "form": "painting"}}, {"type": "Feature", "geometry": {"type": "Point", "coordinates": [-3.6922, 40.4139]}, "properties": {"painter": "Orazio Gentileschi", "title": "Executioner with the Head of John the Baptist", "year": "1612-1613", "city": "Madrid", "country": "Spain", "location": "Museo del Prado", "kind": "museum", "attribution": "attributed", "status": "present", "medium": "Oil paint", "dimensions": "82 × 61 cm", "genre": "religious art", "image": "https://commons.wikimedia.org/wiki/Special:FilePath/Orazio%20Gentileschi%20-%20Executioner%20with%20the%20Head%20of%20John%20the%20Baptist.jpg?width=420", "wikidata": "https://www.wikidata.org/wiki/Q29026326", "creation_place": "Rome", "creation_lat": 41.9028, "creation_lon": 12.4964, "_source": {"source": "Wikidata", "url": "https://www.wikidata.org/wiki/Q29026326", "retrieved_at": "2026-09-25"}, "_overrides": {"creation": {"at": "2026-09-25", "source": "derived from start date + Caravaggio's documented itinerary (approximate)"}, "qid": {"at": "2026-09-25", "source": "Wikidata reconciliation", "note": "matched to Q29026326 by normalised title + year (±8), same creator (merge_wd_extras)"}}, "qid": "Q29026326", "museum_id": "museo-del-prado", "location_src": "Museo del Prado", "form": "painting"}}, {"type": "Feature", "geometry": {"type": "Point", "coordinates": [10.533, 52.2635]}, "properties": {"painter": "Orazio Gentileschi", "title": "Christ  Crowned with Thorns", "year": "1612", "city": "Brunswick", "country": "Germany", "location": "Herzog Anton Ulrich Museum", "kind": "museum", "attribution": "attributed", "status": "present", "medium": "Oil on canvas", "dimensions": "119.5 × 148.5 cm", "genre": "religious art", "image": "https://commons.wikimedia.org/wiki/Special:FilePath/Christ%20being%20crowned%20with%20thorns%2C%20by%20Orazio%20Gentileschi.jpg?width=420", "wikidata": "https://www.wikidata.org/wiki/Q29032809", "creation_place": "Rome", "creation_lat": 41.9028, "creation_lon": 12.4964, "_source": {"source": "Wikidata", "url": "https://www.wikidata.org/wiki/Q29032809", "retrieved_at": "2026-09-25"}, "_overrides": {"creation": {"at": "2026-09-25", "source": "derived from start date + Caravaggio's documented itinerary (approximate)"}, "qid": {"at": "2026-09-25", "source": "Wikidata reconciliation", "note": "matched to Q29032809 by normalised title + year (±8), same creator (merge_wd_extras)"}}, "qid": "Q29032809", "museum_id": "herzog-anton-ulrich-museum", "location_src": "Herzog Anton Ulrich Museum", "form": "painting"}}, {"type": "Feature", "geometry": {"type": "Point", "coordinates": [7.68618, 45.07412]}, "properties": {"painter": "Orazio Gentileschi", "title": "Annunciation", "year": "1623", "city": "Turin", "country": "Italy", "location": "Galleria Sabauda", "kind": "museum", "attribution": "generally accepted", "status": "present", "medium": "Oil paint", "dimensions": "286 × 196 cm", "genre": "religious art", "image": "https://commons.wikimedia.org/wiki/Special:FilePath/Annunciazione%20%281623%20circa%29%20-%20Orazio%20Gentileschi.jpg?width=420", "wikipedia_en": "https://en.wikipedia.org/wiki/Annunciation_(Orazio_Gentileschi,_1623)", "wikidata": "https://www.wikidata.org/wiki/Q29033098", "creation_place": "Genoa", "creation_lat": 44.4056, "creation_lon": 8.9463, "_source": {"source": "Wikidata", "url": "https://www.wikidata.org/wiki/Q29033098", "retrieved_at": "2026-09-25"}, "_overrides": {"creation": {"at": "2026-09-25", "source": "derived from start date + Caravaggio's documented itinerary (approximate)"}, "qid": {"at": "2026-09-25", "source": "Wikidata reconciliation", "note": "matched to Q29033098 by normalised title + year (±8), same creator (merge_wd_extras)"}}, "qid": "Q29033098", "museum_id": "galleria-sabauda", "location_src": "Galleria Sabauda", "form": "painting"}}, {"type": "Feature", "geometry": {"type": "Point", "coordinates": [-83.06472, 42.35944]}, "properties": {"painter": "Orazio Gentileschi", "title": "Young Woman Playing a Violin", "year": "1621-1624", "city": "Detroit", "country": "United States", "location": "Detroit Institute of Arts", "kind": "museum", "attribution": "attributed", "status": "present", "medium": "Oil on canvas", "dimensions": "83.2 × 97.8 cm", "genre": "religious art", "image": "https://commons.wikimedia.org/wiki/Special:FilePath/Orazio%20Gentileschi%20-%20Young%20Woman%20with%20a%20Violin%20%28Saint%20Cecilia%29%20-%2068.47%20-%20Detroit%20Institute%20of%20Arts.jpg?width=420", "wikidata": "https://www.wikidata.org/wiki/Q29033123", "creation_place": "Genoa", "creation_lat": 44.4056, "creation_lon": 8.9463, "_source": {"source": "Wikidata", "url": "https://www.wikidata.org/wiki/Q29033123", "retrieved_at": "2026-09-25"}, "_overrides": {"creation": {"at": "2026-09-25", "source": "derived from start date + Caravaggio's documented itinerary (approximate)"}, "qid": {"at": "2026-09-25", "source": "Wikidata reconciliation", "note": "matched to Q29033123 by normalised title + year (±8), same creator (merge_wd_extras)"}}, "qid": "Q29033123", "museum_id": "detroit-institute-of-arts", "location_src": "Detroit Institute of Arts", "form": "painting"}}, {"type": "Feature", "geometry": {"type": "Point", "coordinates": [-75.69891, 45.42954]}, "properties": {"painter": "Orazio Gentileschi", "title": "Lot and his Daughters", "year": "1622", "city": "Ottawa", "country": "Canada", "location": "National Gallery of Canada", "kind": "museum", "attribution": "generally accepted", "status": "present", "medium": "Oil paint", "dimensions": "157.5 × 195.6 cm", "genre": "religious art", "image": "https://commons.wikimedia.org/wiki/Special:FilePath/Orazio%20Gentileschi%20-%20Lot%20e%20le%20figlie%20%28Mus%C3%A9e%20des%20beaux-arts%20du%20Canada%29.jpg?width=420", "wikipedia_en": "https://en.wikipedia.org/wiki/Lot_and_His_Daughters_(Orazio_Gentileschi,_Ottawa)", "wikidata": "https://www.wikidata.org/wiki/Q29033134", "creation_place": "Genoa", "creation_lat": 44.4056, "creation_lon": 8.9463, "_source": {"source": "Wikidata", "url": "https://www.wikidata.org/wiki/Q29033134", "retrieved_at": "2026-09-25"}, "_overrides": {"creation": {"at": "2026-09-25", "source": "derived from start date + Caravaggio's documented itinerary (approximate)"}}, "museum_id": "national-gallery-of-canada", "location_src": "National Gallery of Canada", "form": "painting"}}, {"type": "Feature", "geometry": {"type": "Point", "coordinates": [-71.11436, 42.37409]}, "properties": {"painter": "Orazio Gentileschi", "title": "The Virgin with the Sleeping Christ Child", "year": "1610", "city": "Cambridge", "country": "United States", "location": "Fogg Museum", "kind": "museum", "attribution": "attributed", "status": "present", "medium": "Oil on canvas", "dimensions": "85.3 × 99.8 cm", "genre": "religious art", "image": "https://commons.wikimedia.org/wiki/Special:FilePath/The%20Virgin%20with%20the%20Sleeping%20Christ%20Child%20-%20Orazio%20Gentileschi%20-%20Google%20Cultural%20Institute.jpg?width=420", "wikidata": "https://www.wikidata.org/wiki/Q29033536", "creation_place": "Rome", "creation_lat": 41.9028, "creation_lon": 12.4964, "_source": {"source": "Wikidata", "url": "https://www.wikidata.org/wiki/Q29033536", "retrieved_at": "2026-09-25"}, "_overrides": {"creation": {"at": "2026-09-25", "source": "derived from start date + Caravaggio's documented itinerary (approximate)"}, "qid": {"at": "2026-09-25", "source": "Wikidata reconciliation", "note": "matched to Q29033536 by normalised title + year (±8), same creator (merge_wd_extras)"}}, "qid": "Q29033536", "museum_id": "fogg-museum", "location_src": "Fogg Museum", "form": "painting", "venue_of": "Harvard Art Museums"}}, {"type": "Feature", "geometry": {"type": "Point", "coordinates": [12.48953, 41.90278]}, "properties": {"painter": "Orazio Gentileschi", "title": "St Francis and the Angel", "year": "1612", "city": "Rome", "country": "Italy", "location": "Galleria Nazionale d'Arte Antica", "kind": "museum", "attribution": "attributed", "status": "present", "medium": "Oil paint", "dimensions": "133 × 98 cm", "genre": "religious art", "image": "https://commons.wikimedia.org/wiki/Special:FilePath/Orazio%20Gentileschi%20-%20St%20Francis%20and%20the%20Angel%20-%20WGA08584.jpg?width=420", "wikidata": "https://www.wikidata.org/wiki/Q29033598", "creation_place": "Rome", "creation_lat": 41.9028, "creation_lon": 12.4964, "_source": {"source": "Wikidata", "url": "https://www.wikidata.org/wiki/Q29033598", "retrieved_at": "2026-09-25"}, "_overrides": {"creation": {"at": "2026-09-25", "source": "derived from start date + Caravaggio's documented itinerary (approximate)"}, "qid": {"at": "2026-09-25", "source": "Wikidata reconciliation", "note": "matched to Q29033598 by normalised title + year (±8), same creator (merge_wd_extras)"}}, "qid": "Q29033598", "museum_id": "galleria-nazionale-d-arte-antica", "location_src": "Galleria Nazionale d'Arte Antica", "form": "painting"}}, {"type": "Feature", "geometry": {"type": "Point", "coordinates": [26.09598, 44.43978]}, "properties": {"painter": "Orazio Gentileschi", "title": "Madonna and Child", "year": "1609", "city": "Bucharest", "country": "Romania", "location": "National Museum of Art of Romania", "kind": "museum", "attribution": "attributed", "status": "present", "medium": "Oil paint", "dimensions": "98.5 × 75 cm", "genre": "religious art", "image": "https://commons.wikimedia.org/wiki/Special:FilePath/Orazio%20gentileschi%2C%20madonna%20col%20bambino%2C%2002.JPG?width=420", "wikidata": "https://www.wikidata.org/wiki/Q29041723", "creation_place": "Rome", "creation_lat": 41.9028, "creation_lon": 12.4964, "_source": {"source": "Wikidata", "url": "https://www.wikidata.org/wiki/Q29041723", "retrieved_at": "2026-09-25"}, "_overrides": {"creation": {"at": "2026-09-25", "source": "derived from start date + Caravaggio's documented itinerary (approximate)"}, "qid": {"at": "2026-09-25", "source": "Wikidata reconciliation", "note": "matched to Q29041723 by normalised title + year (±8), same creator (merge_wd_extras)"}}, "qid": "Q29041723", "museum_id": "national-museum-of-art-of-romania", "location_src": "National Museum of Art of Romania", "form": "painting"}}, {"type": "Feature", "geometry": {"type": "Point", "coordinates": [12.46659, 41.89333]}, "properties": {"painter": "Orazio Gentileschi", "title": "Madonna and Child", "year": "1607", "city": "Rome", "country": "Italy", "location": "Galleria Nazionale d'Arte Antica di Palazzo Corsini", "kind": "museum", "attribution": "attributed", "status": "present", "medium": "Oil on canvas", "dimensions": "131 × 91 cm", "genre": "religious art", "image": "https://commons.wikimedia.org/wiki/Special:FilePath/Orazio%20Gentileschi%20-%20Madonna%20col%20Bambino%20%28Palazzo%20Corsini%29.jpg?width=420", "wikidata": "https://www.wikidata.org/wiki/Q29041900", "creation_place": "Rome", "creation_lat": 41.9028, "creation_lon": 12.4964, "_source": {"source": "Wikidata", "url": "https://www.wikidata.org/wiki/Q29041900", "retrieved_at": "2026-09-25"}, "_overrides": {"creation": {"at": "2026-09-25", "source": "derived from start date + Caravaggio's documented itinerary (approximate)"}}, "museum_id": "galleria-nazionale-d-arte-antica-di-palazzo-corsini", "location_src": "Galleria Nazionale d'Arte Antica di Palazzo Corsini", "form": "painting", "venue_of": "Galleria Nazionale d'Arte Antica"}}, {"type": "Feature", "geometry": {"type": "Point", "coordinates": [13.51115, 43.62078]}, "properties": {"painter": "Orazio Gentileschi", "title": "Circumcision", "year": "1607", "city": "Ancona", "country": "Italy", "location": "Pinacoteca civica \"Francesco Podesti\"", "kind": "museum", "attribution": "attributed", "status": "present", "medium": "Oil paint", "genre": "religious art", "image": "https://commons.wikimedia.org/wiki/Special:FilePath/Circoncisione%20di%20Ges%C3%B9%20-%20O.%20Gentileschi.png?width=420", "wikidata": "https://www.wikidata.org/wiki/Q29044171", "creation_place": "Rome", "creation_lat": 41.9028, "creation_lon": 12.4964, "_source": {"source": "Wikidata", "url": "https://www.wikidata.org/wiki/Q29044171", "retrieved_at": "2026-09-25"}, "_overrides": {"creation": {"at": "2026-09-25", "source": "derived from start date + Caravaggio's documented itinerary (approximate)"}, "qid": {"at": "2026-09-25", "source": "Wikidata reconciliation", "note": "matched to Q29044171 by normalised title + year (±8), same creator (merge_wd_extras)"}}, "qid": "Q29044171", "museum_id": "pinacoteca-civica-francesco-podesti", "location_src": "Pinacoteca civica \"Francesco Podesti\"", "form": "painting"}}, {"type": "Feature", "geometry": {"type": "Point", "coordinates": [9.18782, 45.47196]}, "properties": {"painter": "Orazio Gentileschi", "title": "Vision of St. Cecilia", "year": "1607", "city": "Milan", "country": "Italy", "location": "Pinacoteca di Brera", "kind": "museum", "attribution": "attributed", "status": "present", "medium": "Oil paint", "dimensions": "350 × 218 cm", "genre": "religious art", "image": "https://commons.wikimedia.org/wiki/Special:FilePath/Orazio%20Gentileschi%20-%20Sts%20Cecilia%2C%20Valerianus%20and%20Tiburtius%20-%20WGA8575.jpg?width=420", "wikidata": "https://www.wikidata.org/wiki/Q29044245", "creation_place": "Rome", "creation_lat": 41.9028, "creation_lon": 12.4964, "_source": {"source": "Wikidata", "url": "https://www.wikidata.org/wiki/Q29044245", "retrieved_at": "2026-09-25"}, "_overrides": {"creation": {"at": "2026-09-25", "source": "derived from start date + Caravaggio's documented itinerary (approximate)"}, "qid": {"at": "2026-09-25", "source": "Wikidata reconciliation", "note": "matched to Q29044245 by normalised title + year (±8), same creator (merge_wd_extras)"}}, "qid": "Q29044245", "museum_id": "pinacoteca-di-brera", "location_src": "Pinacoteca di Brera", "form": "painting"}}, {"type": "Feature", "geometry": {"type": "Point", "coordinates": [12.47167, 41.89986]}, "properties": {"painter": "Orazio Gentileschi", "title": "Baptism of Christ", "year": "1607", "city": "Rome", "country": "Italy", "location": "Santa Maria della Pace", "kind": "church", "attribution": "attributed", "status": "present", "medium": "Oil paint", "genre": "religious art", "image": "https://commons.wikimedia.org/wiki/Special:FilePath/Battesimo%20di%20Cristo%20-%20O.%20Gentileschi.png?width=420", "wikidata": "https://www.wikidata.org/wiki/Q29044248", "creation_place": "Rome", "creation_lat": 41.9028, "creation_lon": 12.4964, "_source": {"source": "Wikidata", "url": "https://www.wikidata.org/wiki/Q29044248", "retrieved_at": "2026-09-25"}, "_overrides": {"creation": {"at": "2026-09-25", "source": "derived from start date + Caravaggio's documented itinerary (approximate)"}, "qid": {"at": "2026-09-25", "source": "Wikidata reconciliation", "note": "matched to Q29044248 by normalised title + year (±8), same creator (merge_wd_extras)"}}, "qid": "Q29044248", "museum_id": "santa-maria-della-pace", "location_src": "Santa Maria della Pace", "form": "painting"}}, {"type": "Feature", "geometry": {"type": "Point", "coordinates": [-6.25255, 53.34091]}, "properties": {"painter": "Orazio Gentileschi", "title": "David and Goliath", "year": "1605", "city": "Dublin City", "country": "Ireland", "location": "National Gallery of Ireland", "kind": "museum", "attribution": "attributed", "status": "present", "medium": "Oil on canvas", "dimensions": "185.5 × 136 cm", "genre": "religious art", "image": "https://commons.wikimedia.org/wiki/Special:FilePath/Orazio%20Gentileschi%20-%20Davide%20e%20Golia%20%28National%20Gallery%20of%20Ireland%29.jpg?width=420", "wikidata": "https://www.wikidata.org/wiki/Q29044255", "creation_place": "Rome", "creation_lat": 41.9028, "creation_lon": 12.4964, "_source": {"source": "Wikidata", "url": "https://www.wikidata.org/wiki/Q29044255", "retrieved_at": "2026-09-25"}, "_overrides": {"creation": {"at": "2026-09-25", "source": "derived from start date + Caravaggio's documented itinerary (approximate)"}, "qid": {"at": "2026-09-25", "source": "Wikidata reconciliation", "note": "matched to Q29044255 by normalised title + year (±8), same creator (merge_wd_extras)"}}, "qid": "Q29044255", "museum_id": "national-gallery-of-ireland", "location_src": "National Gallery of Ireland", "form": "painting"}}, {"type": "Feature", "geometry": {"type": "Point", "coordinates": [10.72917, 59.91167]}, "properties": {"painter": "Orazio Gentileschi", "title": "Judith and her maidservant with the head of Holofernes", "year": "1608", "city": "Oslo", "country": "Norway", "location": "National Museum of Norway", "kind": "museum", "attribution": "attributed", "status": "present", "medium": "Oil on canvas", "dimensions": "136 × 160 cm", "genre": "religious art", "image": "https://commons.wikimedia.org/wiki/Special:FilePath/Orazio%20Gentileschi%2C%20Artemisia%20Gentileschi%20-%20Judith%20and%20her%20Maidservant%20with%20the%20Head%20of%20Holofernes%20-%20NG.M.02073%20-%20National%20Museum%20of%20Art%2C%20Architecture%20and%20Design.jpg?width=420", "wikidata": "https://www.wikidata.org/wiki/Q29044280", "creation_place": "Rome", "creation_lat": 41.9028, "creation_lon": 12.4964, "_source": {"source": "Wikidata", "url": "https://www.wikidata.org/wiki/Q29044280", "retrieved_at": "2026-09-25"}, "_overrides": {"creation": {"at": "2026-09-25", "source": "derived from start date + Caravaggio's documented itinerary (approximate)"}, "qid": {"at": "2026-09-25", "source": "Wikidata reconciliation", "note": "matched to Q29044280 by normalised title + year (±8), same creator (merge_wd_extras)"}}, "qid": "Q29044280", "museum_id": "national-museum-of-norway", "location_src": "National Museum of Art, Architecture and Design", "form": "painting"}}, {"type": "Feature", "geometry": {"type": "Point", "coordinates": [12.31207, 42.22394]}, "properties": {"painter": "Orazio Gentileschi", "title": "St. Michael and the Devil", "year": "1607", "city": "Nepi", "country": "Italy", "location": "Colle Farnese", "kind": "museum", "attribution": "attributed", "status": "present", "medium": "Oil paint", "dimensions": "278 × 192 cm", "genre": "religious art", "image": "https://commons.wikimedia.org/wiki/Special:FilePath/Orazio%20Gentileschi%20-%20St.%20Michael%20and%20the%20Devil.png?width=420", "wikidata": "https://www.wikidata.org/wiki/Q29044310", "creation_place": "Rome", "creation_lat": 41.9028, "creation_lon": 12.4964, "_source": {"source": "Wikidata", "url": "https://www.wikidata.org/wiki/Q29044310", "retrieved_at": "2026-09-25"}, "_overrides": {"creation": {"at": "2026-09-25", "source": "derived from start date + Caravaggio's documented itinerary (approximate)"}, "qid": {"at": "2026-09-25", "source": "Wikidata reconciliation", "note": "matched to Q29044310 by normalised title + year (±8), same creator (merge_wd_extras)"}}, "qid": "Q29044310", "museum_id": "colle-farnese", "location_src": "Colle Farnese", "form": "painting"}}, {"type": "Feature", "geometry": {"type": "Point", "coordinates": [7.68548, 45.0711]}, "properties": {"painter": "Orazio Gentileschi", "title": "St. Jerome", "year": "1610", "city": "Turin", "country": "Italy", "location": "Turin City Museum of Ancient Art", "kind": "museum", "attribution": "attributed", "status": "present", "medium": "Oil on canvas", "dimensions": "152 × 126.5 cm", "genre": "religious art", "image": "https://commons.wikimedia.org/wiki/Special:FilePath/Saint%20J%C3%A9r%C3%B4me%20en%20pri%C3%A8re%2C%20par%20Orazio%20Gentileschi.jpg?width=420", "wikidata": "https://www.wikidata.org/wiki/Q29044316", "creation_place": "Rome", "creation_lat": 41.9028, "creation_lon": 12.4964, "_source": {"source": "Wikidata", "url": "https://www.wikidata.org/wiki/Q29044316", "retrieved_at": "2026-09-25"}, "_overrides": {"creation": {"at": "2026-09-25", "source": "derived from start date + Caravaggio's documented itinerary (approximate)"}, "qid": {"at": "2026-09-25", "source": "Wikidata reconciliation", "note": "matched to Q29044316 by normalised title + year (±8), same creator (merge_wd_extras)"}}, "qid": "Q29044316", "museum_id": "turin-city-museum-of-ancient-art", "location_src": "Museo Civico d'Arte Antica", "form": "painting"}}, {"type": "Feature", "geometry": {"type": "Point", "coordinates": [12.47189, 41.89423]}, "properties": {"painter": "Orazio Gentileschi", "title": "David Contemplating the Head of Goliath", "year": "1612", "city": "Rome", "country": "Italy", "location": "Galleria Spada", "kind": "museum", "attribution": "attributed", "status": "present", "medium": "Oil on canvas", "dimensions": "173 × 142 cm", "genre": "religious art", "image": "https://commons.wikimedia.org/wiki/Special:FilePath/Orazio%20Gentileschi%20-%20David%20Contemplating%20the%20Head%20of%20Goliath%20-%20WGA08579.jpg?width=420", "wikidata": "https://www.wikidata.org/wiki/Q29044349", "creation_place": "Rome", "creation_lat": 41.9028, "creation_lon": 12.4964, "_source": {"source": "Wikidata", "url": "https://www.wikidata.org/wiki/Q29044349", "retrieved_at": "2026-09-25"}, "_overrides": {"creation": {"at": "2026-09-25", "source": "derived from start date + Caravaggio's documented itinerary (approximate)"}, "qid": {"at": "2026-09-25", "source": "Wikidata reconciliation", "note": "matched to Q29044349 by normalised title + year (±8), same creator (merge_wd_extras)"}}, "qid": "Q29044349", "museum_id": "galleria-spada", "location_src": "Galleria Spada", "form": "painting"}}, {"type": "Feature", "geometry": {"type": "Point", "coordinates": [13.36472, 52.50861]}, "properties": {"painter": "Orazio Gentileschi", "title": "David Contemplating the Head of Goliath", "year": "1612", "city": "Berlin", "country": "Germany", "location": "Gemäldegalerie Berlin", "kind": "museum", "attribution": "attributed", "status": "present", "medium": "Oil on copper", "dimensions": "36.7 × 28.7 cm", "genre": "religious art", "image": "https://commons.wikimedia.org/wiki/Special:FilePath/Gentileschi%20-%20David%20mit%20dem%20Haupt%20Goliaths%2C%20um%201610%2C%201723.jpg?width=420", "wikidata": "https://www.wikidata.org/wiki/Q29044364", "creation_place": "Rome", "creation_lat": 41.9028, "creation_lon": 12.4964, "_source": {"source": "Wikidata", "url": "https://www.wikidata.org/wiki/Q29044364", "retrieved_at": "2026-09-25"}, "_overrides": {"creation": {"at": "2026-09-25", "source": "derived from start date + Caravaggio's documented itinerary (approximate)"}}, "museum_id": "gemaldegalerie-berlin", "location_src": "Gemäldegalerie Berlin", "form": "painting", "city_src": "Bezirk Mitte"}}, {"type": "Feature", "geometry": {"type": "Point", "coordinates": [12.899362, 43.330872]}, "properties": {"painter": "Orazio Gentileschi", "title": "St. Mary Magdalene in Penitance", "year": "1615", "city": "Fabriano", "country": "Italy", "location": "Santa Maria Maddalena church", "kind": "church", "attribution": "attributed", "status": "present", "medium": "Oil paint", "dimensions": "86 × 61 cm", "genre": "religious art", "image": "https://commons.wikimedia.org/wiki/Special:FilePath/Maddalena%20penitente%20-%20O.%20Gentileschi.png?width=420", "wikidata": "https://www.wikidata.org/wiki/Q29045161", "creation_place": "Rome", "creation_lat": 41.9028, "creation_lon": 12.4964, "_source": {"source": "Wikidata", "url": "https://www.wikidata.org/wiki/Q29045161", "retrieved_at": "2026-09-25"}, "_overrides": {"creation": {"at": "2026-09-25", "source": "derived from start date + Caravaggio's documented itinerary (approximate)"}, "qid": {"at": "2026-09-25", "source": "Wikidata reconciliation", "note": "matched to Q29045161 by normalised title + year (±8), same creator (merge_wd_extras)"}}, "qid": "Q29045161", "museum_id": "santa-maria-maddalena-church", "location_src": "Santa Maria Maddalena church", "form": "painting"}}, {"type": "Feature", "geometry": {"type": "Point", "coordinates": [12.480883, 41.902499]}, "properties": {"painter": "Orazio Gentileschi", "title": "St. Francis Receiving the Stigmata", "year": "1620", "city": "Rome", "country": "Italy", "location": "San Silvestro in Capite", "kind": "church", "attribution": "attributed", "status": "present", "medium": "Oil paint", "genre": "religious art", "image": "https://commons.wikimedia.org/wiki/Special:FilePath/Orazio%20gentileschi%2C%20stimmate%20di%20san%20francesco.JPG?width=420", "wikidata": "https://www.wikidata.org/wiki/Q29045278", "creation_place": "Rome", "creation_lat": 41.9028, "creation_lon": 12.4964, "_source": {"source": "Wikidata", "url": "https://www.wikidata.org/wiki/Q29045278", "retrieved_at": "2026-09-25"}, "_overrides": {"creation": {"at": "2026-09-25", "source": "derived from start date + Caravaggio's documented itinerary (approximate)"}, "qid": {"at": "2026-09-25", "source": "Wikidata reconciliation", "note": "matched to Q29045278 by normalised title + year (±8), same creator (merge_wd_extras)"}}, "qid": "Q29045278", "museum_id": "san-silvestro-in-capite", "location_src": "San Silvestro in Capite", "form": "painting"}}, {"type": "Feature", "geometry": {"type": "Point", "coordinates": [13.36472, 52.50861]}, "properties": {"painter": "Orazio Gentileschi", "title": "Landscape with St Christopher", "year": "1620", "city": "Berlin", "country": "Germany", "location": "Gemäldegalerie Berlin", "kind": "museum", "attribution": "attributed", "status": "present", "medium": "Oil paint", "dimensions": "21 × 28 cm", "genre": "religious art", "image": "https://commons.wikimedia.org/wiki/Special:FilePath/Orazio%20Gentileschi%20-%20Landscape%20with%20St%20Christopher%20-%20WGA8576.jpg?width=420", "wikidata": "https://www.wikidata.org/wiki/Q29047663", "creation_place": "Rome", "creation_lat": 41.9028, "creation_lon": 12.4964, "_source": {"source": "Wikidata", "url": "https://www.wikidata.org/wiki/Q29047663", "retrieved_at": "2026-09-25"}, "_overrides": {"creation": {"at": "2026-09-25", "source": "derived from start date + Caravaggio's documented itinerary (approximate)"}, "qid": {"at": "2026-09-25", "source": "Wikidata reconciliation", "note": "matched to Q29047663 by normalised title + year (±8), same creator (merge_wd_extras)"}}, "qid": "Q29047663", "museum_id": "gemaldegalerie-berlin", "location_src": "Gemäldegalerie Berlin", "form": "painting", "city_src": "Bezirk Mitte"}}, {"type": "Feature", "geometry": {"type": "Point", "coordinates": [12.63647, 43.72434]}, "properties": {"painter": "Orazio Gentileschi", "title": "Vision of St Francesca Romana", "year": "1620", "city": "Urbino", "country": "Italy", "location": "Galleria Nazionale delle Marche", "kind": "museum", "attribution": "attributed", "status": "present", "medium": "Oil paint", "genre": "religious art", "image": "https://commons.wikimedia.org/wiki/Special:FilePath/Madonna%20col%20Bambino%20e%20Santa%20Francesca%20Romana%20di%20Orazio%20Gentileschi%2C1.JPG?width=420", "wikidata": "https://www.wikidata.org/wiki/Q29053277", "creation_place": "Rome", "creation_lat": 41.9028, "creation_lon": 12.4964, "_source": {"source": "Wikidata", "url": "https://www.wikidata.org/wiki/Q29053277", "retrieved_at": "2026-09-25"}, "_overrides": {"creation": {"at": "2026-09-25", "source": "derived from start date + Caravaggio's documented itinerary (approximate)"}, "qid": {"at": "2026-09-25", "source": "Wikidata reconciliation", "note": "matched to Q29053277 by normalised title + year (±8), same creator (merge_wd_extras)"}}, "qid": "Q29053277", "museum_id": "galleria-nazionale-delle-marche", "location_src": "Galleria Nazionale delle Marche", "form": "painting"}}, {"type": "Feature", "geometry": {"type": "Point", "coordinates": [-0.45259, 52.64239]}, "properties": {"painter": "Orazio Gentileschi", "title": "Madonna and Child in a Landscape", "year": "1622", "city": "Barnack", "country": "United Kingdom", "location": "Burghley House", "kind": "museum", "attribution": "attributed", "status": "present", "medium": "Oil paint", "dimensions": "11 × 8 cm", "genre": "religious art", "image": "https://commons.wikimedia.org/wiki/Special:FilePath/Orazio%20Gentileschi%20-%20Madonna%20and%20Child%20in%20a%20Landscape.JPG?width=420", "wikidata": "https://www.wikidata.org/wiki/Q29053298", "creation_place": "Genoa", "creation_lat": 44.4056, "creation_lon": 8.9463, "_source": {"source": "Wikidata", "url": "https://www.wikidata.org/wiki/Q29053298", "retrieved_at": "2026-09-25"}, "_overrides": {"creation": {"at": "2026-09-25", "source": "derived from start date + Caravaggio's documented itinerary (approximate)"}, "qid": {"at": "2026-09-25", "source": "Wikidata reconciliation", "note": "matched to Q29053298 by normalised title + year (±8), same creator (merge_wd_extras)"}}, "qid": "Q29053298", "museum_id": "burghley-house", "location_src": "Burghley House", "form": "painting"}}, {"type": "Feature", "geometry": {"type": "Point", "coordinates": [-72.67309, 41.76371]}, "properties": {"painter": "Orazio Gentileschi", "title": "Judith and Her Maidservant with the Head of Holofernes", "year": "1624", "city": "Hartford", "country": "United States", "location": "Wadsworth Atheneum", "kind": "museum", "attribution": "attributed", "status": "present", "medium": "Oil paint", "genre": "religious art", "image": "https://commons.wikimedia.org/wiki/Special:FilePath/Orazio%20Gentileschi%20-%20Judith%20and%20Her%20Maidservant%20with%20the%20Head%20of%20Holofernes.JPG?width=420", "wikidata": "https://www.wikidata.org/wiki/Q29053305", "_source": {"source": "Wikidata", "url": "https://www.wikidata.org/wiki/Q29053305", "retrieved_at": "2026-09-25"}, "_overrides": {"creation": {"at": "2026-09-25", "source": "derived from start date + Caravaggio's documented itinerary (approximate)"}, "qid": {"at": "2026-09-25", "source": "Wikidata reconciliation", "note": "matched to Q29053305 by normalised title + year (±8), same creator (merge_wd_extras)"}}, "qid": "Q29053305", "museum_id": "wadsworth-atheneum", "location_src": "Wadsworth Atheneum Museum of Art", "form": "painting"}}, {"type": "Feature", "geometry": {"type": "Point", "coordinates": [-81.61167, 41.50889]}, "properties": {"painter": "Orazio Gentileschi", "title": "Danaë", "year": "1623", "city": "Cleveland", "country": "United States", "location": "Cleveland Museum of Art", "kind": "museum", "attribution": "attributed", "status": "present", "medium": "Oil on canvas", "dimensions": "163.5 × 228.5 cm", "genre": "mythological painting", "image": "https://commons.wikimedia.org/wiki/Special:FilePath/Orazio%20Gentileschi%20-%20Dana%C3%AB%20-%201971.101%20-%20Cleveland%20Museum%20of%20Art.tiff?width=420", "wikidata": "https://www.wikidata.org/wiki/Q29053312", "creation_place": "Genoa", "creation_lat": 44.4056, "creation_lon": 8.9463, "_source": {"source": "Wikidata", "url": "https://www.wikidata.org/wiki/Q29053312", "retrieved_at": "2026-09-25"}, "_overrides": {"creation": {"at": "2026-09-25", "source": "derived from start date + Caravaggio's documented itinerary (approximate)"}}, "museum_id": "cleveland-museum-of-art", "location_src": "Cleveland Museum of Art", "form": "painting"}}, {"type": "Feature", "geometry": {"type": "Point", "coordinates": [12.38845, 43.11156]}, "properties": {"painter": "Orazio Gentileschi", "title": "Saint Cecilia With an Angel Playing the Spinnet", "year": "1621", "city": "Perugia", "country": "Italy", "location": "National Gallery of Umbria", "kind": "museum", "attribution": "attributed", "status": "present", "medium": "Oil paint", "dimensions": "90 × 105 cm", "genre": "religious art", "image": "https://commons.wikimedia.org/wiki/Special:FilePath/Orazio%20Gentileschi%20-%20Saint%20Cecilia%20Playing%20the%20Spinnet.png?width=420", "wikidata": "https://www.wikidata.org/wiki/Q29057042", "creation_place": "Genoa", "creation_lat": 44.4056, "creation_lon": 8.9463, "_source": {"source": "Wikidata", "url": "https://www.wikidata.org/wiki/Q29057042", "retrieved_at": "2026-09-25"}, "_overrides": {"creation": {"at": "2026-09-25", "source": "derived from start date + Caravaggio's documented itinerary (approximate)"}, "qid": {"at": "2026-09-25", "source": "Wikidata reconciliation", "note": "matched to Q29057042 by normalised title + year (±8), same creator (merge_wd_extras)"}}, "qid": "Q29057042", "museum_id": "national-gallery-of-umbria", "location_src": "National Gallery of Umbria", "form": "painting"}}, {"type": "Feature", "geometry": {"type": "Point", "coordinates": [-1.90361, 52.48028]}, "properties": {"painter": "Orazio Gentileschi", "title": "Rest on the Flight into Egypt", "year": "1618-1620", "city": "Birmingham", "country": "United Kingdom", "location": "Birmingham Museum and Art Gallery", "kind": "museum", "attribution": "attributed", "status": "present", "medium": "Oil on canvas", "dimensions": "175.6 × 218 cm", "genre": "religious art", "image": "https://commons.wikimedia.org/wiki/Special:FilePath/Orazio%20Gentileschi%20-%20Rest%20on%20the%20Flight%20into%20Egypt%20BRM%20BMAG%201947%20P5.jpg?width=420", "wikidata": "https://www.wikidata.org/wiki/Q29057054", "creation_place": "Rome", "creation_lat": 41.9028, "creation_lon": 12.4964, "_source": {"source": "Wikidata", "url": "https://www.wikidata.org/wiki/Q29057054", "retrieved_at": "2026-09-25"}, "_overrides": {"creation": {"at": "2026-09-25", "source": "derived from start date + Caravaggio's documented itinerary (approximate)"}}, "museum_id": "birmingham-museum-and-art-gallery", "location_src": "Birmingham Museum and Art Gallery", "form": "painting"}}, {"type": "Feature", "geometry": {"type": "Point", "coordinates": [12.904, 43.3354]}, "properties": {"painter": "Orazio Gentileschi", "title": "Crucifixion", "year": "1618", "city": "Fabriano", "country": "Italy", "location": "Fabriano Cathedral", "kind": "church", "attribution": "attributed", "status": "present", "medium": "Oil paint", "genre": "religious art", "image": "https://commons.wikimedia.org/wiki/Special:FilePath/Crocifissione%20-%20O.%20Gentileschi.png?width=420", "wikidata": "https://www.wikidata.org/wiki/Q29057057", "creation_place": "Rome", "creation_lat": 41.9028, "creation_lon": 12.4964, "_source": {"source": "Wikidata", "url": "https://www.wikidata.org/wiki/Q29057057", "retrieved_at": "2026-09-25"}, "_overrides": {"creation": {"at": "2026-09-25", "source": "derived from start date + Caravaggio's documented itinerary (approximate)"}, "qid": {"at": "2026-09-25", "source": "Wikidata reconciliation", "note": "matched to Q29057057 by normalised title + year (±8), same creator (merge_wd_extras)"}}, "qid": "Q29057057", "museum_id": "fabriano-cathedral", "location_src": "Fabriano Cathedral", "form": "painting"}}, {"type": "Feature", "geometry": {"type": "Point", "coordinates": [3.003889, 43.184722]}, "properties": {"painter": "Orazio Gentileschi", "title": "Saint Cecilia", "city": "Narbonne", "country": "France", "location": "Narbonne Cathedral", "kind": "church", "attribution": "attributed", "status": "present", "medium": "Canvas", "genre": "religious art", "wikidata": "https://www.wikidata.org/wiki/Q29226993", "_source": {"source": "Wikidata", "url": "https://www.wikidata.org/wiki/Q29226993", "retrieved_at": "2026-09-25"}, "museum_id": "narbonne-cathedral", "location_src": "Narbonne Cathedral", "form": "painting"}}, {"type": "Feature", "geometry": {"type": "Point", "coordinates": [11.57, 48.14833]}, "properties": {"painter": "Orazio Gentileschi", "title": "Martha reproving her sister Mary", "year": "1620", "city": "Munich", "country": "Germany", "location": "Alte Pinakothek", "kind": "museum", "attribution": "attributed", "status": "present", "medium": "Oil on canvas", "dimensions": "132.5 × 154.5 cm", "genre": "religious art", "image": "https://commons.wikimedia.org/wiki/Special:FilePath/Martha%20reproving%20her%20sister%20Mary%20-%20Orazio%20Gentileschi.jpg?width=420", "wikidata": "https://www.wikidata.org/wiki/Q29838774", "creation_place": "Rome", "creation_lat": 41.9028, "creation_lon": 12.4964, "_source": {"source": "Wikidata", "url": "https://www.wikidata.org/wiki/Q29838774", "retrieved_at": "2026-09-25"}, "_overrides": {"creation": {"at": "2026-09-25", "source": "derived from start date + Caravaggio's documented itinerary (approximate)"}, "qid": {"at": "2026-09-25", "source": "Wikidata reconciliation", "note": "matched to Q29838774 by normalised title + year (±8), same creator (merge_wd_extras)"}}, "qid": "Q29838774", "museum_id": "alte-pinakothek", "location_src": "Alte Pinakothek", "form": "painting", "venue_of": "Bavarian State Painting Collections"}}, {"type": "Feature", "geometry": {"type": "Point", "coordinates": [-72.93096, 41.30839]}, "properties": {"painter": "Orazio Gentileschi", "title": "The Penitent Magdalene", "year": "1628", "city": "New Haven", "country": "United States", "location": "Yale University Art Gallery", "kind": "museum", "attribution": "attributed", "status": "present", "medium": "Oil on canvas", "wikidata": "https://www.wikidata.org/wiki/Q49188697", "creation_place": "London", "creation_lat": 51.5074, "creation_lon": -0.1278, "_source": {"source": "Wikidata", "url": "https://www.wikidata.org/wiki/Q49188697", "retrieved_at": "2026-09-25"}, "_overrides": {"creation": {"at": "2026-09-25", "source": "derived from start date + Caravaggio's documented itinerary (approximate)"}}, "museum_id": "yale-university-art-gallery", "location_src": "Yale University Art Gallery", "form": "painting"}}, {"type": "Feature", "geometry": {"type": "Point", "coordinates": [13.36472, 52.50861]}, "properties": {"painter": "Orazio Gentileschi", "title": "Lot and his daughters", "year": "1622", "city": "Berlin", "country": "Germany", "location": "Gemäldegalerie Berlin", "kind": "museum", "attribution": "generally accepted", "status": "present", "medium": "Oil on canvas", "dimensions": "164 × 193 cm", "genre": "religious art", "image": "https://commons.wikimedia.org/wiki/Special:FilePath/Orazio%20Gentileschi%20-%20Lot%20and%20His%20Daughters%20-%20WGA8588.jpg?width=420", "wikipedia_es": "https://es.wikipedia.org/wiki/La_embriaguez_de_Lot", "wikipedia_en": "https://en.wikipedia.org/wiki/Lot_and_His_Daughters_(Orazio_Gentileschi,_Berlin)", "wikidata": "https://www.wikidata.org/wiki/Q5966543", "creation_place": "Genoa", "creation_lat": 44.4056, "creation_lon": 8.9463, "_source": {"source": "Wikidata", "url": "https://www.wikidata.org/wiki/Q5966543", "retrieved_at": "2026-09-25"}, "_overrides": {"creation": {"at": "2026-09-25", "source": "derived from start date + Caravaggio's documented itinerary (approximate)"}}, "museum_id": "gemaldegalerie-berlin", "location_src": "Gemäldegalerie Berlin", "form": "painting", "city_src": "Bezirk Mitte"}}, {"type": "Feature", "geometry": {"type": "Point", "coordinates": [7.68548, 45.0711]}, "properties": {"painter": "Orazio Gentileschi", "title": "Assumption of the Virgin", "year": "1605", "city": "Turin", "country": "Italy", "location": "Turin City Museum of Ancient Art", "kind": "museum", "attribution": "generally accepted", "status": "present", "genre": "religious art", "image": "https://commons.wikimedia.org/wiki/Special:FilePath/Assunta%20-%20O.%20Gentileschi.png?width=420", "wikipedia_en": "https://en.wikipedia.org/wiki/Assumption_of_the_Virgin_(Orazio_Gentileschi)", "wikidata": "https://www.wikidata.org/wiki/Q85833838", "creation_place": "Rome", "creation_lat": 41.9028, "creation_lon": 12.4964, "_source": {"source": "Wikidata", "url": "https://www.wikidata.org/wiki/Q85833838", "retrieved_at": "2026-09-25"}, "_overrides": {"creation": {"at": "2026-09-25", "source": "derived from start date + Caravaggio's documented itinerary (approximate)"}, "qid": {"at": "2026-09-25", "source": "Wikidata reconciliation", "note": "matched to Q85833838 by normalised title + year (±8), same creator (merge_wd_extras)"}}, "qid": "Q85833838", "museum_id": "turin-city-museum-of-ancient-art", "location_src": "Museo Civico d'Arte Antica", "form": "painting"}}, {"type": "Feature", "geometry": {"type": "Point", "coordinates": [-2.93785, 43.26597]}, "properties": {"painter": "Orazio Gentileschi", "title": "Judith et sa servante", "year": "1612", "location": "Bilbao Fine Arts Museum", "city": "Bilbao", "country": "Spain", "attribution": "generally accepted", "image": "https://commons.wikimedia.org/wiki/Special:FilePath/Judith%20et%20sa%20servante%2C%20par%20Orazio%20Gentileschi.jpg?width=500", "qid": "Q133653767", "wikidata": "https://www.wikidata.org/wiki/Q133653767", "_source": {"source": "Wikidata", "url": "https://www.wikidata.org/wiki/Q133653767", "note": "harvested: painting by this creator with an image and a documented collection"}, "creation_place": "Rome", "creation_lat": 41.893333, "creation_lon": 12.482778, "_overrides": {"creation": {"at": "2026-09-25", "source": "derived", "note": "creation place inferred from the painter's itinerary at this work's date (approximate)"}}, "museum_id": "bilbao-fine-arts-museum", "location_src": "Bilbao Fine Arts Museum", "kind": "museum", "form": "painting"}}]}