{
 "type": "FeatureCollection",
 "_note": "Generated by scripts/build.py from Wikidata. Do not edit by hand — put manual fixes in the painter's overlay (data/overlay/*.json). Each feature carries _source (scraped base or manual addition) and, when edited, _overrides.",
 "features": [
  {
   "type": "Feature",
   "geometry": {
    "type": "Point",
    "coordinates": [
     12.63647,
     43.72434
    ]
   },
   "properties": {
    "painter": "Piero della Francesca",
    "title": "Madonna di Senigallia",
    "year": "1476",
    "city": "Urbino",
    "country": "Italy",
    "location": "Galleria Nazionale delle Marche",
    "kind": "museum",
    "attribution": "generally accepted",
    "status": "present",
    "medium": "Oil on panel",
    "dimensions": "61 × 53 cm",
    "genre": "religious art",
    "image": "https://commons.wikimedia.org/wiki/Special:FilePath/Madonna%20di%20Senigallia.jpg?width=420",
    "wikipedia_en": "https://en.wikipedia.org/wiki/Madonna_di_Senigallia",
    "wikipedia_it": "https://it.wikipedia.org/wiki/Madonna_di_Senigallia",
    "wikidata": "https://www.wikidata.org/wiki/Q1092638",
    "creation_place": "Sansepolcro",
    "creation_lat": 43.572,
    "creation_lon": 12.14,
    "_source": {
     "source": "Wikidata",
     "url": "https://www.wikidata.org/wiki/Q1092638",
     "retrieved_at": "2026-08-23"
    },
    "_overrides": {
     "creation": {
      "at": "2026-08-23",
      "source": "derived from start date + Caravaggio's documented itinerary (approximate)"
     }
    },
    "museum_id": "galleria-nazionale-delle-marche",
    "qid": "Q1092638",
    "wga_url": "https://www.wga.hu/html/p/piero/3/11seniga.html"
   }
  },
  {
   "type": "Feature",
   "geometry": {
    "type": "Point",
    "coordinates": [
     11.25528,
     43.76833
    ]
   },
   "properties": {
    "painter": "Piero della Francesca",
    "title": "Portrait of Federico da Montefeltro",
    "year": "1474",
    "city": "Florence",
    "country": "Italy",
    "location": "Uffizi Gallery",
    "kind": "museum",
    "attribution": "attributed",
    "status": "present",
    "medium": "Panel",
    "dimensions": "47 × 33 cm",
    "genre": "portrait",
    "image": "https://commons.wikimedia.org/wiki/Special:FilePath/Piero%2C%20Double%20portrait%20of%20the%20Dukes%20of%20Urbino%2006.jpg?width=420",
    "wikidata": "https://www.wikidata.org/wiki/Q113549604",
    "creation_place": "Sansepolcro",
    "creation_lat": 43.572,
    "creation_lon": 12.14,
    "_source": {
     "source": "Wikidata",
     "url": "https://www.wikidata.org/wiki/Q113549604",
     "retrieved_at": "2026-08-23"
    },
    "_overrides": {
     "creation": {
      "at": "2026-08-23",
      "source": "derived from start date + Caravaggio's documented itinerary (approximate)"
     }
    },
    "museum_id": "uffizi-gallery",
    "qid": "Q113549604"
   }
  },
  {
   "type": "Feature",
   "geometry": {
    "type": "Point",
    "coordinates": [
     -1.2545,
     51.7507
    ]
   },
   "properties": {
    "painter": "Piero della Francesca",
    "title": "The Virgin and Child and Three Angels",
    "year": "1470",
    "city": "Oxford",
    "country": "United Kingdom",
    "location": "Christ Church Picture Gallery",
    "kind": "museum",
    "attribution": "attributed",
    "status": "present",
    "medium": "Panel",
    "dimensions": "88 × 58.2 cm",
    "genre": "religious art",
    "image": "https://commons.wikimedia.org/wiki/Special:FilePath/Piero%20della%20Francesca%20%28school%20of%29%20-%20The%20Virgin%20and%20Child%20and%20Three%20Angels.jpg?width=420",
    "wikidata": "https://www.wikidata.org/wiki/Q119450613",
    "creation_place": "Sansepolcro",
    "creation_lat": 43.572,
    "creation_lon": 12.14,
    "_source": {
     "source": "Wikidata",
     "url": "https://www.wikidata.org/wiki/Q119450613",
     "retrieved_at": "2026-08-23"
    },
    "_overrides": {
     "creation": {
      "at": "2026-08-23",
      "source": "derived from start date + Caravaggio's documented itinerary (approximate)"
     }
    },
    "museum_id": "christ-church-picture-gallery",
    "qid": "Q119450613"
   }
  },
  {
   "type": "Feature",
   "geometry": {
    "type": "Point",
    "coordinates": [
     -0.13389,
     51.52594
    ]
   },
   "properties": {
    "painter": "Piero della Francesca",
    "title": "Federico da Montefeltro, Duke of Urbino",
    "city": "London Borough of Camden",
    "country": "United Kingdom",
    "location": "Wellcome Collection",
    "kind": "museum",
    "attribution": "attributed",
    "status": "present",
    "dimensions": "19.6 × 14.3 cm",
    "image": "https://commons.wikimedia.org/wiki/Special:FilePath/Piero%20della%20Francesca%20%28c.1415-1492%29%20%28after%29%20-%20Federico%20da%20Montefeltro%2C%20Duke%20of%20Urbino%20-%20582125i%20-%20Wellcome%20Collection.jpg?width=420",
    "wikidata": "https://www.wikidata.org/wiki/Q119840753",
    "_source": {
     "source": "Wikidata",
     "url": "https://www.wikidata.org/wiki/Q119840753",
     "retrieved_at": "2026-08-23"
    },
    "museum_id": "wellcome-collection",
    "qid": "Q119840753"
   }
  },
  {
   "type": "Feature",
   "geometry": {
    "type": "Point",
    "coordinates": [
     12.63647,
     43.72434
    ]
   },
   "properties": {
    "painter": "Piero della Francesca",
    "title": "Flagellation of Christ",
    "year": "1459",
    "city": "Urbino",
    "country": "Italy",
    "location": "Galleria Nazionale delle Marche",
    "kind": "museum",
    "attribution": "generally accepted",
    "status": "present",
    "medium": "Poplar panel, tempera",
    "dimensions": "67.5 × 91 cm",
    "genre": "religious art",
    "image": "https://commons.wikimedia.org/wiki/Special:FilePath/Piero%20della%20Francesca%20Flagellazione-gndm-full.jpg?width=420",
    "wikipedia_es": "https://es.wikipedia.org/wiki/La_flagelaci%C3%B3n_(Piero_della_Francesca)",
    "wikipedia_en": "https://en.wikipedia.org/wiki/Flagellation_of_Christ_(Piero_della_Francesca)",
    "wikipedia_it": "https://it.wikipedia.org/wiki/Flagellazione_di_Cristo_(Piero_della_Francesca)",
    "wikidata": "https://www.wikidata.org/wiki/Q1212920",
    "creation_place": "Arezzo",
    "creation_lat": 43.4633,
    "creation_lon": 11.8796,
    "_source": {
     "source": "Wikidata",
     "url": "https://www.wikidata.org/wiki/Q1212920",
     "retrieved_at": "2026-08-23"
    },
    "_overrides": {
     "creation": {
      "at": "2026-08-23",
      "source": "derived from start date + Caravaggio's documented itinerary (approximate)"
     }
    },
    "museum_id": "galleria-nazionale-delle-marche",
    "qid": "Q1212920",
    "wga_url": "https://www.wga.hu/html/p/piero/3/04flage4.html"
   }
  },
  {
   "type": "Feature",
   "geometry": {
    "type": "Point",
    "coordinates": [
     11.25528,
     43.76833
    ]
   },
   "properties": {
    "painter": "Piero della Francesca",
    "title": "Diptych of Federico da Montefeltro and Battista Sforza",
    "year": "1470",
    "city": "Florence",
    "country": "Italy",
    "location": "Uffizi Gallery",
    "kind": "museum",
    "attribution": "generally accepted",
    "status": "present",
    "medium": "Oil on panel",
    "dimensions": "47 × 33 cm",
    "genre": "double portrait",
    "image": "https://commons.wikimedia.org/wiki/Special:FilePath/Piero%20della%20Francesca%20044.jpg?width=420",
    "wikipedia_es": "https://es.wikipedia.org/wiki/D%C3%ADptico_del_duque_de_Urbino",
    "wikipedia_en": "https://en.wikipedia.org/wiki/Diptych_of_Federico_da_Montefeltro_and_Battista_Sforza",
    "wikipedia_it": "https://it.wikipedia.org/wiki/Doppio_ritratto_dei_duchi_di_Urbino",
    "wikidata": "https://www.wikidata.org/wiki/Q1227359",
    "creation_place": "Sansepolcro",
    "creation_lat": 43.572,
    "creation_lon": 12.14,
    "_source": {
     "source": "Wikidata",
     "url": "https://www.wikidata.org/wiki/Q1227359",
     "retrieved_at": "2026-08-23"
    },
    "_overrides": {
     "creation": {
      "at": "2026-08-23",
      "source": "derived from start date + Caravaggio's documented itinerary (approximate)"
     }
    },
    "museum_id": "uffizi-gallery",
    "qid": "Q1227359"
   }
  },
  {
   "type": "Feature",
   "geometry": {
    "type": "Point",
    "coordinates": [
     9.18782,
     45.47196
    ]
   },
   "properties": {
    "painter": "Piero della Francesca",
    "title": "Madonna and Child with Saints, Angels and Federico da Montefeltro (San Bernardino Altarpiece)",
    "year": "1472",
    "city": "Milan",
    "country": "Italy",
    "location": "Pinacoteca di Brera",
    "kind": "museum",
    "attribution": "generally accepted",
    "status": "present",
    "medium": "Oil on panel",
    "dimensions": "248 × 170 cm",
    "genre": "donor portrait, religious art",
    "image": "https://commons.wikimedia.org/wiki/Special:FilePath/Piero%20della%20Francesca%20046.jpg?width=420",
    "wikipedia_es": "https://es.wikipedia.org/wiki/Sacra_Conversaci%C3%B3n_(Piero_della_Francesca)",
    "wikipedia_en": "https://en.wikipedia.org/wiki/Brera_Madonna",
    "wikipedia_it": "https://it.wikipedia.org/wiki/Pala_di_Brera",
    "wikidata": "https://www.wikidata.org/wiki/Q1796098",
    "creation_place": "Sansepolcro",
    "creation_lat": 43.572,
    "creation_lon": 12.14,
    "_source": {
     "source": "Wikidata",
     "url": "https://www.wikidata.org/wiki/Q1796098",
     "retrieved_at": "2026-08-23"
    },
    "_overrides": {
     "creation": {
      "at": "2026-08-23",
      "source": "derived from start date + Caravaggio's documented itinerary (approximate)"
     }
    },
    "museum_id": "pinacoteca-di-brera",
    "qid": "Q1796098",
    "wga_url": "https://www.wga.hu/html/p/piero/3/12monte1.html"
   }
  },
  {
   "type": "Feature",
   "geometry": {
    "type": "Point",
    "coordinates": [
     -3.69493,
     40.41604
    ]
   },
   "properties": {
    "painter": "Piero della Francesca",
    "title": "Portrait of a Boy. Guidobaldo da Montefeltro (?)",
    "year": "1483",
    "city": "Madrid",
    "country": "Spain",
    "location": "Thyssen-Bornemisza Museum",
    "kind": "museum",
    "attribution": "attributed",
    "status": "present",
    "medium": "Panel",
    "dimensions": "41 × 27.5 cm",
    "genre": "portrait",
    "image": "https://commons.wikimedia.org/wiki/Special:FilePath/Girolamo%20Di%20Giovanni%20Da%20Camerino%20-%20Portrait%20of%20a%20Child%20-%20WGA09525.jpg?width=420",
    "wikidata": "https://www.wikidata.org/wiki/Q21711477",
    "creation_place": "Sansepolcro",
    "creation_lat": 43.572,
    "creation_lon": 12.14,
    "_source": {
     "source": "Wikidata",
     "url": "https://www.wikidata.org/wiki/Q21711477",
     "retrieved_at": "2026-08-23"
    },
    "_overrides": {
     "creation": {
      "at": "2026-08-23",
      "source": "derived from start date + Caravaggio's documented itinerary (approximate)"
     }
    },
    "museum_id": "thyssen-bornemisza-museum",
    "qid": "Q21711477",
    "wga_url": "https://www.wga.hu/html/g/girolamo/camerino/p_child.html"
   }
  },
  {
   "type": "Feature",
   "geometry": {
    "type": "Point",
    "coordinates": [
     12.1415,
     43.57155
    ]
   },
   "properties": {
    "painter": "Piero della Francesca",
    "title": "Polyptych of the Misericordia",
    "year": "1460",
    "city": "Sansepolcro",
    "country": "Italy",
    "location": "Museo Civico di Sansepolcro",
    "kind": "museum",
    "attribution": "generally accepted",
    "status": "present",
    "dimensions": "273 × 330 cm",
    "genre": "religious art",
    "image": "https://commons.wikimedia.org/wiki/Special:FilePath/Piero%20della%20Francesca%20-%20Polyptych%20of%20the%20Misericordia%20-%20WGA17446.jpg?width=420",
    "wikipedia_es": "https://es.wikipedia.org/wiki/Pol%C3%ADptico_de_la_Misericordia",
    "wikipedia_en": "https://en.wikipedia.org/wiki/Polyptych_of_the_Misericordia",
    "wikipedia_it": "https://it.wikipedia.org/wiki/Polittico_della_Misericordia",
    "wikidata": "https://www.wikidata.org/wiki/Q2247307",
    "creation_place": "Arezzo",
    "creation_lat": 43.4633,
    "creation_lon": 11.8796,
    "_source": {
     "source": "Wikidata",
     "url": "https://www.wikidata.org/wiki/Q2247307",
     "retrieved_at": "2026-08-23"
    },
    "_overrides": {
     "creation": {
      "at": "2026-08-23",
      "source": "derived from start date + Caravaggio's documented itinerary (approximate)"
     }
    },
    "museum_id": "museo-civico-di-sansepolcro",
    "qid": "Q2247307"
   }
  },
  {
   "type": "Feature",
   "geometry": {
    "type": "Point",
    "coordinates": [
     -0.1283,
     51.5089
    ]
   },
   "properties": {
    "painter": "Piero della Francesca",
    "title": "The Baptism of Christ",
    "year": "1448",
    "city": "London",
    "country": "United Kingdom",
    "location": "National Gallery",
    "kind": "museum",
    "attribution": "generally accepted",
    "status": "present",
    "medium": "Wood",
    "dimensions": "168 × 116 cm",
    "genre": "religious art",
    "image": "https://commons.wikimedia.org/wiki/Special:FilePath/Piero%20della%20Francesca%20-%20Battesimo%20di%20Cristo%20%28National%20Gallery%2C%20London%29.jpg?width=420",
    "wikipedia_es": "https://es.wikipedia.org/wiki/El_bautismo_de_Cristo_(Piero_della_Francesca)",
    "wikipedia_en": "https://en.wikipedia.org/wiki/The_Baptism_of_Christ_(Piero_della_Francesca)",
    "wikipedia_it": "https://it.wikipedia.org/wiki/Battesimo_di_Cristo_(Piero_della_Francesca)",
    "wikidata": "https://www.wikidata.org/wiki/Q2632688",
    "creation_place": "Sansepolcro",
    "creation_lat": 43.572,
    "creation_lon": 12.14,
    "_source": {
     "source": "Wikidata",
     "url": "https://www.wikidata.org/wiki/Q2632688",
     "retrieved_at": "2026-08-23"
    },
    "_overrides": {
     "creation": {
      "at": "2026-08-23",
      "source": "derived from start date + Caravaggio's documented itinerary (approximate)"
     }
    },
    "museum_id": "national-gallery",
    "qid": "Q2632688",
    "wga_url": "https://www.wga.hu/html/p/piero/3/02bapti3.html"
   }
  },
  {
   "type": "Feature",
   "geometry": {
    "type": "Point",
    "coordinates": [
     2.3358,
     48.8611
    ]
   },
   "properties": {
    "painter": "Piero della Francesca",
    "title": "Portrait of Sigismondo Pandolfo Malatesta",
    "year": "1450",
    "country": "France",
    "location": "Louvre",
    "kind": "museum",
    "attribution": "generally accepted",
    "status": "present",
    "medium": "Oil on panel",
    "dimensions": "44 × 34 cm",
    "genre": "portrait",
    "image": "https://commons.wikimedia.org/wiki/Special:FilePath/Piero%2C%20ritratto%20di%20sigismondo%20malatesta.jpg?width=420",
    "wikipedia_es": "https://es.wikipedia.org/wiki/Retrato_de_Sigismondo_Pandolfo_Malatesta",
    "wikipedia_en": "https://en.wikipedia.org/wiki/Portrait_of_Sigismondo_Pandolfo_Malatesta",
    "wikipedia_it": "https://it.wikipedia.org/wiki/Ritratto_di_Sigismondo_Pandolfo_Malatesta",
    "wikidata": "https://www.wikidata.org/wiki/Q2755121",
    "creation_place": "Sansepolcro",
    "creation_lat": 43.572,
    "creation_lon": 12.14,
    "_source": {
     "source": "Wikidata",
     "url": "https://www.wikidata.org/wiki/Q2755121",
     "retrieved_at": "2026-08-23"
    },
    "_overrides": {
     "creation": {
      "at": "2026-08-23",
      "source": "derived from start date + Caravaggio's documented itinerary (approximate)"
     }
    },
    "museum_id": "louvre",
    "city": "Paris",
    "qid": "Q2755121",
    "wga_url": "https://www.wga.hu/html/p/piero/4/malatest.html"
   }
  },
  {
   "type": "Feature",
   "geometry": {
    "type": "Point",
    "coordinates": [
     11.25528,
     43.76833
    ]
   },
   "properties": {
    "painter": "Piero della Francesca",
    "title": "Portrait of Battista Sforza",
    "year": "1474",
    "city": "Florence",
    "country": "Italy",
    "location": "Uffizi Gallery",
    "kind": "museum",
    "attribution": "attributed",
    "status": "present",
    "medium": "Panel",
    "dimensions": "470 × 330 cm",
    "genre": "portrait",
    "image": "https://commons.wikimedia.org/wiki/Special:FilePath/Piero%20della%20Francesca%20-%20Portraits%20of%20the%20Duke%20and%20Duchess%20of%20Urbino%2C%20Federico%20da%20Montefeltro%20and%20Battista%20Sforza%20-%20Google%20Art%20Project.jpg?width=420",
    "wikidata": "https://www.wikidata.org/wiki/Q28798129",
    "creation_place": "Sansepolcro",
    "creation_lat": 43.572,
    "creation_lon": 12.14,
    "_source": {
     "source": "Wikidata",
     "url": "https://www.wikidata.org/wiki/Q28798129",
     "retrieved_at": "2026-08-23"
    },
    "_overrides": {
     "creation": {
      "at": "2026-08-23",
      "source": "derived from start date + Caravaggio's documented itinerary (approximate)"
     }
    },
    "museum_id": "uffizi-gallery",
    "qid": "Q28798129",
    "wga_url": "https://www.wga.hu/html/p/piero/4/montefe7.html"
   }
  },
  {
   "type": "Feature",
   "geometry": {
    "type": "Point",
    "coordinates": [
     -0.1283,
     51.5089
    ]
   },
   "properties": {
    "painter": "Piero della Francesca",
    "title": "The Nativity",
    "year": "1480",
    "city": "London",
    "country": "United Kingdom",
    "location": "National Gallery",
    "kind": "museum",
    "attribution": "generally accepted",
    "status": "present",
    "medium": "Oil on panel",
    "dimensions": "124 × 123 cm",
    "genre": "religious art",
    "image": "https://commons.wikimedia.org/wiki/Special:FilePath/Piero%20della%20Francesca%20041.jpg?width=420",
    "wikipedia_es": "https://es.wikipedia.org/wiki/La_Natividad_(Piero_della_Francesca)",
    "wikipedia_en": "https://en.wikipedia.org/wiki/The_Nativity_(Piero_della_Francesca)",
    "wikipedia_it": "https://it.wikipedia.org/wiki/Nativit%C3%A0_(Piero_della_Francesca)",
    "wikidata": "https://www.wikidata.org/wiki/Q3211055",
    "creation_place": "Sansepolcro",
    "creation_lat": 43.572,
    "creation_lon": 12.14,
    "_source": {
     "source": "Wikidata",
     "url": "https://www.wikidata.org/wiki/Q3211055",
     "retrieved_at": "2026-08-23"
    },
    "_overrides": {
     "creation": {
      "at": "2026-08-23",
      "source": "derived from start date + Caravaggio's documented itinerary (approximate)"
     }
    },
    "museum_id": "national-gallery",
    "qid": "Q3211055",
    "wga_url": "https://www.wga.hu/html/p/piero/3/13nativ1.html"
   }
  },
  {
   "type": "Feature",
   "geometry": {
    "type": "Point",
    "coordinates": [
     12.38845,
     43.11156
    ]
   },
   "properties": {
    "painter": "Piero della Francesca",
    "title": "Q3395793",
    "year": "1469",
    "city": "Perugia",
    "country": "Italy",
    "location": "National Gallery of Umbria",
    "kind": "museum",
    "attribution": "attributed",
    "status": "present",
    "genre": "religious art",
    "image": "https://commons.wikimedia.org/wiki/Special:FilePath/StAntoinePerugia.jpg?width=420",
    "wikidata": "https://www.wikidata.org/wiki/Q3395793",
    "creation_place": "Sansepolcro",
    "creation_lat": 43.572,
    "creation_lon": 12.14,
    "_source": {
     "source": "Wikidata",
     "url": "https://www.wikidata.org/wiki/Q3395793",
     "retrieved_at": "2026-08-23"
    },
    "_overrides": {
     "creation": {
      "at": "2026-08-23",
      "source": "derived from start date + Caravaggio's documented itinerary (approximate)"
     }
    },
    "museum_id": "national-gallery-of-umbria",
    "qid": "Q3395793",
    "_merged": [
     {
      "source": "Wikidata",
      "title": "Polyptyque de Sant'Antonio",
      "qid": "Q3395793",
      "url": "https://www.wikidata.org/wiki/Q3395793"
     }
    ]
   }
  },
  {
   "type": "Feature",
   "geometry": {
    "type": "Point",
    "coordinates": [
     -73.9672,
     40.7711
    ]
   },
   "properties": {
    "painter": "Piero della Francesca",
    "title": "The Crucifixion",
    "year": "1461",
    "city": "New York",
    "country": "United States",
    "location": "Frick Collection",
    "kind": "museum",
    "attribution": "generally accepted",
    "status": "present",
    "medium": "Panel",
    "dimensions": "37 × 41 cm",
    "genre": "religious art",
    "image": "https://commons.wikimedia.org/wiki/Special:FilePath/Piero%2C%20crocifissione.jpg?width=420",
    "wikipedia_it": "https://it.wikipedia.org/wiki/Crocifissione_(Piero_della_Francesca)",
    "wikidata": "https://www.wikidata.org/wiki/Q3698202",
    "creation_place": "Arezzo",
    "creation_lat": 43.4633,
    "creation_lon": 11.8796,
    "_source": {
     "source": "Wikidata",
     "url": "https://www.wikidata.org/wiki/Q3698202",
     "retrieved_at": "2026-08-23"
    },
    "_overrides": {
     "creation": {
      "at": "2026-08-23",
      "source": "derived from start date + Caravaggio's documented itinerary (approximate)"
     }
    },
    "museum_id": "frick-collection",
    "qid": "Q3698202",
    "wga_url": "https://www.wga.hu/html/p/piero/1/2august6.html"
   }
  },
  {
   "type": "Feature",
   "geometry": {
    "type": "Point",
    "coordinates": [
     -71.05778,
     42.36028
    ]
   },
   "properties": {
    "painter": "Piero della Francesca",
    "title": "Hercules",
    "year": "1465",
    "city": "Boston",
    "country": "United States",
    "location": "Isabella Stewart Gardner Museum",
    "kind": "museum",
    "attribution": "generally accepted",
    "status": "present",
    "medium": "Plaster, tempera",
    "dimensions": "151 × 126 cm",
    "genre": "mythological painting",
    "image": "https://commons.wikimedia.org/wiki/Special:FilePath/Piero%2C%20hercules.jpg?width=420",
    "wikipedia_en": "https://en.wikipedia.org/wiki/Hercules_(Piero_della_Francesca)",
    "wikipedia_it": "https://it.wikipedia.org/wiki/Ercole_(Piero_della_Francesca)",
    "wikidata": "https://www.wikidata.org/wiki/Q3731175",
    "creation_place": "Arezzo",
    "creation_lat": 43.4633,
    "creation_lon": 11.8796,
    "_source": {
     "source": "Wikidata",
     "url": "https://www.wikidata.org/wiki/Q3731175",
     "retrieved_at": "2026-08-23"
    },
    "_overrides": {
     "creation": {
      "at": "2026-08-23",
      "source": "derived from start date + Caravaggio's documented itinerary (approximate)"
     }
    },
    "museum_id": "isabella-stewart-gardner-museum",
    "qid": "Q3731175",
    "wga_url": "https://www.wga.hu/html/p/piero/3/09hercul.html"
   }
  },
  {
   "type": "Feature",
   "geometry": {
    "type": "Point",
    "coordinates": [
     -73.2137,
     42.7078
    ]
   },
   "properties": {
    "painter": "Piero della Francesca",
    "title": "Virgin and Child Enthroned with Four Angels",
    "year": "1475",
    "city": "Williamstown",
    "country": "United States",
    "location": "Clark Art Institute",
    "kind": "museum",
    "attribution": "generally accepted",
    "status": "present",
    "medium": "Oil on canvas",
    "dimensions": "107.8 × 78.4 cm",
    "genre": "religious art",
    "image": "https://commons.wikimedia.org/wiki/Special:FilePath/Piero%2C%20madonna%20col%20bambino%20e%204%20angeli%2C%20clark%20art%20institute.jpg?width=420",
    "wikipedia_it": "https://it.wikipedia.org/wiki/Madonna_col_Bambino_e_quattro_angeli_(Piero_della_Francesca)",
    "wikidata": "https://www.wikidata.org/wiki/Q3842514",
    "creation_place": "Sansepolcro",
    "creation_lat": 43.572,
    "creation_lon": 12.14,
    "_source": {
     "source": "Wikidata",
     "url": "https://www.wikidata.org/wiki/Q3842514",
     "retrieved_at": "2026-08-23"
    },
    "_overrides": {
     "creation": {
      "at": "2026-08-23",
      "source": "derived from start date + Caravaggio's documented itinerary (approximate)"
     }
    },
    "museum_id": "clark-art-institute",
    "qid": "Q3842514"
   }
  },
  {
   "type": "Feature",
   "geometry": {
    "type": "Point",
    "coordinates": [
     11.88086,
     43.46454
    ]
   },
   "properties": {
    "painter": "Piero della Francesca",
    "title": "Discovery and Proof of the True Cross",
    "year": "1458",
    "city": "Arezzo",
    "country": "Italy",
    "location": "San Francesco, Arezzo",
    "kind": "church",
    "attribution": "generally accepted",
    "status": "present",
    "medium": "Fresco",
    "dimensions": "356 × 747 cm",
    "genre": "religious art",
    "image": "https://commons.wikimedia.org/wiki/Special:FilePath/Piero%2C%20arezzo%2C%20Discovery%20and%20Proof%20of%20the%20True%20Cross%2001.jpg?width=420",
    "wikipedia_it": "https://it.wikipedia.org/wiki/Ritrovamento_delle_tre_croci_e_verifica_della_Croce",
    "wikidata": "https://www.wikidata.org/wiki/Q3937803",
    "creation_place": "Arezzo",
    "creation_lat": 43.4633,
    "creation_lon": 11.8796,
    "_source": {
     "source": "Wikidata",
     "url": "https://www.wikidata.org/wiki/Q3937803",
     "retrieved_at": "2026-08-23"
    },
    "_overrides": {
     "creation": {
      "at": "2026-08-23",
      "source": "derived from start date + Caravaggio's documented itinerary (approximate)"
     }
    },
    "museum_id": "san-francesco-arezzo",
    "qid": "Q3937803",
    "wga_url": "https://www.wga.hu/html/p/piero/2/7/7find14.html"
   }
  },
  {
   "type": "Feature",
   "geometry": {
    "type": "Point",
    "coordinates": [
     -73.9672,
     40.7711
    ]
   },
   "properties": {
    "painter": "Piero della Francesca",
    "title": "St. John the Evangelist",
    "year": "1454",
    "city": "New York",
    "country": "United States",
    "location": "Frick Collection",
    "kind": "museum",
    "attribution": "generally accepted",
    "status": "present",
    "dimensions": "134.0 × 62.2 cm",
    "genre": "religious art",
    "image": "https://commons.wikimedia.org/wiki/Special:FilePath/Piero%2C%20san%20giovanni%20evangelista%20o.jpg?width=420",
    "wikipedia_it": "https://it.wikipedia.org/wiki/San_Giovanni_Evangelista_(Piero_della_Francesca)",
    "wikidata": "https://www.wikidata.org/wiki/Q3947256",
    "creation_place": "Arezzo",
    "creation_lat": 43.4633,
    "creation_lon": 11.8796,
    "_source": {
     "source": "Wikidata",
     "url": "https://www.wikidata.org/wiki/Q3947256",
     "retrieved_at": "2026-08-23"
    },
    "_overrides": {
     "creation": {
      "at": "2026-08-23",
      "source": "derived from start date + Caravaggio's documented itinerary (approximate)"
     }
    },
    "museum_id": "frick-collection",
    "qid": "Q3947256"
   }
  },
  {
   "type": "Feature",
   "geometry": {
    "type": "Point",
    "coordinates": [
     12.32814,
     45.43108
    ]
   },
   "properties": {
    "painter": "Piero della Francesca",
    "title": "Saint Jerome and a Donor",
    "year": "1440",
    "city": "Venice",
    "country": "Italy",
    "location": "Gallerie dell'Accademia",
    "kind": "museum",
    "attribution": "generally accepted",
    "status": "present",
    "medium": "Panel",
    "dimensions": "49 × 42 cm",
    "genre": "religious art",
    "image": "https://commons.wikimedia.org/wiki/Special:FilePath/Accademia%20-%20San%20Girolamo%20e%20un%20devoto%20-%20Piero%20della%20Francesca.jpg?width=420",
    "wikipedia_it": "https://it.wikipedia.org/wiki/San_Girolamo_e_il_donatore_Girolamo_Amadi",
    "wikidata": "https://www.wikidata.org/wiki/Q3947293",
    "creation_place": "Sansepolcro",
    "creation_lat": 43.572,
    "creation_lon": 12.14,
    "_source": {
     "source": "Wikidata",
     "url": "https://www.wikidata.org/wiki/Q3947293",
     "retrieved_at": "2026-08-23"
    },
    "_overrides": {
     "creation": {
      "at": "2026-08-23",
      "source": "derived from start date + Caravaggio's documented itinerary (approximate)"
     }
    },
    "museum_id": "gallerie-dell-accademia",
    "qid": "Q3947293",
    "wga_url": "https://www.wga.hu/html/p/piero/3/03jerome.html"
   }
  },
  {
   "type": "Feature",
   "geometry": {
    "type": "Point",
    "coordinates": [
     13.36472,
     52.50861
    ]
   },
   "properties": {
    "painter": "Piero della Francesca",
    "title": "Saint Jerome penitent",
    "year": "1450",
    "city": "Bezirk Mitte",
    "country": "Germany",
    "location": "Gemäldegalerie Berlin",
    "kind": "museum",
    "attribution": "generally accepted",
    "status": "present",
    "medium": "Oil on panel",
    "dimensions": "51 × 38 cm",
    "genre": "religious art",
    "image": "https://commons.wikimedia.org/wiki/Special:FilePath/Piero%2C%20san%20girolamo%20penitente%2C%201450%20gemaeldegalerie%20zu%20berlin.jpg?width=420",
    "wikipedia_it": "https://it.wikipedia.org/wiki/San_Girolamo_penitente_(Piero_della_Francesca)",
    "wikidata": "https://www.wikidata.org/wiki/Q3947316",
    "creation_place": "Sansepolcro",
    "creation_lat": 43.572,
    "creation_lon": 12.14,
    "_source": {
     "source": "Wikidata",
     "url": "https://www.wikidata.org/wiki/Q3947316",
     "retrieved_at": "2026-08-23"
    },
    "_overrides": {
     "creation": {
      "at": "2026-08-23",
      "source": "derived from start date + Caravaggio's documented itinerary (approximate)"
     }
    },
    "museum_id": "gemaldegalerie-berlin",
    "qid": "Q3947316",
    "wga_url": "https://www.wga.hu/html/p/piero/3/01jerome.html"
   }
  },
  {
   "type": "Feature",
   "geometry": {
    "type": "Point",
    "coordinates": [
     12.1415,
     43.57155
    ]
   },
   "properties": {
    "painter": "Piero della Francesca",
    "title": "Saint Julian the Hospitaller",
    "year": "1454",
    "city": "Sansepolcro",
    "country": "Italy",
    "location": "Museo Civico di Sansepolcro",
    "kind": "museum",
    "attribution": "generally accepted",
    "status": "present",
    "medium": "Fresco",
    "dimensions": "130 × 105 cm",
    "genre": "religious art",
    "image": "https://commons.wikimedia.org/wiki/Special:FilePath/Piero%20della%20francesca%2C%20san%20giuliano.jpg?width=420",
    "wikipedia_es": "https://es.wikipedia.org/wiki/San_Juli%C3%A1n_el_Hospitalario_(Piero_della_Francesca)",
    "wikipedia_en": "https://en.wikipedia.org/wiki/Saint_Julian_the_Hospitaller_(Piero_della_Francesca)",
    "wikipedia_it": "https://it.wikipedia.org/wiki/San_Giuliano_(Piero_della_Francesca)",
    "wikidata": "https://www.wikidata.org/wiki/Q3947322",
    "creation_place": "Arezzo",
    "creation_lat": 43.4633,
    "creation_lon": 11.8796,
    "_source": {
     "source": "Wikidata",
     "url": "https://www.wikidata.org/wiki/Q3947322",
     "retrieved_at": "2026-08-23"
    },
    "_overrides": {
     "creation": {
      "at": "2026-08-23",
      "source": "derived from start date + Caravaggio's documented itinerary (approximate)"
     }
    },
    "museum_id": "museo-civico-di-sansepolcro",
    "qid": "Q3947322",
    "wga_url": "https://www.wga.hu/html/p/piero/3/05julian.html"
   }
  },
  {
   "type": "Feature",
   "geometry": {
    "type": "Point",
    "coordinates": [
     12.1415,
     43.57155
    ]
   },
   "properties": {
    "painter": "Piero della Francesca",
    "title": "Saint Louis of Toulouse",
    "year": "1460",
    "city": "Sansepolcro",
    "country": "Italy",
    "location": "Museo Civico di Sansepolcro",
    "kind": "museum",
    "attribution": "generally accepted",
    "status": "present",
    "medium": "Fresco",
    "dimensions": "123 × 90 cm",
    "genre": "religious art",
    "image": "https://commons.wikimedia.org/wiki/Special:FilePath/Piero%20della%20Francesca%20-%20St%20Ludovico%20-%20WGA17634.jpg?width=420",
    "wikipedia_en": "https://en.wikipedia.org/wiki/Saint_Louis_of_Toulouse_(Piero_della_Francesca)",
    "wikipedia_it": "https://it.wikipedia.org/wiki/San_Ludovico_di_Tolosa_(Piero_della_Francesca)",
    "wikidata": "https://www.wikidata.org/wiki/Q3947516",
    "creation_place": "Arezzo",
    "creation_lat": 43.4633,
    "creation_lon": 11.8796,
    "_source": {
     "source": "Wikidata",
     "url": "https://www.wikidata.org/wiki/Q3947516",
     "retrieved_at": "2026-08-23"
    },
    "_overrides": {
     "creation": {
      "at": "2026-08-23",
      "source": "derived from start date + Caravaggio's documented itinerary (approximate)"
     }
    },
    "museum_id": "museo-civico-di-sansepolcro",
    "qid": "Q3947516",
    "wga_url": "https://www.wga.hu/html/p/piero/5/ludovico.html"
   }
  },
  {
   "type": "Feature",
   "geometry": {
    "type": "Point",
    "coordinates": [
     -0.1283,
     51.5089
    ]
   },
   "properties": {
    "painter": "Piero della Francesca",
    "title": "Saint Michael",
    "year": "1454",
    "city": "London",
    "country": "United Kingdom",
    "location": "National Gallery",
    "kind": "museum",
    "attribution": "generally accepted",
    "status": "present",
    "medium": "Panel",
    "dimensions": "133 × 59.5 cm",
    "genre": "religious art",
    "image": "https://commons.wikimedia.org/wiki/Special:FilePath/Piero%2C%20san%20michele%20a.jpg?width=420",
    "wikipedia_it": "https://it.wikipedia.org/wiki/San_Michele_Arcangelo_(Piero_della_Francesca)",
    "wikidata": "https://www.wikidata.org/wiki/Q3947688",
    "creation_place": "Arezzo",
    "creation_lat": 43.4633,
    "creation_lon": 11.8796,
    "_source": {
     "source": "Wikidata",
     "url": "https://www.wikidata.org/wiki/Q3947688",
     "retrieved_at": "2026-08-23"
    },
    "_overrides": {
     "creation": {
      "at": "2026-08-23",
      "source": "derived from start date + Caravaggio's documented itinerary (approximate)"
     }
    },
    "museum_id": "national-gallery",
    "qid": "Q3947688",
    "wga_url": "https://www.wga.hu/html/p/piero/1/2august2.html"
   }
  },
  {
   "type": "Feature",
   "geometry": {
    "type": "Point",
    "coordinates": [
     9.19158,
     45.46866
    ]
   },
   "properties": {
    "painter": "Piero della Francesca",
    "title": "Saint Nicholas of Tolentino",
    "year": "1456",
    "city": "Milan",
    "country": "Italy",
    "location": "Museo Poldi Pezzoli",
    "kind": "museum",
    "attribution": "generally accepted",
    "status": "present",
    "dimensions": "139.4 × 59.2 cm",
    "genre": "religious art",
    "image": "https://commons.wikimedia.org/wiki/Special:FilePath/Piero%20della%20Francesca%20-%20Saint%20Nicholas%20of%20Tolentino%20-%20Google%20Art%20Project.jpg?width=420",
    "wikipedia_it": "https://it.wikipedia.org/wiki/San_Nicola_da_Tolentino_(Piero_della_Francesca)",
    "wikidata": "https://www.wikidata.org/wiki/Q3947720",
    "creation_place": "Arezzo",
    "creation_lat": 43.4633,
    "creation_lon": 11.8796,
    "_source": {
     "source": "Wikidata",
     "url": "https://www.wikidata.org/wiki/Q3947720",
     "retrieved_at": "2026-08-23"
    },
    "_overrides": {
     "creation": {
      "at": "2026-08-23",
      "source": "derived from start date + Caravaggio's documented itinerary (approximate)"
     }
    },
    "museum_id": "museo-poldi-pezzoli",
    "qid": "Q3947720"
   }
  },
  {
   "type": "Feature",
   "geometry": {
    "type": "Point",
    "coordinates": [
     -9.16072,
     38.7053
    ]
   },
   "properties": {
    "painter": "Piero della Francesca",
    "title": "Saint Augustin",
    "year": "1454",
    "city": "Estrela",
    "country": "Portugal",
    "location": "National Museum of Ancient Art",
    "kind": "museum",
    "attribution": "generally accepted",
    "status": "present",
    "medium": "Panel",
    "dimensions": "133 × 60 cm",
    "genre": "religious art",
    "image": "https://commons.wikimedia.org/wiki/Special:FilePath/Piero%2C%20sant%27agostino.jpg?width=420",
    "wikipedia_it": "https://it.wikipedia.org/wiki/Sant%27Agostino_(Piero_della_Francesca)",
    "wikidata": "https://www.wikidata.org/wiki/Q3948659",
    "creation_place": "Arezzo",
    "creation_lat": 43.4633,
    "creation_lon": 11.8796,
    "_source": {
     "source": "Wikidata",
     "url": "https://www.wikidata.org/wiki/Q3948659",
     "retrieved_at": "2026-08-23"
    },
    "_overrides": {
     "creation": {
      "at": "2026-08-23",
      "source": "derived from start date + Caravaggio's documented itinerary (approximate)"
     }
    },
    "museum_id": "national-museum-of-ancient-art",
    "qid": "Q3948659",
    "wga_url": "https://www.wga.hu/html/p/piero/1/2august1.html"
   }
  },
  {
   "type": "Feature",
   "geometry": {
    "type": "Point",
    "coordinates": [
     -77.02,
     38.8914
    ]
   },
   "properties": {
    "painter": "Piero della Francesca",
    "title": "Saint Apollonia",
    "year": "1454",
    "city": "Washington",
    "country": "United States",
    "location": "National Gallery of Art",
    "kind": "museum",
    "attribution": "generally accepted",
    "status": "present",
    "medium": "Poplar panel, tempera",
    "dimensions": "38.8 × 28 cm",
    "genre": "religious art",
    "image": "https://commons.wikimedia.org/wiki/Special:FilePath/Piero%2C%20sant%27apollonia.jpg?width=420",
    "wikipedia_it": "https://it.wikipedia.org/wiki/Sant%27Apollonia_(Piero_della_Francesca)",
    "wikidata": "https://www.wikidata.org/wiki/Q3948792",
    "creation_place": "Arezzo",
    "creation_lat": 43.4633,
    "creation_lon": 11.8796,
    "_source": {
     "source": "Wikidata",
     "url": "https://www.wikidata.org/wiki/Q3948792",
     "retrieved_at": "2026-08-23"
    },
    "_overrides": {
     "creation": {
      "at": "2026-08-23",
      "source": "derived from start date + Caravaggio's documented itinerary (approximate)"
     }
    },
    "museum_id": "national-gallery-of-art",
    "qid": "Q3948792"
   }
  },
  {
   "type": "Feature",
   "geometry": {
    "type": "Point",
    "coordinates": [
     -73.9672,
     40.7711
    ]
   },
   "properties": {
    "painter": "Piero della Francesca",
    "title": "An Augustinian Nun (Saint Monica)",
    "year": "1454",
    "city": "New York",
    "country": "United States",
    "location": "Frick Collection",
    "kind": "museum",
    "attribution": "generally accepted",
    "status": "present",
    "medium": "Panel",
    "dimensions": "39 × 28 cm",
    "genre": "religious art",
    "image": "https://commons.wikimedia.org/wiki/Special:FilePath/Piero%2C%20santa%20monaca.jpg?width=420",
    "wikipedia_it": "https://it.wikipedia.org/wiki/Santa_Monica_(Piero_della_Francesca)",
    "wikidata": "https://www.wikidata.org/wiki/Q3949207",
    "creation_place": "Arezzo",
    "creation_lat": 43.4633,
    "creation_lon": 11.8796,
    "_source": {
     "source": "Wikidata",
     "url": "https://www.wikidata.org/wiki/Q3949207",
     "retrieved_at": "2026-08-23"
    },
    "_overrides": {
     "creation": {
      "at": "2026-08-23",
      "source": "derived from start date + Caravaggio's documented itinerary (approximate)"
     }
    },
    "museum_id": "frick-collection",
    "qid": "Q3949207",
    "wga_url": "https://www.wga.hu/html/p/piero/1/2august5.html"
   }
  },
  {
   "type": "Feature",
   "geometry": {
    "type": "Point",
    "coordinates": [
     -73.9672,
     40.7711
    ]
   },
   "properties": {
    "painter": "Piero della Francesca",
    "title": "Augustinian Saint",
    "year": "1454",
    "city": "New York",
    "country": "United States",
    "location": "Frick Collection",
    "kind": "museum",
    "attribution": "generally accepted",
    "status": "present",
    "medium": "Panel",
    "dimensions": "39 × 28 cm",
    "genre": "religious art",
    "image": "https://commons.wikimedia.org/wiki/Special:FilePath/Piero%20della%20Francesca%20-%20Polyptych%20of%20St%20Augustine%20-%20Augustinian%20Saint%20-%20WGA17462.jpg?width=420",
    "wikipedia_it": "https://it.wikipedia.org/wiki/Santo_agostiniano",
    "wikidata": "https://www.wikidata.org/wiki/Q3949528",
    "creation_place": "Arezzo",
    "creation_lat": 43.4633,
    "creation_lon": 11.8796,
    "_source": {
     "source": "Wikidata",
     "url": "https://www.wikidata.org/wiki/Q3949528",
     "retrieved_at": "2026-08-23"
    },
    "_overrides": {
     "creation": {
      "at": "2026-08-23",
      "source": "derived from start date + Caravaggio's documented itinerary (approximate)"
     }
    },
    "museum_id": "frick-collection",
    "qid": "Q3949528",
    "wga_url": "https://www.wga.hu/html/p/piero/1/2august7.html"
   }
  },
  {
   "type": "Feature",
   "geometry": {
    "type": "Point",
    "coordinates": [
     12.570276,
     44.059952
    ]
   },
   "properties": {
    "painter": "Piero della Francesca",
    "title": "Sigismondo Pandolfo Malatesta in preghiera davanti a san Sigismondo",
    "year": "1451",
    "city": "Rimini",
    "country": "Italy",
    "location": "Tempio Malatestiano",
    "kind": "church",
    "attribution": "generally accepted",
    "status": "present",
    "medium": "Fresco",
    "dimensions": "257 × 345 cm",
    "genre": "portrait",
    "image": "https://commons.wikimedia.org/wiki/Special:FilePath/Piero%2C%20Sigismondo%20Pandolfo%20Malatesta%20before%20Saint%20Sigismund%2001.jpg?width=420",
    "wikipedia_it": "https://it.wikipedia.org/wiki/Sigismondo_Pandolfo_Malatesta_in_preghiera_davanti_a_san_Sigismondo",
    "wikidata": "https://www.wikidata.org/wiki/Q3960322",
    "creation_place": "Sansepolcro",
    "creation_lat": 43.572,
    "creation_lon": 12.14,
    "_source": {
     "source": "Wikidata",
     "url": "https://www.wikidata.org/wiki/Q3960322",
     "retrieved_at": "2026-08-23"
    },
    "_overrides": {
     "creation": {
      "at": "2026-08-23",
      "source": "derived from start date + Caravaggio's documented itinerary (approximate)"
     }
    },
    "museum_id": "tempio-malatestiano",
    "qid": "Q3960322",
    "wga_url": "https://www.wga.hu/html/p/piero/3/03sigism.html"
   }
  },
  {
   "type": "Feature",
   "geometry": {
    "type": "Point",
    "coordinates": [
     12.38845,
     43.11156
    ]
   },
   "properties": {
    "painter": "Piero della Francesca",
    "title": "Annunciation (St. Anthony)",
    "year": "1460",
    "city": "Perugia",
    "country": "Italy",
    "location": "National Gallery of Umbria",
    "kind": "museum",
    "attribution": "attributed",
    "status": "present",
    "genre": "religious art",
    "image": "https://commons.wikimedia.org/wiki/Special:FilePath/Piero%2C%20Polittico%20di%20Sant%27Antonio%2005.jpg?width=420",
    "wikidata": "https://www.wikidata.org/wiki/Q61765102",
    "creation_place": "Arezzo",
    "creation_lat": 43.4633,
    "creation_lon": 11.8796,
    "_source": {
     "source": "Wikidata",
     "url": "https://www.wikidata.org/wiki/Q61765102",
     "retrieved_at": "2026-08-23"
    },
    "_overrides": {
     "creation": {
      "at": "2026-08-23",
      "source": "derived from start date + Caravaggio's documented itinerary (approximate)"
     }
    },
    "museum_id": "national-gallery-of-umbria",
    "qid": "Q61765102"
   }
  }
 ]
}