{
 "type": "FeatureCollection",
 "_note": "Generated by scripts/build.py from Wikidata. Do not edit by hand — put manual fixes in the painter's overlay (data/overlay/*.json). Each feature carries _source (scraped base or manual addition) and, when edited, _overrides.",
 "features": [
  {
   "type": "Feature",
   "geometry": {
    "type": "Point",
    "coordinates": [
     -99.14139,
     19.43528
    ]
   },
   "properties": {
    "painter": "Diego Rivera",
    "title": "Man, Controller of the Universe",
    "year": "1934",
    "city": "Cuauhtémoc",
    "country": "Mexico",
    "location": "Palace of Fine arts",
    "kind": "museum",
    "attribution": "generally accepted",
    "status": "present",
    "medium": "Fresco",
    "dimensions": "4.8 × 11.4 cm",
    "image": "https://commons.wikimedia.org/wiki/Special:FilePath/Mural.%20El%20hombre%20en%20el%20cruce%20de%20caminos.%20Diego%20rivera%20%281934%29.JPG?width=420",
    "wikipedia_es": "https://es.wikipedia.org/wiki/El_hombre_controlador_del_universo",
    "wikipedia_en": "https://en.wikipedia.org/wiki/Man,_Controller_of_the_Universe",
    "wikipedia_it": "https://it.wikipedia.org/wiki/L%27uomo_controllore_dell%27universo",
    "wikidata": "https://www.wikidata.org/wiki/Q105530002",
    "creation_place": "Mexico City",
    "creation_lat": 19.4326,
    "creation_lon": -99.1332,
    "_source": {
     "source": "Wikidata",
     "url": "https://www.wikidata.org/wiki/Q105530002",
     "retrieved_at": "2026-08-23"
    },
    "_overrides": {
     "creation": {
      "at": "2026-08-23",
      "source": "derived from start date + Caravaggio's documented itinerary (approximate)"
     }
    },
    "museum_id": "palace-of-fine-arts",
    "qid": "Q105530002",
    "location_src": "Palace of Fine arts"
   }
  },
  {
   "type": "Feature",
   "geometry": {
    "type": "Point",
    "coordinates": [
     -99.13102,
     19.43583
    ]
   },
   "properties": {
    "painter": "Diego Rivera",
    "title": "The creation",
    "year": "1922",
    "city": "Cuauhtémoc",
    "country": "Mexico",
    "location": "Anfiteatro Simón Bolivar",
    "kind": "museum",
    "attribution": "generally accepted",
    "status": "present",
    "dimensions": "4.8 × 11.4 cm",
    "genre": "Mexican muralism",
    "image": "https://commons.wikimedia.org/wiki/Special:FilePath/Mural%20La%20Creaci%C3%B3n%2C%20de%20Diego%20Rivera%2C%20en%20el%20Anfiteatro%20Sim%C3%B3n%20Bol%C3%ADvar%2001.jpg?width=420",
    "wikipedia_es": "https://es.wikipedia.org/wiki/La_creaci%C3%B3n_(Diego_Rivera)",
    "wikidata": "https://www.wikidata.org/wiki/Q115329547",
    "creation_place": "Mexico City",
    "creation_lat": 19.4326,
    "creation_lon": -99.1332,
    "_source": {
     "source": "Wikidata",
     "url": "https://www.wikidata.org/wiki/Q115329547",
     "retrieved_at": "2026-08-23"
    },
    "_overrides": {
     "creation": {
      "at": "2026-08-23",
      "source": "derived from start date + Caravaggio's documented itinerary (approximate)"
     }
    },
    "museum_id": "anfiteatro-simon-bolivar",
    "qid": "Q115329547",
    "location_src": "Anfiteatro Simón Bolivar"
   }
  },
  {
   "type": "Feature",
   "geometry": {
    "type": "Point",
    "coordinates": [
     -118.35917,
     34.06333
    ]
   },
   "properties": {
    "painter": "Diego Rivera",
    "title": "Flower Day (Día de Flores)",
    "year": "1925",
    "city": "Los Angeles",
    "country": "United States",
    "location": "Los Angeles County Museum of Art",
    "kind": "museum",
    "attribution": "attributed",
    "status": "present",
    "medium": "Oil on canvas",
    "dimensions": "147.3 × 120.7 cm",
    "genre": "genre art",
    "wikidata": "https://www.wikidata.org/wiki/Q20881087",
    "creation_place": "Mexico City",
    "creation_lat": 19.4326,
    "creation_lon": -99.1332,
    "_source": {
     "source": "Wikidata",
     "url": "https://www.wikidata.org/wiki/Q20881087",
     "retrieved_at": "2026-08-23"
    },
    "_overrides": {
     "creation": {
      "at": "2026-08-23",
      "source": "derived from start date + Caravaggio's documented itinerary (approximate)"
     }
    },
    "museum_id": "los-angeles-county-museum-of-art",
    "qid": "Q20881087",
    "location_src": "Los Angeles County Museum of Art"
   }
  },
  {
   "type": "Feature",
   "geometry": {
    "type": "Point",
    "coordinates": [
     37.60603,
     55.74703
    ]
   },
   "properties": {
    "painter": "Diego Rivera",
    "title": "Glorious victory",
    "year": "1954",
    "city": "Khamovniki District",
    "country": "Russia",
    "location": "Pushkin Museum",
    "kind": "museum",
    "attribution": "generally accepted",
    "status": "present",
    "wikipedia_en": "https://en.wikipedia.org/wiki/Glorious_Victory",
    "wikidata": "https://www.wikidata.org/wiki/Q21512830",
    "creation_place": "Mexico City",
    "creation_lat": 19.4326,
    "creation_lon": -99.1332,
    "_source": {
     "source": "Wikidata",
     "url": "https://www.wikidata.org/wiki/Q21512830",
     "retrieved_at": "2026-08-23"
    },
    "_overrides": {
     "creation": {
      "at": "2026-08-23",
      "source": "derived from start date + Caravaggio's documented itinerary (approximate)"
     }
    },
    "museum_id": "pushkin-museum",
    "qid": "Q21512830",
    "location_src": "Pushkin Museum"
   }
  },
  {
   "type": "Feature",
   "geometry": {
    "type": "Point",
    "coordinates": [
     -58.40359,
     -34.57711
    ]
   },
   "properties": {
    "painter": "Diego Rivera",
    "title": "Portrait of Ramón Gómez de la Serna",
    "year": "1915",
    "city": "Buenos Aires",
    "country": "Argentina",
    "location": "Museum of Latin American Art of Buenos Aires",
    "kind": "museum",
    "attribution": "generally accepted",
    "status": "present",
    "medium": "Oil on canvas",
    "dimensions": "110.5 × 90.5 cm",
    "genre": "portrait",
    "image": "https://commons.wikimedia.org/wiki/Special:FilePath/Ram%C3%B3nG%C3%B3mezdelaSerna.JPG?width=420",
    "wikipedia_es": "https://es.wikipedia.org/wiki/Retrato_de_Ram%C3%B3n_G%C3%B3mez_de_la_Serna_(pintura_cubista)",
    "wikipedia_en": "https://en.wikipedia.org/wiki/Portrait_of_Ram%C3%B3n_G%C3%B3mez_de_la_Serna",
    "wikidata": "https://www.wikidata.org/wiki/Q21606628",
    "_source": {
     "source": "Wikidata",
     "url": "https://www.wikidata.org/wiki/Q21606628",
     "retrieved_at": "2026-08-23"
    },
    "_overrides": {
     "creation": {
      "at": "2026-08-23",
      "source": "derived from start date + Caravaggio's documented itinerary (approximate)"
     }
    },
    "museum_id": "museum-of-latin-american-art-of-buenos-aires",
    "qid": "Q21606628",
    "location_src": "Museum of Latin American Art of Buenos Aires"
   }
  },
  {
   "type": "Feature",
   "geometry": {
    "type": "Point",
    "coordinates": [
     -99.14685,
     19.43604
    ]
   },
   "properties": {
    "painter": "Diego Rivera",
    "title": "Sueño de una Tarde Dominical en la Alameda Central",
    "year": "1947",
    "city": "Mexico City",
    "country": "Mexico",
    "location": "Museo Mural Diego Rivera",
    "kind": "museum",
    "attribution": "generally accepted",
    "status": "present",
    "image": "https://commons.wikimedia.org/wiki/Special:FilePath/The%20Kid%20-%20Diego%20Rivera.jpg?width=420",
    "wikipedia_es": "https://es.wikipedia.org/wiki/Sue%C3%B1o_de_una_tarde_dominical_en_la_Alameda_Central",
    "wikipedia_en": "https://en.wikipedia.org/wiki/Sue%C3%B1o_de_una_Tarde_Dominical_en_la_Alameda_Central",
    "wikidata": "https://www.wikidata.org/wiki/Q6135245",
    "creation_place": "Mexico City",
    "creation_lat": 19.4326,
    "creation_lon": -99.1332,
    "_source": {
     "source": "Wikidata",
     "url": "https://www.wikidata.org/wiki/Q6135245",
     "retrieved_at": "2026-08-23"
    },
    "_overrides": {
     "creation": {
      "at": "2026-08-23",
      "source": "derived from start date + Caravaggio's documented itinerary (approximate)"
     }
    },
    "museum_id": "museo-mural-diego-rivera",
    "qid": "Q6135245",
    "location_src": "Museo Mural Diego Rivera"
   }
  },
  {
   "type": "Feature",
   "geometry": {
    "type": "Point",
    "coordinates": [
     35.20417,
     31.7725
    ]
   },
   "properties": {
    "painter": "Diego Rivera",
    "title": "Still-life with Glass",
    "year": "1915",
    "location": "Israel Museum",
    "city": "Jerusalem",
    "country": "Israel",
    "attribution": "generally accepted",
    "image": "https://commons.wikimedia.org/wiki/Special:FilePath/Naturaleza%20muerta%20con%20taza%2C%20Diego%20Rivera%2C%201915.jpg?width=500",
    "qid": "Q76628618",
    "wikidata": "https://www.wikidata.org/wiki/Q76628618",
    "_source": {
     "source": "Wikidata",
     "url": "https://www.wikidata.org/wiki/Q76628618",
     "note": "harvested: painting by this creator with an image and a documented collection"
    },
    "creation_place": "Paris",
    "creation_lat": 48.8567,
    "creation_lon": 2.3522,
    "_overrides": {
     "creation": {
      "at": "2026-08-24",
      "source": "derived",
      "note": "creation place inferred from the painter's itinerary at this work's date (approximate)"
     }
    },
    "museum_id": "israel-museum",
    "location_src": "Israel Museum"
   }
  },
  {
   "type": "Feature",
   "geometry": {
    "type": "Point",
    "coordinates": [
     30.31361,
     59.94056
    ]
   },
   "properties": {
    "painter": "Diego Rivera",
    "title": "Still Life",
    "year": "1913",
    "location": "Hermitage Museum",
    "city": "Saint Petersburg",
    "country": "Russia",
    "attribution": "generally accepted",
    "image": "https://commons.wikimedia.org/wiki/Special:FilePath/Naturaleza%20muerta%2C%20Diego%20Rivera%2C%201913.jpg?width=500",
    "qid": "Q21725211",
    "wikidata": "https://www.wikidata.org/wiki/Q21725211",
    "_source": {
     "source": "Wikidata",
     "url": "https://www.wikidata.org/wiki/Q21725211",
     "note": "harvested: painting by this creator with an image and a documented collection"
    },
    "creation_place": "Paris",
    "creation_lat": 48.8567,
    "creation_lon": 2.3522,
    "_overrides": {
     "creation": {
      "at": "2026-08-24",
      "source": "derived",
      "note": "creation place inferred from the painter's itinerary at this work's date (approximate)"
     }
    },
    "museum_id": "hermitage-museum",
    "location_src": "Hermitage Museum"
   }
  },
  {
   "type": "Feature",
   "geometry": {
    "type": "Point",
    "coordinates": [
     -73.9631,
     40.7794
    ]
   },
   "properties": {
    "painter": "Diego Rivera",
    "title": "The Café Terrace",
    "year": "1915",
    "location": "Metropolitan Museum of Art",
    "city": "New York",
    "country": "United States",
    "attribution": "generally accepted",
    "image": "https://commons.wikimedia.org/wiki/Special:FilePath/La%20terraza%20del%20caf%C3%A9%2C%20Diego%20Rivera%2C%201915.jpg?width=500",
    "qid": "Q19922336",
    "wikidata": "https://www.wikidata.org/wiki/Q19922336",
    "_source": {
     "source": "Wikidata",
     "url": "https://www.wikidata.org/wiki/Q19922336",
     "note": "harvested: painting by this creator with an image and a documented collection"
    },
    "creation_place": "Paris",
    "creation_lat": 48.8567,
    "creation_lon": 2.3522,
    "_overrides": {
     "creation": {
      "at": "2026-08-24",
      "source": "derived",
      "note": "creation place inferred from the painter's itinerary at this work's date (approximate)"
     }
    },
    "museum_id": "metropolitan-museum-of-art",
    "location_src": "Metropolitan Museum of Art"
   }
  },
  {
   "type": "Feature",
   "geometry": {
    "type": "Point",
    "coordinates": [
     -73.9775,
     40.7617
    ]
   },
   "properties": {
    "painter": "Diego Rivera",
    "title": "Cubist Landscape",
    "year": "1912",
    "location": "Museum of Modern Art",
    "city": "New York",
    "country": "United States",
    "attribution": "generally accepted",
    "image": "https://commons.wikimedia.org/wiki/Special:FilePath/Paisaje%20cubista%2C%20Diego%20Rivera%2C%201912.jpg?width=500",
    "qid": "Q19883636",
    "wikidata": "https://www.wikidata.org/wiki/Q19883636",
    "_source": {
     "source": "Wikidata",
     "url": "https://www.wikidata.org/wiki/Q19883636",
     "note": "harvested: painting by this creator with an image and a documented collection"
    },
    "creation_place": "Paris",
    "creation_lat": 48.8567,
    "creation_lon": 2.3522,
    "_overrides": {
     "creation": {
      "at": "2026-08-24",
      "source": "derived",
      "note": "creation place inferred from the painter's itinerary at this work's date (approximate)"
     }
    },
    "museum_id": "museum-of-modern-art",
    "location_src": "Museum of Modern Art"
   }
  },
  {
   "type": "Feature",
   "geometry": {
    "type": "Point",
    "coordinates": [
     -77.02,
     38.89139
    ]
   },
   "properties": {
    "painter": "Diego Rivera",
    "title": "Montserrat",
    "year": "1911",
    "location": "Galería Nacional de Arte",
    "city": "Washington, D.C.",
    "country": "United States",
    "attribution": "generally accepted",
    "image": "https://commons.wikimedia.org/wiki/Special:FilePath/Montserrat%2C%20Diego%20Rivera%2C%201911.jpg?width=500",
    "qid": "Q20191555",
    "wikidata": "https://www.wikidata.org/wiki/Q20191555",
    "_source": {
     "source": "Wikidata",
     "url": "https://www.wikidata.org/wiki/Q20191555",
     "note": "harvested: painting by this creator with an image and a documented collection"
    },
    "creation_place": "Paris",
    "creation_lat": 48.8567,
    "creation_lon": 2.3522,
    "_overrides": {
     "creation": {
      "at": "2026-08-24",
      "source": "derived",
      "note": "creation place inferred from the painter's itinerary at this work's date (approximate)"
     }
    },
    "museum_id": "galeria-nacional-de-arte",
    "location_src": "Galería Nacional de Arte"
   }
  },
  {
   "type": "Feature",
   "geometry": {
    "type": "Point",
    "coordinates": [
     -77.02,
     38.89139
    ]
   },
   "properties": {
    "painter": "Diego Rivera",
    "title": "No. 9, Nature Morte Espagnole",
    "year": "1915",
    "location": "Galería Nacional de Arte",
    "city": "Washington, D.C.",
    "country": "United States",
    "attribution": "generally accepted",
    "image": "https://commons.wikimedia.org/wiki/Special:FilePath/No.%209%2C%20Naturaleza%20Muerta%20Espa%C3%B1ola%2C%20Diego%20Rivera%2C%201915.jpg?width=500",
    "qid": "Q20191928",
    "wikidata": "https://www.wikidata.org/wiki/Q20191928",
    "_source": {
     "source": "Wikidata",
     "url": "https://www.wikidata.org/wiki/Q20191928",
     "note": "harvested: painting by this creator with an image and a documented collection"
    },
    "creation_place": "Paris",
    "creation_lat": 48.8567,
    "creation_lon": 2.3522,
    "_overrides": {
     "creation": {
      "at": "2026-08-24",
      "source": "derived",
      "note": "creation place inferred from the painter's itinerary at this work's date (approximate)"
     }
    },
    "museum_id": "galeria-nacional-de-arte",
    "location_src": "Galería Nacional de Arte"
   }
  },
  {
   "type": "Feature",
   "geometry": {
    "type": "Point",
    "coordinates": [
     -87.62389,
     41.87944
    ]
   },
   "properties": {
    "painter": "Diego Rivera",
    "title": "Portrait of Marevna",
    "year": "1915",
    "location": "Art Institute of Chicago",
    "city": "Chicago",
    "country": "United States",
    "attribution": "generally accepted",
    "image": "https://commons.wikimedia.org/wiki/Special:FilePath/Diego%20Rivera%2C%20c.1915%2C%20Portrait%20of%20Marevna%2C%20oil%20on%20canvas%2C%20145.7%20x%20112.7%20cm%2C%20Art%20Institute%20of%20Chicago.jpg?width=500",
    "qid": "Q20276030",
    "wikidata": "https://www.wikidata.org/wiki/Q20276030",
    "_source": {
     "source": "Wikidata",
     "url": "https://www.wikidata.org/wiki/Q20276030",
     "note": "harvested: painting by this creator with an image and a documented collection"
    },
    "creation_place": "Paris",
    "creation_lat": 48.8567,
    "creation_lon": 2.3522,
    "_overrides": {
     "creation": {
      "at": "2026-08-24",
      "source": "derived",
      "note": "creation place inferred from the painter's itinerary at this work's date (approximate)"
     }
    },
    "museum_id": "art-institute-of-chicago",
    "location_src": "Art Institute of Chicago"
   }
  },
  {
   "type": "Feature",
   "geometry": {
    "type": "Point",
    "coordinates": [
     -0.12722,
     51.49083
    ]
   },
   "properties": {
    "painter": "Diego Rivera",
    "title": "Still Life",
    "year": "1916",
    "location": "Tate Britain",
    "city": "London",
    "country": "United Kingdom",
    "attribution": "generally accepted",
    "image": "https://commons.wikimedia.org/wiki/Special:FilePath/Naturaleza%20muerta%20%28Nature%20morte%29%2C%20Diego%20Rivera%2C%201916.jpg?width=500",
    "qid": "Q28552547",
    "wikidata": "https://www.wikidata.org/wiki/Q28552547",
    "_source": {
     "source": "Wikidata",
     "url": "https://www.wikidata.org/wiki/Q28552547",
     "note": "harvested: painting by this creator with an image and a documented collection"
    },
    "creation_place": "Paris",
    "creation_lat": 48.8567,
    "creation_lon": 2.3522,
    "_overrides": {
     "creation": {
      "at": "2026-08-24",
      "source": "derived",
      "note": "creation place inferred from the painter's itinerary at this work's date (approximate)"
     }
    },
    "museum_id": "tate-britain",
    "location_src": "Tate Britain"
   }
  },
  {
   "type": "Feature",
   "geometry": {
    "type": "Point",
    "coordinates": [
     -3.694,
     40.40857
    ]
   },
   "properties": {
    "painter": "Diego Rivera",
    "title": "Le bock (Beer Glass)",
    "year": "1917",
    "location": "Museo Nacional Centro de Arte Reina Sofía",
    "city": "Madrid",
    "country": "Spain",
    "attribution": "generally accepted",
    "image": "https://commons.wikimedia.org/wiki/Special:FilePath/Le%20bock%2C%20Diego%20Rivera%2C%201917.jpg?width=500",
    "qid": "Q27667642",
    "wikidata": "https://www.wikidata.org/wiki/Q27667642",
    "_source": {
     "source": "Wikidata",
     "url": "https://www.wikidata.org/wiki/Q27667642",
     "note": "harvested: painting by this creator with an image and a documented collection"
    },
    "creation_place": "Paris",
    "creation_lat": 48.8567,
    "creation_lon": 2.3522,
    "_overrides": {
     "creation": {
      "at": "2026-08-24",
      "source": "derived",
      "note": "creation place inferred from the painter's itinerary at this work's date (approximate)"
     }
    },
    "museum_id": "museo-nacional-centro-de-arte-reina-sofia",
    "location_src": "Museo Nacional Centro de Arte Reina Sofía"
   }
  },
  {
   "type": "Feature",
   "geometry": {
    "type": "Point",
    "coordinates": [
     -3.694,
     40.40857
    ]
   },
   "properties": {
    "painter": "Diego Rivera",
    "title": "Cheminée (Chimney)",
    "year": "1913",
    "location": "Museo Nacional Centro de Arte Reina Sofía",
    "city": "Madrid",
    "country": "Spain",
    "attribution": "generally accepted",
    "image": "https://commons.wikimedia.org/wiki/Special:FilePath/Chimenea%2C%20Diego%20Rivera%2C%201913.jpg?width=500",
    "qid": "Q27667665",
    "wikidata": "https://www.wikidata.org/wiki/Q27667665",
    "_source": {
     "source": "Wikidata",
     "url": "https://www.wikidata.org/wiki/Q27667665",
     "note": "harvested: painting by this creator with an image and a documented collection"
    },
    "creation_place": "Paris",
    "creation_lat": 48.8567,
    "creation_lon": 2.3522,
    "_overrides": {
     "creation": {
      "at": "2026-08-24",
      "source": "derived",
      "note": "creation place inferred from the painter's itinerary at this work's date (approximate)"
     }
    },
    "museum_id": "museo-nacional-centro-de-arte-reina-sofia",
    "location_src": "Museo Nacional Centro de Arte Reina Sofía"
   }
  },
  {
   "type": "Feature",
   "geometry": {
    "type": "Point",
    "coordinates": [
     4.87972,
     52.35806
    ]
   },
   "properties": {
    "painter": "Diego Rivera",
    "title": "The Meager Table",
    "year": "1917",
    "location": "Stedelijk Museum",
    "city": "Amsterdam",
    "country": "Netherlands",
    "attribution": "generally accepted",
    "image": "https://commons.wikimedia.org/wiki/Special:FilePath/La%20mesa%20escasa%2C%20Diego%20Rivera%2C%201917.jpg?width=500",
    "qid": "Q24059893",
    "wikidata": "https://www.wikidata.org/wiki/Q24059893",
    "_source": {
     "source": "Wikidata",
     "url": "https://www.wikidata.org/wiki/Q24059893",
     "note": "harvested: painting by this creator with an image and a documented collection"
    },
    "creation_place": "Paris",
    "creation_lat": 48.8567,
    "creation_lon": 2.3522,
    "_overrides": {
     "creation": {
      "at": "2026-08-24",
      "source": "derived",
      "note": "creation place inferred from the painter's itinerary at this work's date (approximate)"
     }
    },
    "museum_id": "stedelijk-museum",
    "location_src": "Stedelijk Museum"
   }
  },
  {
   "type": "Feature",
   "geometry": {
    "type": "Point",
    "coordinates": [
     4.87972,
     52.35806
    ]
   },
   "properties": {
    "painter": "Diego Rivera",
    "title": "Still Life with Green House",
    "year": "1917",
    "location": "Stedelijk Museum",
    "city": "Amsterdam",
    "country": "Netherlands",
    "attribution": "generally accepted",
    "image": "https://commons.wikimedia.org/wiki/Special:FilePath/Naturaleza%20muerta%20con%20invernadero%2C%20Diego%20Rivera%2C%201917.jpg?width=500",
    "qid": "Q24059918",
    "wikidata": "https://www.wikidata.org/wiki/Q24059918",
    "_source": {
     "source": "Wikidata",
     "url": "https://www.wikidata.org/wiki/Q24059918",
     "note": "harvested: painting by this creator with an image and a documented collection"
    },
    "creation_place": "Paris",
    "creation_lat": 48.8567,
    "creation_lon": 2.3522,
    "_overrides": {
     "creation": {
      "at": "2026-08-24",
      "source": "derived",
      "note": "creation place inferred from the painter's itinerary at this work's date (approximate)"
     }
    },
    "museum_id": "stedelijk-museum",
    "location_src": "Stedelijk Museum"
   }
  },
  {
   "type": "Feature",
   "geometry": {
    "type": "Point",
    "coordinates": [
     5.81694,
     52.09583
    ]
   },
   "properties": {
    "painter": "Diego Rivera",
    "title": "Still Life with a Liqueur Bottle",
    "year": "1915",
    "location": "Kröller-Müller Museum",
    "city": "Otterlo",
    "country": "Netherlands",
    "attribution": "generally accepted",
    "image": "https://commons.wikimedia.org/wiki/Special:FilePath/Naturaleza%20muerta%20con%20botella%20de%20licor%2C%20Diego%20Rivera%2C%201915.jpg?width=500",
    "qid": "Q24018777",
    "wikidata": "https://www.wikidata.org/wiki/Q24018777",
    "_source": {
     "source": "Wikidata",
     "url": "https://www.wikidata.org/wiki/Q24018777",
     "note": "harvested: painting by this creator with an image and a documented collection"
    },
    "creation_place": "Paris",
    "creation_lat": 48.8567,
    "creation_lon": 2.3522,
    "_overrides": {
     "creation": {
      "at": "2026-08-24",
      "source": "derived",
      "note": "creation place inferred from the painter's itinerary at this work's date (approximate)"
     }
    },
    "museum_id": "kroller-muller-museum",
    "location_src": "Kröller-Müller Museum"
   }
  },
  {
   "type": "Feature",
   "geometry": {
    "type": "Point",
    "coordinates": [
     -94.20265,
     36.38185
    ]
   },
   "properties": {
    "painter": "Diego Rivera",
    "title": "Le sucrier et les bougies (Sugar Bowl and Candles)",
    "year": "1915",
    "location": "Crystal Bridges Museum of American Art",
    "city": "Bentonville",
    "country": "United States",
    "attribution": "generally accepted",
    "image": "https://commons.wikimedia.org/wiki/Special:FilePath/Azucarera%20y%20velas%2C%20Diego%20Rivera%2C%201915.jpg?width=500",
    "qid": "Q103967369",
    "wikidata": "https://www.wikidata.org/wiki/Q103967369",
    "_source": {
     "source": "Wikidata",
     "url": "https://www.wikidata.org/wiki/Q103967369",
     "note": "harvested: painting by this creator with an image and a documented collection"
    },
    "creation_place": "Paris",
    "creation_lat": 48.8567,
    "creation_lon": 2.3522,
    "_overrides": {
     "creation": {
      "at": "2026-08-24",
      "source": "derived",
      "note": "creation place inferred from the painter's itinerary at this work's date (approximate)"
     }
    },
    "museum_id": "crystal-bridges-museum-of-american-art",
    "location_src": "Crystal Bridges Museum of American Art"
   }
  },
  {
   "type": "Feature",
   "geometry": {
    "type": "Point",
    "coordinates": [
     -83.06472,
     42.35944
    ]
   },
   "properties": {
    "painter": "Diego Rivera",
    "title": "Man and Machinery",
    "year": "1933",
    "location": "Detroit Institute of Arts",
    "city": "Detroit",
    "country": "United States",
    "attribution": "generally accepted",
    "image": "https://commons.wikimedia.org/wiki/Special:FilePath/Diego%20Rivera%20-%20Detroit%20Industry%20Murals.jpg?width=500",
    "qid": "Q37823171",
    "wikidata": "https://www.wikidata.org/wiki/Q37823171",
    "_source": {
     "source": "Wikidata",
     "url": "https://www.wikidata.org/wiki/Q37823171",
     "note": "harvested: painting by this creator with an image and a documented collection"
    },
    "creation_place": "Mexico City",
    "creation_lat": 19.433333,
    "creation_lon": -99.133333,
    "_overrides": {
     "creation": {
      "at": "2026-08-24",
      "source": "derived",
      "note": "creation place inferred from the painter's itinerary at this work's date (approximate)"
     }
    },
    "museum_id": "detroit-institute-of-arts",
    "location_src": "Detroit Institute of Arts"
   }
  },
  {
   "type": "Feature",
   "geometry": {
    "type": "Point",
    "coordinates": [
     -83.06472,
     42.35944
    ]
   },
   "properties": {
    "painter": "Diego Rivera",
    "title": "Detroit Industry, South Wall",
    "year": "1932",
    "location": "Detroit Institute of Arts",
    "city": "Detroit",
    "country": "United States",
    "attribution": "generally accepted",
    "image": "https://commons.wikimedia.org/wiki/Special:FilePath/Diego%20M.%20Rivera%20-%20Detroit%20Industry%2C%20South%20Wall%20-%2033.10.S%20-%20Detroit%20Institute%20of%20Arts.jpg?width=500",
    "qid": "Q64577559",
    "wikidata": "https://www.wikidata.org/wiki/Q64577559",
    "_source": {
     "source": "Wikidata",
     "url": "https://www.wikidata.org/wiki/Q64577559",
     "note": "harvested: painting by this creator with an image and a documented collection"
    },
    "creation_place": "Mexico City",
    "creation_lat": 19.433333,
    "creation_lon": -99.133333,
    "_overrides": {
     "creation": {
      "at": "2026-08-24",
      "source": "derived",
      "note": "creation place inferred from the painter's itinerary at this work's date (approximate)"
     }
    },
    "museum_id": "detroit-institute-of-arts",
    "location_src": "Detroit Institute of Arts"
   }
  },
  {
   "type": "Feature",
   "geometry": {
    "type": "Point",
    "coordinates": [
     -83.06472,
     42.35944
    ]
   },
   "properties": {
    "painter": "Diego Rivera",
    "title": "Detroit Industry, West Wall",
    "year": "1932",
    "location": "Detroit Institute of Arts",
    "city": "Detroit",
    "country": "United States",
    "attribution": "generally accepted",
    "image": "https://commons.wikimedia.org/wiki/Special:FilePath/Diego%20M.%20Rivera%20-%20Detroit%20Industry%2C%20West%20Wall%20-%2033.10.W%20-%20Detroit%20Institute%20of%20Arts.jpg?width=500",
    "qid": "Q64577572",
    "wikidata": "https://www.wikidata.org/wiki/Q64577572",
    "_source": {
     "source": "Wikidata",
     "url": "https://www.wikidata.org/wiki/Q64577572",
     "note": "harvested: painting by this creator with an image and a documented collection"
    },
    "creation_place": "Mexico City",
    "creation_lat": 19.433333,
    "creation_lon": -99.133333,
    "_overrides": {
     "creation": {
      "at": "2026-08-24",
      "source": "derived",
      "note": "creation place inferred from the painter's itinerary at this work's date (approximate)"
     }
    },
    "museum_id": "detroit-institute-of-arts",
    "location_src": "Detroit Institute of Arts"
   }
  },
  {
   "type": "Feature",
   "geometry": {
    "type": "Point",
    "coordinates": [
     -83.06472,
     42.35944
    ]
   },
   "properties": {
    "painter": "Diego Rivera",
    "title": "Detroit Industry: East Wall",
    "year": "1932",
    "location": "Detroit Institute of Arts",
    "city": "Detroit",
    "country": "United States",
    "attribution": "generally accepted",
    "image": "https://commons.wikimedia.org/wiki/Special:FilePath/Diego%20M.%20Rivera%20-%20Detroit%20Industry%2C%20East%20Wall%20-%2033.10.E%20-%20Detroit%20Institute%20of%20Arts.jpg?width=500",
    "qid": "Q64577632",
    "wikidata": "https://www.wikidata.org/wiki/Q64577632",
    "_source": {
     "source": "Wikidata",
     "url": "https://www.wikidata.org/wiki/Q64577632",
     "note": "harvested: painting by this creator with an image and a documented collection"
    },
    "creation_place": "Mexico City",
    "creation_lat": 19.433333,
    "creation_lon": -99.133333,
    "_overrides": {
     "creation": {
      "at": "2026-08-24",
      "source": "derived",
      "note": "creation place inferred from the painter's itinerary at this work's date (approximate)"
     }
    },
    "museum_id": "detroit-institute-of-arts",
    "location_src": "Detroit Institute of Arts"
   }
  },
  {
   "type": "Feature",
   "geometry": {
    "type": "Point",
    "coordinates": [
     -90.29449,
     38.63931
    ]
   },
   "properties": {
    "painter": "Diego Rivera",
    "title": "Still Life",
    "year": "1916",
    "location": "Saint Louis Art Museum",
    "city": "St. Louis",
    "country": "United States",
    "attribution": "generally accepted",
    "image": "https://commons.wikimedia.org/wiki/Special:FilePath/Naturaleza%20muerta%2C%20Diego%20Rivera%2C%201916.jpg?width=500",
    "qid": "Q78730949",
    "wikidata": "https://www.wikidata.org/wiki/Q78730949",
    "_source": {
     "source": "Wikidata",
     "url": "https://www.wikidata.org/wiki/Q78730949",
     "note": "harvested: painting by this creator with an image and a documented collection"
    },
    "creation_place": "Paris",
    "creation_lat": 48.8567,
    "creation_lon": 2.3522,
    "_overrides": {
     "creation": {
      "at": "2026-08-24",
      "source": "derived",
      "note": "creation place inferred from the painter's itinerary at this work's date (approximate)"
     }
    },
    "museum_id": "saint-louis-art-museum",
    "location_src": "Saint Louis Art Museum"
   }
  },
  {
   "type": "Feature",
   "geometry": {
    "type": "Point",
    "coordinates": [
     -58.39297,
     -34.58399
    ]
   },
   "properties": {
    "painter": "Diego Rivera",
    "title": "Composition with clock",
    "year": "1914",
    "location": "National Museum of Fine Arts, Argentina",
    "city": "Buenos Aires",
    "country": "Argentina",
    "attribution": "generally accepted",
    "image": "https://commons.wikimedia.org/wiki/Special:FilePath/Composici%C3%B3n%20con%20reloj%2C%20Diego%20Rivera%2C%201914.jpg?width=500",
    "qid": "Q27954675",
    "wikidata": "https://www.wikidata.org/wiki/Q27954675",
    "_source": {
     "source": "Wikidata",
     "url": "https://www.wikidata.org/wiki/Q27954675",
     "note": "harvested: painting by this creator with an image and a documented collection"
    },
    "creation_place": "Paris",
    "creation_lat": 48.8567,
    "creation_lon": 2.3522,
    "_overrides": {
     "creation": {
      "at": "2026-08-24",
      "source": "derived",
      "note": "creation place inferred from the painter's itinerary at this work's date (approximate)"
     }
    },
    "museum_id": "national-museum-of-fine-arts-argentina",
    "location_src": "National Museum of Fine Arts, Argentina"
   }
  },
  {
   "type": "Feature",
   "geometry": {
    "type": "Point",
    "coordinates": [
     -99.13944,
     19.43639
    ]
   },
   "properties": {
    "painter": "Diego Rivera",
    "title": "After the Storm [The Grounded Ship]",
    "year": "1910",
    "location": "Museo Nacional de Arte",
    "city": "Cuauhtémoc",
    "country": "Mexico",
    "attribution": "generally accepted",
    "image": "https://commons.wikimedia.org/wiki/Special:FilePath/Diego%20Rivera%20-%20After%20the%20Storm%20%28The%20Grounded%20Ship%29%20-%20Google%20Art%20Project.jpg?width=500",
    "qid": "Q140578434",
    "wikidata": "https://www.wikidata.org/wiki/Q140578434",
    "_source": {
     "source": "Wikidata",
     "url": "https://www.wikidata.org/wiki/Q140578434",
     "note": "harvested: painting by this creator with an image and a documented collection"
    },
    "creation_place": "Paris",
    "creation_lat": 48.8567,
    "creation_lon": 2.3522,
    "_overrides": {
     "creation": {
      "at": "2026-08-24",
      "source": "derived",
      "note": "creation place inferred from the painter's itinerary at this work's date (approximate)"
     }
    },
    "museum_id": "museo-nacional-de-arte",
    "location_src": "Museo Nacional de Arte"
   }
  }
 ]
}