{
 "type": "FeatureCollection",
 "_note": "Generated by scripts/build.py from Wikidata. Do not edit by hand — put manual fixes in the painter's overlay (data/overlay/*.json). Each feature carries _source (scraped base or manual addition) and, when edited, _overrides.",
 "features": [
  {
   "type": "Feature",
   "geometry": {
    "type": "Point",
    "coordinates": [
     -71.05778,
     42.36028
    ]
   },
   "properties": {
    "painter": "Paolo Uccello",
    "title": "A Young Lady of Fashion",
    "city": "Boston",
    "country": "United States",
    "location": "Isabella Stewart Gardner Museum",
    "kind": "museum",
    "attribution": "attributed",
    "status": "present",
    "image": "https://commons.wikimedia.org/wiki/Special:FilePath/Paolo%20Uccello%20-%20A%20Young%20Lady%20of%20Fashion%20-%20P27w58%20-%20Isabella%20Stewart%20Gardner%20Museum.jpg?width=420",
    "wikidata": "https://www.wikidata.org/wiki/Q103831941",
    "_source": {
     "source": "Wikidata",
     "url": "https://www.wikidata.org/wiki/Q103831941",
     "retrieved_at": "2026-08-23"
    },
    "museum_id": "isabella-stewart-gardner-museum",
    "qid": "Q103831941"
   }
  },
  {
   "type": "Feature",
   "geometry": {
    "type": "Point",
    "coordinates": [
     8.4,
     49.0119
    ]
   },
   "properties": {
    "painter": "Paolo Uccello",
    "title": "Adoration of the Christ Child with Saint Jerome, Saint Mary Magdalene and Saint Eustace",
    "year": "1436",
    "city": "Karlsruhe",
    "country": "Germany",
    "location": "Staatliche Kunsthalle Karlsruhe",
    "kind": "museum",
    "attribution": "attributed",
    "status": "present",
    "medium": "Poplar panel, tempera",
    "dimensions": "111 × 48.5 cm",
    "genre": "religious art",
    "image": "https://commons.wikimedia.org/wiki/Special:FilePath/Paolo%20Uccello%20-%20Anbetung%20des%20Kindes%20vor%20n%C3%A4chtlicher%20Landschaft%20mit%20den%20Heiligen%20Hieronymus%2C%20Magdalena%20und%20Eustachius%20-%20404%20-%20Staatliche%20Kunsthalle%20Karlsruhe.jpg?width=420",
    "wikidata": "https://www.wikidata.org/wiki/Q104522115",
    "creation_place": "Florence",
    "creation_lat": 43.7696,
    "creation_lon": 11.2558,
    "_source": {
     "source": "Wikidata",
     "url": "https://www.wikidata.org/wiki/Q104522115",
     "retrieved_at": "2026-08-23"
    },
    "_overrides": {
     "creation": {
      "at": "2026-08-23",
      "source": "derived from start date + Caravaggio's documented itinerary (approximate)"
     }
    },
    "museum_id": "staatliche-kunsthalle-karlsruhe",
    "qid": "Q104522115"
   }
  },
  {
   "type": "Feature",
   "geometry": {
    "type": "Point",
    "coordinates": [
     13.39472,
     52.52194
    ]
   },
   "properties": {
    "painter": "Paolo Uccello",
    "title": "The Virgin and Child",
    "year": "1500",
    "city": "Berlin",
    "country": "Germany",
    "location": "Bode Museum",
    "kind": "museum",
    "attribution": "attributed",
    "status": "present",
    "medium": "Paint, poplar panel",
    "genre": "religious art",
    "image": "https://commons.wikimedia.org/wiki/Special:FilePath/Ungesichert%2C%20Paolo%20Uccello%20%281396-97%20-%201475%29%20-%20The%20Virgin%20and%20Child%20-%201470%20-%20Gem%C3%A4ldegalerie.jpg?width=420",
    "wikidata": "https://www.wikidata.org/wiki/Q107441407",
    "_source": {
     "source": "Wikidata",
     "url": "https://www.wikidata.org/wiki/Q107441407",
     "retrieved_at": "2026-08-23"
    },
    "museum_id": "bode-museum",
    "qid": "Q107441407"
   }
  },
  {
   "type": "Feature",
   "geometry": {
    "type": "Point",
    "coordinates": [
     11.097778,
     43.881944
    ]
   },
   "properties": {
    "painter": "Paolo Uccello",
    "title": "Stoning of Stephen",
    "year": "1435",
    "city": "Prato",
    "country": "Italy",
    "location": "Prato Cathedral",
    "kind": "church",
    "attribution": "attributed",
    "status": "present",
    "medium": "Fresco",
    "dimensions": "310 × 420 cm",
    "genre": "religious art",
    "image": "https://commons.wikimedia.org/wiki/Special:FilePath/Paolo%20Uccello%20-%20Stoning%20of%20St%20Stephen%20-%20WGA23196.jpg?width=420",
    "wikidata": "https://www.wikidata.org/wiki/Q111822168",
    "creation_place": "Florence",
    "creation_lat": 43.7696,
    "creation_lon": 11.2558,
    "_source": {
     "source": "Wikidata",
     "url": "https://www.wikidata.org/wiki/Q111822168",
     "retrieved_at": "2026-08-23"
    },
    "_overrides": {
     "creation": {
      "at": "2026-08-23",
      "source": "derived from start date + Caravaggio's documented itinerary (approximate)"
     }
    },
    "museum_id": "prato-cathedral",
    "qid": "Q111822168",
    "wga_url": "https://www.wga.hu/html/u/uccello/2prato/02prato.html"
   }
  },
  {
   "type": "Feature",
   "geometry": {
    "type": "Point",
    "coordinates": [
     21.01417,
     52.24778
    ]
   },
   "properties": {
    "painter": "Paolo Uccello",
    "title": "Madonna with Child",
    "year": "1430",
    "city": "Warsaw",
    "country": "Poland",
    "location": "Royal Castle in Warsaw",
    "kind": "museum",
    "attribution": "attributed",
    "status": "present",
    "medium": "Panel",
    "genre": "religious art",
    "image": "https://commons.wikimedia.org/wiki/Special:FilePath/Paolo%20Uccello%2C%20Madonna%20and%20Child%20%28Warsaw%29.jpg?width=420",
    "wikidata": "https://www.wikidata.org/wiki/Q121599908",
    "creation_place": "Florence",
    "creation_lat": 43.7696,
    "creation_lon": 11.2558,
    "_source": {
     "source": "Wikidata",
     "url": "https://www.wikidata.org/wiki/Q121599908",
     "retrieved_at": "2026-08-23"
    },
    "_overrides": {
     "creation": {
      "at": "2026-08-23",
      "source": "derived from start date + Caravaggio's documented itinerary (approximate)"
     }
    },
    "museum_id": "royal-castle-in-warsaw",
    "qid": "Q121599908"
   }
  },
  {
   "type": "Feature",
   "geometry": {
    "type": "Point",
    "coordinates": [
     11.25933,
     43.7782
    ]
   },
   "properties": {
    "painter": "Paolo Uccello",
    "title": "Avane Predella",
    "city": "Florence",
    "country": "Italy",
    "location": "Museum of San Marco",
    "kind": "museum",
    "attribution": "attributed",
    "status": "present",
    "wikidata": "https://www.wikidata.org/wiki/Q131546444",
    "_source": {
     "source": "Wikidata",
     "url": "https://www.wikidata.org/wiki/Q131546444",
     "retrieved_at": "2026-08-23"
    },
    "museum_id": "museum-of-san-marco",
    "qid": "Q131546444"
   }
  },
  {
   "type": "Feature",
   "geometry": {
    "type": "Point",
    "coordinates": [
     -1.26056,
     51.75556
    ]
   },
   "properties": {
    "painter": "Paolo Uccello",
    "title": "The Annunciation",
    "year": "1420",
    "city": "Oxford",
    "country": "United Kingdom",
    "location": "Ashmolean Museum",
    "kind": "museum",
    "attribution": "generally accepted",
    "status": "present",
    "medium": "Panel",
    "dimensions": "65 × 48 cm",
    "genre": "religious art",
    "image": "https://commons.wikimedia.org/wiki/Special:FilePath/Paolo%20uccello%2C%20annunciazione%20di%20oxford%2C%201425%20ca.jpg?width=420",
    "wikipedia_en": "https://en.wikipedia.org/wiki/Annunciation_(Uccello)",
    "wikipedia_it": "https://it.wikipedia.org/wiki/Annunciazione_(Paolo_Uccello)",
    "wikidata": "https://www.wikidata.org/wiki/Q15974328",
    "creation_place": "Florence",
    "creation_lat": 43.7696,
    "creation_lon": 11.2558,
    "_source": {
     "source": "Wikidata",
     "url": "https://www.wikidata.org/wiki/Q15974328",
     "retrieved_at": "2026-08-23"
    },
    "_overrides": {
     "creation": {
      "at": "2026-08-23",
      "source": "derived from start date + Caravaggio's documented itinerary (approximate)"
     }
    },
    "museum_id": "ashmolean-museum",
    "qid": "Q15974328"
   }
  },
  {
   "type": "Feature",
   "geometry": {
    "type": "Point",
    "coordinates": [
     -86.18565,
     39.82602
    ]
   },
   "properties": {
    "painter": "Paolo Uccello",
    "title": "Portrait of a Young Man",
    "year": "1430",
    "city": "Indianapolis",
    "country": "United States",
    "location": "Museo de Arte de Indianápolis",
    "kind": "museum",
    "attribution": "generally accepted",
    "status": "present",
    "dimensions": "61.6 × 61.6 cm",
    "genre": "portrait",
    "image": "https://commons.wikimedia.org/wiki/Special:FilePath/Paolo%20uccello%2C%20ritratto%20di%20giovane%20di%20indianapolis.jpg?width=420",
    "wikipedia_en": "https://en.wikipedia.org/wiki/Portrait_of_a_Young_Man_(Uccello)",
    "wikipedia_it": "https://it.wikipedia.org/wiki/Ritratto_di_giovane_(Paolo_Uccello)",
    "wikidata": "https://www.wikidata.org/wiki/Q16596981",
    "creation_place": "Florence",
    "creation_lat": 43.7696,
    "creation_lon": 11.2558,
    "_source": {
     "source": "Wikidata",
     "url": "https://www.wikidata.org/wiki/Q16596981",
     "retrieved_at": "2026-08-23"
    },
    "_overrides": {
     "creation": {
      "at": "2026-08-23",
      "source": "derived from start date + Caravaggio's documented itinerary (approximate)"
     }
    },
    "museum_id": "museo-de-arte-de-indianapolis",
    "qid": "Q16596981"
   }
  },
  {
   "type": "Feature",
   "geometry": {
    "type": "Point",
    "coordinates": [
     144.96889,
     -37.8225
    ]
   },
   "properties": {
    "painter": "Paolo Uccello",
    "title": "St George slaying the dragon",
    "year": "1423",
    "city": "Melbourne",
    "country": "Australia",
    "location": "National Gallery of Victoria",
    "kind": "museum",
    "attribution": "generally accepted",
    "status": "present",
    "medium": "Panel",
    "dimensions": "62.2 × 38.8 cm",
    "genre": "religious art",
    "image": "https://commons.wikimedia.org/wiki/Special:FilePath/Paolo%20Uccello%20-%20St%20George%20slaying%20the%20dragon%20-%20Google%20Art%20Project.jpg?width=420",
    "wikipedia_it": "https://it.wikipedia.org/wiki/San_Giorgio_e_il_drago_(Paolo_Uccello_Melbourne)",
    "wikidata": "https://www.wikidata.org/wiki/Q16599926",
    "creation_place": "Florence",
    "creation_lat": 43.7696,
    "creation_lon": 11.2558,
    "_source": {
     "source": "Wikidata",
     "url": "https://www.wikidata.org/wiki/Q16599926",
     "retrieved_at": "2026-08-23"
    },
    "_overrides": {
     "creation": {
      "at": "2026-08-23",
      "source": "derived from start date + Caravaggio's documented itinerary (approximate)"
     }
    },
    "museum_id": "national-gallery-of-victoria",
    "qid": "Q16599926"
   }
  },
  {
   "type": "Feature",
   "geometry": {
    "type": "Point",
    "coordinates": [
     12.63647,
     43.72434
    ]
   },
   "properties": {
    "painter": "Paolo Uccello",
    "title": "Miracle of the profaned host",
    "year": "1467",
    "city": "Urbino",
    "country": "Italy",
    "location": "Galleria Nazionale delle Marche",
    "kind": "museum",
    "attribution": "generally accepted",
    "status": "present",
    "medium": "Panel",
    "dimensions": "43 × 58 cm",
    "genre": "religious art",
    "image": "https://commons.wikimedia.org/wiki/Special:FilePath/PredelleUccello.jpg?width=420",
    "wikipedia_en": "https://en.wikipedia.org/wiki/The_Miracle_of_the_Desecrated_Host",
    "wikidata": "https://www.wikidata.org/wiki/Q16653993",
    "creation_place": "Florence",
    "creation_lat": 43.7696,
    "creation_lon": 11.2558,
    "_source": {
     "source": "Wikidata",
     "url": "https://www.wikidata.org/wiki/Q16653993",
     "retrieved_at": "2026-08-23"
    },
    "_overrides": {
     "creation": {
      "at": "2026-08-23",
      "source": "derived from start date + Caravaggio's documented itinerary (approximate)"
     }
    },
    "museum_id": "galleria-nazionale-delle-marche",
    "qid": "Q16653993",
    "wga_url": "https://www.wga.hu/html/u/uccello/5miracle/miracle6.html"
   }
  },
  {
   "type": "Feature",
   "geometry": {
    "type": "Point",
    "coordinates": [
     11.25528,
     43.76833
    ]
   },
   "properties": {
    "painter": "Paolo Uccello",
    "title": "Niccolò Mauruzi da Tolentino unseats Bernardino della Ciarda at the Battle of San Romano",
    "year": "1436",
    "city": "Florence",
    "country": "Italy",
    "location": "Uffizi Gallery",
    "kind": "museum",
    "attribution": "attributed",
    "status": "present",
    "medium": "Panel",
    "dimensions": "188 × 327 cm",
    "genre": "battle painting",
    "image": "https://commons.wikimedia.org/wiki/Special:FilePath/Uccello%20%E2%80%94%20the%20Battle%20of%20San%20Romano.jpg?width=420",
    "wikidata": "https://www.wikidata.org/wiki/Q18564202",
    "creation_place": "Florence",
    "creation_lat": 43.7696,
    "creation_lon": 11.2558,
    "_source": {
     "source": "Wikidata",
     "url": "https://www.wikidata.org/wiki/Q18564202",
     "retrieved_at": "2026-08-23"
    },
    "_overrides": {
     "creation": {
      "at": "2026-08-23",
      "source": "derived from start date + Caravaggio's documented itinerary (approximate)"
     }
    },
    "museum_id": "uffizi-gallery",
    "qid": "Q18564202",
    "wga_url": "https://www.wga.hu/html/u/uccello/4battle/2battle3.html"
   }
  },
  {
   "type": "Feature",
   "geometry": {
    "type": "Point",
    "coordinates": [
     2.3358,
     48.8611
    ]
   },
   "properties": {
    "painter": "Paolo Uccello",
    "title": "The Decisive Attack of Micheletto Attendolo at San Romano",
    "year": "1435",
    "city": "Paris",
    "country": "France",
    "location": "Louvre",
    "kind": "museum",
    "attribution": "attributed",
    "status": "present",
    "medium": "Panel",
    "dimensions": "182 × 317 cm",
    "genre": "battle painting, history painting, portrait",
    "image": "https://commons.wikimedia.org/wiki/Special:FilePath/Paolo%20Uccello%20%E2%80%94%20The%20Decisive%20Attack%20of%20Micheletto%20Attendolo%20at%20San%20Romano.jpg?width=420",
    "wikidata": "https://www.wikidata.org/wiki/Q18564226",
    "creation_place": "Florence",
    "creation_lat": 43.7696,
    "creation_lon": 11.2558,
    "_source": {
     "source": "Wikidata",
     "url": "https://www.wikidata.org/wiki/Q18564226",
     "retrieved_at": "2026-08-23"
    },
    "_overrides": {
     "creation": {
      "at": "2026-08-23",
      "source": "derived from start date + Caravaggio's documented itinerary (approximate)"
     }
    },
    "museum_id": "louvre",
    "qid": "Q18564226",
    "wga_url": "https://www.wga.hu/html/u/uccello/4battle/3battle.html"
   }
  },
  {
   "type": "Feature",
   "geometry": {
    "type": "Point",
    "coordinates": [
     -0.1283,
     51.5089
    ]
   },
   "properties": {
    "painter": "Paolo Uccello",
    "title": "Niccolò Mauruzi da Tolentino at the Battle of San Romano",
    "year": "1438",
    "city": "London",
    "country": "United Kingdom",
    "location": "National Gallery",
    "kind": "museum",
    "attribution": "attributed",
    "status": "present",
    "medium": "Panel",
    "dimensions": "182 × 320 cm",
    "image": "https://commons.wikimedia.org/wiki/Special:FilePath/San%20Romano%20Battle%20%28Paolo%20Uccello%2C%20London%29%2001.jpg?width=420",
    "wikidata": "https://www.wikidata.org/wiki/Q18564234",
    "creation_place": "Florence",
    "creation_lat": 43.7696,
    "creation_lon": 11.2558,
    "_source": {
     "source": "Wikidata",
     "url": "https://www.wikidata.org/wiki/Q18564234",
     "retrieved_at": "2026-08-23"
    },
    "_overrides": {
     "creation": {
      "at": "2026-08-23",
      "source": "derived from start date + Caravaggio's documented itinerary (approximate)"
     }
    },
    "museum_id": "national-gallery",
    "qid": "Q18564234",
    "wga_url": "https://www.wga.hu/html/u/uccello/4battle/1battle1.html"
   }
  },
  {
   "type": "Feature",
   "geometry": {
    "type": "Point",
    "coordinates": [
     2.31051,
     48.87543
    ]
   },
   "properties": {
    "painter": "Paolo Uccello",
    "title": "Saint George and the Dragon",
    "year": "1435",
    "city": "Paris",
    "country": "France",
    "location": "Musée Jacquemart André",
    "kind": "museum",
    "attribution": "generally accepted",
    "status": "present",
    "medium": "Panel",
    "dimensions": "103 × 131 cm",
    "genre": "religious art",
    "image": "https://commons.wikimedia.org/wiki/Special:FilePath/Uccello%20-%20Saint%20Georges%20terrassant%20le%20dragon%2C%201430-35.jpg?width=420",
    "wikipedia_es": "https://es.wikipedia.org/wiki/San_Jorge_y_el_drag%C3%B3n_(Paolo_Uccello,_Par%C3%ADs)",
    "wikidata": "https://www.wikidata.org/wiki/Q18891273",
    "creation_place": "Florence",
    "creation_lat": 43.7696,
    "creation_lon": 11.2558,
    "_source": {
     "source": "Wikidata",
     "url": "https://www.wikidata.org/wiki/Q18891273",
     "retrieved_at": "2026-08-23"
    },
    "_overrides": {
     "creation": {
      "at": "2026-08-23",
      "source": "derived from start date + Caravaggio's documented itinerary (approximate)"
     }
    },
    "museum_id": "musee-jacquemart-andre",
    "qid": "Q18891273"
   }
  },
  {
   "type": "Feature",
   "geometry": {
    "type": "Point",
    "coordinates": [
     -73.9631,
     40.7794
    ]
   },
   "properties": {
    "painter": "Paolo Uccello",
    "title": "The Crucifixion",
    "year": "1455",
    "city": "New York",
    "country": "United States",
    "location": "Metropolitan Museum of Art",
    "kind": "museum",
    "attribution": "attributed",
    "status": "present",
    "medium": "Panel",
    "dimensions": "41.9 × 9.5 cm",
    "genre": "religious art",
    "image": "https://commons.wikimedia.org/wiki/Special:FilePath/The%20Crucifixion%20MET%20DT4172.jpg?width=420",
    "wikidata": "https://www.wikidata.org/wiki/Q19904862",
    "creation_place": "Florence",
    "creation_lat": 43.7696,
    "creation_lon": 11.2558,
    "_source": {
     "source": "Wikidata",
     "url": "https://www.wikidata.org/wiki/Q19904862",
     "retrieved_at": "2026-08-23"
    },
    "_overrides": {
     "creation": {
      "at": "2026-08-23",
      "source": "derived from start date + Caravaggio's documented itinerary (approximate)"
     }
    },
    "museum_id": "metropolitan-museum-of-art",
    "qid": "Q19904862"
   }
  },
  {
   "type": "Feature",
   "geometry": {
    "type": "Point",
    "coordinates": [
     11.09647,
     43.88083
    ]
   },
   "properties": {
    "painter": "Paolo Uccello",
    "title": "Painting of Jacopone da Todi",
    "year": "1436",
    "city": "Prato",
    "country": "Italy",
    "location": "Palazzo Pretorio Museum",
    "kind": "museum",
    "attribution": "generally accepted",
    "status": "present",
    "dimensions": "181 × 59 cm",
    "genre": "portrait",
    "image": "https://commons.wikimedia.org/wiki/Special:FilePath/Paolo%20Uccello%20040.jpg?width=420",
    "wikipedia_en": "https://en.wikipedia.org/wiki/Blessed_Jacopone_da_Todi_(painting)",
    "wikipedia_it": "https://it.wikipedia.org/wiki/Beato_Jacopone_da_Todi_(Paolo_Uccello)",
    "wikidata": "https://www.wikidata.org/wiki/Q3637223",
    "creation_place": "Florence",
    "creation_lat": 43.7696,
    "creation_lon": 11.2558,
    "_source": {
     "source": "Wikidata",
     "url": "https://www.wikidata.org/wiki/Q3637223",
     "retrieved_at": "2026-08-23"
    },
    "_overrides": {
     "creation": {
      "at": "2026-08-23",
      "source": "derived from start date + Caravaggio's documented itinerary (approximate)"
     }
    },
    "museum_id": "palazzo-pretorio-museum",
    "qid": "Q3637223"
   }
  },
  {
   "type": "Feature",
   "geometry": {
    "type": "Point",
    "coordinates": [
     -1.257778,
     51.751944
    ]
   },
   "properties": {
    "painter": "Paolo Uccello",
    "title": "The Hunt in the Forest",
    "year": "1470",
    "city": "Oxford",
    "country": "United Kingdom",
    "location": "Oxford",
    "kind": "church",
    "attribution": "generally accepted",
    "status": "present",
    "medium": "Oil on panel",
    "dimensions": "73.3 × 177 cm",
    "genre": "genre art",
    "image": "https://commons.wikimedia.org/wiki/Special:FilePath/Hunt%20in%20the%20forest%20by%20paolo%20uccello.jpg?width=420",
    "wikipedia_en": "https://en.wikipedia.org/wiki/The_Hunt_in_the_Forest",
    "wikipedia_it": "https://it.wikipedia.org/wiki/Caccia_notturna_(Paolo_Uccello)",
    "wikidata": "https://www.wikidata.org/wiki/Q3649296",
    "creation_place": "Florence",
    "creation_lat": 43.7696,
    "creation_lon": 11.2558,
    "_source": {
     "source": "Wikidata",
     "url": "https://www.wikidata.org/wiki/Q3649296",
     "retrieved_at": "2026-08-23"
    },
    "_overrides": {
     "creation": {
      "at": "2026-08-23",
      "source": "derived from start date + Caravaggio's documented itinerary (approximate)"
     }
    },
    "museum_id": "oxford",
    "qid": "Q3649296",
    "wga_url": "https://www.wga.hu/html/u/uccello/6various/6hunt.html"
   }
  },
  {
   "type": "Feature",
   "geometry": {
    "type": "Point",
    "coordinates": [
     -3.69493,
     40.41604
    ]
   },
   "properties": {
    "painter": "Paolo Uccello",
    "title": "The Crucifixion with the Virgin, Saint John the Baptist, Saint John the Evangelist and Saint Francis",
    "year": "1460",
    "city": "Madrid",
    "country": "Spain",
    "location": "Thyssen-Bornemisza Museum",
    "kind": "museum",
    "attribution": "generally accepted",
    "status": "present",
    "medium": "Panel",
    "dimensions": "45 × 67 cm",
    "genre": "religious art",
    "image": "https://commons.wikimedia.org/wiki/Special:FilePath/Paolo%20Uccello%20015.jpg?width=420",
    "wikipedia_es": "https://es.wikipedia.org/wiki/La_Crucifixi%C3%B3n_con_la_Virgen,_los_santos_Juanes_y_san_Francisco",
    "wikipedia_en": "https://en.wikipedia.org/wiki/Crucifixion_(Uccello)",
    "wikipedia_it": "https://it.wikipedia.org/wiki/Crocifissione_(Paolo_Uccello)",
    "wikidata": "https://www.wikidata.org/wiki/Q3698199",
    "creation_place": "Florence",
    "creation_lat": 43.7696,
    "creation_lon": 11.2558,
    "_source": {
     "source": "Wikidata",
     "url": "https://www.wikidata.org/wiki/Q3698199",
     "retrieved_at": "2026-08-23"
    },
    "_overrides": {
     "creation": {
      "at": "2026-08-23",
      "source": "derived from start date + Caravaggio's documented itinerary (approximate)"
     }
    },
    "museum_id": "thyssen-bornemisza-museum",
    "qid": "Q3698199",
    "wga_url": "https://www.wga.hu/html/u/uccello/6various/3crucifi.html"
   }
  },
  {
   "type": "Feature",
   "geometry": {
    "type": "Point",
    "coordinates": [
     -6.25255,
     53.34091
    ]
   },
   "properties": {
    "painter": "Paolo Uccello",
    "title": "Madonna and Child",
    "year": "1445",
    "city": "Dublin",
    "country": "Ireland",
    "location": "National Gallery of Ireland",
    "kind": "museum",
    "attribution": "generally accepted",
    "status": "present",
    "medium": "Panel",
    "dimensions": "57 × 33 cm",
    "genre": "religious art",
    "image": "https://commons.wikimedia.org/wiki/Special:FilePath/Paolo%20Uccello%20056.jpg?width=420",
    "wikipedia_it": "https://it.wikipedia.org/wiki/Madonna_col_Bambino_(Paolo_Uccello)",
    "wikidata": "https://www.wikidata.org/wiki/Q3842490",
    "creation_place": "Florence",
    "creation_lat": 43.7696,
    "creation_lon": 11.2558,
    "_source": {
     "source": "Wikidata",
     "url": "https://www.wikidata.org/wiki/Q3842490",
     "retrieved_at": "2026-08-23"
    },
    "_overrides": {
     "creation": {
      "at": "2026-08-23",
      "source": "derived from start date + Caravaggio's documented itinerary (approximate)"
     }
    },
    "museum_id": "national-gallery-of-ireland",
    "qid": "Q3842490"
   }
  },
  {
   "type": "Feature",
   "geometry": {
    "type": "Point",
    "coordinates": [
     11.256944,
     43.773056
    ]
   },
   "properties": {
    "painter": "Paolo Uccello",
    "title": "The Nativity",
    "year": "1443",
    "city": "Florence",
    "country": "Italy",
    "location": "Florence Cathedral",
    "kind": "church",
    "attribution": "generally accepted",
    "status": "present",
    "dimensions": "473 × 473 cm",
    "genre": "religious art",
    "image": "https://commons.wikimedia.org/wiki/Special:FilePath/Paolo%20uccello%2C%20vetrata%20della%20nativit%C3%A0.jpg?width=420",
    "wikipedia_it": "https://it.wikipedia.org/wiki/Nativit%C3%A0_(Paolo_Uccello)",
    "wikidata": "https://www.wikidata.org/wiki/Q3873236",
    "creation_place": "Florence",
    "creation_lat": 43.7696,
    "creation_lon": 11.2558,
    "_source": {
     "source": "Wikidata",
     "url": "https://www.wikidata.org/wiki/Q3873236",
     "retrieved_at": "2026-08-23"
    },
    "_overrides": {
     "creation": {
      "at": "2026-08-23",
      "source": "derived from start date + Caravaggio's documented itinerary (approximate)"
     }
    },
    "museum_id": "florence-cathedral",
    "qid": "Q3873236"
   }
  },
  {
   "type": "Feature",
   "geometry": {
    "type": "Point",
    "coordinates": [
     8.4,
     49.0119
    ]
   },
   "properties": {
    "painter": "Paolo Uccello",
    "title": "Adoration of the Child with Saints Jerome, Mary Magdalene, Eustace and Julian",
    "year": "1436",
    "city": "Karlsruhe",
    "country": "Germany",
    "location": "Staatliche Kunsthalle Karlsruhe",
    "kind": "museum",
    "attribution": "generally accepted",
    "status": "present",
    "medium": "Mixed technique, poplar panel",
    "dimensions": "110 × 48 cm",
    "genre": "religious art",
    "image": "https://commons.wikimedia.org/wiki/Special:FilePath/Paolo%20uccello%2C%20adoration%20of%20the%20child.jpg?width=420",
    "wikipedia_en": "https://en.wikipedia.org/wiki/Adoration_of_the_Christ_Child_with_Saint_Jerome,_Saint_Mary_Magdalene_and_Saint_Eustace",
    "wikipedia_it": "https://it.wikipedia.org/wiki/Adorazione_del_Bambino_con_i_santi_Girolamo,_Maddalena_ed_Eustachio",
    "wikidata": "https://www.wikidata.org/wiki/Q38833937",
    "creation_place": "Florence",
    "creation_lat": 43.7696,
    "creation_lon": 11.2558,
    "_source": {
     "source": "Wikidata",
     "url": "https://www.wikidata.org/wiki/Q38833937",
     "retrieved_at": "2026-08-23"
    },
    "_overrides": {
     "creation": {
      "at": "2026-08-23",
      "source": "derived from start date + Caravaggio's documented itinerary (approximate)"
     }
    },
    "museum_id": "staatliche-kunsthalle-karlsruhe",
    "qid": "Q38833937"
   }
  },
  {
   "type": "Feature",
   "geometry": {
    "type": "Point",
    "coordinates": [
     11.256944,
     43.773056
    ]
   },
   "properties": {
    "painter": "Paolo Uccello",
    "title": "Clock at Florence Cathedral",
    "year": "1443",
    "city": "Florence",
    "country": "Italy",
    "location": "Florence Cathedral",
    "kind": "church",
    "attribution": "generally accepted",
    "status": "present",
    "medium": "Fresco",
    "dimensions": "470 × 470 cm",
    "image": "https://commons.wikimedia.org/wiki/Special:FilePath/Paolo%20uccello%2C%20orologio%20di%20smf.jpg?width=420",
    "wikipedia_it": "https://it.wikipedia.org/wiki/Orologio_di_Santa_Maria_del_Fiore",
    "wikidata": "https://www.wikidata.org/wiki/Q3886134",
    "creation_place": "Florence",
    "creation_lat": 43.7696,
    "creation_lon": 11.2558,
    "_source": {
     "source": "Wikidata",
     "url": "https://www.wikidata.org/wiki/Q3886134",
     "retrieved_at": "2026-08-23"
    },
    "_overrides": {
     "creation": {
      "at": "2026-08-23",
      "source": "derived from start date + Caravaggio's documented itinerary (approximate)"
     }
    },
    "museum_id": "florence-cathedral",
    "qid": "Q3886134",
    "wga_url": "https://www.wga.hu/html/u/uccello/3florenc/3clock.html"
   }
  },
  {
   "type": "Feature",
   "geometry": {
    "type": "Point",
    "coordinates": [
     11.2542,
     43.7687
    ]
   },
   "properties": {
    "painter": "Paolo Uccello",
    "title": "Adoration of the Magi",
    "year": "1433",
    "city": "Florence",
    "country": "Italy",
    "location": "Museo diocesano di Santo Stefano al Ponte",
    "kind": "museum",
    "attribution": "generally accepted",
    "status": "present",
    "medium": "Panel",
    "dimensions": "20.5 × 82 cm",
    "genre": "religious art",
    "image": "https://commons.wikimedia.org/wiki/Special:FilePath/Paolo%20Uccello%20057.jpg?width=420",
    "wikipedia_it": "https://it.wikipedia.org/wiki/Predella_di_Quarate",
    "wikidata": "https://www.wikidata.org/wiki/Q3910082",
    "creation_place": "Florence",
    "creation_lat": 43.7696,
    "creation_lon": 11.2558,
    "_source": {
     "source": "Wikidata",
     "url": "https://www.wikidata.org/wiki/Q3910082",
     "retrieved_at": "2026-08-23"
    },
    "_overrides": {
     "creation": {
      "at": "2026-08-23",
      "source": "derived from start date + Caravaggio's documented itinerary (approximate)"
     }
    },
    "museum_id": "museo-diocesano-di-santo-stefano-al-ponte",
    "qid": "Q3910082",
    "wga_url": "https://www.wga.hu/html/u/uccello/6various/2quarat3.html"
   }
  },
  {
   "type": "Feature",
   "geometry": {
    "type": "Point",
    "coordinates": [
     11.256944,
     43.773056
    ]
   },
   "properties": {
    "painter": "Paolo Uccello",
    "title": "The Resurrection",
    "year": "1443",
    "city": "Florence",
    "country": "Italy",
    "location": "Florence Cathedral",
    "kind": "church",
    "attribution": "generally accepted",
    "status": "present",
    "dimensions": "468 × 468 cm",
    "genre": "religious art",
    "image": "https://commons.wikimedia.org/wiki/Special:FilePath/Paolo%20uccello%2C%20vetrata%20della%20resurrezione.jpg?width=420",
    "wikipedia_it": "https://it.wikipedia.org/wiki/Resurrezione_(Paolo_Uccello)",
    "wikidata": "https://www.wikidata.org/wiki/Q3933559",
    "creation_place": "Florence",
    "creation_lat": 43.7696,
    "creation_lon": 11.2558,
    "_source": {
     "source": "Wikidata",
     "url": "https://www.wikidata.org/wiki/Q3933559",
     "retrieved_at": "2026-08-23"
    },
    "_overrides": {
     "creation": {
      "at": "2026-08-23",
      "source": "derived from start date + Caravaggio's documented itinerary (approximate)"
     }
    },
    "museum_id": "florence-cathedral",
    "qid": "Q3933559"
   }
  },
  {
   "type": "Feature",
   "geometry": {
    "type": "Point",
    "coordinates": [
     11.2549,
     43.7687
    ]
   },
   "properties": {
    "painter": "Paolo Uccello",
    "title": "Saint and Two Children, Fragment",
    "year": "1435",
    "city": "Florence",
    "country": "Italy",
    "location": "Contini Bonacossi collection",
    "kind": "museum",
    "attribution": "generally accepted",
    "status": "present",
    "medium": "Panel",
    "dimensions": "79 × 35 cm",
    "genre": "religious art",
    "image": "https://commons.wikimedia.org/wiki/Special:FilePath/Paolo%20Uccello%20-%20Santa%20Monaca%20e%20due%20fanciulli.jpg?width=420",
    "wikipedia_it": "https://it.wikipedia.org/wiki/Santa_monaca_con_due_fanciulle",
    "wikidata": "https://www.wikidata.org/wiki/Q3949271",
    "creation_place": "Florence",
    "creation_lat": 43.7696,
    "creation_lon": 11.2558,
    "_source": {
     "source": "Wikidata",
     "url": "https://www.wikidata.org/wiki/Q3949271",
     "retrieved_at": "2026-08-23"
    },
    "_overrides": {
     "creation": {
      "at": "2026-08-23",
      "source": "derived from start date + Caravaggio's documented itinerary (approximate)"
     }
    },
    "museum_id": "contini-bonacossi-collection",
    "qid": "Q3949271"
   }
  },
  {
   "type": "Feature",
   "geometry": {
    "type": "Point",
    "coordinates": [
     11.265,
     43.759444
    ]
   },
   "properties": {
    "painter": "Paolo Uccello",
    "title": "Storie dei santi eremiti",
    "year": "1447",
    "city": "Florence",
    "country": "Italy",
    "location": "San Miniato al Monte",
    "kind": "church",
    "attribution": "generally accepted",
    "status": "present",
    "genre": "religious art",
    "image": "https://commons.wikimedia.org/wiki/Special:FilePath/Paolo%20uccello%2C%20affreschi%20san%20miniato%20al%20monte%2001.jpg?width=420",
    "wikipedia_it": "https://it.wikipedia.org/wiki/Storie_dei_santi_eremiti",
    "wikidata": "https://www.wikidata.org/wiki/Q3974449",
    "creation_place": "Florence",
    "creation_lat": 43.7696,
    "creation_lon": 11.2558,
    "_source": {
     "source": "Wikidata",
     "url": "https://www.wikidata.org/wiki/Q3974449",
     "retrieved_at": "2026-08-23"
    },
    "_overrides": {
     "creation": {
      "at": "2026-08-23",
      "source": "derived from start date + Caravaggio's documented itinerary (approximate)"
     }
    },
    "museum_id": "san-miniato-al-monte",
    "qid": "Q3974449"
   }
  },
  {
   "type": "Feature",
   "geometry": {
    "type": "Point",
    "coordinates": [
     11.2589,
     43.7769
    ]
   },
   "properties": {
    "painter": "Paolo Uccello",
    "title": "La Thébaïde",
    "year": "1460",
    "city": "Florence",
    "country": "Italy",
    "location": "Galleria dell'Accademia",
    "kind": "museum",
    "attribution": "generally accepted",
    "status": "present",
    "medium": "Canvas",
    "dimensions": "81 × 110 cm",
    "image": "https://commons.wikimedia.org/wiki/Special:FilePath/Paolo%20uccello%2C%20tebaide.jpg?width=420",
    "wikipedia_en": "https://en.wikipedia.org/wiki/The_Thebaid_(painting)",
    "wikipedia_it": "https://it.wikipedia.org/wiki/Tebaide_(Paolo_Uccello)",
    "wikidata": "https://www.wikidata.org/wiki/Q3982380",
    "creation_place": "Florence",
    "creation_lat": 43.7696,
    "creation_lon": 11.2558,
    "_source": {
     "source": "Wikidata",
     "url": "https://www.wikidata.org/wiki/Q3982380",
     "retrieved_at": "2026-08-23"
    },
    "_overrides": {
     "creation": {
      "at": "2026-08-23",
      "source": "derived from start date + Caravaggio's documented itinerary (approximate)"
     }
    },
    "museum_id": "galleria-dell-accademia",
    "qid": "Q3982380",
    "wga_url": "https://www.wga.hu/html/u/uccello/6various/7hermits.html"
   }
  },
  {
   "type": "Feature",
   "geometry": {
    "type": "Point",
    "coordinates": [
     -72.93099,
     41.30846
    ]
   },
   "properties": {
    "painter": "Paolo Uccello",
    "title": "Triumphal Entry into Rome of Titus and Vespasian",
    "year": "1430",
    "city": "New Haven",
    "country": "United States",
    "location": "Yale University Art Gallery",
    "kind": "museum",
    "attribution": "attributed",
    "status": "present",
    "dimensions": "42 × 127.5 cm",
    "image": "https://commons.wikimedia.org/wiki/Special:FilePath/Paolo%20Uccello%20-%20Triumphal%20Entry%20into%20Rome%20of%20Titus%20and%20Vespasian%20-%202015.17.1%20-%20Yale%20University%20Art%20Gallery.jpg?width=420",
    "wikidata": "https://www.wikidata.org/wiki/Q49284238",
    "creation_place": "Florence",
    "creation_lat": 43.7696,
    "creation_lon": 11.2558,
    "_source": {
     "source": "Wikidata",
     "url": "https://www.wikidata.org/wiki/Q49284238",
     "retrieved_at": "2026-08-23"
    },
    "_overrides": {
     "creation": {
      "at": "2026-08-23",
      "source": "derived from start date + Caravaggio's documented itinerary (approximate)"
     }
    },
    "museum_id": "yale-university-art-gallery",
    "qid": "Q49284238"
   }
  },
  {
   "type": "Feature",
   "geometry": {
    "type": "Point",
    "coordinates": [
     -122.33813,
     47.60731
    ]
   },
   "properties": {
    "painter": "Paolo Uccello",
    "title": "Episodes from the Aeneid",
    "year": "1470",
    "city": "Seattle",
    "country": "United States",
    "location": "Seattle Art Museum",
    "kind": "museum",
    "attribution": "attributed",
    "status": "present",
    "wikidata": "https://www.wikidata.org/wiki/Q77974865",
    "creation_place": "Florence",
    "creation_lat": 43.7696,
    "creation_lon": 11.2558,
    "_source": {
     "source": "Wikidata",
     "url": "https://www.wikidata.org/wiki/Q77974865",
     "retrieved_at": "2026-08-23"
    },
    "_overrides": {
     "creation": {
      "at": "2026-08-23",
      "source": "derived from start date + Caravaggio's documented itinerary (approximate)"
     }
    },
    "museum_id": "seattle-art-museum",
    "qid": "Q77974865"
   }
  },
  {
   "type": "Feature",
   "geometry": {
    "type": "Point",
    "coordinates": [
     -0.1283,
     51.5089
    ]
   },
   "properties": {
    "painter": "Paolo Uccello",
    "title": "Saint George and the Dragon",
    "year": "1470",
    "city": "London",
    "country": "United Kingdom",
    "location": "National Gallery",
    "kind": "museum",
    "attribution": "generally accepted",
    "status": "present",
    "medium": "Oil on canvas",
    "dimensions": "57 × 73 cm",
    "genre": "religious art",
    "image": "https://commons.wikimedia.org/wiki/Special:FilePath/Paolo%20Uccello%20Heiliger%20Georg%20und%20der%20Drachen%201%20470.jpg?width=420",
    "wikipedia_en": "https://en.wikipedia.org/wiki/Saint_George_and_the_Dragon_(Uccello)",
    "wikipedia_it": "https://it.wikipedia.org/wiki/San_Giorgio_e_il_drago_(Paolo_Uccello)",
    "wikidata": "https://www.wikidata.org/wiki/Q780466",
    "creation_place": "Florence",
    "creation_lat": 43.7696,
    "creation_lon": 11.2558,
    "_source": {
     "source": "Wikidata",
     "url": "https://www.wikidata.org/wiki/Q780466",
     "retrieved_at": "2026-08-23"
    },
    "_overrides": {
     "creation": {
      "at": "2026-08-23",
      "source": "derived from start date + Caravaggio's documented itinerary (approximate)"
     }
    },
    "museum_id": "national-gallery",
    "qid": "Q780466",
    "wga_url": "https://www.wga.hu/html/u/uccello/6various/5dragon2.html"
   }
  }
 ]
}