{
 "type": "FeatureCollection",
 "_note": "Generated by scripts/build.py from Wikidata. Do not edit by hand — put manual fixes in the painter's overlay (data/overlay/*.json). Each feature carries _source (scraped base or manual addition) and, when edited, _overrides.",
 "features": [
  {
   "type": "Feature",
   "geometry": {
    "type": "Point",
    "coordinates": [
     2.3522,
     48.8567
    ]
   },
   "properties": {
    "painter": "Ignacio Zuloaga",
    "title": "Q104373277",
    "year": "1920",
    "city": "Paris",
    "country": "France",
    "location": "Musee Carnavalet",
    "kind": "museum",
    "attribution": "attributed",
    "status": "present",
    "dimensions": "98 × 100 cm",
    "genre": "portrait",
    "image": "https://commons.wikimedia.org/wiki/Special:FilePath/Ignacio%20Zuloaga%20y%20Zabaleta%20-%20Portrait%20d%27%C3%89douard%20Branly%20%281844-1940%29%2C%20physicien%20-%20P2659%20-%20Mus%C3%A9e%20Carnavalet.jpg?width=420",
    "wikidata": "https://www.wikidata.org/wiki/Q104373277",
    "creation_place": "Madrid",
    "creation_lat": 40.4168,
    "creation_lon": -3.7038,
    "_source": {
     "source": "Wikidata",
     "url": "https://www.wikidata.org/wiki/Q104373277",
     "retrieved_at": "2026-08-23"
    },
    "_overrides": {
     "creation": {
      "at": "2026-08-23",
      "source": "derived from start date + Caravaggio's documented itinerary (approximate)"
     }
    },
    "museum_id": "musee-carnavalet",
    "qid": "Q104373277",
    "_merged": [
     {
      "source": "Wikidata",
      "title": "Portrait d'Édouard Branly (1844-1940), physicien",
      "qid": "Q104373277",
      "url": "https://www.wikidata.org/wiki/Q104373277"
     }
    ]
   }
  },
  {
   "type": "Feature",
   "geometry": {
    "type": "Point",
    "coordinates": [
     -73.94651,
     40.83352
    ]
   },
   "properties": {
    "painter": "Ignacio Zuloaga",
    "title": "Mrs. William Randolph Hearst",
    "year": "1923",
    "city": "New York City",
    "country": "United States",
    "location": "Hispanic Society of America",
    "kind": "museum",
    "attribution": "attributed",
    "status": "present",
    "medium": "Oil on canvas",
    "dimensions": "213 × 141 cm",
    "genre": "portrait",
    "image": "https://commons.wikimedia.org/wiki/Special:FilePath/Ignacio%20Zuloaga%20y%20Zabaleta%20-%20Mrs.%20William%20Randolph%20Hearst%20-%20LA183%20-%20Hispanic%20Society%20of%20America.jpg?width=420",
    "wikidata": "https://www.wikidata.org/wiki/Q105605797",
    "creation_place": "Madrid",
    "creation_lat": 40.4168,
    "creation_lon": -3.7038,
    "_source": {
     "source": "Wikidata",
     "url": "https://www.wikidata.org/wiki/Q105605797",
     "retrieved_at": "2026-08-23"
    },
    "_overrides": {
     "creation": {
      "at": "2026-08-23",
      "source": "derived from start date + Caravaggio's documented itinerary (approximate)"
     }
    },
    "museum_id": "hispanic-society-of-america",
    "qid": "Q105605797"
   }
  },
  {
   "type": "Feature",
   "geometry": {
    "type": "Point",
    "coordinates": [
     -73.94651,
     40.83352
    ]
   },
   "properties": {
    "painter": "Ignacio Zuloaga",
    "title": "Lucrezia Bori",
    "year": "1928",
    "city": "New York City",
    "country": "United States",
    "location": "Hispanic Society of America",
    "kind": "museum",
    "attribution": "attributed",
    "status": "present",
    "medium": "Oil on canvas",
    "wikidata": "https://www.wikidata.org/wiki/Q105606706",
    "creation_place": "Madrid",
    "creation_lat": 40.4168,
    "creation_lon": -3.7038,
    "_source": {
     "source": "Wikidata",
     "url": "https://www.wikidata.org/wiki/Q105606706",
     "retrieved_at": "2026-08-23"
    },
    "_overrides": {
     "creation": {
      "at": "2026-08-23",
      "source": "derived from start date + Caravaggio's documented itinerary (approximate)"
     }
    },
    "museum_id": "hispanic-society-of-america",
    "qid": "Q105606706"
   }
  },
  {
   "type": "Feature",
   "geometry": {
    "type": "Point",
    "coordinates": [
     -73.94651,
     40.83352
    ]
   },
   "properties": {
    "painter": "Ignacio Zuloaga",
    "title": "Miguel de Unamuno y Jugo",
    "year": "1925",
    "city": "New York City",
    "country": "United States",
    "location": "Hispanic Society of America",
    "kind": "museum",
    "attribution": "attributed",
    "status": "present",
    "medium": "Oil on canvas",
    "dimensions": "106.4 × 122.2 cm",
    "wikidata": "https://www.wikidata.org/wiki/Q105607398",
    "creation_place": "Madrid",
    "creation_lat": 40.4168,
    "creation_lon": -3.7038,
    "_source": {
     "source": "Wikidata",
     "url": "https://www.wikidata.org/wiki/Q105607398",
     "retrieved_at": "2026-08-23"
    },
    "_overrides": {
     "creation": {
      "at": "2026-08-23",
      "source": "derived from start date + Caravaggio's documented itinerary (approximate)"
     }
    },
    "museum_id": "hispanic-society-of-america",
    "qid": "Q105607398"
   }
  },
  {
   "type": "Feature",
   "geometry": {
    "type": "Point",
    "coordinates": [
     -73.94651,
     40.83352
    ]
   },
   "properties": {
    "painter": "Ignacio Zuloaga",
    "title": "Self-Portrait",
    "year": "1908",
    "city": "New York City",
    "country": "United States",
    "location": "Hispanic Society of America",
    "kind": "museum",
    "attribution": "attributed",
    "status": "present",
    "medium": "Oil on canvas",
    "dimensions": "112 × 71 cm",
    "genre": "self-portrait",
    "image": "https://commons.wikimedia.org/wiki/Special:FilePath/Ignacio%20Zuloaga%20y%20Zabaleta%20-%20Self-Portrait%20-%20A35%20-%20Hispanic%20Society%20of%20America.jpg?width=420",
    "wikidata": "https://www.wikidata.org/wiki/Q105607405",
    "_source": {
     "source": "Wikidata",
     "url": "https://www.wikidata.org/wiki/Q105607405",
     "retrieved_at": "2026-08-23"
    },
    "_overrides": {
     "creation": {
      "at": "2026-08-23",
      "source": "derived from start date + Caravaggio's documented itinerary (approximate)"
     }
    },
    "museum_id": "hispanic-society-of-america",
    "qid": "Q105607405"
   }
  },
  {
   "type": "Feature",
   "geometry": {
    "type": "Point",
    "coordinates": [
     -73.94651,
     40.83352
    ]
   },
   "properties": {
    "painter": "Ignacio Zuloaga",
    "title": "Albarracín",
    "year": "1926",
    "city": "New York City",
    "country": "United States",
    "location": "Hispanic Society of America",
    "kind": "museum",
    "attribution": "attributed",
    "status": "present",
    "medium": "Oil on canvas",
    "dimensions": "97 × 124.5 cm",
    "wikidata": "https://www.wikidata.org/wiki/Q105607427",
    "creation_place": "Madrid",
    "creation_lat": 40.4168,
    "creation_lon": -3.7038,
    "_source": {
     "source": "Wikidata",
     "url": "https://www.wikidata.org/wiki/Q105607427",
     "retrieved_at": "2026-08-23"
    },
    "_overrides": {
     "creation": {
      "at": "2026-08-23",
      "source": "derived from start date + Caravaggio's documented itinerary (approximate)"
     }
    },
    "museum_id": "hispanic-society-of-america",
    "qid": "Q105607427"
   }
  },
  {
   "type": "Feature",
   "geometry": {
    "type": "Point",
    "coordinates": [
     -73.94651,
     40.83352
    ]
   },
   "properties": {
    "painter": "Ignacio Zuloaga",
    "title": "My Cousin Cándida",
    "year": "1908",
    "city": "New York City",
    "country": "United States",
    "location": "Hispanic Society of America",
    "kind": "museum",
    "attribution": "attributed",
    "status": "present",
    "medium": "Oil on canvas",
    "image": "https://commons.wikimedia.org/wiki/Special:FilePath/Ignacio%20Zuloaga%20y%20Zabaleta%20-%20My%20Cousin%20C%C3%A1ndida%20-%20A291%20-%20Hispanic%20Society%20of%20America.jpg?width=420",
    "wikidata": "https://www.wikidata.org/wiki/Q105607572",
    "_source": {
     "source": "Wikidata",
     "url": "https://www.wikidata.org/wiki/Q105607572",
     "retrieved_at": "2026-08-23"
    },
    "_overrides": {
     "creation": {
      "at": "2026-08-23",
      "source": "derived from start date + Caravaggio's documented itinerary (approximate)"
     }
    },
    "museum_id": "hispanic-society-of-america",
    "qid": "Q105607572"
   }
  },
  {
   "type": "Feature",
   "geometry": {
    "type": "Point",
    "coordinates": [
     -73.94651,
     40.83352
    ]
   },
   "properties": {
    "painter": "Ignacio Zuloaga",
    "title": "Lucienne Bréval as Carmen",
    "year": "1908",
    "city": "New York City",
    "country": "United States",
    "location": "Hispanic Society of America",
    "kind": "museum",
    "attribution": "attributed",
    "status": "present",
    "medium": "Oil on canvas",
    "dimensions": "206 × 192 cm",
    "image": "https://commons.wikimedia.org/wiki/Special:FilePath/Ignacio%20Zuloaga%20y%20Zabaleta%20-%20Lucienne%20Br%C3%A9val%20as%20Carmen%20-%20A290%20-%20Hispanic%20Society%20of%20America.jpg?width=420",
    "wikidata": "https://www.wikidata.org/wiki/Q105607809",
    "_source": {
     "source": "Wikidata",
     "url": "https://www.wikidata.org/wiki/Q105607809",
     "retrieved_at": "2026-08-23"
    },
    "_overrides": {
     "creation": {
      "at": "2026-08-23",
      "source": "derived from start date + Caravaggio's documented itinerary (approximate)"
     }
    },
    "museum_id": "hispanic-society-of-america",
    "qid": "Q105607809"
   }
  },
  {
   "type": "Feature",
   "geometry": {
    "type": "Point",
    "coordinates": [
     -73.94651,
     40.83352
    ]
   },
   "properties": {
    "painter": "Ignacio Zuloaga",
    "title": "Mrs. Joseph Kerrigan",
    "year": "1924",
    "city": "New York City",
    "country": "United States",
    "location": "Hispanic Society of America",
    "kind": "museum",
    "attribution": "attributed",
    "status": "present",
    "medium": "Oil on canvas",
    "dimensions": "108.3 × 80.5 cm",
    "genre": "portrait",
    "wikidata": "https://www.wikidata.org/wiki/Q105608057",
    "creation_place": "Madrid",
    "creation_lat": 40.4168,
    "creation_lon": -3.7038,
    "_source": {
     "source": "Wikidata",
     "url": "https://www.wikidata.org/wiki/Q105608057",
     "retrieved_at": "2026-08-23"
    },
    "_overrides": {
     "creation": {
      "at": "2026-08-23",
      "source": "derived from start date + Caravaggio's documented itinerary (approximate)"
     }
    },
    "museum_id": "hispanic-society-of-america",
    "qid": "Q105608057"
   }
  },
  {
   "type": "Feature",
   "geometry": {
    "type": "Point",
    "coordinates": [
     -73.94651,
     40.83352
    ]
   },
   "properties": {
    "painter": "Ignacio Zuloaga",
    "title": "Still Life of Flowers",
    "year": "1929",
    "city": "New York City",
    "country": "United States",
    "location": "Hispanic Society of America",
    "kind": "museum",
    "attribution": "attributed",
    "status": "present",
    "medium": "Oil on panel",
    "dimensions": "65.5 × 54.3 cm",
    "genre": "still life",
    "wikidata": "https://www.wikidata.org/wiki/Q105609242",
    "creation_place": "Madrid",
    "creation_lat": 40.4168,
    "creation_lon": -3.7038,
    "_source": {
     "source": "Wikidata",
     "url": "https://www.wikidata.org/wiki/Q105609242",
     "retrieved_at": "2026-08-23"
    },
    "_overrides": {
     "creation": {
      "at": "2026-08-23",
      "source": "derived from start date + Caravaggio's documented itinerary (approximate)"
     }
    },
    "museum_id": "hispanic-society-of-america",
    "qid": "Q105609242"
   }
  },
  {
   "type": "Feature",
   "geometry": {
    "type": "Point",
    "coordinates": [
     -73.94651,
     40.83352
    ]
   },
   "properties": {
    "painter": "Ignacio Zuloaga",
    "title": "The Penitents",
    "year": "1908",
    "city": "New York City",
    "country": "United States",
    "location": "Hispanic Society of America",
    "kind": "museum",
    "attribution": "attributed",
    "status": "present",
    "medium": "Oil on canvas",
    "dimensions": "238 × 190.5 cm",
    "image": "https://commons.wikimedia.org/wiki/Special:FilePath/Ignacio%20Zuloaga%20y%20Zabaleta%20-%20The%20Penitents%20-%20A292%20-%20Hispanic%20Society%20of%20America.jpg?width=420",
    "wikidata": "https://www.wikidata.org/wiki/Q105609255",
    "_source": {
     "source": "Wikidata",
     "url": "https://www.wikidata.org/wiki/Q105609255",
     "retrieved_at": "2026-08-23"
    },
    "_overrides": {
     "creation": {
      "at": "2026-08-23",
      "source": "derived from start date + Caravaggio's documented itinerary (approximate)"
     }
    },
    "museum_id": "hispanic-society-of-america",
    "qid": "Q105609255"
   }
  },
  {
   "type": "Feature",
   "geometry": {
    "type": "Point",
    "coordinates": [
     -3.70071,
     40.41779
    ]
   },
   "properties": {
    "painter": "Ignacio Zuloaga",
    "title": "View of Toledo",
    "year": "1915",
    "city": "Madrid",
    "country": "Spain",
    "location": "Royal Academy of Fine Arts of San Fernando",
    "kind": "museum",
    "attribution": "attributed",
    "status": "present",
    "medium": "Oil on canvas",
    "image": "https://commons.wikimedia.org/wiki/Special:FilePath/Ignacio%20Zuloaga%20Zabaleta%20%281870-1945%29%20-%20Gezicht%20op%20Toledo%20-%20Madrid%20Bellas%20Artes%2021-03-2010%2011-54-27.jpg?width=420",
    "wikidata": "https://www.wikidata.org/wiki/Q108457993",
    "creation_place": "Madrid",
    "creation_lat": 40.4168,
    "creation_lon": -3.7038,
    "_source": {
     "source": "Wikidata",
     "url": "https://www.wikidata.org/wiki/Q108457993",
     "retrieved_at": "2026-08-23"
    },
    "_overrides": {
     "creation": {
      "at": "2026-08-23",
      "source": "derived from start date + Caravaggio's documented itinerary (approximate)"
     }
    },
    "museum_id": "royal-academy-of-fine-arts-of-san-fernando",
    "qid": "Q108457993"
   }
  },
  {
   "type": "Feature",
   "geometry": {
    "type": "Point",
    "coordinates": [
     -4.77478,
     37.88125
    ]
   },
   "properties": {
    "painter": "Ignacio Zuloaga",
    "title": "Retrato de Olegario Peralbo",
    "year": "2000",
    "city": "Córdoba",
    "country": "Spain",
    "location": "Museum of Fine Arts of Córdoba",
    "kind": "museum",
    "attribution": "attributed",
    "status": "present",
    "medium": "Oil on canvas",
    "dimensions": "57.5 × 47.5 cm",
    "genre": "portrait",
    "wikidata": "https://www.wikidata.org/wiki/Q113467813",
    "_source": {
     "source": "Wikidata",
     "url": "https://www.wikidata.org/wiki/Q113467813",
     "retrieved_at": "2026-08-23"
    },
    "museum_id": "museum-of-fine-arts-of-cordoba",
    "qid": "Q113467813"
   }
  },
  {
   "type": "Feature",
   "geometry": {
    "type": "Point",
    "coordinates": [
     18.14861,
     59.32222
    ]
   },
   "properties": {
    "painter": "Ignacio Zuloaga",
    "title": "La gitana",
    "year": "1904",
    "city": "Stockholm Municipality",
    "country": "Sweden",
    "location": "Thiel Gallery",
    "kind": "museum",
    "attribution": "attributed",
    "status": "present",
    "image": "https://commons.wikimedia.org/wiki/Special:FilePath/Ignacio%20Zuloaga%20La%20gitana%20Thielska%20597.tif?width=420",
    "wikidata": "https://www.wikidata.org/wiki/Q116189284",
    "_source": {
     "source": "Wikidata",
     "url": "https://www.wikidata.org/wiki/Q116189284",
     "retrieved_at": "2026-08-23"
    },
    "_overrides": {
     "creation": {
      "at": "2026-08-23",
      "source": "derived from start date + Caravaggio's documented itinerary (approximate)"
     }
    },
    "museum_id": "thiel-gallery",
    "qid": "Q116189284"
   }
  },
  {
   "type": "Feature",
   "geometry": {
    "type": "Point",
    "coordinates": [
     -82.35498,
     23.13148
    ]
   },
   "properties": {
    "painter": "Ignacio Zuloaga",
    "title": "Segovia",
    "year": "1850",
    "city": "Havana",
    "country": "Cuba",
    "location": "National Museum of Fine Arts of Cuba",
    "kind": "museum",
    "attribution": "attributed",
    "status": "present",
    "medium": "Oil on canvas",
    "image": "https://commons.wikimedia.org/wiki/Special:FilePath/Ignacio%20Zuloaga%20-%20Segovia.jpg?width=420",
    "wikidata": "https://www.wikidata.org/wiki/Q116189289",
    "_source": {
     "source": "Wikidata",
     "url": "https://www.wikidata.org/wiki/Q116189289",
     "retrieved_at": "2026-08-23"
    },
    "museum_id": "national-museum-of-fine-arts-of-cuba",
    "qid": "Q116189289"
   }
  },
  {
   "type": "Feature",
   "geometry": {
    "type": "Point",
    "coordinates": [
     -1.2537,
     51.75157
    ]
   },
   "properties": {
    "painter": "Ignacio Zuloaga",
    "title": "Sir Robert Samuel Wright, Fellow (1861–1880)",
    "city": "Oxford",
    "country": "United Kingdom",
    "location": "Oriel College",
    "kind": "museum",
    "attribution": "attributed",
    "status": "present",
    "medium": "Oil on canvas",
    "dimensions": "67.3 × 49.5 cm",
    "genre": "portrait",
    "wikidata": "https://www.wikidata.org/wiki/Q119840628",
    "_source": {
     "source": "Wikidata",
     "url": "https://www.wikidata.org/wiki/Q119840628",
     "retrieved_at": "2026-08-23"
    },
    "museum_id": "oriel-college",
    "qid": "Q119840628"
   }
  },
  {
   "type": "Feature",
   "geometry": {
    "type": "Point",
    "coordinates": [
     3.38556,
     50.60278
    ]
   },
   "properties": {
    "painter": "Ignacio Zuloaga",
    "title": "Q120675926",
    "year": "1900",
    "city": "Tournai",
    "country": "Belgium",
    "location": "Musée des Beaux-Arts de Tournai",
    "kind": "museum",
    "attribution": "attributed",
    "status": "present",
    "medium": "Oil on canvas",
    "dimensions": "184 × 100 cm",
    "image": "https://commons.wikimedia.org/wiki/Special:FilePath/PMa%20B%20535%20Tournai.jpg?width=420",
    "wikidata": "https://www.wikidata.org/wiki/Q120675926",
    "_source": {
     "source": "Wikidata",
     "url": "https://www.wikidata.org/wiki/Q120675926",
     "retrieved_at": "2026-08-23"
    },
    "_overrides": {
     "creation": {
      "at": "2026-08-23",
      "source": "derived from start date + Caravaggio's documented itinerary (approximate)"
     }
    },
    "museum_id": "musee-des-beaux-arts-de-tournai",
    "qid": "Q120675926",
    "_merged": [
     {
      "source": "Wikidata",
      "title": "Le nain Don Pedro",
      "qid": "Q120675926",
      "url": "https://www.wikidata.org/wiki/Q120675926"
     }
    ]
   }
  },
  {
   "type": "Feature",
   "geometry": {
    "type": "Point",
    "coordinates": [
     30.3136,
     59.9406
    ]
   },
   "properties": {
    "painter": "Ignacio Zuloaga",
    "title": "Dwarf Gregorio",
    "year": "1908",
    "city": "Saint Petersburg",
    "country": "Russia",
    "location": "Hermitage Museum",
    "kind": "museum",
    "attribution": "attributed",
    "status": "present",
    "medium": "Oil on canvas",
    "dimensions": "187 × 154 cm",
    "image": "https://commons.wikimedia.org/wiki/Special:FilePath/Ignacio%20Zuloaga%20-%20Dwarf%20Gregorio%20-%20Hermitage.jpg?width=420",
    "wikidata": "https://www.wikidata.org/wiki/Q12108725",
    "_source": {
     "source": "Wikidata",
     "url": "https://www.wikidata.org/wiki/Q12108725",
     "retrieved_at": "2026-08-23"
    },
    "_overrides": {
     "creation": {
      "at": "2026-08-23",
      "source": "derived from start date + Caravaggio's documented itinerary (approximate)"
     }
    },
    "museum_id": "hermitage-museum",
    "qid": "Q12108725"
   }
  },
  {
   "type": "Feature",
   "geometry": {
    "type": "Point",
    "coordinates": [
     -2.93785,
     43.26597
    ]
   },
   "properties": {
    "painter": "Ignacio Zuloaga",
    "title": "Portrait of Countess Mathieu de Noailles",
    "year": "1913",
    "city": "Bilbao",
    "country": "Spain",
    "location": "Bilbao Fine Arts Museum",
    "kind": "museum",
    "attribution": "attributed",
    "status": "present",
    "medium": "Oil on canvas",
    "dimensions": "152 × 195.5 cm",
    "genre": "portrait",
    "image": "https://commons.wikimedia.org/wiki/Special:FilePath/Countess%20Mathieu%20de%20Noailles%2C%20by%20Ignacio%20Zuloaga.jpg?width=420",
    "wikidata": "https://www.wikidata.org/wiki/Q123331129",
    "_source": {
     "source": "Wikidata",
     "url": "https://www.wikidata.org/wiki/Q123331129",
     "retrieved_at": "2026-08-23"
    },
    "_overrides": {
     "creation": {
      "at": "2026-08-23",
      "source": "derived from start date + Caravaggio's documented itinerary (approximate)"
     }
    },
    "museum_id": "bilbao-fine-arts-museum",
    "qid": "Q123331129"
   }
  },
  {
   "type": "Feature",
   "geometry": {
    "type": "Point",
    "coordinates": [
     16.38083,
     48.19139
    ]
   },
   "properties": {
    "painter": "Ignacio Zuloaga",
    "title": "Q124286009",
    "year": "1902",
    "city": "Landstraße",
    "country": "Austria",
    "location": "Belvedere",
    "kind": "museum",
    "attribution": "attributed",
    "status": "present",
    "wikidata": "https://www.wikidata.org/wiki/Q124286009",
    "_source": {
     "source": "Wikidata",
     "url": "https://www.wikidata.org/wiki/Q124286009",
     "retrieved_at": "2026-08-23"
    },
    "_overrides": {
     "creation": {
      "at": "2026-08-23",
      "source": "derived from start date + Caravaggio's documented itinerary (approximate)"
     }
    },
    "museum_id": "belvedere",
    "qid": "Q124286009"
   }
  },
  {
   "type": "Feature",
   "geometry": {
    "type": "Point",
    "coordinates": [
     -2.92168,
     43.25818
    ]
   },
   "properties": {
    "painter": "Ignacio Zuloaga",
    "title": "Retrato de Ramón de la Sota y Llano",
    "year": "1918",
    "city": "Bilbao",
    "country": "Spain",
    "location": "Euskal Museoa",
    "kind": "museum",
    "attribution": "attributed",
    "status": "present",
    "medium": "Oil on canvas",
    "dimensions": "212 × 198 cm",
    "genre": "portrait",
    "image": "https://commons.wikimedia.org/wiki/Special:FilePath/Ramon%20de%20la%20Sota%20Llano%20jaunaren%20erretratua.jpg?width=420",
    "wikidata": "https://www.wikidata.org/wiki/Q137825763",
    "creation_place": "Madrid",
    "creation_lat": 40.4168,
    "creation_lon": -3.7038,
    "_source": {
     "source": "Wikidata",
     "url": "https://www.wikidata.org/wiki/Q137825763",
     "retrieved_at": "2026-08-23"
    },
    "_overrides": {
     "creation": {
      "at": "2026-08-23",
      "source": "derived from start date + Caravaggio's documented itinerary (approximate)"
     }
    },
    "museum_id": "euskal-museoa",
    "qid": "Q137825763"
   }
  },
  {
   "type": "Feature",
   "geometry": {
    "type": "Point",
    "coordinates": [
     -4.42307,
     36.72134
    ]
   },
   "properties": {
    "painter": "Ignacio Zuloaga",
    "title": "Corrida de toros en Eibar",
    "year": "1899",
    "city": "Málaga",
    "country": "Spain",
    "location": "Carmen Thyssen Museum",
    "kind": "museum",
    "attribution": "generally accepted",
    "status": "present",
    "medium": "Oil on canvas",
    "dimensions": "150 × 200 cm",
    "image": "https://commons.wikimedia.org/wiki/Special:FilePath/Corrida%20de%20toros%20en%20Eibar.jpg?width=420",
    "wikipedia_es": "https://es.wikipedia.org/wiki/Corrida_de_toros_en_%C3%89ibar",
    "wikidata": "https://www.wikidata.org/wiki/Q16038461",
    "_source": {
     "source": "Wikidata",
     "url": "https://www.wikidata.org/wiki/Q16038461",
     "retrieved_at": "2026-08-23"
    },
    "_overrides": {
     "creation": {
      "at": "2026-08-23",
      "source": "derived from start date + Caravaggio's documented itinerary (approximate)"
     }
    },
    "museum_id": "carmen-thyssen-museum",
    "qid": "Q16038461"
   }
  },
  {
   "type": "Feature",
   "geometry": {
    "type": "Point",
    "coordinates": [
     -2.24774,
     43.29795
    ]
   },
   "properties": {
    "painter": "Ignacio Zuloaga",
    "title": "Q16670767",
    "year": "1924",
    "city": "Zumaia",
    "country": "Spain",
    "location": "Espace culturel Ignacio Zuloaga",
    "kind": "museum",
    "attribution": "attributed",
    "status": "present",
    "genre": "portrait",
    "wikidata": "https://www.wikidata.org/wiki/Q16670767",
    "creation_place": "Madrid",
    "creation_lat": 40.4168,
    "creation_lon": -3.7038,
    "_source": {
     "source": "Wikidata",
     "url": "https://www.wikidata.org/wiki/Q16670767",
     "retrieved_at": "2026-08-23"
    },
    "_overrides": {
     "creation": {
      "at": "2026-08-23",
      "source": "derived from start date + Caravaggio's documented itinerary (approximate)"
     }
    },
    "museum_id": "espace-culturel-ignacio-zuloaga",
    "qid": "Q16670767"
   }
  },
  {
   "type": "Feature",
   "geometry": {
    "type": "Point",
    "coordinates": [
     2.32653,
     48.85997
    ]
   },
   "properties": {
    "painter": "Ignacio Zuloaga",
    "title": "Q17492129",
    "year": "1899",
    "city": "Paris",
    "country": "France",
    "location": "Musée d'Orsay",
    "kind": "museum",
    "attribution": "attributed",
    "status": "present",
    "medium": "Oil on canvas",
    "dimensions": "130 × 97 cm",
    "genre": "portrait",
    "wikidata": "https://www.wikidata.org/wiki/Q17492129",
    "_source": {
     "source": "Wikidata",
     "url": "https://www.wikidata.org/wiki/Q17492129",
     "retrieved_at": "2026-08-23"
    },
    "_overrides": {
     "creation": {
      "at": "2026-08-23",
      "source": "derived from start date + Caravaggio's documented itinerary (approximate)"
     }
    },
    "museum_id": "musee-d-orsay",
    "qid": "Q17492129"
   }
  },
  {
   "type": "Feature",
   "geometry": {
    "type": "Point",
    "coordinates": [
     2.32653,
     48.85997
    ]
   },
   "properties": {
    "painter": "Ignacio Zuloaga",
    "title": "Q17492587",
    "year": "1907",
    "city": "Paris",
    "country": "France",
    "location": "Musée d'Orsay",
    "kind": "museum",
    "attribution": "attributed",
    "status": "present",
    "medium": "Oil on canvas",
    "dimensions": "190 × 115.5 cm",
    "genre": "portrait",
    "wikidata": "https://www.wikidata.org/wiki/Q17492587",
    "_source": {
     "source": "Wikidata",
     "url": "https://www.wikidata.org/wiki/Q17492587",
     "retrieved_at": "2026-08-23"
    },
    "_overrides": {
     "creation": {
      "at": "2026-08-23",
      "source": "derived from start date + Caravaggio's documented itinerary (approximate)"
     }
    },
    "museum_id": "musee-d-orsay",
    "qid": "Q17492587"
   }
  },
  {
   "type": "Feature",
   "geometry": {
    "type": "Point",
    "coordinates": [
     -0.3645,
     43.29769
    ]
   },
   "properties": {
    "painter": "Ignacio Zuloaga",
    "title": "Q17493107",
    "city": "Pyrénées-Atlantiques",
    "country": "France",
    "location": "Musée des Beaux-Arts de Pau",
    "kind": "museum",
    "attribution": "attributed",
    "status": "present",
    "medium": "Oil on canvas",
    "wikidata": "https://www.wikidata.org/wiki/Q17493107",
    "_source": {
     "source": "Wikidata",
     "url": "https://www.wikidata.org/wiki/Q17493107",
     "retrieved_at": "2026-08-23"
    },
    "museum_id": "musee-des-beaux-arts-de-pau",
    "qid": "Q17493107"
   }
  },
  {
   "type": "Feature",
   "geometry": {
    "type": "Point",
    "coordinates": [
     2.2417,
     43.6036
    ]
   },
   "properties": {
    "painter": "Ignacio Zuloaga",
    "title": "Q17495240",
    "year": "1909",
    "city": "Castres",
    "country": "France",
    "location": "Goya Museum",
    "kind": "museum",
    "attribution": "attributed",
    "status": "present",
    "medium": "Oil on canvas",
    "dimensions": "58 × 54 cm",
    "genre": "portrait",
    "wikidata": "https://www.wikidata.org/wiki/Q17495240",
    "_source": {
     "source": "Wikidata",
     "url": "https://www.wikidata.org/wiki/Q17495240",
     "retrieved_at": "2026-08-23"
    },
    "_overrides": {
     "creation": {
      "at": "2026-08-23",
      "source": "derived from start date + Caravaggio's documented itinerary (approximate)"
     }
    },
    "museum_id": "goya-museum",
    "qid": "Q17495240"
   }
  },
  {
   "type": "Feature",
   "geometry": {
    "type": "Point",
    "coordinates": [
     2.32653,
     48.85997
    ]
   },
   "properties": {
    "painter": "Ignacio Zuloaga",
    "title": "Q17495398",
    "year": "1899",
    "city": "Paris",
    "country": "France",
    "location": "Musée d'Orsay",
    "kind": "museum",
    "attribution": "attributed",
    "status": "present",
    "medium": "Oil on canvas",
    "dimensions": "209 × 167 cm",
    "genre": "family portrait",
    "image": "https://commons.wikimedia.org/wiki/Special:FilePath/Mon%20oncle%20et%20mes%20deux%20cousines%2C%20par%20Ignacio%20Zuloaga.jpg?width=420",
    "wikidata": "https://www.wikidata.org/wiki/Q17495398",
    "_source": {
     "source": "Wikidata",
     "url": "https://www.wikidata.org/wiki/Q17495398",
     "retrieved_at": "2026-08-23"
    },
    "_overrides": {
     "creation": {
      "at": "2026-08-23",
      "source": "derived from start date + Caravaggio's documented itinerary (approximate)"
     }
    },
    "museum_id": "musee-d-orsay",
    "qid": "Q17495398",
    "_merged": [
     {
      "source": "Wikidata",
      "title": "Mon oncle et mes deux cousines",
      "qid": "Q17495398",
      "url": "https://www.wikidata.org/wiki/Q17495398"
     }
    ]
   }
  },
  {
   "type": "Feature",
   "geometry": {
    "type": "Point",
    "coordinates": [
     -73.9631,
     40.7794
    ]
   },
   "properties": {
    "painter": "Ignacio Zuloaga",
    "title": "Victims of the Fiesta",
    "year": "1923",
    "city": "New York",
    "country": "United States",
    "location": "Metropolitan Museum of Art",
    "kind": "museum",
    "attribution": "attributed",
    "status": "present",
    "medium": "Oil on canvas",
    "dimensions": "78.1 × 99.1 cm",
    "image": "https://commons.wikimedia.org/wiki/Special:FilePath/Victims%20of%20the%20Fiesta%20MET%20sf28.199.jpg?width=420",
    "wikidata": "https://www.wikidata.org/wiki/Q19914353",
    "creation_place": "Madrid",
    "creation_lat": 40.4168,
    "creation_lon": -3.7038,
    "_source": {
     "source": "Wikidata",
     "url": "https://www.wikidata.org/wiki/Q19914353",
     "retrieved_at": "2026-08-23"
    },
    "_overrides": {
     "creation": {
      "at": "2026-08-23",
      "source": "derived from start date + Caravaggio's documented itinerary (approximate)"
     }
    },
    "museum_id": "metropolitan-museum-of-art",
    "qid": "Q19914353"
   }
  },
  {
   "type": "Feature",
   "geometry": {
    "type": "Point",
    "coordinates": [
     -73.9631,
     40.7794
    ]
   },
   "properties": {
    "painter": "Ignacio Zuloaga",
    "title": "Mountains of Calatayud",
    "year": "1921",
    "city": "New York",
    "country": "United States",
    "location": "Metropolitan Museum of Art",
    "kind": "museum",
    "attribution": "attributed",
    "status": "present",
    "medium": "Oil on canvas",
    "dimensions": "91.4 × 124.5 cm",
    "genre": "landscape painting",
    "image": "https://commons.wikimedia.org/wiki/Special:FilePath/Mountains%20of%20Calatayud%20MET%20168274.jpg?width=420",
    "wikidata": "https://www.wikidata.org/wiki/Q19914418",
    "creation_place": "Madrid",
    "creation_lat": 40.4168,
    "creation_lon": -3.7038,
    "_source": {
     "source": "Wikidata",
     "url": "https://www.wikidata.org/wiki/Q19914418",
     "retrieved_at": "2026-08-23"
    },
    "_overrides": {
     "creation": {
      "at": "2026-08-23",
      "source": "derived from start date + Caravaggio's documented itinerary (approximate)"
     }
    },
    "museum_id": "metropolitan-museum-of-art",
    "qid": "Q19914418"
   }
  },
  {
   "type": "Feature",
   "geometry": {
    "type": "Point",
    "coordinates": [
     -73.9631,
     40.7794
    ]
   },
   "properties": {
    "painter": "Ignacio Zuloaga",
    "title": "Alva B. Gimbel",
    "year": "1925",
    "city": "New York",
    "country": "United States",
    "location": "Metropolitan Museum of Art",
    "kind": "museum",
    "attribution": "attributed",
    "status": "present",
    "medium": "Oil on canvas",
    "dimensions": "121.9 × 198.1 cm",
    "genre": "portrait",
    "image": "https://commons.wikimedia.org/wiki/Special:FilePath/Alva%20B.%20Gimbel%20MET%20sf64.171.jpg?width=420",
    "wikidata": "https://www.wikidata.org/wiki/Q19921070",
    "creation_place": "Madrid",
    "creation_lat": 40.4168,
    "creation_lon": -3.7038,
    "_source": {
     "source": "Wikidata",
     "url": "https://www.wikidata.org/wiki/Q19921070",
     "retrieved_at": "2026-08-23"
    },
    "_overrides": {
     "creation": {
      "at": "2026-08-23",
      "source": "derived from start date + Caravaggio's documented itinerary (approximate)"
     }
    },
    "museum_id": "metropolitan-museum-of-art",
    "qid": "Q19921070"
   }
  },
  {
   "type": "Feature",
   "geometry": {
    "type": "Point",
    "coordinates": [
     -77.02,
     38.8914
    ]
   },
   "properties": {
    "painter": "Ignacio Zuloaga",
    "title": "Sepulveda",
    "year": "1909",
    "city": "Washington",
    "country": "United States",
    "location": "National Gallery of Art",
    "kind": "museum",
    "attribution": "attributed",
    "status": "present",
    "medium": "Oil on canvas",
    "dimensions": "57.9 × 62.1 cm",
    "genre": "landscape painting",
    "image": "https://commons.wikimedia.org/wiki/Special:FilePath/Zuloaga%20-%20Sep%C3%BAlveda.png?width=420",
    "wikidata": "https://www.wikidata.org/wiki/Q20191304",
    "_source": {
     "source": "Wikidata",
     "url": "https://www.wikidata.org/wiki/Q20191304",
     "retrieved_at": "2026-08-23"
    },
    "_overrides": {
     "creation": {
      "at": "2026-08-23",
      "source": "derived from start date + Caravaggio's documented itinerary (approximate)"
     }
    },
    "museum_id": "national-gallery-of-art",
    "qid": "Q20191304"
   }
  },
  {
   "type": "Feature",
   "geometry": {
    "type": "Point",
    "coordinates": [
     -77.02,
     38.8914
    ]
   },
   "properties": {
    "painter": "Ignacio Zuloaga",
    "title": "Achieta",
    "year": "1912",
    "city": "Washington",
    "country": "United States",
    "location": "National Gallery of Art",
    "kind": "museum",
    "attribution": "attributed",
    "status": "present",
    "medium": "Oil on canvas",
    "dimensions": "195.6 × 124.4 cm",
    "wikidata": "https://www.wikidata.org/wiki/Q20191532",
    "_source": {
     "source": "Wikidata",
     "url": "https://www.wikidata.org/wiki/Q20191532",
     "retrieved_at": "2026-08-23"
    },
    "_overrides": {
     "creation": {
      "at": "2026-08-23",
      "source": "derived from start date + Caravaggio's documented itinerary (approximate)"
     }
    },
    "museum_id": "national-gallery-of-art",
    "qid": "Q20191532"
   }
  },
  {
   "type": "Feature",
   "geometry": {
    "type": "Point",
    "coordinates": [
     -77.02,
     38.8914
    ]
   },
   "properties": {
    "painter": "Ignacio Zuloaga",
    "title": "Merceditas",
    "year": "1912",
    "city": "Washington",
    "country": "United States",
    "location": "National Gallery of Art",
    "kind": "museum",
    "attribution": "attributed",
    "status": "present",
    "medium": "Oil on canvas",
    "dimensions": "195.9 × 121.6 cm",
    "wikidata": "https://www.wikidata.org/wiki/Q20191549",
    "_source": {
     "source": "Wikidata",
     "url": "https://www.wikidata.org/wiki/Q20191549",
     "retrieved_at": "2026-08-23"
    },
    "_overrides": {
     "creation": {
      "at": "2026-08-23",
      "source": "derived from start date + Caravaggio's documented itinerary (approximate)"
     }
    },
    "museum_id": "national-gallery-of-art",
    "qid": "Q20191549"
   }
  },
  {
   "type": "Feature",
   "geometry": {
    "type": "Point",
    "coordinates": [
     -77.02,
     38.8914
    ]
   },
   "properties": {
    "painter": "Ignacio Zuloaga",
    "title": "Woman in Andalusian Dress",
    "year": "1911",
    "city": "Washington",
    "country": "United States",
    "location": "National Gallery of Art",
    "kind": "museum",
    "attribution": "attributed",
    "status": "present",
    "medium": "Oil on canvas",
    "dimensions": "87 × 66.7 cm",
    "image": "https://commons.wikimedia.org/wiki/Special:FilePath/Woman%20in%20andalusian%20dress.PNG?width=420",
    "wikidata": "https://www.wikidata.org/wiki/Q20191612",
    "_source": {
     "source": "Wikidata",
     "url": "https://www.wikidata.org/wiki/Q20191612",
     "retrieved_at": "2026-08-23"
    },
    "_overrides": {
     "creation": {
      "at": "2026-08-23",
      "source": "derived from start date + Caravaggio's documented itinerary (approximate)"
     }
    },
    "museum_id": "national-gallery-of-art",
    "qid": "Q20191612"
   }
  },
  {
   "type": "Feature",
   "geometry": {
    "type": "Point",
    "coordinates": [
     -77.02,
     38.8914
    ]
   },
   "properties": {
    "painter": "Ignacio Zuloaga",
    "title": "Mrs. Philip Lydig",
    "year": "1912",
    "city": "Washington",
    "country": "United States",
    "location": "National Gallery of Art",
    "kind": "museum",
    "attribution": "attributed",
    "status": "present",
    "medium": "Oil on canvas",
    "dimensions": "99 × 72.3 cm",
    "wikidata": "https://www.wikidata.org/wiki/Q20191655",
    "_source": {
     "source": "Wikidata",
     "url": "https://www.wikidata.org/wiki/Q20191655",
     "retrieved_at": "2026-08-23"
    },
    "_overrides": {
     "creation": {
      "at": "2026-08-23",
      "source": "derived from start date + Caravaggio's documented itinerary (approximate)"
     }
    },
    "museum_id": "national-gallery-of-art",
    "qid": "Q20191655"
   }
  },
  {
   "type": "Feature",
   "geometry": {
    "type": "Point",
    "coordinates": [
     -73.9631,
     40.7794
    ]
   },
   "properties": {
    "painter": "Ignacio Zuloaga",
    "title": "Julia Wainwright Robbins",
    "year": "1923",
    "city": "New York",
    "country": "United States",
    "location": "Metropolitan Museum of Art",
    "kind": "museum",
    "attribution": "attributed",
    "status": "present",
    "medium": "Oil on canvas",
    "dimensions": "208.3 × 137.8 cm",
    "genre": "portrait",
    "image": "https://commons.wikimedia.org/wiki/Special:FilePath/Julia%20Wainwright%20Robbins%20MET%20sf49.64.jpg?width=420",
    "wikidata": "https://www.wikidata.org/wiki/Q20197214",
    "creation_place": "Madrid",
    "creation_lat": 40.4168,
    "creation_lon": -3.7038,
    "_source": {
     "source": "Wikidata",
     "url": "https://www.wikidata.org/wiki/Q20197214",
     "retrieved_at": "2026-08-23"
    },
    "_overrides": {
     "creation": {
      "at": "2026-08-23",
      "source": "derived from start date + Caravaggio's documented itinerary (approximate)"
     }
    },
    "museum_id": "metropolitan-museum-of-art",
    "qid": "Q20197214"
   }
  },
  {
   "type": "Feature",
   "geometry": {
    "type": "Point",
    "coordinates": [
     -87.62389,
     41.87944
    ]
   },
   "properties": {
    "painter": "Ignacio Zuloaga",
    "title": "The Actress Consuelo",
    "year": "1922",
    "city": "Chicago",
    "country": "United States",
    "location": "Art Institute of Chicago",
    "kind": "museum",
    "attribution": "attributed",
    "status": "present",
    "medium": "Oil on canvas",
    "wikidata": "https://www.wikidata.org/wiki/Q20264832",
    "creation_place": "Madrid",
    "creation_lat": 40.4168,
    "creation_lon": -3.7038,
    "_source": {
     "source": "Wikidata",
     "url": "https://www.wikidata.org/wiki/Q20264832",
     "retrieved_at": "2026-08-23"
    },
    "_overrides": {
     "creation": {
      "at": "2026-08-23",
      "source": "derived from start date + Caravaggio's documented itinerary (approximate)"
     }
    },
    "museum_id": "art-institute-of-chicago",
    "qid": "Q20264832"
   }
  },
  {
   "type": "Feature",
   "geometry": {
    "type": "Point",
    "coordinates": [
     -71.09417,
     42.33944
    ]
   },
   "properties": {
    "painter": "Ignacio Zuloaga",
    "title": "Castilian Landscape",
    "year": "1909",
    "city": "Boston",
    "country": "United States",
    "location": "Museum of Fine Arts Boston",
    "kind": "museum",
    "attribution": "attributed",
    "status": "present",
    "medium": "Oil on canvas",
    "dimensions": "57.5 × 61.3 cm",
    "image": "https://commons.wikimedia.org/wiki/Special:FilePath/Ignacio%20Zuloaga%20y%20Zabaleta%20-%20Castilian%20Landscape%20-%2042.571%20-%20Museum%20of%20Fine%20Arts.jpg?width=420",
    "wikidata": "https://www.wikidata.org/wiki/Q20540184",
    "_source": {
     "source": "Wikidata",
     "url": "https://www.wikidata.org/wiki/Q20540184",
     "retrieved_at": "2026-08-23"
    },
    "_overrides": {
     "creation": {
      "at": "2026-08-23",
      "source": "derived from start date + Caravaggio's documented itinerary (approximate)"
     }
    },
    "museum_id": "museum-of-fine-arts-boston",
    "qid": "Q20540184"
   }
  },
  {
   "type": "Feature",
   "geometry": {
    "type": "Point",
    "coordinates": [
     -71.09417,
     42.33944
    ]
   },
   "properties": {
    "painter": "Ignacio Zuloaga",
    "title": "My Uncle Daniel and his Family",
    "year": "1910",
    "city": "Boston",
    "country": "United States",
    "location": "Museum of Fine Arts Boston",
    "kind": "museum",
    "attribution": "attributed",
    "status": "present",
    "medium": "Oil on canvas",
    "dimensions": "205.1 × 289.5 cm",
    "image": "https://commons.wikimedia.org/wiki/Special:FilePath/Ignacio%20Zuloaga%20y%20Zabaleta%20-%20My%20Uncle%20Daniel%20and%20his%20Family%20-%2017.1598%20-%20Museum%20of%20Fine%20Arts.jpg?width=420",
    "wikidata": "https://www.wikidata.org/wiki/Q20540187",
    "_source": {
     "source": "Wikidata",
     "url": "https://www.wikidata.org/wiki/Q20540187",
     "retrieved_at": "2026-08-23"
    },
    "_overrides": {
     "creation": {
      "at": "2026-08-23",
      "source": "derived from start date + Caravaggio's documented itinerary (approximate)"
     }
    },
    "museum_id": "museum-of-fine-arts-boston",
    "qid": "Q20540187"
   }
  },
  {
   "type": "Feature",
   "geometry": {
    "type": "Point",
    "coordinates": [
     3.72424,
     51.03798
    ]
   },
   "properties": {
    "painter": "Ignacio Zuloaga",
    "title": "Spanish Farmers at a Market",
    "year": "1899",
    "city": "Ghent",
    "country": "Belgium",
    "location": "Museum of Fine Arts Ghent (MSK)",
    "kind": "museum",
    "attribution": "attributed",
    "status": "present",
    "medium": "Oil on canvas",
    "dimensions": "98.5 × 65 cm",
    "image": "https://commons.wikimedia.org/wiki/Special:FilePath/Spaanse%20boeren%20op%20de%20markt%2C%20Ignacio%20Zuloaga%2C%20Museum%20voor%20Schone%20Kunsten%20Gent%2C%201899-M.jpg?width=420",
    "wikidata": "https://www.wikidata.org/wiki/Q21674405",
    "_source": {
     "source": "Wikidata",
     "url": "https://www.wikidata.org/wiki/Q21674405",
     "retrieved_at": "2026-08-23"
    },
    "_overrides": {
     "creation": {
      "at": "2026-08-23",
      "source": "derived from start date + Caravaggio's documented itinerary (approximate)"
     }
    },
    "museum_id": "museum-of-fine-arts-ghent-msk",
    "qid": "Q21674405"
   }
  },
  {
   "type": "Feature",
   "geometry": {
    "type": "Point",
    "coordinates": [
     2.15331,
     41.36833
    ]
   },
   "properties": {
    "painter": "Ignacio Zuloaga",
    "title": "Red Nude",
    "year": "1922",
    "city": "Sants-Montjuïc",
    "country": "Spain",
    "location": "Museu Nacional d'Art de Catalunya",
    "kind": "museum",
    "attribution": "attributed",
    "status": "present",
    "medium": "Oil on canvas",
    "dimensions": "130.5 × 185 cm",
    "image": "https://commons.wikimedia.org/wiki/Special:FilePath/Ignacio%20Zuloaga%20-%20Red%20nude%2C%201922.jpg?width=420",
    "wikidata": "https://www.wikidata.org/wiki/Q23931949",
    "creation_place": "Madrid",
    "creation_lat": 40.4168,
    "creation_lon": -3.7038,
    "_source": {
     "source": "Wikidata",
     "url": "https://www.wikidata.org/wiki/Q23931949",
     "retrieved_at": "2026-08-23"
    },
    "_overrides": {
     "creation": {
      "at": "2026-08-23",
      "source": "derived from start date + Caravaggio's documented itinerary (approximate)"
     }
    },
    "museum_id": "museu-nacional-d-art-de-catalunya",
    "qid": "Q23931949"
   }
  },
  {
   "type": "Feature",
   "geometry": {
    "type": "Point",
    "coordinates": [
     2.15331,
     41.36833
    ]
   },
   "properties": {
    "painter": "Ignacio Zuloaga",
    "title": "Friends",
    "year": "1896",
    "city": "Sants-Montjuïc",
    "country": "Spain",
    "location": "Museu Nacional d'Art de Catalunya",
    "kind": "museum",
    "attribution": "attributed",
    "status": "present",
    "medium": "Oil on canvas",
    "dimensions": "221 × 170 cm",
    "image": "https://commons.wikimedia.org/wiki/Special:FilePath/%28Barcelona%29%20Friends%20by%20Ignacio%20Zuloaga%20-%20Museu%20Nacional%20d%27Art%20de%20Catalunya.jpg?width=420",
    "wikidata": "https://www.wikidata.org/wiki/Q23935794",
    "_source": {
     "source": "Wikidata",
     "url": "https://www.wikidata.org/wiki/Q23935794",
     "retrieved_at": "2026-08-23"
    },
    "_overrides": {
     "creation": {
      "at": "2026-08-23",
      "source": "derived from start date + Caravaggio's documented itinerary (approximate)"
     }
    },
    "museum_id": "museu-nacional-d-art-de-catalunya",
    "qid": "Q23935794"
   }
  },
  {
   "type": "Feature",
   "geometry": {
    "type": "Point",
    "coordinates": [
     2.15331,
     41.36833
    ]
   },
   "properties": {
    "painter": "Ignacio Zuloaga",
    "title": "My cousins",
    "year": "1903",
    "city": "Sants-Montjuïc",
    "country": "Spain",
    "location": "Museu Nacional d'Art de Catalunya",
    "kind": "museum",
    "attribution": "attributed",
    "status": "present",
    "medium": "Oil on canvas",
    "image": "https://commons.wikimedia.org/wiki/Special:FilePath/%28Barcelona%29%20My%20Cousins%20by%20Ignacio%20Zuloaga%20-%20Museu%20Nacional%20d%27Art%20de%20Catalunya.jpg?width=420",
    "wikidata": "https://www.wikidata.org/wiki/Q23936307",
    "_source": {
     "source": "Wikidata",
     "url": "https://www.wikidata.org/wiki/Q23936307",
     "retrieved_at": "2026-08-23"
    },
    "_overrides": {
     "creation": {
      "at": "2026-08-23",
      "source": "derived from start date + Caravaggio's documented itinerary (approximate)"
     }
    },
    "museum_id": "museu-nacional-d-art-de-catalunya",
    "qid": "Q23936307"
   }
  },
  {
   "type": "Feature",
   "geometry": {
    "type": "Point",
    "coordinates": [
     1.54153,
     41.18316
    ]
   },
   "properties": {
    "painter": "Ignacio Zuloaga",
    "title": "Portrait of a Bullfighter",
    "year": "1902",
    "city": "Barri Marítim de Sant Salvador",
    "country": "Spain",
    "location": "Pau Casals Museum",
    "kind": "museum",
    "attribution": "attributed",
    "status": "present",
    "medium": "Oil on canvas",
    "dimensions": "715 × 605 cm",
    "genre": "portrait",
    "wikidata": "https://www.wikidata.org/wiki/Q24195115",
    "_source": {
     "source": "Wikidata",
     "url": "https://www.wikidata.org/wiki/Q24195115",
     "retrieved_at": "2026-08-23"
    },
    "_overrides": {
     "creation": {
      "at": "2026-08-23",
      "source": "derived from start date + Caravaggio's documented itinerary (approximate)"
     }
    },
    "museum_id": "pau-casals-museum",
    "qid": "Q24195115"
   }
  },
  {
   "type": "Feature",
   "geometry": {
    "type": "Point",
    "coordinates": [
     2.15331,
     41.36833
    ]
   },
   "properties": {
    "painter": "Ignacio Zuloaga",
    "title": "Q27576298",
    "year": "1903",
    "city": "Sants-Montjuïc",
    "country": "Spain",
    "location": "Museu Nacional d'Art de Catalunya",
    "kind": "museum",
    "attribution": "attributed",
    "status": "present",
    "medium": "Oil on canvas",
    "dimensions": "208 × 250 cm",
    "wikidata": "https://www.wikidata.org/wiki/Q27576298",
    "_source": {
     "source": "Wikidata",
     "url": "https://www.wikidata.org/wiki/Q27576298",
     "retrieved_at": "2026-08-23"
    },
    "_overrides": {
     "creation": {
      "at": "2026-08-23",
      "source": "derived from start date + Caravaggio's documented itinerary (approximate)"
     }
    },
    "museum_id": "museu-nacional-d-art-de-catalunya",
    "qid": "Q27576298"
   }
  },
  {
   "type": "Feature",
   "geometry": {
    "type": "Point",
    "coordinates": [
     -3.694,
     40.40857
    ]
   },
   "properties": {
    "painter": "Ignacio Zuloaga",
    "title": "Portrait of the Violinist Larrapidie",
    "year": "1910",
    "city": "Madrid",
    "country": "Spain",
    "location": "Museo Nacional Centro de Arte Reina Sofía",
    "kind": "museum",
    "attribution": "attributed",
    "status": "present",
    "medium": "Oil on canvas",
    "dimensions": "184 × 111 cm",
    "genre": "portrait",
    "wikidata": "https://www.wikidata.org/wiki/Q27668756",
    "_source": {
     "source": "Wikidata",
     "url": "https://www.wikidata.org/wiki/Q27668756",
     "retrieved_at": "2026-08-23"
    },
    "_overrides": {
     "creation": {
      "at": "2026-08-23",
      "source": "derived from start date + Caravaggio's documented itinerary (approximate)"
     }
    },
    "museum_id": "museo-nacional-centro-de-arte-reina-sofia",
    "qid": "Q27668756"
   }
  },
  {
   "type": "Feature",
   "geometry": {
    "type": "Point",
    "coordinates": [
     -3.694,
     40.40857
    ]
   },
   "properties": {
    "painter": "Ignacio Zuloaga",
    "title": "Young Village Bullfighters",
    "city": "Madrid",
    "country": "Spain",
    "location": "Museo Nacional Centro de Arte Reina Sofía",
    "kind": "museum",
    "attribution": "attributed",
    "status": "present",
    "medium": "Oil on canvas",
    "dimensions": "197 × 154 cm",
    "wikidata": "https://www.wikidata.org/wiki/Q27668770",
    "_source": {
     "source": "Wikidata",
     "url": "https://www.wikidata.org/wiki/Q27668770",
     "retrieved_at": "2026-08-23"
    },
    "museum_id": "museo-nacional-centro-de-arte-reina-sofia",
    "qid": "Q27668770"
   }
  },
  {
   "type": "Feature",
   "geometry": {
    "type": "Point",
    "coordinates": [
     -3.694,
     40.40857
    ]
   },
   "properties": {
    "painter": "Ignacio Zuloaga",
    "title": "Dancer",
    "city": "Madrid",
    "country": "Spain",
    "location": "Museo Nacional Centro de Arte Reina Sofía",
    "kind": "museum",
    "attribution": "attributed",
    "status": "present",
    "medium": "Oil on canvas",
    "dimensions": "196 × 117 cm",
    "image": "https://commons.wikimedia.org/wiki/Special:FilePath/Ignacio%20Zuloaga%2C%201912%20%2852431341084%29.jpg?width=420",
    "wikidata": "https://www.wikidata.org/wiki/Q27668771",
    "_source": {
     "source": "Wikidata",
     "url": "https://www.wikidata.org/wiki/Q27668771",
     "retrieved_at": "2026-08-23"
    },
    "museum_id": "museo-nacional-centro-de-arte-reina-sofia",
    "qid": "Q27668771"
   }
  },
  {
   "type": "Feature",
   "geometry": {
    "type": "Point",
    "coordinates": [
     -3.694,
     40.40857
    ]
   },
   "properties": {
    "painter": "Ignacio Zuloaga",
    "title": "Retrato de Madame Malinowska (La Rusa) (Portrait of Madame Malinowska [The Russian])",
    "year": "1912",
    "city": "Madrid",
    "country": "Spain",
    "location": "Museo Nacional Centro de Arte Reina Sofía",
    "kind": "museum",
    "attribution": "attributed",
    "status": "present",
    "medium": "Oil on canvas",
    "dimensions": "197 × 98 cm",
    "genre": "portrait",
    "wikidata": "https://www.wikidata.org/wiki/Q27668772",
    "_source": {
     "source": "Wikidata",
     "url": "https://www.wikidata.org/wiki/Q27668772",
     "retrieved_at": "2026-08-23"
    },
    "_overrides": {
     "creation": {
      "at": "2026-08-23",
      "source": "derived from start date + Caravaggio's documented itinerary (approximate)"
     }
    },
    "museum_id": "museo-nacional-centro-de-arte-reina-sofia",
    "qid": "Q27668772"
   }
  },
  {
   "type": "Feature",
   "geometry": {
    "type": "Point",
    "coordinates": [
     -3.694,
     40.40857
    ]
   },
   "properties": {
    "painter": "Ignacio Zuloaga",
    "title": "Bleeding Christ",
    "year": "1911",
    "city": "Madrid",
    "country": "Spain",
    "location": "Museo Nacional Centro de Arte Reina Sofía",
    "kind": "museum",
    "attribution": "attributed",
    "status": "present",
    "medium": "Oil on canvas",
    "dimensions": "248 × 302 cm",
    "image": "https://commons.wikimedia.org/wiki/Special:FilePath/Ignacio%20Zuloaga%20-%20El%20Cristo%20de%20la%20sangre%20-%201911.jpg?width=420",
    "wikidata": "https://www.wikidata.org/wiki/Q27668773",
    "_source": {
     "source": "Wikidata",
     "url": "https://www.wikidata.org/wiki/Q27668773",
     "retrieved_at": "2026-08-23"
    },
    "_overrides": {
     "creation": {
      "at": "2026-08-23",
      "source": "derived from start date + Caravaggio's documented itinerary (approximate)"
     }
    },
    "museum_id": "museo-nacional-centro-de-arte-reina-sofia",
    "qid": "Q27668773"
   }
  },
  {
   "type": "Feature",
   "geometry": {
    "type": "Point",
    "coordinates": [
     -3.694,
     40.40857
    ]
   },
   "properties": {
    "painter": "Ignacio Zuloaga",
    "title": "Celestina (Matchmaker)",
    "year": "1906",
    "city": "Madrid",
    "country": "Spain",
    "location": "Museo Nacional Centro de Arte Reina Sofía",
    "kind": "museum",
    "attribution": "attributed",
    "status": "present",
    "medium": "Oil on canvas",
    "dimensions": "151.5 × 180.5 cm",
    "wikidata": "https://www.wikidata.org/wiki/Q27668775",
    "_source": {
     "source": "Wikidata",
     "url": "https://www.wikidata.org/wiki/Q27668775",
     "retrieved_at": "2026-08-23"
    },
    "_overrides": {
     "creation": {
      "at": "2026-08-23",
      "source": "derived from start date + Caravaggio's documented itinerary (approximate)"
     }
    },
    "museum_id": "museo-nacional-centro-de-arte-reina-sofia",
    "qid": "Q27668775"
   }
  },
  {
   "type": "Feature",
   "geometry": {
    "type": "Point",
    "coordinates": [
     -3.694,
     40.40857
    ]
   },
   "properties": {
    "painter": "Ignacio Zuloaga",
    "title": "Don Plácido Zuloaga in His Workshop",
    "year": "1895",
    "city": "Madrid",
    "country": "Spain",
    "location": "Museo Nacional Centro de Arte Reina Sofía",
    "kind": "museum",
    "attribution": "attributed",
    "status": "present",
    "medium": "Oil on canvas",
    "dimensions": "219 × 100 cm",
    "genre": "portrait",
    "image": "https://commons.wikimedia.org/wiki/Special:FilePath/Ignacio%20Zuloaga%20-%20Don%20Pl%C3%A1cido%20Zuloaga%20en%20su%20taller%20-%201895.jpg?width=420",
    "wikidata": "https://www.wikidata.org/wiki/Q27668779",
    "_source": {
     "source": "Wikidata",
     "url": "https://www.wikidata.org/wiki/Q27668779",
     "retrieved_at": "2026-08-23"
    },
    "_overrides": {
     "creation": {
      "at": "2026-08-23",
      "source": "derived from start date + Caravaggio's documented itinerary (approximate)"
     }
    },
    "museum_id": "museo-nacional-centro-de-arte-reina-sofia",
    "qid": "Q27668779"
   }
  },
  {
   "type": "Feature",
   "geometry": {
    "type": "Point",
    "coordinates": [
     -3.694,
     40.40857
    ]
   },
   "properties": {
    "painter": "Ignacio Zuloaga",
    "title": "Man from Segovia",
    "year": "1906",
    "city": "Madrid",
    "country": "Spain",
    "location": "Museo Nacional Centro de Arte Reina Sofía",
    "kind": "museum",
    "attribution": "attributed",
    "status": "present",
    "medium": "Oil on canvas",
    "dimensions": "191 × 116 cm",
    "image": "https://commons.wikimedia.org/wiki/Special:FilePath/Ignacio%20Zuloaga%20-%20Tipo%20de%20Segovia%20-%201906.jpg?width=420",
    "wikidata": "https://www.wikidata.org/wiki/Q27668780",
    "_source": {
     "source": "Wikidata",
     "url": "https://www.wikidata.org/wiki/Q27668780",
     "retrieved_at": "2026-08-23"
    },
    "_overrides": {
     "creation": {
      "at": "2026-08-23",
      "source": "derived from start date + Caravaggio's documented itinerary (approximate)"
     }
    },
    "museum_id": "museo-nacional-centro-de-arte-reina-sofia",
    "qid": "Q27668780"
   }
  },
  {
   "type": "Feature",
   "geometry": {
    "type": "Point",
    "coordinates": [
     -3.694,
     40.40857
    ]
   },
   "properties": {
    "painter": "Ignacio Zuloaga",
    "title": "Retrato de Pablo Uranga pintando (Portrait of Pablo Uranga While Painting)",
    "year": "1931",
    "city": "Madrid",
    "country": "Spain",
    "location": "Museo Nacional Centro de Arte Reina Sofía",
    "kind": "museum",
    "attribution": "attributed",
    "status": "present",
    "medium": "Oil on canvas",
    "dimensions": "106 × 90.5 cm",
    "genre": "portrait",
    "wikidata": "https://www.wikidata.org/wiki/Q27668781",
    "creation_place": "Madrid",
    "creation_lat": 40.4168,
    "creation_lon": -3.7038,
    "_source": {
     "source": "Wikidata",
     "url": "https://www.wikidata.org/wiki/Q27668781",
     "retrieved_at": "2026-08-23"
    },
    "_overrides": {
     "creation": {
      "at": "2026-08-23",
      "source": "derived from start date + Caravaggio's documented itinerary (approximate)"
     }
    },
    "museum_id": "museo-nacional-centro-de-arte-reina-sofia",
    "qid": "Q27668781"
   }
  },
  {
   "type": "Feature",
   "geometry": {
    "type": "Point",
    "coordinates": [
     -3.694,
     40.40857
    ]
   },
   "properties": {
    "painter": "Ignacio Zuloaga",
    "title": "Cabeza de Lola (Lola's Head)",
    "year": "1915",
    "city": "Madrid",
    "country": "Spain",
    "location": "Museo Nacional Centro de Arte Reina Sofía",
    "kind": "museum",
    "attribution": "attributed",
    "status": "present",
    "medium": "Oil on canvas",
    "dimensions": "84.5 × 62 cm",
    "wikidata": "https://www.wikidata.org/wiki/Q27668782",
    "creation_place": "Madrid",
    "creation_lat": 40.4168,
    "creation_lon": -3.7038,
    "_source": {
     "source": "Wikidata",
     "url": "https://www.wikidata.org/wiki/Q27668782",
     "retrieved_at": "2026-08-23"
    },
    "_overrides": {
     "creation": {
      "at": "2026-08-23",
      "source": "derived from start date + Caravaggio's documented itinerary (approximate)"
     }
    },
    "museum_id": "museo-nacional-centro-de-arte-reina-sofia",
    "qid": "Q27668782"
   }
  },
  {
   "type": "Feature",
   "geometry": {
    "type": "Point",
    "coordinates": [
     -3.694,
     40.40857
    ]
   },
   "properties": {
    "painter": "Ignacio Zuloaga",
    "title": "Landscape in Calatayud",
    "year": "1930",
    "city": "Madrid",
    "country": "Spain",
    "location": "Museo Nacional Centro de Arte Reina Sofía",
    "kind": "museum",
    "attribution": "attributed",
    "status": "present",
    "medium": "Oil on canvas",
    "dimensions": "113 × 123 cm",
    "image": "https://commons.wikimedia.org/wiki/Special:FilePath/Ignacio%20Zuloaga%20-%20Paisaje%20de%20Calatayud%20-%201930.jpg?width=420",
    "wikidata": "https://www.wikidata.org/wiki/Q27668786",
    "creation_place": "Madrid",
    "creation_lat": 40.4168,
    "creation_lon": -3.7038,
    "_source": {
     "source": "Wikidata",
     "url": "https://www.wikidata.org/wiki/Q27668786",
     "retrieved_at": "2026-08-23"
    },
    "_overrides": {
     "creation": {
      "at": "2026-08-23",
      "source": "derived from start date + Caravaggio's documented itinerary (approximate)"
     }
    },
    "museum_id": "museo-nacional-centro-de-arte-reina-sofia",
    "qid": "Q27668786"
   }
  },
  {
   "type": "Feature",
   "geometry": {
    "type": "Point",
    "coordinates": [
     -3.694,
     40.40857
    ]
   },
   "properties": {
    "painter": "Ignacio Zuloaga",
    "title": "Paisaje de Alhama (Landscape in Alhama)",
    "year": "1923",
    "city": "Madrid",
    "country": "Spain",
    "location": "Museo Nacional Centro de Arte Reina Sofía",
    "kind": "museum",
    "attribution": "attributed",
    "status": "present",
    "medium": "Oil on canvas",
    "dimensions": "87 × 128 cm",
    "wikidata": "https://www.wikidata.org/wiki/Q27668791",
    "creation_place": "Madrid",
    "creation_lat": 40.4168,
    "creation_lon": -3.7038,
    "_source": {
     "source": "Wikidata",
     "url": "https://www.wikidata.org/wiki/Q27668791",
     "retrieved_at": "2026-08-23"
    },
    "_overrides": {
     "creation": {
      "at": "2026-08-23",
      "source": "derived from start date + Caravaggio's documented itinerary (approximate)"
     }
    },
    "museum_id": "museo-nacional-centro-de-arte-reina-sofia",
    "qid": "Q27668791"
   }
  },
  {
   "type": "Feature",
   "geometry": {
    "type": "Point",
    "coordinates": [
     -3.694,
     40.40857
    ]
   },
   "properties": {
    "painter": "Ignacio Zuloaga",
    "title": "Lolita Muth Ben Maacha",
    "city": "Madrid",
    "country": "Spain",
    "location": "Museo Nacional Centro de Arte Reina Sofía",
    "kind": "museum",
    "attribution": "attributed",
    "status": "present",
    "medium": "Oil on canvas",
    "dimensions": "75 × 56 cm",
    "wikidata": "https://www.wikidata.org/wiki/Q27668794",
    "_source": {
     "source": "Wikidata",
     "url": "https://www.wikidata.org/wiki/Q27668794",
     "retrieved_at": "2026-08-23"
    },
    "museum_id": "museo-nacional-centro-de-arte-reina-sofia",
    "qid": "Q27668794"
   }
  },
  {
   "type": "Feature",
   "geometry": {
    "type": "Point",
    "coordinates": [
     -3.694,
     40.40857
    ]
   },
   "properties": {
    "painter": "Ignacio Zuloaga",
    "title": "Nude with Carnation",
    "year": "1915",
    "city": "Madrid",
    "country": "Spain",
    "location": "Museo Nacional Centro de Arte Reina Sofía",
    "kind": "museum",
    "attribution": "attributed",
    "status": "present",
    "medium": "Oil on canvas",
    "dimensions": "131 × 184 cm",
    "image": "https://commons.wikimedia.org/wiki/Special:FilePath/Ignacio%20Zuloaga%20-%20Desnudo%20del%20clavel%20-%201915.jpg?width=420",
    "wikidata": "https://www.wikidata.org/wiki/Q27668795",
    "creation_place": "Madrid",
    "creation_lat": 40.4168,
    "creation_lon": -3.7038,
    "_source": {
     "source": "Wikidata",
     "url": "https://www.wikidata.org/wiki/Q27668795",
     "retrieved_at": "2026-08-23"
    },
    "_overrides": {
     "creation": {
      "at": "2026-08-23",
      "source": "derived from start date + Caravaggio's documented itinerary (approximate)"
     }
    },
    "museum_id": "museo-nacional-centro-de-arte-reina-sofia",
    "qid": "Q27668795"
   }
  },
  {
   "type": "Feature",
   "geometry": {
    "type": "Point",
    "coordinates": [
     -3.694,
     40.40857
    ]
   },
   "properties": {
    "painter": "Ignacio Zuloaga",
    "title": "Casas de Segovia (Houses in Segovia)",
    "city": "Madrid",
    "country": "Spain",
    "location": "Museo Nacional Centro de Arte Reina Sofía",
    "kind": "museum",
    "attribution": "attributed",
    "status": "present",
    "medium": "Oil on canvas",
    "dimensions": "81 × 100 cm",
    "wikidata": "https://www.wikidata.org/wiki/Q27668797",
    "_source": {
     "source": "Wikidata",
     "url": "https://www.wikidata.org/wiki/Q27668797",
     "retrieved_at": "2026-08-23"
    },
    "museum_id": "museo-nacional-centro-de-arte-reina-sofia",
    "qid": "Q27668797"
   }
  },
  {
   "type": "Feature",
   "geometry": {
    "type": "Point",
    "coordinates": [
     -3.694,
     40.40857
    ]
   },
   "properties": {
    "painter": "Ignacio Zuloaga",
    "title": "Mi prima Cándida (My Cousin Cándida)",
    "year": "1914",
    "city": "Madrid",
    "country": "Spain",
    "location": "Museo Nacional Centro de Arte Reina Sofía",
    "kind": "museum",
    "attribution": "attributed",
    "status": "present",
    "medium": "Oil on canvas",
    "dimensions": "84 × 63 cm",
    "wikidata": "https://www.wikidata.org/wiki/Q27668798",
    "_source": {
     "source": "Wikidata",
     "url": "https://www.wikidata.org/wiki/Q27668798",
     "retrieved_at": "2026-08-23"
    },
    "_overrides": {
     "creation": {
      "at": "2026-08-23",
      "source": "derived from start date + Caravaggio's documented itinerary (approximate)"
     }
    },
    "museum_id": "museo-nacional-centro-de-arte-reina-sofia",
    "qid": "Q27668798"
   }
  },
  {
   "type": "Feature",
   "geometry": {
    "type": "Point",
    "coordinates": [
     -3.694,
     40.40857
    ]
   },
   "properties": {
    "painter": "Ignacio Zuloaga",
    "title": "Segovia: Old Houses",
    "city": "Madrid",
    "country": "Spain",
    "location": "Museo Nacional Centro de Arte Reina Sofía",
    "kind": "museum",
    "attribution": "attributed",
    "status": "present",
    "medium": "Oil on canvas",
    "dimensions": "107 × 120 cm",
    "wikidata": "https://www.wikidata.org/wiki/Q27668799",
    "_source": {
     "source": "Wikidata",
     "url": "https://www.wikidata.org/wiki/Q27668799",
     "retrieved_at": "2026-08-23"
    },
    "museum_id": "museo-nacional-centro-de-arte-reina-sofia",
    "qid": "Q27668799"
   }
  },
  {
   "type": "Feature",
   "geometry": {
    "type": "Point",
    "coordinates": [
     -3.694,
     40.40857
    ]
   },
   "properties": {
    "painter": "Ignacio Zuloaga",
    "title": "Retrato del pintor Balenciaga (Portrait of the Painter Balenciaga)",
    "city": "Madrid",
    "country": "Spain",
    "location": "Museo Nacional Centro de Arte Reina Sofía",
    "kind": "museum",
    "attribution": "attributed",
    "status": "present",
    "medium": "Oil on canvas",
    "dimensions": "100 × 87 cm",
    "genre": "portrait",
    "wikidata": "https://www.wikidata.org/wiki/Q27668801",
    "_source": {
     "source": "Wikidata",
     "url": "https://www.wikidata.org/wiki/Q27668801",
     "retrieved_at": "2026-08-23"
    },
    "museum_id": "museo-nacional-centro-de-arte-reina-sofia",
    "qid": "Q27668801"
   }
  },
  {
   "type": "Feature",
   "geometry": {
    "type": "Point",
    "coordinates": [
     -3.694,
     40.40857
    ]
   },
   "properties": {
    "painter": "Ignacio Zuloaga",
    "title": "Retrato de Franco",
    "year": "1940",
    "city": "Madrid",
    "country": "Spain",
    "location": "Museo Nacional Centro de Arte Reina Sofía",
    "kind": "museum",
    "attribution": "attributed",
    "status": "present",
    "genre": "portrait",
    "wikidata": "https://www.wikidata.org/wiki/Q27764548",
    "creation_place": "Madrid",
    "creation_lat": 40.4168,
    "creation_lon": -3.7038,
    "_source": {
     "source": "Wikidata",
     "url": "https://www.wikidata.org/wiki/Q27764548",
     "retrieved_at": "2026-08-23"
    },
    "_overrides": {
     "creation": {
      "at": "2026-08-23",
      "source": "derived from start date + Caravaggio's documented itinerary (approximate)"
     }
    },
    "museum_id": "museo-nacional-centro-de-arte-reina-sofia",
    "qid": "Q27764548"
   }
  },
  {
   "type": "Feature",
   "geometry": {
    "type": "Point",
    "coordinates": [
     -1.9853,
     43.32477
    ]
   },
   "properties": {
    "painter": "Ignacio Zuloaga",
    "title": "The Witches of San Millán",
    "year": "1907",
    "city": "San Sebastián",
    "country": "Spain",
    "location": "San Telmo Museoa",
    "kind": "museum",
    "attribution": "generally accepted",
    "status": "present",
    "image": "https://commons.wikimedia.org/wiki/Special:FilePath/Las%20brujas%20de%20San%20Mill%C3%A1n%20-%20Ignacio%20Zuloaga%20Zabaleta.jpg?width=420",
    "wikipedia_es": "https://es.wikipedia.org/wiki/Las_brujas_de_San_Mill%C3%A1n",
    "wikidata": "https://www.wikidata.org/wiki/Q27764556",
    "_source": {
     "source": "Wikidata",
     "url": "https://www.wikidata.org/wiki/Q27764556",
     "retrieved_at": "2026-08-23"
    },
    "_overrides": {
     "creation": {
      "at": "2026-08-23",
      "source": "derived from start date + Caravaggio's documented itinerary (approximate)"
     }
    },
    "museum_id": "san-telmo-museoa",
    "qid": "Q27764556"
   }
  },
  {
   "type": "Feature",
   "geometry": {
    "type": "Point",
    "coordinates": [
     -86.18565,
     39.82602
    ]
   },
   "properties": {
    "painter": "Ignacio Zuloaga",
    "title": "The Philosopher",
    "year": "1915",
    "city": "Indianapolis",
    "country": "United States",
    "location": "Museo de Arte de Indianápolis",
    "kind": "museum",
    "attribution": "attributed",
    "status": "present",
    "medium": "Oil on canvas",
    "wikidata": "https://www.wikidata.org/wiki/Q27895103",
    "creation_place": "Madrid",
    "creation_lat": 40.4168,
    "creation_lon": -3.7038,
    "_source": {
     "source": "Wikidata",
     "url": "https://www.wikidata.org/wiki/Q27895103",
     "retrieved_at": "2026-08-23"
    },
    "_overrides": {
     "creation": {
      "at": "2026-08-23",
      "source": "derived from start date + Caravaggio's documented itinerary (approximate)"
     }
    },
    "museum_id": "museo-de-arte-de-indianapolis",
    "qid": "Q27895103"
   }
  },
  {
   "type": "Feature",
   "geometry": {
    "type": "Point",
    "coordinates": [
     -58.39297,
     -34.58399
    ]
   },
   "properties": {
    "painter": "Ignacio Zuloaga",
    "title": "Return of the Harvest",
    "city": "Buenos Aires",
    "country": "Argentina",
    "location": "National Museum of Fine Arts, Argentina",
    "kind": "museum",
    "attribution": "attributed",
    "status": "present",
    "medium": "Oil on canvas",
    "dimensions": "200 × 188 cm",
    "wikidata": "https://www.wikidata.org/wiki/Q27955244",
    "_source": {
     "source": "Wikidata",
     "url": "https://www.wikidata.org/wiki/Q27955244",
     "retrieved_at": "2026-08-23"
    },
    "museum_id": "national-museum-of-fine-arts-argentina",
    "qid": "Q27955244"
   }
  },
  {
   "type": "Feature",
   "geometry": {
    "type": "Point",
    "coordinates": [
     -58.39297,
     -34.58399
    ]
   },
   "properties": {
    "painter": "Ignacio Zuloaga",
    "title": "Gitanilla",
    "year": "1902",
    "city": "Buenos Aires",
    "country": "Argentina",
    "location": "National Museum of Fine Arts, Argentina",
    "kind": "museum",
    "attribution": "attributed",
    "status": "present",
    "medium": "Oil on canvas",
    "dimensions": "182 × 102 cm",
    "image": "https://commons.wikimedia.org/wiki/Special:FilePath/Ignacio%20Zuloaga%20-%20Gitanilla.jpg?width=420",
    "wikidata": "https://www.wikidata.org/wiki/Q27955248",
    "_source": {
     "source": "Wikidata",
     "url": "https://www.wikidata.org/wiki/Q27955248",
     "retrieved_at": "2026-08-23"
    },
    "_overrides": {
     "creation": {
      "at": "2026-08-23",
      "source": "derived from start date + Caravaggio's documented itinerary (approximate)"
     }
    },
    "museum_id": "national-museum-of-fine-arts-argentina",
    "qid": "Q27955248"
   }
  },
  {
   "type": "Feature",
   "geometry": {
    "type": "Point",
    "coordinates": [
     -58.39297,
     -34.58399
    ]
   },
   "properties": {
    "painter": "Ignacio Zuloaga",
    "title": "The Witches of San Millán",
    "year": "1907",
    "city": "Buenos Aires",
    "country": "Argentina",
    "location": "National Museum of Fine Arts, Argentina",
    "kind": "museum",
    "attribution": "attributed",
    "status": "present",
    "medium": "Oil on canvas",
    "dimensions": "204 × 198 cm",
    "image": "https://commons.wikimedia.org/wiki/Special:FilePath/Ignacio%20Zuloaga%20-%20Las%20brujas%20de%20San%20Millan%2C%201907.jpg?width=420",
    "wikidata": "https://www.wikidata.org/wiki/Q27955256",
    "_source": {
     "source": "Wikidata",
     "url": "https://www.wikidata.org/wiki/Q27955256",
     "retrieved_at": "2026-08-23"
    },
    "_overrides": {
     "creation": {
      "at": "2026-08-23",
      "source": "derived from start date + Caravaggio's documented itinerary (approximate)"
     }
    },
    "museum_id": "national-museum-of-fine-arts-argentina",
    "qid": "Q27955256"
   }
  },
  {
   "type": "Feature",
   "geometry": {
    "type": "Point",
    "coordinates": [
     -58.39297,
     -34.58399
    ]
   },
   "properties": {
    "painter": "Ignacio Zuloaga",
    "title": "Retrato de la señora S. W. de S.",
    "city": "Buenos Aires",
    "country": "Argentina",
    "location": "National Museum of Fine Arts, Argentina",
    "kind": "museum",
    "attribution": "attributed",
    "status": "present",
    "medium": "Oil on canvas",
    "dimensions": "196 × 127.4 cm",
    "genre": "portrait",
    "wikidata": "https://www.wikidata.org/wiki/Q27955264",
    "_source": {
     "source": "Wikidata",
     "url": "https://www.wikidata.org/wiki/Q27955264",
     "retrieved_at": "2026-08-23"
    },
    "museum_id": "national-museum-of-fine-arts-argentina",
    "qid": "Q27955264"
   }
  },
  {
   "type": "Feature",
   "geometry": {
    "type": "Point",
    "coordinates": [
     -58.39297,
     -34.58399
    ]
   },
   "properties": {
    "painter": "Ignacio Zuloaga",
    "title": "Spanish and an English on the balcony",
    "city": "Buenos Aires",
    "country": "Argentina",
    "location": "National Museum of Fine Arts, Argentina",
    "kind": "museum",
    "attribution": "attributed",
    "status": "present",
    "medium": "Oil on canvas",
    "dimensions": "120 × 91 cm",
    "wikidata": "https://www.wikidata.org/wiki/Q27955277",
    "_source": {
     "source": "Wikidata",
     "url": "https://www.wikidata.org/wiki/Q27955277",
     "retrieved_at": "2026-08-23"
    },
    "museum_id": "national-museum-of-fine-arts-argentina",
    "qid": "Q27955277"
   }
  },
  {
   "type": "Feature",
   "geometry": {
    "type": "Point",
    "coordinates": [
     30.3136,
     59.9406
    ]
   },
   "properties": {
    "painter": "Ignacio Zuloaga",
    "title": "Hermit",
    "year": "1904",
    "city": "Saint Petersburg",
    "country": "Russia",
    "location": "Hermitage Museum",
    "kind": "museum",
    "attribution": "generally accepted",
    "status": "present",
    "medium": "Oil on canvas",
    "dimensions": "123 × 79 cm",
    "genre": "religious art",
    "image": "https://commons.wikimedia.org/wiki/Special:FilePath/Zuloaga%20-%20El%20ermita%C3%B1o%20-%20Hermitage.jpg?width=420",
    "wikipedia_es": "https://es.wikipedia.org/wiki/El_ermita%C3%B1o_(Zuloaga)",
    "wikidata": "https://www.wikidata.org/wiki/Q27966887",
    "_source": {
     "source": "Wikidata",
     "url": "https://www.wikidata.org/wiki/Q27966887",
     "retrieved_at": "2026-08-23"
    },
    "_overrides": {
     "creation": {
      "at": "2026-08-23",
      "source": "derived from start date + Caravaggio's documented itinerary (approximate)"
     }
    },
    "museum_id": "hermitage-museum",
    "qid": "Q27966887"
   }
  },
  {
   "type": "Feature",
   "geometry": {
    "type": "Point",
    "coordinates": [
     30.3136,
     59.9406
    ]
   },
   "properties": {
    "painter": "Ignacio Zuloaga",
    "title": "Portrait of Ivan Shchukin (1869-1908)",
    "year": "1899",
    "city": "Saint Petersburg",
    "country": "Russia",
    "location": "Hermitage Museum",
    "kind": "museum",
    "attribution": "attributed",
    "status": "present",
    "medium": "Oil on canvas",
    "dimensions": "139 × 89 cm",
    "genre": "portrait",
    "image": "https://commons.wikimedia.org/wiki/Special:FilePath/Ignacio%20Zuloaga-Portrait%20of%20Ivan%20Shchukin-Hermitage%20Museum.jpg?width=420",
    "wikidata": "https://www.wikidata.org/wiki/Q27975988",
    "_source": {
     "source": "Wikidata",
     "url": "https://www.wikidata.org/wiki/Q27975988",
     "retrieved_at": "2026-08-23"
    },
    "_overrides": {
     "creation": {
      "at": "2026-08-23",
      "source": "derived from start date + Caravaggio's documented itinerary (approximate)"
     }
    },
    "museum_id": "hermitage-museum",
    "qid": "Q27975988"
   }
  },
  {
   "type": "Feature",
   "geometry": {
    "type": "Point",
    "coordinates": [
     30.3136,
     59.9406
    ]
   },
   "properties": {
    "painter": "Ignacio Zuloaga",
    "title": "Preparation for a Bullfight",
    "year": "1903",
    "city": "Saint Petersburg",
    "country": "Russia",
    "location": "Hermitage Museum",
    "kind": "museum",
    "attribution": "attributed",
    "status": "present",
    "medium": "Oil on canvas",
    "dimensions": "210 × 203 cm",
    "wikidata": "https://www.wikidata.org/wiki/Q27979074",
    "_source": {
     "source": "Wikidata",
     "url": "https://www.wikidata.org/wiki/Q27979074",
     "retrieved_at": "2026-08-23"
    },
    "_overrides": {
     "creation": {
      "at": "2026-08-23",
      "source": "derived from start date + Caravaggio's documented itinerary (approximate)"
     }
    },
    "museum_id": "hermitage-museum",
    "qid": "Q27979074"
   }
  },
  {
   "type": "Feature",
   "geometry": {
    "type": "Point",
    "coordinates": [
     16.38083,
     48.19139
    ]
   },
   "properties": {
    "painter": "Ignacio Zuloaga",
    "title": "Q28006478",
    "year": "1900",
    "city": "Landstraße",
    "country": "Austria",
    "location": "Belvedere",
    "kind": "museum",
    "attribution": "attributed",
    "status": "present",
    "medium": "Oil on canvas",
    "dimensions": "201 × 100 cm",
    "image": "https://commons.wikimedia.org/wiki/Special:FilePath/Ignacio%20Zuloaga%20-%20Der%20Volksdichter%20Don%20Miguel%20von%20Segovia%20-%20531%20-%20%C3%96sterreichische%20Galerie%20Belvedere.jpg?width=420",
    "wikidata": "https://www.wikidata.org/wiki/Q28006478",
    "_source": {
     "source": "Wikidata",
     "url": "https://www.wikidata.org/wiki/Q28006478",
     "retrieved_at": "2026-08-23"
    },
    "_overrides": {
     "creation": {
      "at": "2026-08-23",
      "source": "derived from start date + Caravaggio's documented itinerary (approximate)"
     }
    },
    "museum_id": "belvedere",
    "qid": "Q28006478",
    "_merged": [
     {
      "source": "Wikidata",
      "title": "Der Volksdichter Don Miguel von Segovia",
      "qid": "Q28006478",
      "url": "https://www.wikidata.org/wiki/Q28006478"
     }
    ]
   }
  },
  {
   "type": "Feature",
   "geometry": {
    "type": "Point",
    "coordinates": [
     -0.12779,
     51.49106
    ]
   },
   "properties": {
    "painter": "Ignacio Zuloaga",
    "title": "View of the Escorial",
    "year": "1905",
    "city": "London",
    "country": "United Kingdom",
    "location": "Tate",
    "kind": "museum",
    "attribution": "attributed",
    "status": "present",
    "medium": "Oil on canvas",
    "dimensions": "40.6 × 29.2 cm",
    "wikidata": "https://www.wikidata.org/wiki/Q28532833",
    "_source": {
     "source": "Wikidata",
     "url": "https://www.wikidata.org/wiki/Q28532833",
     "retrieved_at": "2026-08-23"
    },
    "_overrides": {
     "creation": {
      "at": "2026-08-23",
      "source": "derived from start date + Caravaggio's documented itinerary (approximate)"
     }
    },
    "museum_id": "tate",
    "qid": "Q28532833"
   }
  },
  {
   "type": "Feature",
   "geometry": {
    "type": "Point",
    "coordinates": [
     2.3358,
     48.8611
    ]
   },
   "properties": {
    "painter": "Ignacio Zuloaga",
    "title": "Q29654424",
    "year": "1931",
    "country": "France",
    "location": "Louvre",
    "kind": "museum",
    "attribution": "attributed",
    "status": "present",
    "medium": "Oil on canvas",
    "dimensions": "137.5 × 124.5 cm",
    "genre": "self-portrait",
    "image": "https://commons.wikimedia.org/wiki/Special:FilePath/345%20%D0%86%D0%B3%D0%BD%D0%B0%D1%81%D1%96%D0%BE%20%D0%A1%D1%83%D0%BB%D0%BE%D0%B0%D0%B3%D0%B0.%20%D0%90%D0%B2%D1%82%D0%BE%D0%BF%D0%BE%D1%80%D1%82%D1%80%D0%B5%D1%82%2C%201931%20%D1%80..gif?width=420",
    "wikidata": "https://www.wikidata.org/wiki/Q29654424",
    "creation_place": "Madrid",
    "creation_lat": 40.4168,
    "creation_lon": -3.7038,
    "_source": {
     "source": "Wikidata",
     "url": "https://www.wikidata.org/wiki/Q29654424",
     "retrieved_at": "2026-08-23"
    },
    "_overrides": {
     "creation": {
      "at": "2026-08-23",
      "source": "derived from start date + Caravaggio's documented itinerary (approximate)"
     }
    },
    "museum_id": "louvre",
    "city": "Paris",
    "qid": "Q29654424",
    "_merged": [
     {
      "source": "Wikidata",
      "title": "Autoportrait de l'artiste au béret basque",
      "qid": "Q29654424",
      "url": "https://www.wikidata.org/wiki/Q29654424"
     }
    ]
   }
  },
  {
   "type": "Feature",
   "geometry": {
    "type": "Point",
    "coordinates": [
     2.3358,
     48.8611
    ]
   },
   "properties": {
    "painter": "Ignacio Zuloaga",
    "title": "Q29654425",
    "year": "1931",
    "country": "France",
    "location": "Louvre",
    "kind": "museum",
    "attribution": "attributed",
    "status": "present",
    "medium": "Oil on canvas",
    "dimensions": "146 × 125 cm",
    "genre": "portrait",
    "image": "https://commons.wikimedia.org/wiki/Special:FilePath/Carlos%20de%20Beistegui%20Le%20Louvre%20Collection.jpg?width=420",
    "wikidata": "https://www.wikidata.org/wiki/Q29654425",
    "creation_place": "Madrid",
    "creation_lat": 40.4168,
    "creation_lon": -3.7038,
    "_source": {
     "source": "Wikidata",
     "url": "https://www.wikidata.org/wiki/Q29654425",
     "retrieved_at": "2026-08-23"
    },
    "_overrides": {
     "creation": {
      "at": "2026-08-23",
      "source": "derived from start date + Caravaggio's documented itinerary (approximate)"
     }
    },
    "museum_id": "louvre",
    "city": "Paris",
    "qid": "Q29654425",
    "_merged": [
     {
      "source": "Wikidata",
      "title": "Carlos de Beistegui",
      "qid": "Q29654425",
      "url": "https://www.wikidata.org/wiki/Q29654425"
     }
    ]
   }
  },
  {
   "type": "Feature",
   "geometry": {
    "type": "Point",
    "coordinates": [
     -73.96375,
     40.67131
    ]
   },
   "properties": {
    "painter": "Ignacio Zuloaga",
    "title": "Anita Ramírez, in black",
    "year": "1915",
    "city": "New York",
    "country": "United States",
    "location": "Brooklyn Museum",
    "kind": "museum",
    "attribution": "attributed",
    "status": "present",
    "dimensions": "190.8 × 130.8 cm",
    "image": "https://commons.wikimedia.org/wiki/Special:FilePath/Ignacio%20Zuloaga%20y%20Zabaleta%20-%20Portrait%20of%20Anita%20Ram%C3%ADrez%20in%20Black%20-%20Google%20Art%20Project.jpg?width=420",
    "wikidata": "https://www.wikidata.org/wiki/Q31187972",
    "creation_place": "Madrid",
    "creation_lat": 40.4168,
    "creation_lon": -3.7038,
    "_source": {
     "source": "Wikidata",
     "url": "https://www.wikidata.org/wiki/Q31187972",
     "retrieved_at": "2026-08-23"
    },
    "_overrides": {
     "creation": {
      "at": "2026-08-23",
      "source": "derived from start date + Caravaggio's documented itinerary (approximate)"
     }
    },
    "museum_id": "brooklyn-museum",
    "qid": "Q31187972"
   }
  },
  {
   "type": "Feature",
   "geometry": {
    "type": "Point",
    "coordinates": [
     -73.94651,
     40.83352
    ]
   },
   "properties": {
    "painter": "Ignacio Zuloaga",
    "title": "The Family of the Gypsy Bullfighter",
    "year": "1903",
    "city": "New York City",
    "country": "United States",
    "location": "Hispanic Society of America",
    "kind": "museum",
    "attribution": "generally accepted",
    "status": "present",
    "medium": "Oil on canvas",
    "dimensions": "220 × 205 cm",
    "image": "https://commons.wikimedia.org/wiki/Special:FilePath/Ignacio%20Zuloaga%20y%20Zabaleta%20-%20The%20Family%20of%20the%20Gypsy%20Bullfighter%20-%20A293%20-%20Hispanic%20Society%20of%20America.jpg?width=420",
    "wikipedia_es": "https://es.wikipedia.org/wiki/La_familia_del_torero_gitano",
    "wikidata": "https://www.wikidata.org/wiki/Q3208620",
    "_source": {
     "source": "Wikidata",
     "url": "https://www.wikidata.org/wiki/Q3208620",
     "retrieved_at": "2026-08-23"
    },
    "_overrides": {
     "creation": {
      "at": "2026-08-23",
      "source": "derived from start date + Caravaggio's documented itinerary (approximate)"
     }
    },
    "museum_id": "hispanic-society-of-america",
    "qid": "Q3208620"
   }
  },
  {
   "type": "Feature",
   "geometry": {
    "type": "Point",
    "coordinates": [
     -73.94651,
     40.83352
    ]
   },
   "properties": {
    "painter": "Ignacio Zuloaga",
    "title": "The Victim of the Fiesta",
    "year": "1910",
    "city": "New York City",
    "country": "United States",
    "location": "Hispanic Society of America",
    "kind": "museum",
    "attribution": "generally accepted",
    "status": "present",
    "medium": "Oil on canvas",
    "dimensions": "284.4 × 344.1 cm",
    "image": "https://commons.wikimedia.org/wiki/Special:FilePath/Ignacio%20Zuloaga%20y%20Zabaleta%20-%20The%20Victim%20of%20the%20Fiesta%20-%20A2010%20-%20Hispanic%20Society%20of%20America.jpg?width=420",
    "wikipedia_es": "https://es.wikipedia.org/wiki/La_v%C3%ADctima_de_la_fiesta",
    "wikidata": "https://www.wikidata.org/wiki/Q3213546",
    "_source": {
     "source": "Wikidata",
     "url": "https://www.wikidata.org/wiki/Q3213546",
     "retrieved_at": "2026-08-23"
    },
    "_overrides": {
     "creation": {
      "at": "2026-08-23",
      "source": "derived from start date + Caravaggio's documented itinerary (approximate)"
     }
    },
    "museum_id": "hispanic-society-of-america",
    "qid": "Q3213546"
   }
  },
  {
   "type": "Feature",
   "geometry": {
    "type": "Point",
    "coordinates": [
     13.39806,
     52.52083
    ]
   },
   "properties": {
    "painter": "Ignacio Zuloaga",
    "title": "Q50113585",
    "year": "1905",
    "city": "Berlin",
    "country": "Germany",
    "location": "Alte Nationalgalerie",
    "kind": "museum",
    "attribution": "attributed",
    "status": "present",
    "medium": "Oil on canvas",
    "dimensions": "123 × 182 cm",
    "wikidata": "https://www.wikidata.org/wiki/Q50113585",
    "_source": {
     "source": "Wikidata",
     "url": "https://www.wikidata.org/wiki/Q50113585",
     "retrieved_at": "2026-08-23"
    },
    "_overrides": {
     "creation": {
      "at": "2026-08-23",
      "source": "derived from start date + Caravaggio's documented itinerary (approximate)"
     }
    },
    "museum_id": "alte-nationalgalerie",
    "qid": "Q50113585"
   }
  },
  {
   "type": "Feature",
   "geometry": {
    "type": "Point",
    "coordinates": [
     37.60603,
     55.74703
    ]
   },
   "properties": {
    "painter": "Ignacio Zuloaga",
    "title": "El palco en los toros",
    "year": "1901",
    "city": "Khamovniki District",
    "country": "Russia",
    "location": "Pushkin Museum of Fine Arts",
    "kind": "museum",
    "attribution": "generally accepted",
    "status": "present",
    "dimensions": "95 × 100 cm",
    "wikipedia_es": "https://es.wikipedia.org/wiki/El_palco_en_los_toros",
    "wikidata": "https://www.wikidata.org/wiki/Q56377677",
    "_source": {
     "source": "Wikidata",
     "url": "https://www.wikidata.org/wiki/Q56377677",
     "retrieved_at": "2026-08-23"
    },
    "_overrides": {
     "creation": {
      "at": "2026-08-23",
      "source": "derived from start date + Caravaggio's documented itinerary (approximate)"
     }
    },
    "museum_id": "pushkin-museum-of-fine-arts",
    "qid": "Q56377677"
   }
  },
  {
   "type": "Feature",
   "geometry": {
    "type": "Point",
    "coordinates": [
     -4.11731,
     40.951
    ]
   },
   "properties": {
    "painter": "Ignacio Zuloaga",
    "title": "La Oterito in her dressing room",
    "year": "1936",
    "city": "Segovia",
    "country": "Spain",
    "location": "Museo Zuloaga",
    "kind": "museum",
    "attribution": "generally accepted",
    "status": "present",
    "medium": "Oil on canvas",
    "genre": "portrait",
    "image": "https://commons.wikimedia.org/wiki/Special:FilePath/La%20Bella%20Oterito.jpg?width=420",
    "wikipedia_es": "https://es.wikipedia.org/wiki/La_Oterito_en_su_camerino",
    "wikipedia_it": "https://it.wikipedia.org/wiki/La_Oterito_nel_suo_camerino",
    "wikidata": "https://www.wikidata.org/wiki/Q65172978",
    "creation_place": "Madrid",
    "creation_lat": 40.4168,
    "creation_lon": -3.7038,
    "_source": {
     "source": "Wikidata",
     "url": "https://www.wikidata.org/wiki/Q65172978",
     "retrieved_at": "2026-08-23"
    },
    "_overrides": {
     "creation": {
      "at": "2026-08-23",
      "source": "derived from start date + Caravaggio's documented itinerary (approximate)"
     }
    },
    "museum_id": "museo-zuloaga",
    "qid": "Q65172978"
   }
  },
  {
   "type": "Feature",
   "geometry": {
    "type": "Point",
    "coordinates": [
     -90.29444,
     38.63944
    ]
   },
   "properties": {
    "painter": "Ignacio Zuloaga",
    "title": "The Hermit",
    "year": "1904",
    "city": "St",
    "country": "United States",
    "location": "Saint Louis Art Museum",
    "kind": "museum",
    "attribution": "attributed",
    "status": "present",
    "medium": "Oil on canvas",
    "image": "https://commons.wikimedia.org/wiki/Special:FilePath/Ignacio%20Zuloaga%20-%20The%20Hermit%20-%20309-1916%20-%20Saint%20Louis%20Art%20Museum.jpg?width=420",
    "wikidata": "https://www.wikidata.org/wiki/Q78740460",
    "_source": {
     "source": "Wikidata",
     "url": "https://www.wikidata.org/wiki/Q78740460",
     "retrieved_at": "2026-08-23"
    },
    "_overrides": {
     "creation": {
      "at": "2026-08-23",
      "source": "derived from start date + Caravaggio's documented itinerary (approximate)"
     }
    },
    "museum_id": "saint-louis-art-museum",
    "qid": "Q78740460"
   }
  }
 ]
}