{
 "type": "FeatureCollection",
 "_note": "Canon from List of works by Artemisia Gentileschi (Wikipedia). Coords via MediaWiki API.",
 "features": [
  {
   "type": "Feature",
   "geometry": {
    "type": "Point",
    "coordinates": [
     10.821,
     49.763
    ]
   },
   "properties": {
    "painter": "Artemisia Gentileschi",
    "title": "Susanna and the Elders",
    "year": "1610–1611",
    "location": "Schloss Weißenstein",
    "attribution": "generally accepted",
    "dimensions": "170 x 119 cm.",
    "image": "https://upload.wikimedia.org/wikipedia/commons/thumb/0/04/Susanna_and_the_Elders_%281610%29%2C_Artemisia_Gentileschi.jpg/500px-Susanna_and_the_Elders_%281610%29%2C_Artemisia_Gentileschi.jpg?utm_source=en.wikipedia.org&amp;utm_campaign=parser&amp;utm_content=thumbnail",
    "notable": true,
    "wikipedia_en": "https://en.wikipedia.org/wiki/Susanna_and_the_Elders_(Artemisia_Gentileschi,_Pommersfelden)",
    "creation_place": "Rome",
    "creation_lat": 41.9028,
    "creation_lon": 12.4964,
    "_source": {
     "source": "Wikipedia: List of works by Artemisia Gentileschi",
     "coord": "MediaWiki coordinates API"
    },
    "museum_id": "schloss-wei-enstein",
    "qid": "Q3978274",
    "wikidata": "https://www.wikidata.org/wiki/Q3978274",
    "wga_url": "https://www.wga.hu/html/g/gentiles/artemisi/susanna.html"
   }
  },
  {
   "type": "Feature",
   "geometry": {
    "type": "Point",
    "coordinates": [
     14.25053,
     40.86701
    ]
   },
   "properties": {
    "painter": "Artemisia Gentileschi",
    "title": "Judith Slaying Holofernes",
    "year": "1611–1612",
    "location": "Museo Nazionale di Capodimonte",
    "attribution": "generally accepted",
    "dimensions": "158.8 x 125.5 cm.",
    "image": "https://upload.wikimedia.org/wikipedia/commons/thumb/4/4e/Artemisia_Gentileschi_-_Judith_Beheading_Holofernes_-_WGA8563.jpg/500px-Artemisia_Gentileschi_-_Judith_Beheading_Holofernes_-_WGA8563.jpg?utm_source=en.wikipedia.org&amp;utm_campaign=parser&amp;utm_content=thumbnail",
    "notable": true,
    "wikipedia_en": "https://en.wikipedia.org/wiki/Judith_Slaying_Holofernes_(Artemisia_Gentileschi,_Naples)",
    "creation_place": "Rome",
    "creation_lat": 41.9028,
    "creation_lon": 12.4964,
    "_source": {
     "source": "Wikipedia: List of works by Artemisia Gentileschi",
     "coord": "MediaWiki coordinates API"
    },
    "museum_id": "museo-nazionale-di-capodimonte",
    "qid": "Q2247406",
    "wikidata": "https://www.wikidata.org/wiki/Q2247406",
    "wga_url": "https://www.wga.hu/html/g/gentiles/artemisi/judit1.html"
   }
  },
  {
   "type": "Feature",
   "geometry": {
    "type": "Point",
    "coordinates": [
     -90.29444,
     38.63944
    ]
   },
   "properties": {
    "painter": "Artemisia Gentileschi",
    "title": "Danae",
    "year": "1612",
    "location": "Saint Louis Art Museum",
    "attribution": "generally accepted",
    "dimensions": "40.5 X 52.5 cm.",
    "image": "https://upload.wikimedia.org/wikipedia/commons/thumb/b/b1/Artemisia_Gentileschi_-_Dana%C3%AB.jpg/500px-Artemisia_Gentileschi_-_Dana%C3%AB.jpg?utm_source=en.wikipedia.org&amp;utm_campaign=parser&amp;utm_content=thumbnail",
    "notable": true,
    "wikipedia_en": "https://en.wikipedia.org/wiki/Danae_(Artemisia_Gentileschi)",
    "creation_place": "Rome",
    "creation_lat": 41.9028,
    "creation_lon": 12.4964,
    "_source": {
     "source": "Wikipedia: List of works by Artemisia Gentileschi",
     "coord": "MediaWiki coordinates API"
    },
    "museum_id": "saint-louis-art-museum",
    "city": "St",
    "country": "United States",
    "qid": "Q3701418",
    "wikidata": "https://www.wikidata.org/wiki/Q3701418",
    "wga_url": "https://www.wga.hu/html/g/gentiles/artemisi/danae.html"
   }
  },
  {
   "type": "Feature",
   "geometry": {
    "type": "Point",
    "coordinates": [
     11.26376,
     43.7699
    ]
   },
   "properties": {
    "painter": "Artemisia Gentileschi",
    "title": "Allegory of Inclination",
    "year": "1615",
    "location": "Casa Buonarroti",
    "attribution": "generally accepted",
    "dimensions": "152 × 61 cm.",
    "image": "https://upload.wikimedia.org/wikipedia/commons/thumb/4/43/A_Gentileschi_Allegoria_dell%27inclinazione.jpg/500px-A_Gentileschi_Allegoria_dell%27inclinazione.jpg?utm_source=en.wikipedia.org&amp;utm_campaign=parser&amp;utm_content=thumbnail",
    "notable": true,
    "wikipedia_en": "https://en.wikipedia.org/wiki/Allegory_of_Inclination",
    "creation_place": "Florence",
    "creation_lat": 43.7696,
    "creation_lon": 11.2558,
    "_source": {
     "source": "Wikipedia: List of works by Artemisia Gentileschi",
     "coord": "MediaWiki coordinates API"
    },
    "museum_id": "casa-buonarroti",
    "qid": "Q3612415",
    "wikidata": "https://www.wikidata.org/wiki/Q3612415"
   }
  },
  {
   "type": "Feature",
   "geometry": {
    "type": "Point",
    "coordinates": [
     -0.1283,
     51.5089
    ]
   },
   "properties": {
    "painter": "Artemisia Gentileschi",
    "title": "Self-Portrait as Saint Catherine of Alexandria",
    "year": "1615–1617",
    "city": "London",
    "country": "United Kingdom",
    "location": "National Gallery",
    "attribution": "generally accepted",
    "dimensions": "71.5 cm x 71 cm",
    "image": "https://upload.wikimedia.org/wikipedia/commons/thumb/d/d5/Artemisia_Gentileschi_-_Self-Portrait_5365.jpg/500px-Artemisia_Gentileschi_-_Self-Portrait_5365.jpg?utm_source=en.wikipedia.org&amp;utm_campaign=parser&amp;utm_content=thumbnail",
    "notable": true,
    "wikipedia_en": "https://en.wikipedia.org/wiki/Self-Portrait_as_Saint_Catherine_of_Alexandria",
    "creation_place": "Florence",
    "creation_lat": 43.7696,
    "creation_lon": 11.2558,
    "_source": {
     "source": "Wikipedia: List of works by Artemisia Gentileschi",
     "coord": "MediaWiki coordinates API"
    },
    "museum_id": "national-gallery",
    "qid": "Q55429769",
    "wikidata": "https://www.wikidata.org/wiki/Q55429769"
   }
  },
  {
   "type": "Feature",
   "geometry": {
    "type": "Point",
    "coordinates": [
     11.2501,
     43.7652
    ]
   },
   "properties": {
    "painter": "Artemisia Gentileschi",
    "title": "Mary Magdalene",
    "year": "1616–1617",
    "city": "Florence",
    "country": "Italy",
    "location": "Palazzo Pitti",
    "attribution": "generally accepted",
    "dimensions": "146.5 x 108 cm",
    "image": "https://upload.wikimedia.org/wikipedia/commons/thumb/f/f6/Artemisia_Gentileschi_Mary_Magdalene_Pitti.jpg/500px-Artemisia_Gentileschi_Mary_Magdalene_Pitti.jpg?utm_source=en.wikipedia.org&amp;utm_campaign=parser&amp;utm_content=thumbnail",
    "notable": true,
    "wikipedia_en": "https://en.wikipedia.org/wiki/Mary_Magdalene_(Artemisia_Gentileschi)",
    "creation_place": "Florence",
    "creation_lat": 43.7696,
    "creation_lon": 11.2558,
    "_source": {
     "source": "Wikipedia: List of works by Artemisia Gentileschi",
     "coord": "MediaWiki coordinates API"
    },
    "museum_id": "palazzo-pitti",
    "qid": "Q3689716",
    "wikidata": "https://www.wikidata.org/wiki/Q3689716",
    "wga_url": "https://www.wga.hu/html/g/gentiles/artemisi/mary_mag.html"
   }
  },
  {
   "type": "Feature",
   "geometry": {
    "type": "Point",
    "coordinates": [
     11.2501,
     43.7652
    ]
   },
   "properties": {
    "painter": "Artemisia Gentileschi",
    "title": "Judith and her Maidservant",
    "year": "c. 1618–1619",
    "city": "Florence",
    "country": "Italy",
    "location": "Palazzo Pitti",
    "attribution": "generally accepted",
    "dimensions": "14 x 93.5 cm",
    "image": "https://upload.wikimedia.org/wikipedia/commons/thumb/7/7a/Gentileschi_judith1.jpg/500px-Gentileschi_judith1.jpg?utm_source=en.wikipedia.org&amp;utm_campaign=parser&amp;utm_content=thumbnail",
    "notable": true,
    "wikipedia_en": "https://en.wikipedia.org/wiki/Judith_and_her_Maidservant_(Gentileschi,_Florence)",
    "creation_place": "Florence",
    "creation_lat": 43.7696,
    "creation_lon": 11.2558,
    "_source": {
     "source": "Wikipedia: List of works by Artemisia Gentileschi",
     "coord": "MediaWiki coordinates API"
    },
    "museum_id": "palazzo-pitti",
    "qid": "Q532486",
    "wikidata": "https://www.wikidata.org/wiki/Q532486",
    "wga_url": "https://www.wga.hu/html/g/gentiles/artemisi/judith_m.html"
   }
  },
  {
   "type": "Feature",
   "geometry": {
    "type": "Point",
    "coordinates": [
     0.20346,
     48.01026
    ]
   },
   "properties": {
    "painter": "Artemisia Gentileschi",
    "title": "Allegory of Painting",
    "year": "1620s",
    "city": "Le Mans",
    "location": "Musée de Tessé",
    "attribution": "generally accepted",
    "dimensions": "95.5 x 133 cm",
    "image": "https://upload.wikimedia.org/wikipedia/commons/thumb/6/67/Gentileschi-allegoria.jpg/500px-Gentileschi-allegoria.jpg?utm_source=en.wikipedia.org&amp;utm_campaign=parser&amp;utm_content=thumbnail",
    "notable": true,
    "wikipedia_en": "https://en.wikipedia.org/wiki/Allegory_of_Painting_(Le_Mans)",
    "creation_place": "Florence",
    "creation_lat": 43.7696,
    "creation_lon": 11.2558,
    "_source": {
     "source": "Wikipedia: List of works by Artemisia Gentileschi",
     "coord": "MediaWiki coordinates API"
    },
    "museum_id": "musee-de-tesse",
    "qid": "Q29017022",
    "wikidata": "https://www.wikidata.org/wiki/Q29017022"
   }
  },
  {
   "type": "Feature",
   "geometry": {
    "type": "Point",
    "coordinates": [
     -99.20462,
     19.44066
    ]
   },
   "properties": {
    "painter": "Artemisia Gentileschi",
    "title": "Mary Magdalene as Melancholy",
    "year": "1620s",
    "location": "Museo Soumaya",
    "attribution": "generally accepted",
    "dimensions": "136.3 × 100.3 cm.",
    "image": "https://upload.wikimedia.org/wikipedia/commons/thumb/b/b0/3415_Mar%C3%ADa_Magdalena_como_melancol%C3%ADa.jpg/500px-3415_Mar%C3%ADa_Magdalena_como_melancol%C3%ADa.jpg?utm_source=en.wikipedia.org&amp;utm_campaign=parser&amp;utm_content=thumbnail",
    "notable": true,
    "wikipedia_en": "https://en.wikipedia.org/wiki/Mary_Magdalene_as_Melancholy",
    "creation_place": "Florence",
    "creation_lat": 43.7696,
    "creation_lon": 11.2558,
    "_source": {
     "source": "Wikipedia: List of works by Artemisia Gentileschi",
     "coord": "MediaWiki coordinates API"
    },
    "museum_id": "museo-soumaya",
    "city": "Mexico City",
    "country": "Mexico",
    "qid": "Q18711755",
    "wikidata": "https://www.wikidata.org/wiki/Q18711755"
   }
  },
  {
   "type": "Feature",
   "geometry": {
    "type": "Point",
    "coordinates": [
     -77.02,
     38.8914
    ]
   },
   "properties": {
    "painter": "Artemisia Gentileschi",
    "title": "Mary Magdalene in Ecstasy",
    "year": "1620",
    "location": "National Gallery of Art",
    "attribution": "generally accepted",
    "dimensions": "81 x 105 cm cm.",
    "image": "https://upload.wikimedia.org/wikipedia/commons/thumb/8/84/Artemisia_Gentileschi_-_Mary_Magdalene_in_Ecstasy.jpg/500px-Artemisia_Gentileschi_-_Mary_Magdalene_in_Ecstasy.jpg?utm_source=en.wikipedia.org&amp;utm_campaign=parser&amp;utm_content=thumbnail",
    "notable": true,
    "wikipedia_en": "https://en.wikipedia.org/wiki/Mary_Magdalene_in_Ecstasy",
    "creation_place": "Florence",
    "creation_lat": 43.7696,
    "creation_lon": 11.2558,
    "_source": {
     "source": "Wikipedia: List of works by Artemisia Gentileschi",
     "coord": "MediaWiki coordinates API"
    },
    "museum_id": "national-gallery-of-art",
    "city": "Washington",
    "country": "United States",
    "qid": "Q29021696",
    "wikidata": "https://www.wikidata.org/wiki/Q29021696",
    "wga_url": "https://www.wga.hu/html/g/gentiles/artemisi/marymagd.html"
   }
  },
  {
   "type": "Feature",
   "geometry": {
    "type": "Point",
    "coordinates": [
     -71.05778,
     42.36028
    ]
   },
   "properties": {
    "painter": "Artemisia Gentileschi",
    "title": "Jael and Sisera",
    "year": "1620",
    "city": "Boston",
    "country": "United States",
    "location": "Museum of Fine Arts",
    "attribution": "generally accepted",
    "dimensions": "86 X 125 cm.",
    "image": "https://upload.wikimedia.org/wikipedia/commons/thumb/6/61/Giaele_e_Sisara_%28ca.1620%29_-_Artemisia_Gentileschi_%28Museum_of_Fine_Arts%2C_Budapest%29.jpg/500px-Giaele_e_Sisara_%28ca.1620%29_-_Artemisia_Gentileschi_%28Museum_of_Fine_Arts%2C_Budapest%29.jpg?utm_source=en.wikipedia.org&amp;utm_campaign=parser&amp;utm_content=thumbnail",
    "notable": true,
    "wikipedia_en": "https://en.wikipedia.org/wiki/Jael_and_Sisera_(Artemisia_Gentileschi)",
    "creation_place": "Florence",
    "creation_lat": 43.7696,
    "creation_lon": 11.2558,
    "_source": {
     "source": "Wikipedia: List of works by Artemisia Gentileschi",
     "coord": "MediaWiki coordinates API"
    },
    "museum_id": "museum-of-fine-arts",
    "qid": "Q3762348",
    "wikidata": "https://www.wikidata.org/wiki/Q3762348",
    "wga_url": "https://www.wga.hu/html/g/gentiles/artemisi/jaelsise.html"
   }
  },
  {
   "type": "Feature",
   "geometry": {
    "type": "Point",
    "coordinates": [
     11.25528,
     43.76833
    ]
   },
   "properties": {
    "painter": "Artemisia Gentileschi",
    "title": "Judith Slaying Holofernes",
    "year": "1620–1621",
    "location": "Uffizi Gallery",
    "attribution": "generally accepted",
    "dimensions": "86 X 125 cm.",
    "image": "https://upload.wikimedia.org/wikipedia/commons/thumb/b/b4/Artemisia_Gentileschi_-_Giuditta_decapita_Oloferne_-_Google_Art_Project.jpg/500px-Artemisia_Gentileschi_-_Giuditta_decapita_Oloferne_-_Google_Art_Project.jpg?utm_source=en.wikipedia.org&amp;utm_campaign=parser&amp;utm_content=thumbnail",
    "notable": true,
    "wikipedia_en": "https://en.wikipedia.org/wiki/Judith_Slaying_Holofernes_(Artemisia_Gentileschi,_Florence)",
    "creation_place": "Florence",
    "creation_lat": 43.7696,
    "creation_lon": 11.2558,
    "_source": {
     "source": "Wikipedia: List of works by Artemisia Gentileschi",
     "coord": "MediaWiki coordinates API"
    },
    "museum_id": "uffizi-gallery",
    "city": "Florence",
    "country": "Italy",
    "qid": "Q3769169",
    "wikidata": "https://www.wikidata.org/wiki/Q3769169",
    "wga_url": "https://www.wga.hu/html/g/gentiles/artemisi/judith.html"
   }
  },
  {
   "type": "Feature",
   "geometry": {
    "type": "Point",
    "coordinates": [
     -0.45259,
     52.64239
    ]
   },
   "properties": {
    "painter": "Artemisia Gentileschi",
    "title": "Susanna and the Elders",
    "year": "1622",
    "location": "Burghley House",
    "attribution": "generally accepted",
    "dimensions": "162.5 x 121.9 cm.",
    "image": "https://upload.wikimedia.org/wikipedia/commons/thumb/9/96/Artemisa_Susanna_1622.jpg/500px-Artemisa_Susanna_1622.jpg?utm_source=en.wikipedia.org&amp;utm_campaign=parser&amp;utm_content=thumbnail",
    "notable": true,
    "wikipedia_en": "https://en.wikipedia.org/wiki/Susanna_and_the_Elders_(Artemisia_Gentileschi,_Burghley)",
    "creation_place": "Rome",
    "creation_lat": 41.9028,
    "creation_lon": 12.4964,
    "_source": {
     "source": "Wikipedia: List of works by Artemisia Gentileschi",
     "coord": "MediaWiki coordinates API"
    },
    "museum_id": "burghley-house",
    "qid": "Q3978272",
    "wikidata": "https://www.wikidata.org/wiki/Q3978272"
   }
  },
  {
   "type": "Feature",
   "geometry": {
    "type": "Point",
    "coordinates": [
     11.34139,
     44.49417
    ]
   },
   "properties": {
    "painter": "Artemisia Gentileschi",
    "title": "Portrait of a Gonfaloniere",
    "year": "1622",
    "location": "Palazzo d'Accursio",
    "attribution": "generally accepted",
    "dimensions": "208 x 128 cm.",
    "image": "https://upload.wikimedia.org/wikipedia/commons/thumb/b/bd/Artemisia_Gentileschi_Condottiero_Bologna.jpg/500px-Artemisia_Gentileschi_Condottiero_Bologna.jpg?utm_source=en.wikipedia.org&amp;utm_campaign=parser&amp;utm_content=thumbnail",
    "notable": true,
    "wikipedia_en": "https://en.wikipedia.org/wiki/Portrait_of_a_Gonfaloniere",
    "creation_place": "Rome",
    "creation_lat": 41.9028,
    "creation_lon": 12.4964,
    "_source": {
     "source": "Wikipedia: List of works by Artemisia Gentileschi",
     "coord": "MediaWiki coordinates API"
    },
    "museum_id": "palazzo-d-accursio",
    "qid": "Q3937737",
    "wikidata": "https://www.wikidata.org/wiki/Q3937737",
    "wga_url": "https://www.wga.hu/html/g/gentiles/artemisi/condotti.html"
   }
  },
  {
   "type": "Feature",
   "geometry": {
    "type": "Point",
    "coordinates": [
     9.19,
     45.46694
    ]
   },
   "properties": {
    "painter": "Artemisia Gentileschi",
    "title": "Lucretia",
    "year": "c. 1623–1625",
    "city": "Milan",
    "country": "Italy",
    "location": "Collection Gerolamo Etro",
    "attribution": "generally accepted",
    "dimensions": "54 x 51 cm.",
    "image": "https://upload.wikimedia.org/wikipedia/commons/thumb/8/83/Lucretia_by_Artemisia_Gentileschi.jpg/500px-Lucretia_by_Artemisia_Gentileschi.jpg?utm_source=en.wikipedia.org&amp;utm_campaign=parser&amp;utm_content=thumbnail",
    "notable": true,
    "wikipedia_en": "https://en.wikipedia.org/wiki/Lucretia_(Artemisia_Gentileschi,_Milan)",
    "creation_place": "Rome",
    "creation_lat": 41.9028,
    "creation_lon": 12.4964,
    "_source": {
     "source": "Wikipedia: List of works by Artemisia Gentileschi",
     "coord": "MediaWiki coordinates API"
    },
    "museum_id": "collection-gerolamo-etro",
    "qid": "Q29016865",
    "wikidata": "https://www.wikidata.org/wiki/Q29016865"
   }
  },
  {
   "type": "Feature",
   "geometry": {
    "type": "Point",
    "coordinates": [
     12.48278,
     41.89333
    ]
   },
   "properties": {
    "painter": "Artemisia Gentileschi",
    "title": "Christ Blessing the Children",
    "year": "c. 1624–1625",
    "city": "Rome",
    "country": "Italy",
    "location": "Church of Sant'Ambrogio e Carlo al Corso",
    "attribution": "generally accepted",
    "dimensions": "134.6 × 97.7 cm.",
    "image": "https://upload.wikimedia.org/wikipedia/commons/thumb/2/24/Sinite_Parvulos_-_A._Gentileschi.png/500px-Sinite_Parvulos_-_A._Gentileschi.png?utm_source=en.wikipedia.org&amp;utm_campaign=parser&amp;utm_content=thumbnail",
    "notable": true,
    "wikipedia_en": "https://en.wikipedia.org/wiki/Christ_Blessing_the_Children",
    "creation_place": "Rome",
    "creation_lat": 41.9028,
    "creation_lon": 12.4964,
    "_source": {
     "source": "Wikipedia: List of works by Artemisia Gentileschi",
     "coord": "MediaWiki coordinates API"
    },
    "museum_id": "church-of-sant-ambrogio-e-carlo-al-corso",
    "qid": "Q29021344",
    "wikidata": "https://www.wikidata.org/wiki/Q29021344"
   }
  },
  {
   "type": "Feature",
   "geometry": {
    "type": "Point",
    "coordinates": [
     -83.0647,
     42.3594
    ]
   },
   "properties": {
    "painter": "Artemisia Gentileschi",
    "title": "Judith and Maidservant with Head of Holofernes",
    "year": "c. 1625–1627",
    "location": "Detroit Institute of Arts",
    "attribution": "generally accepted",
    "dimensions": "182.2 X 142.2 cm.",
    "image": "https://upload.wikimedia.org/wikipedia/commons/thumb/9/94/Artemisia_Gentileschi_Judith_Maidservant_DIA.jpg/500px-Artemisia_Gentileschi_Judith_Maidservant_DIA.jpg?utm_source=en.wikipedia.org&amp;utm_campaign=parser&amp;utm_content=thumbnail",
    "notable": true,
    "wikipedia_en": "https://en.wikipedia.org/wiki/Judith_and_Her_Maidservant_(Detroit)",
    "creation_place": "Rome",
    "creation_lat": 41.9028,
    "creation_lon": 12.4964,
    "_source": {
     "source": "Wikipedia: List of works by Artemisia Gentileschi",
     "coord": "MediaWiki coordinates API"
    },
    "museum_id": "detroit-institute-of-arts",
    "city": "Detroit",
    "country": "United States",
    "qid": "Q3769173",
    "wikidata": "https://www.wikidata.org/wiki/Q3769173"
   }
  },
  {
   "type": "Feature",
   "geometry": {
    "type": "Point",
    "coordinates": [
     -77.47471,
     37.55642
    ]
   },
   "properties": {
    "painter": "Artemisia Gentileschi",
    "title": "Venus and Cupid",
    "year": "c. 1625–1630",
    "location": "Virginia Museum of Fine Arts",
    "attribution": "generally accepted",
    "dimensions": "94 x 144 cm.",
    "image": "https://upload.wikimedia.org/wikipedia/commons/thumb/1/14/Gentileschi_-_Venus_and_Cupid_%28c._1625-30_VMFA%29.jpg/500px-Gentileschi_-_Venus_and_Cupid_%28c._1625-30_VMFA%29.jpg?utm_source=en.wikipedia.org&amp;utm_campaign=parser&amp;utm_content=thumbnail",
    "notable": true,
    "wikipedia_en": "https://en.wikipedia.org/wiki/Venus_and_Cupid_(Gentileschi)",
    "creation_place": "Rome",
    "creation_lat": 41.9028,
    "creation_lon": 12.4964,
    "_source": {
     "source": "Wikipedia: List of works by Artemisia Gentileschi",
     "coord": "MediaWiki coordinates API"
    },
    "museum_id": "virginia-museum-of-fine-arts",
    "city": "Richmond",
    "country": "United States",
    "qid": "Q25218172",
    "wikidata": "https://www.wikidata.org/wiki/Q25218172"
   }
  },
  {
   "type": "Feature",
   "geometry": {
    "type": "Point",
    "coordinates": [
     -73.9631,
     40.7794
    ]
   },
   "properties": {
    "painter": "Artemisia Gentileschi",
    "title": "Esther before Ahasuerus",
    "year": "c. 1628–1635",
    "location": "Metropolitan Museum of Art",
    "attribution": "generally accepted",
    "dimensions": "208.3 × 273.7 cm.",
    "image": "https://upload.wikimedia.org/wikipedia/commons/thumb/b/bf/Gentileschi%2C_Artemisia_-_Esther_before_Ahasuerus_-_c._1628%E2%80%931635.jpg/500px-Gentileschi%2C_Artemisia_-_Esther_before_Ahasuerus_-_c._1628%E2%80%931635.jpg?utm_source=en.wikipedia.org&amp;utm_campaign=parser&amp;utm_content=thumbnail",
    "notable": true,
    "wikipedia_en": "https://en.wikipedia.org/wiki/Esther_before_Ahasuerus_(Artemisia_Gentileschi)",
    "creation_place": "Rome",
    "creation_lat": 41.9028,
    "creation_lon": 12.4964,
    "_source": {
     "source": "Wikipedia: List of works by Artemisia Gentileschi",
     "coord": "MediaWiki coordinates API"
    },
    "museum_id": "metropolitan-museum-of-art",
    "city": "New York",
    "country": "United States",
    "qid": "Q3733425",
    "wikidata": "https://www.wikidata.org/wiki/Q3733425"
   }
  },
  {
   "type": "Feature",
   "geometry": {
    "type": "Point",
    "coordinates": [
     11.2501,
     43.7652
    ]
   },
   "properties": {
    "painter": "Artemisia Gentileschi",
    "title": "Madonna and Child",
    "year": "c. 1630",
    "city": "Florence",
    "country": "Italy",
    "location": "Palazzo Pitti",
    "attribution": "generally accepted",
    "dimensions": "118 x 86 cm.",
    "image": "https://upload.wikimedia.org/wikipedia/commons/thumb/e/e0/Artemisia_Gentileschi_-_Madonna_con_Bambino_%281609-1610%29.jpg/500px-Artemisia_Gentileschi_-_Madonna_con_Bambino_%281609-1610%29.jpg?utm_source=en.wikipedia.org&amp;utm_campaign=parser&amp;utm_content=thumbnail",
    "notable": true,
    "creation_place": "Naples",
    "creation_lat": 40.8518,
    "creation_lon": 14.2681,
    "_source": {
     "source": "Wikipedia: List of works by Artemisia Gentileschi",
     "coord": "MediaWiki coordinates API"
    },
    "museum_id": "palazzo-pitti",
    "wga_url": "https://www.wga.hu/html/g/gentiles/orazio/madonna.html",
    "qid": "Q3842443",
    "wikidata": "https://www.wikidata.org/wiki/Q3842443",
    "_overrides": {
     "qid": {
      "at": "2026-08-24",
      "source": "Wikidata reconciliation",
      "note": "matched to Q3842443 by normalised title + year (±8), same creator (merge_wd_extras)"
     }
    }
   }
  },
  {
   "type": "Feature",
   "geometry": {
    "type": "Point",
    "coordinates": [
     -1.1546,
     52.9493
    ]
   },
   "properties": {
    "painter": "Artemisia Gentileschi",
    "title": "Susanna and the Elders",
    "year": "c. 1630",
    "location": "Nottingham Castle",
    "attribution": "generally accepted",
    "dimensions": "162.5 x 121.9 cm.",
    "image": "https://upload.wikimedia.org/wikipedia/commons/thumb/1/11/Artemisia_Gentileschi_-_Susanna_and_the_Elders_NOT_NCMG_1964_77.jpg/500px-Artemisia_Gentileschi_-_Susanna_and_the_Elders_NOT_NCMG_1964_77.jpg?utm_source=en.wikipedia.org&amp;utm_campaign=parser&amp;utm_content=thumbnail",
    "notable": true,
    "creation_place": "Naples",
    "creation_lat": 40.8518,
    "creation_lon": 14.2681,
    "_source": {
     "source": "Wikipedia: List of works by Artemisia Gentileschi",
     "coord": "MediaWiki coordinates API"
    },
    "museum_id": "nottingham-castle",
    "wga_url": "https://www.wga.hu/html/g/gentiles/artemisi/susanna.html",
    "qid": "Q123821093",
    "wikidata": "https://www.wikidata.org/wiki/Q123821093",
    "_overrides": {
     "qid": {
      "at": "2026-08-24",
      "source": "Wikidata reconciliation",
      "note": "matched to Q123821093 by normalised title + year (±8), same creator (merge_wd_extras)"
     }
    }
   }
  },
  {
   "type": "Feature",
   "geometry": {
    "type": "Point",
    "coordinates": [
     14.25053,
     40.86701
    ]
   },
   "properties": {
    "painter": "Artemisia Gentileschi",
    "title": "Annunciation",
    "year": "1630",
    "location": "Museo Nazionale di Capodimonte",
    "attribution": "generally accepted",
    "dimensions": "257 x 179 cm.",
    "image": "https://upload.wikimedia.org/wikipedia/commons/thumb/5/53/Verk%C3%BCndigung_an_maria.jpg/500px-Verk%C3%BCndigung_an_maria.jpg?utm_source=en.wikipedia.org&amp;utm_campaign=parser&amp;utm_content=thumbnail",
    "notable": true,
    "creation_place": "Naples",
    "creation_lat": 40.8518,
    "creation_lon": 14.2681,
    "_source": {
     "source": "Wikipedia: List of works by Artemisia Gentileschi",
     "coord": "MediaWiki coordinates API"
    },
    "museum_id": "museo-nazionale-di-capodimonte",
    "wga_url": "https://www.wga.hu/html/g/gentiles/orazio/annunc.html",
    "qid": "Q29018074",
    "wikidata": "https://www.wikidata.org/wiki/Q29018074",
    "_overrides": {
     "qid": {
      "at": "2026-08-24",
      "source": "Wikidata reconciliation",
      "note": "matched to Q29018074 by normalised title + year (±8), same creator (merge_wd_extras)"
     }
    }
   }
  },
  {
   "type": "Feature",
   "geometry": {
    "type": "Point",
    "coordinates": [
     -71.05778,
     42.36028
    ]
   },
   "properties": {
    "painter": "Artemisia Gentileschi",
    "title": "The Sleeping Christ Child",
    "year": "1630–1632",
    "city": "Boston",
    "country": "United States",
    "location": "Museum of Fine Arts",
    "attribution": "generally accepted",
    "dimensions": "12.4 × 17.5 cm",
    "image": "https://upload.wikimedia.org/wikipedia/commons/thumb/0/02/The_Sleeping_Christ_Child_by_Artemisia_Gentileschi.jpg/500px-The_Sleeping_Christ_Child_by_Artemisia_Gentileschi.jpg?utm_source=en.wikipedia.org&amp;utm_campaign=parser&amp;utm_content=thumbnail",
    "notable": true,
    "creation_place": "Naples",
    "creation_lat": 40.8518,
    "creation_lon": 14.2681,
    "_source": {
     "source": "Wikipedia: List of works by Artemisia Gentileschi",
     "coord": "MediaWiki coordinates API"
    },
    "museum_id": "museum-of-fine-arts",
    "qid": "Q133801954",
    "wikidata": "https://www.wikidata.org/wiki/Q133801954",
    "_overrides": {
     "qid": {
      "at": "2026-08-24",
      "source": "Wikidata reconciliation",
      "note": "matched to Q133801954 by normalised title + year (±8), same creator (merge_wd_extras)"
     }
    }
   }
  },
  {
   "type": "Feature",
   "geometry": {
    "type": "Point",
    "coordinates": [
     18.0781,
     59.3286
    ]
   },
   "properties": {
    "painter": "Artemisia Gentileschi",
    "title": "Saint Catherine of Alexandria",
    "year": "c. 1627–1635",
    "city": "Stockholm",
    "country": "Sweden",
    "location": "Nationalmuseum",
    "attribution": "generally accepted",
    "dimensions": "90 x 75.4 cm.",
    "image": "https://upload.wikimedia.org/wikipedia/commons/thumb/e/e5/A_female_martyr_saint%2C_probably_Saint_Catherine_of_Alexandria.jpg/500px-A_female_martyr_saint%2C_probably_Saint_Catherine_of_Alexandria.jpg?utm_source=en.wikipedia.org&amp;utm_campaign=parser&amp;utm_content=thumbnail",
    "notable": true,
    "wikipedia_en": "https://en.wikipedia.org/wiki/Saint_Catherine_of_Alexandria_(Artemisia_Gentileschi,_Stockholm)",
    "creation_place": "Rome",
    "creation_lat": 41.9028,
    "creation_lon": 12.4964,
    "_source": {
     "source": "Wikipedia: List of works by Artemisia Gentileschi",
     "coord": "MediaWiki coordinates API"
    },
    "museum_id": "nationalmuseum",
    "qid": "Q104875925",
    "wikidata": "https://www.wikidata.org/wiki/Q104875925"
   }
  },
  {
   "type": "Feature",
   "geometry": {
    "type": "Point",
    "coordinates": [
     12.49028,
     41.90361
    ]
   },
   "properties": {
    "painter": "Artemisia Gentileschi",
    "title": "Self Portrait",
    "year": "c. 1630–1635",
    "city": "Rome",
    "country": "Italy",
    "location": "Palazzo Barberini",
    "attribution": "generally accepted",
    "dimensions": "98 x 74.5 cm",
    "image": "https://upload.wikimedia.org/wikipedia/commons/thumb/c/ce/Gentileschi-autoretratBarberini.jpg/500px-Gentileschi-autoretratBarberini.jpg?utm_source=en.wikipedia.org&amp;utm_campaign=parser&amp;utm_content=thumbnail",
    "notable": true,
    "wikipedia_en": "https://en.wikipedia.org/wiki/Self-Portrait_(Artemisia_Gentileschi)_Rome",
    "creation_place": "Naples",
    "creation_lat": 40.8518,
    "creation_lon": 14.2681,
    "_source": {
     "source": "Wikipedia: List of works by Artemisia Gentileschi",
     "coord": "MediaWiki coordinates API"
    },
    "museum_id": "palazzo-barberini",
    "qid": "Q30606473",
    "wikidata": "https://www.wikidata.org/wiki/Q30606473"
   }
  },
  {
   "type": "Feature",
   "geometry": {
    "type": "Point",
    "coordinates": [
     14.2486,
     40.8358
    ]
   },
   "properties": {
    "painter": "Artemisia Gentileschi",
    "title": "Samson and Delilah",
    "year": "1630–1638",
    "city": "Naples",
    "country": "Italy",
    "location": "Palazzo Zevallos",
    "attribution": "generally accepted",
    "image": "https://upload.wikimedia.org/wikipedia/commons/thumb/7/73/Samson_und_delilah.jpg/500px-Samson_und_delilah.jpg?utm_source=en.wikipedia.org&amp;utm_campaign=parser&amp;utm_content=thumbnail",
    "notable": true,
    "creation_place": "Naples",
    "creation_lat": 40.8518,
    "creation_lon": 14.2681,
    "_source": {
     "source": "Wikipedia: List of works by Artemisia Gentileschi",
     "coord": "MediaWiki coordinates API"
    },
    "museum_id": "palazzo-zevallos",
    "qid": "Q29021527",
    "wikidata": "https://www.wikidata.org/wiki/Q29021527",
    "_overrides": {
     "qid": {
      "at": "2026-08-24",
      "source": "Wikidata reconciliation",
      "note": "matched to Q29021527 by normalised title + year (±8), same creator (merge_wd_extras)"
     }
    }
   }
  },
  {
   "type": "Feature",
   "geometry": {
    "type": "Point",
    "coordinates": [
     10.3999,
     43.7155
    ]
   },
   "properties": {
    "painter": "Artemisia Gentileschi",
    "title": "Clio : the Muse of History",
    "year": "1632",
    "location": "Palazzo Blu",
    "attribution": "generally accepted",
    "dimensions": "127.6 x 97.2 cm.",
    "image": "https://upload.wikimedia.org/wikipedia/commons/thumb/f/f2/Gentileschi%2C_Artemisia_-_Clio_-_1632.jpg/500px-Gentileschi%2C_Artemisia_-_Clio_-_1632.jpg?utm_source=en.wikipedia.org&amp;utm_campaign=parser&amp;utm_content=thumbnail",
    "notable": true,
    "wikipedia_en": "https://en.wikipedia.org/wiki/Clio",
    "creation_place": "Naples",
    "creation_lat": 40.8518,
    "creation_lon": 14.2681,
    "_source": {
     "source": "Wikipedia: List of works by Artemisia Gentileschi",
     "coord": "MediaWiki coordinates API"
    },
    "museum_id": "palazzo-blu",
    "qid": "Q103968",
    "wikidata": "https://www.wikidata.org/wiki/Q103968"
   }
  },
  {
   "type": "Feature",
   "geometry": {
    "type": "Point",
    "coordinates": [
     -3.6922,
     40.4139
    ]
   },
   "properties": {
    "painter": "Artemisia Gentileschi",
    "title": "Nativity of St. John the Baptist",
    "year": "c. 1633–1635",
    "location": "Museo del Prado",
    "attribution": "generally accepted",
    "dimensions": "184 X 158 cm.",
    "image": "https://upload.wikimedia.org/wikipedia/commons/thumb/4/46/Nacimiento_de_San_Juan_Bautista_%28Artemisia_Gentileschi%29.jpg/500px-Nacimiento_de_San_Juan_Bautista_%28Artemisia_Gentileschi%29.jpg?utm_source=en.wikipedia.org&amp;utm_campaign=parser&amp;utm_content=thumbnail",
    "notable": true,
    "wikipedia_en": "https://en.wikipedia.org/wiki/The_Birth_of_Saint_John_the_Baptist_(Artemisia_Gentileschi)",
    "creation_place": "Naples",
    "creation_lat": 40.8518,
    "creation_lon": 14.2681,
    "_source": {
     "source": "Wikipedia: List of works by Artemisia Gentileschi",
     "coord": "MediaWiki coordinates API"
    },
    "museum_id": "museo-del-prado",
    "city": "Madrid",
    "country": "Spain",
    "qid": "Q18602467",
    "wikidata": "https://www.wikidata.org/wiki/Q18602467",
    "wga_url": "https://www.wga.hu/html/g/gentiles/artemisi/birth.html"
   }
  },
  {
   "type": "Feature",
   "geometry": {
    "type": "Point",
    "coordinates": [
     -83.5594,
     41.6583
    ]
   },
   "properties": {
    "painter": "Artemisia Gentileschi",
    "title": "Lot and his Daughters",
    "year": "c. 1635–1638",
    "location": "Toledo Museum of Art",
    "attribution": "generally accepted",
    "dimensions": "230.5 x 183 cm.",
    "image": "https://upload.wikimedia.org/wikipedia/commons/thumb/4/48/Gentileschi%2C_Artemisia_-_Lot_and_his_Daughters_-_1635-1638.jpg/500px-Gentileschi%2C_Artemisia_-_Lot_and_his_Daughters_-_1635-1638.jpg?utm_source=en.wikipedia.org&amp;utm_campaign=parser&amp;utm_content=thumbnail",
    "notable": true,
    "wikipedia_en": "https://en.wikipedia.org/wiki/Lot_and_His_Daughters_(Artemisia_Gentileschi)",
    "creation_place": "Naples",
    "creation_lat": 40.8518,
    "creation_lon": 14.2681,
    "_source": {
     "source": "Wikipedia: List of works by Artemisia Gentileschi",
     "coord": "MediaWiki coordinates API"
    },
    "museum_id": "toledo-museum-of-art",
    "city": "Toledo",
    "country": "United States",
    "qid": "Q29016921",
    "wikidata": "https://www.wikidata.org/wiki/Q29016921"
   }
  },
  {
   "type": "Feature",
   "geometry": {
    "type": "Point",
    "coordinates": [
     14.25053,
     40.86701
    ]
   },
   "properties": {
    "painter": "Artemisia Gentileschi",
    "title": "The Martyrdom of St Januarius in the Amphitheatre at Pozzuoli",
    "year": "c. 1636–1637",
    "location": "Museo Nazionale di Capodimonte",
    "attribution": "generally accepted",
    "dimensions": "300 x 200 cm.",
    "image": "https://upload.wikimedia.org/wikipedia/commons/thumb/6/67/The_Martyrdom_of_St_Januarius_in_the_Amphitheatre_at_Pozzuoli.jpg/500px-The_Martyrdom_of_St_Januarius_in_the_Amphitheatre_at_Pozzuoli.jpg?utm_source=en.wikipedia.org&amp;utm_campaign=parser&amp;utm_content=thumbnail",
    "notable": true,
    "wikipedia_en": "https://en.wikipedia.org/wiki/Saint_Januarius_in_the_Amphitheatre_at_Pozzuoli",
    "creation_place": "Naples",
    "creation_lat": 40.8518,
    "creation_lon": 14.2681,
    "_source": {
     "source": "Wikipedia: List of works by Artemisia Gentileschi",
     "coord": "MediaWiki coordinates API"
    },
    "museum_id": "museo-nazionale-di-capodimonte",
    "qid": "Q3947174",
    "wikidata": "https://www.wikidata.org/wiki/Q3947174"
   }
  },
  {
   "type": "Feature",
   "geometry": {
    "type": "Point",
    "coordinates": [
     14.25053,
     40.86701
    ]
   },
   "properties": {
    "painter": "Artemisia Gentileschi",
    "title": "Adoration of the Magi",
    "year": "c. 1636–1637",
    "location": "Museo Nazionale di Capodimonte",
    "attribution": "generally accepted",
    "dimensions": "300 × 180 cm.",
    "image": "https://upload.wikimedia.org/wikipedia/commons/thumb/a/ab/Adoration_of_the_Magi_by_Artemisia_Gentileschi.jpg/500px-Adoration_of_the_Magi_by_Artemisia_Gentileschi.jpg?utm_source=en.wikipedia.org&amp;utm_campaign=parser&amp;utm_content=thumbnail",
    "notable": true,
    "wikipedia_en": "https://en.wikipedia.org/wiki/Adoration_of_the_Magi_(Artemisia_Gentileschi)",
    "creation_place": "Naples",
    "creation_lat": 40.8518,
    "creation_lon": 14.2681,
    "_source": {
     "source": "Wikipedia: List of works by Artemisia Gentileschi",
     "coord": "MediaWiki coordinates API"
    },
    "museum_id": "museo-nazionale-di-capodimonte",
    "qid": "Q3605519",
    "wikidata": "https://www.wikidata.org/wiki/Q3605519"
   }
  },
  {
   "type": "Feature",
   "geometry": {
    "type": "Point",
    "coordinates": [
     14.25053,
     40.86701
    ]
   },
   "properties": {
    "painter": "Artemisia Gentileschi",
    "title": "Saint Proculus of Pozzuoli and his mother Santa Nicaea",
    "year": "c. 1636–1637",
    "location": "Museo Nazionale di Capodimonte",
    "attribution": "generally accepted",
    "dimensions": "300 × 180 cm.",
    "image": "https://upload.wikimedia.org/wikipedia/commons/thumb/9/95/Artemisia_gentileschi%2C_i_santi_procolo_e_nicea%2C_1631_ca..JPG/500px-Artemisia_gentileschi%2C_i_santi_procolo_e_nicea%2C_1631_ca..JPG?utm_source=en.wikipedia.org&amp;utm_campaign=parser&amp;utm_content=thumbnail",
    "notable": true,
    "wikipedia_en": "https://en.wikipedia.org/wiki/Saints_Proculus_and_Nicea_(painting)",
    "creation_place": "Naples",
    "creation_lat": 40.8518,
    "creation_lon": 14.2681,
    "_source": {
     "source": "Wikipedia: List of works by Artemisia Gentileschi",
     "coord": "MediaWiki coordinates API"
    },
    "museum_id": "museo-nazionale-di-capodimonte",
    "qid": "Q29019486",
    "wikidata": "https://www.wikidata.org/wiki/Q29019486"
   }
  },
  {
   "type": "Feature",
   "geometry": {
    "type": "Point",
    "coordinates": [
     -82.98777,
     39.96438
    ]
   },
   "properties": {
    "painter": "Artemisia Gentileschi",
    "title": "David and Bathsheba",
    "year": "c. 1636–1638",
    "location": "Columbus Museum of Art",
    "attribution": "generally accepted",
    "dimensions": "265.4 x 209.6 cm.",
    "image": "https://upload.wikimedia.org/wikipedia/commons/thumb/4/4c/David_and_Bathsheba_by_Artemisia_Gentileschi.jpg/500px-David_and_Bathsheba_by_Artemisia_Gentileschi.jpg?utm_source=en.wikipedia.org&amp;utm_campaign=parser&amp;utm_content=thumbnail",
    "notable": true,
    "creation_place": "Naples",
    "creation_lat": 40.8518,
    "creation_lon": 14.2681,
    "_source": {
     "source": "Wikipedia: List of works by Artemisia Gentileschi",
     "coord": "MediaWiki coordinates API"
    },
    "museum_id": "columbus-museum-of-art",
    "city": "Ohio [129]",
    "country": "United States",
    "qid": "Q29017580",
    "wikidata": "https://www.wikidata.org/wiki/Q29017580",
    "_overrides": {
     "qid": {
      "at": "2026-08-24",
      "source": "Wikidata reconciliation",
      "note": "matched to Q29017580 by normalised title + year (±8), same creator (merge_wd_extras)"
     }
    }
   }
  },
  {
   "type": "Feature",
   "geometry": {
    "type": "Point",
    "coordinates": [
     -0.142,
     51.501
    ]
   },
   "properties": {
    "painter": "Artemisia Gentileschi",
    "title": "Self-Portrait as the Allegory of Painting",
    "year": "c. 1638–1639",
    "city": "England",
    "location": "Royal Collection",
    "attribution": "generally accepted",
    "dimensions": "96.5 x 73.7 cm.",
    "image": "https://upload.wikimedia.org/wikipedia/commons/thumb/0/05/Self-portrait_as_the_Allegory_of_Painting_%28La_Pittura%29_-_Artemisia_Gentileschi.jpg/500px-Self-portrait_as_the_Allegory_of_Painting_%28La_Pittura%29_-_Artemisia_Gentileschi.jpg?utm_source=en.wikipedia.org&amp;utm_campaign=parser&amp;utm_content=thumbnail",
    "notable": true,
    "wikipedia_en": "https://en.wikipedia.org/wiki/Self-Portrait_as_the_Allegory_of_Painting",
    "creation_place": "Naples",
    "creation_lat": 40.8518,
    "creation_lon": 14.2681,
    "_source": {
     "source": "Wikipedia: List of works by Artemisia Gentileschi",
     "coord": "MediaWiki coordinates API"
    },
    "museum_id": "royal-collection",
    "qid": "Q3630745",
    "wikidata": "https://www.wikidata.org/wiki/Q3630745",
    "wga_url": "https://www.wga.hu/html/g/gentiles/artemisi/selfport.html",
    "country": "United Kingdom"
   }
  },
  {
   "type": "Feature",
   "geometry": {
    "type": "Point",
    "coordinates": [
     -0.142,
     51.501
    ]
   },
   "properties": {
    "painter": "Artemisia Gentileschi",
    "title": "Susanna and the Elders",
    "year": "c. 1638–1640",
    "city": "England",
    "location": "Royal Collection",
    "attribution": "generally accepted",
    "dimensions": "189 x 143 cm.",
    "image": "https://upload.wikimedia.org/wikipedia/commons/thumb/c/c3/Susanna_and_the_Elders%2C_by_Artemisia_Gentileschi_%28c.1638-40%29.jpg/500px-Susanna_and_the_Elders%2C_by_Artemisia_Gentileschi_%28c.1638-40%29.jpg?utm_source=en.wikipedia.org&amp;utm_campaign=parser&amp;utm_content=thumbnail",
    "notable": true,
    "creation_place": "Naples",
    "creation_lat": 40.8518,
    "creation_lon": 14.2681,
    "_source": {
     "source": "Wikipedia: List of works by Artemisia Gentileschi",
     "coord": "MediaWiki coordinates API"
    },
    "museum_id": "royal-collection",
    "wga_url": "https://www.wga.hu/html/g/gentiles/artemisi/susanna.html",
    "country": "United Kingdom"
   }
  },
  {
   "type": "Feature",
   "geometry": {
    "type": "Point",
    "coordinates": [
     14.25053,
     40.86701
    ]
   },
   "properties": {
    "painter": "Artemisia Gentileschi",
    "title": "Judith and Maidservant with Head of Holofernes",
    "year": "c. 1640s",
    "city": "Naples",
    "country": "Italy",
    "location": "Museo di Capodimonte",
    "attribution": "generally accepted",
    "dimensions": "272 X 221 cm.",
    "image": "https://upload.wikimedia.org/wikipedia/commons/thumb/b/bb/Judith_and_her_maid_Abra_with_the_Head_of_Holofernes_by_Artemisia_Gentileschi_ca._1645-1650.jpg/500px-Judith_and_her_maid_Abra_with_the_Head_of_Holofernes_by_Artemisia_Gentileschi_ca._1645-1650.jpg?utm_source=en.wikipedia.org&amp;utm_campaign=parser&amp;utm_content=thumbnail",
    "notable": true,
    "wikipedia_en": "https://en.wikipedia.org/wiki/Judith_and_her_Maidservant_(Gentileschi)_Naples",
    "creation_place": "Naples",
    "creation_lat": 40.8518,
    "creation_lon": 14.2681,
    "_source": {
     "source": "Wikipedia: List of works by Artemisia Gentileschi",
     "coord": "MediaWiki coordinates API"
    },
    "museum_id": "museo-di-capodimonte",
    "qid": "Q29021053",
    "wikidata": "https://www.wikidata.org/wiki/Q29021053"
   }
  },
  {
   "type": "Feature",
   "geometry": {
    "type": "Point",
    "coordinates": [
     7.0128,
     43.5513
    ]
   },
   "properties": {
    "painter": "Artemisia Gentileschi",
    "title": "Judith and her Maidservant (Cannes)",
    "year": "c. 1640s",
    "city": "Cannes",
    "location": "Musée de la Castre",
    "attribution": "generally accepted",
    "dimensions": "235 x 172 cm.",
    "image": "https://upload.wikimedia.org/wikipedia/commons/thumb/3/31/Judith_and_her_maid_with_the_Head_of_Holofernes_by_Artemisia_Gentileschi_ca._1645-1650.jpg/500px-Judith_and_her_maid_with_the_Head_of_Holofernes_by_Artemisia_Gentileschi_ca._1645-1650.jpg?utm_source=en.wikipedia.org&amp;utm_campaign=parser&amp;utm_content=thumbnail",
    "notable": true,
    "wikipedia_en": "https://en.wikipedia.org/wiki/Judith_and_her_Maidservant_(Gentileschi)_Cannes",
    "creation_place": "Naples",
    "creation_lat": 40.8518,
    "creation_lon": 14.2681,
    "_source": {
     "source": "Wikipedia: List of works by Artemisia Gentileschi",
     "coord": "MediaWiki coordinates API"
    },
    "museum_id": "musee-de-la-castre",
    "qid": "Q29021098",
    "wikidata": "https://www.wikidata.org/wiki/Q29021098"
   }
  },
  {
   "type": "Feature",
   "geometry": {
    "type": "Point",
    "coordinates": [
     -99.20462,
     19.44066
    ]
   },
   "properties": {
    "painter": "Artemisia Gentileschi",
    "title": "Saint Apollonia",
    "year": "1642–1644",
    "location": "Museo Soumaya",
    "attribution": "generally accepted",
    "dimensions": "74.3 cm × 57 cm (29.3 in × 22 in)",
    "image": "https://upload.wikimedia.org/wikipedia/commons/thumb/7/77/Saint_Apollonia_by_Artemisia_Gentileschi_ca._1642-1644.jpg/500px-Saint_Apollonia_by_Artemisia_Gentileschi_ca._1642-1644.jpg?utm_source=en.wikipedia.org&amp;utm_campaign=parser&amp;utm_content=thumbnail",
    "notable": true,
    "wikipedia_en": "https://en.wikipedia.org/wiki/Saint_Apollonia_(Artemisia_Gentileschi)",
    "creation_place": "Naples",
    "creation_lat": 40.8518,
    "creation_lon": 14.2681,
    "_source": {
     "source": "Wikipedia: List of works by Artemisia Gentileschi",
     "coord": "MediaWiki coordinates API"
    },
    "museum_id": "museo-soumaya",
    "city": "Mexico City",
    "country": "Mexico",
    "qid": "Q27830965",
    "wikidata": "https://www.wikidata.org/wiki/Q27830965"
   }
  },
  {
   "type": "Feature",
   "geometry": {
    "type": "Point",
    "coordinates": [
     11.2501,
     43.7652
    ]
   },
   "properties": {
    "painter": "Artemisia Gentileschi",
    "title": "David and Bathsheba",
    "year": "1645",
    "city": "Florence",
    "country": "Italy",
    "location": "Palazzo Pitti",
    "attribution": "generally accepted",
    "dimensions": "286 x 214 cm",
    "image": "https://upload.wikimedia.org/wikipedia/commons/thumb/b/bb/Gentileschi_palatina_betsabe.jpg/500px-Gentileschi_palatina_betsabe.jpg?utm_source=en.wikipedia.org&amp;utm_campaign=parser&amp;utm_content=thumbnail",
    "notable": true,
    "creation_place": "Naples",
    "creation_lat": 40.8518,
    "creation_lon": 14.2681,
    "_source": {
     "source": "Wikipedia: List of works by Artemisia Gentileschi",
     "coord": "MediaWiki coordinates API"
    },
    "museum_id": "palazzo-pitti"
   }
  },
  {
   "type": "Feature",
   "geometry": {
    "type": "Point",
    "coordinates": [
     16.60437,
     49.19551
    ]
   },
   "properties": {
    "painter": "Artemisia Gentileschi",
    "title": "Susanna and the Elders",
    "year": "1649",
    "location": "Moravian Gallery in Brno",
    "attribution": "generally accepted",
    "dimensions": "205 x 168 cm",
    "image": "https://upload.wikimedia.org/wikipedia/commons/thumb/e/e3/Susanna_and_the_Elders.jpg/500px-Susanna_and_the_Elders.jpg?utm_source=en.wikipedia.org&amp;utm_campaign=parser&amp;utm_content=thumbnail",
    "notable": true,
    "wikipedia_en": "https://en.wikipedia.org/wiki/Susanna_and_the_Elders_(Artemisia_Gentileschi,_Brno)",
    "creation_place": "Naples",
    "creation_lat": 40.8518,
    "creation_lon": 14.2681,
    "_source": {
     "source": "Wikipedia: List of works by Artemisia Gentileschi",
     "coord": "MediaWiki coordinates API"
    },
    "museum_id": "moravian-gallery-in-brno",
    "qid": "Q3978273",
    "wikidata": "https://www.wikidata.org/wiki/Q3978273"
   }
  },
  {
   "type": "Feature",
   "geometry": {
    "type": "Point",
    "coordinates": [
     -4.15,
     40.59
    ]
   },
   "properties": {
    "painter": "Artemisia Gentileschi",
    "title": "Virgin and Child with a Rosary",
    "year": "1651",
    "location": "El Escorial",
    "attribution": "generally accepted",
    "dimensions": "58 x 50 cm",
    "image": "https://upload.wikimedia.org/wikipedia/commons/thumb/a/ab/La_Vergine_e_il_Bambino_con_il_rosario_Artemisia.jpg/500px-La_Vergine_e_il_Bambino_con_il_rosario_Artemisia.jpg?utm_source=en.wikipedia.org&amp;utm_campaign=parser&amp;utm_content=thumbnail",
    "notable": true,
    "wikipedia_en": "https://en.wikipedia.org/wiki/Virgin_and_Child_with_a_Rosary",
    "creation_place": "Naples",
    "creation_lat": 40.8518,
    "creation_lon": 14.2681,
    "_source": {
     "source": "Wikipedia: List of works by Artemisia Gentileschi",
     "coord": "MediaWiki coordinates API"
    },
    "museum_id": "el-escorial",
    "city": "Spain",
    "qid": "Q29016943",
    "wikidata": "https://www.wikidata.org/wiki/Q29016943"
   }
  },
  {
   "type": "Feature",
   "geometry": {
    "type": "Point",
    "coordinates": [
     11.35354,
     44.49771
    ]
   },
   "properties": {
    "painter": "Artemisia Gentileschi",
    "title": "Susanna and the Elders",
    "year": "1652",
    "location": "Pinacoteca Nazionale di Bologna",
    "attribution": "generally accepted",
    "dimensions": "200.3 × 225.6 cm",
    "image": "https://upload.wikimedia.org/wikipedia/commons/thumb/5/5e/Artemisia_Gentileschi_-_Susanna_and_the_Elders_near_a_Balcony.jpg/500px-Artemisia_Gentileschi_-_Susanna_and_the_Elders_near_a_Balcony.jpg?utm_source=en.wikipedia.org&amp;utm_campaign=parser&amp;utm_content=thumbnail",
    "notable": true,
    "wikipedia_en": "https://en.wikipedia.org/wiki/Susanna_and_the_Elders_(Artemisia_Gentileschi,_Bologna)",
    "creation_place": "Naples",
    "creation_lat": 40.8518,
    "creation_lon": 14.2681,
    "_source": {
     "source": "Wikipedia: List of works by Artemisia Gentileschi",
     "coord": "MediaWiki coordinates API"
    },
    "museum_id": "pinacoteca-nazionale-di-bologna",
    "city": "Bologna",
    "country": "Italy",
    "qid": "Q30605361",
    "wikidata": "https://www.wikidata.org/wiki/Q30605361"
   }
  },
  {
   "type": "Feature",
   "geometry": {
    "type": "Point",
    "coordinates": [
     11.255277777,
     43.768333333
    ]
   },
   "properties": {
    "painter": "Artemisia Gentileschi",
    "title": "Minerva",
    "year": "1635",
    "location": "Uffizi Gallery",
    "city": "Florence",
    "country": "Italy",
    "attribution": "generally accepted",
    "image": "https://commons.wikimedia.org/wiki/Special:FilePath/Artemisia%20Gentileschi%20-%20Minerva%20-%20WGA8568.jpg?width=500",
    "qid": "Q29016638",
    "wikidata": "https://www.wikidata.org/wiki/Q29016638",
    "_source": {
     "source": "Wikidata",
     "url": "https://www.wikidata.org/wiki/Q29016638",
     "note": "harvested: painting by this creator with an image and a documented collection"
    },
    "creation_place": "Naples",
    "creation_lat": 40.8358,
    "creation_lon": 14.2486,
    "_overrides": {
     "creation": {
      "at": "2026-08-24",
      "source": "derived",
      "note": "creation place inferred from the painter's itinerary at this work's date (approximate)"
     }
    }
   }
  },
  {
   "type": "Feature",
   "geometry": {
    "type": "Point",
    "coordinates": [
     12.48061,
     41.90541
    ]
   },
   "properties": {
    "painter": "Artemisia Gentileschi",
    "title": "Portrait of a Lady Holding a Fan",
    "year": "1620",
    "location": "Sovereign Military Order of Malta",
    "city": "",
    "country": "United States",
    "attribution": "generally accepted",
    "image": "https://commons.wikimedia.org/wiki/Special:FilePath/Portrait%20of%20a%20Lady%20with%20a%20Fan%20by%20Artemisia%20Gentileschi%20ca.%201620-1625.jpg?width=500",
    "qid": "Q91095575",
    "wikidata": "https://www.wikidata.org/wiki/Q91095575",
    "_source": {
     "source": "Wikidata",
     "url": "https://www.wikidata.org/wiki/Q91095575",
     "note": "harvested: painting by this creator with an image and a documented collection"
    },
    "creation_place": "Florence",
    "creation_lat": 43.771389,
    "creation_lon": 11.254167,
    "_overrides": {
     "creation": {
      "at": "2026-08-24",
      "source": "derived",
      "note": "creation place inferred from the painter's itinerary at this work's date (approximate)"
     }
    }
   }
  },
  {
   "type": "Feature",
   "geometry": {
    "type": "Point",
    "coordinates": [
     -77.02,
     38.891388888
    ]
   },
   "properties": {
    "painter": "Artemisia Gentileschi",
    "title": "The Triumph of Galatea",
    "year": "1650",
    "location": "Galería Nacional de Arte",
    "city": "Washington, D.C.",
    "country": "United States",
    "attribution": "generally accepted",
    "image": "https://commons.wikimedia.org/wiki/Special:FilePath/The%20Triumph%20of%20Galatea%20by%20Bernardo%20Cavallino%20or%20Artemisia%20Gentileschi%20ca.%201650.jpg?width=500",
    "qid": "Q20177361",
    "wikidata": "https://www.wikidata.org/wiki/Q20177361",
    "_source": {
     "source": "Wikidata",
     "url": "https://www.wikidata.org/wiki/Q20177361",
     "note": "harvested: painting by this creator with an image and a documented collection"
    },
    "creation_place": "Naples",
    "creation_lat": 40.8358,
    "creation_lon": 14.2486,
    "_overrides": {
     "creation": {
      "at": "2026-08-24",
      "source": "derived",
      "note": "creation place inferred from the painter's itinerary at this work's date (approximate)"
     }
    }
   }
  },
  {
   "type": "Feature",
   "geometry": {
    "type": "Point",
    "coordinates": [
     -5.993095562,
     37.385742159
    ]
   },
   "properties": {
    "painter": "Artemisia Gentileschi",
    "title": "Repentant Mary Magdalene",
    "year": "1625",
    "location": "Seville Cathedral",
    "city": "Seville",
    "country": "Spain",
    "attribution": "generally accepted",
    "image": "https://commons.wikimedia.org/wiki/Special:FilePath/Artemisia%20Gentileschi%20%E2%80%94%20Conversione%20della%20Maddalena%20%28Maria%20Maddalena%20penitente.jpg?width=500",
    "qid": "Q29016818",
    "wikidata": "https://www.wikidata.org/wiki/Q29016818",
    "_source": {
     "source": "Wikidata",
     "url": "https://www.wikidata.org/wiki/Q29016818",
     "note": "harvested: painting by this creator with an image and a documented collection"
    },
    "creation_place": "Rome",
    "creation_lat": 41.893333,
    "creation_lon": 12.482778,
    "_overrides": {
     "creation": {
      "at": "2026-08-24",
      "source": "derived",
      "note": "creation place inferred from the painter's itinerary at this work's date (approximate)"
     }
    }
   }
  },
  {
   "type": "Feature",
   "geometry": {
    "type": "Point",
    "coordinates": [
     -72.673086,
     41.763711
    ]
   },
   "properties": {
    "painter": "Artemisia Gentileschi",
    "title": "Self-Portrait as a Lute Player",
    "year": "1616",
    "location": "Wadsworth Atheneum Museum of Art",
    "city": "Hartford",
    "country": "United States",
    "attribution": "generally accepted",
    "image": "https://commons.wikimedia.org/wiki/Special:FilePath/Artemisia%20Gentileschi%20-%20Autoritratto%20come%20suonatrice%20di%20liuto%20%28ca.%201615-18%29.jpg?width=500",
    "qid": "Q23010133",
    "wikidata": "https://www.wikidata.org/wiki/Q23010133",
    "_source": {
     "source": "Wikidata",
     "url": "https://www.wikidata.org/wiki/Q23010133",
     "note": "harvested: painting by this creator with an image and a documented collection"
    },
    "creation_place": "Florence",
    "creation_lat": 43.771389,
    "creation_lon": 11.254167,
    "_overrides": {
     "creation": {
      "at": "2026-08-24",
      "source": "derived",
      "note": "creation place inferred from the painter's itinerary at this work's date (approximate)"
     }
    }
   }
  },
  {
   "type": "Feature",
   "geometry": {
    "type": "Point",
    "coordinates": [
     13.04465,
     52.40037
    ]
   },
   "properties": {
    "painter": "Artemisia Gentileschi",
    "title": "Bathsheba",
    "year": "1645",
    "location": "Prussian Palaces and Gardens Foundation Berlin-Brandenburg",
    "city": "Potsdam",
    "country": "Germany",
    "attribution": "generally accepted",
    "image": "https://commons.wikimedia.org/wiki/Special:FilePath/Artemisia%20Gentileschi%20-%20Bathsheba%20-%20WGA08558.jpg?width=500",
    "qid": "Q19863040",
    "wikidata": "https://www.wikidata.org/wiki/Q19863040",
    "_source": {
     "source": "Wikidata",
     "url": "https://www.wikidata.org/wiki/Q19863040",
     "note": "harvested: painting by this creator with an image and a documented collection"
    },
    "creation_place": "Naples",
    "creation_lat": 40.8358,
    "creation_lon": 14.2486,
    "_overrides": {
     "creation": {
      "at": "2026-08-24",
      "source": "derived",
      "note": "creation place inferred from the painter's itinerary at this work's date (approximate)"
     }
    }
   }
  },
  {
   "type": "Feature",
   "geometry": {
    "type": "Point",
    "coordinates": [
     -82.559801111,
     27.381467222
    ]
   },
   "properties": {
    "painter": "Artemisia Gentileschi",
    "title": "Saint Cecilia",
    "year": "1640",
    "location": "John and Mable Ringling Museum of Art",
    "city": "Sarasota",
    "country": "United States",
    "attribution": "generally accepted",
    "image": "https://commons.wikimedia.org/wiki/Special:FilePath/Saint%20Cecilia%2C%20ca.%201640s%2C%20SN134.jpg?width=500",
    "qid": "Q79402323",
    "wikidata": "https://www.wikidata.org/wiki/Q79402323",
    "_source": {
     "source": "Wikidata",
     "url": "https://www.wikidata.org/wiki/Q79402323",
     "note": "harvested: painting by this creator with an image and a documented collection"
    },
    "creation_place": "Naples",
    "creation_lat": 40.8358,
    "creation_lon": 14.2486,
    "_overrides": {
     "creation": {
      "at": "2026-08-24",
      "source": "derived",
      "note": "creation place inferred from the painter's itinerary at this work's date (approximate)"
     }
    }
   }
  },
  {
   "type": "Feature",
   "geometry": {
    "type": "Point",
    "coordinates": [
     19.07678,
     47.51587
    ]
   },
   "properties": {
    "painter": "Artemisia Gentileschi",
    "title": "Salome with the Head of Saint John the Baptist",
    "year": "1615",
    "location": "Museum of Fine Arts, Budapest",
    "city": "Budapest district XIV",
    "country": "Hungary",
    "attribution": "generally accepted",
    "image": "https://commons.wikimedia.org/wiki/Special:FilePath/Salome%20with%20the%20Head%20of%20Saint%20John%20the%20Baptist%20by%20Artemisia%20Gentileschi%20ca.%201610-1615.jpg?width=500",
    "qid": "Q29023889",
    "wikidata": "https://www.wikidata.org/wiki/Q29023889",
    "_source": {
     "source": "Wikidata",
     "url": "https://www.wikidata.org/wiki/Q29023889",
     "note": "harvested: painting by this creator with an image and a documented collection"
    },
    "creation_place": "Florence",
    "creation_lat": 43.771389,
    "creation_lon": 11.254167,
    "_overrides": {
     "creation": {
      "at": "2026-08-24",
      "source": "derived",
      "note": "creation place inferred from the painter's itinerary at this work's date (approximate)"
     }
    }
   }
  },
  {
   "type": "Feature",
   "geometry": {
    "type": "Point",
    "coordinates": [
     10.729166666,
     59.911666666
    ]
   },
   "properties": {
    "painter": "Artemisia Gentileschi",
    "title": "Judith and her maidservant with the head of Holofernes",
    "year": "1608",
    "location": "National Museum of Art, Architecture and Design",
    "city": "Oslo",
    "country": "Norway",
    "attribution": "generally accepted",
    "image": "https://commons.wikimedia.org/wiki/Special:FilePath/Orazio%20Gentileschi%2C%20Artemisia%20Gentileschi%20-%20Judith%20and%20her%20Maidservant%20with%20the%20Head%20of%20Holofernes%20-%20NG.M.02073%20-%20National%20Museum%20of%20Art%2C%20Architecture%20and%20Design.jpg?width=500",
    "qid": "Q29044280",
    "wikidata": "https://www.wikidata.org/wiki/Q29044280",
    "_source": {
     "source": "Wikidata",
     "url": "https://www.wikidata.org/wiki/Q29044280",
     "note": "harvested: painting by this creator with an image and a documented collection"
    }
   }
  },
  {
   "type": "Feature",
   "geometry": {
    "type": "Point",
    "coordinates": [
     10.729166666,
     59.911666666
    ]
   },
   "properties": {
    "painter": "Artemisia Gentileschi",
    "title": "Mary Magdalene penitent",
    "year": "1640",
    "location": "National Museum of Art, Architecture and Design",
    "city": "Oslo",
    "country": "Norway",
    "attribution": "generally accepted",
    "image": "https://commons.wikimedia.org/wiki/Special:FilePath/Artemisia%20Gentileschi%20-%20Mary%20Magdalene%20penitent%20-%20NG.M.00236%20-%20National%20Museum%20of%20Art%2C%20Architecture%20and%20Design.jpg?width=500",
    "qid": "Q55431936",
    "wikidata": "https://www.wikidata.org/wiki/Q55431936",
    "_source": {
     "source": "Wikidata",
     "url": "https://www.wikidata.org/wiki/Q55431936",
     "note": "harvested: painting by this creator with an image and a documented collection"
    },
    "creation_place": "Naples",
    "creation_lat": 40.8358,
    "creation_lon": 14.2486,
    "_overrides": {
     "creation": {
      "at": "2026-08-24",
      "source": "derived",
      "note": "creation place inferred from the painter's itinerary at this work's date (approximate)"
     }
    }
   }
  },
  {
   "type": "Feature",
   "geometry": {
    "type": "Point",
    "coordinates": [
     -99.20462,
     19.44066
    ]
   },
   "properties": {
    "painter": "Artemisia Gentileschi",
    "title": "Saint Lucy",
    "year": "1642",
    "location": "Museo Soumaya",
    "city": "Mexico City",
    "country": "Mexico",
    "attribution": "generally accepted",
    "image": "https://commons.wikimedia.org/wiki/Special:FilePath/Saint%20Lucy%20by%20Artemisia%20Gentileschi%20ca.%201642-1644.jpg?width=500",
    "qid": "Q27862974",
    "wikidata": "https://www.wikidata.org/wiki/Q27862974",
    "_source": {
     "source": "Wikidata",
     "url": "https://www.wikidata.org/wiki/Q27862974",
     "note": "harvested: painting by this creator with an image and a documented collection"
    },
    "creation_place": "Naples",
    "creation_lat": 40.8358,
    "creation_lon": 14.2486,
    "_overrides": {
     "creation": {
      "at": "2026-08-24",
      "source": "derived",
      "note": "creation place inferred from the painter's itinerary at this work's date (approximate)"
     }
    }
   }
  },
  {
   "type": "Feature",
   "geometry": {
    "type": "Point",
    "coordinates": [
     14.381111111,
     40.628611111
    ]
   },
   "properties": {
    "painter": "Artemisia Gentileschi",
    "title": "Penitent Magdalene",
    "year": "1629",
    "location": "Museum Correale",
    "city": "Sorrento",
    "country": "Italy",
    "attribution": "generally accepted",
    "image": "https://commons.wikimedia.org/wiki/Special:FilePath/Maddalena%20penitente%20Artemisia.jpg?width=500",
    "qid": "Q29022638",
    "wikidata": "https://www.wikidata.org/wiki/Q29022638",
    "_source": {
     "source": "Wikidata",
     "url": "https://www.wikidata.org/wiki/Q29022638",
     "note": "harvested: painting by this creator with an image and a documented collection"
    },
    "creation_place": "Rome",
    "creation_lat": 41.893333,
    "creation_lon": 12.482778,
    "_overrides": {
     "creation": {
      "at": "2026-08-24",
      "source": "derived",
      "note": "creation place inferred from the painter's itinerary at this work's date (approximate)"
     }
    }
   }
  },
  {
   "type": "Feature",
   "geometry": {
    "type": "Point",
    "coordinates": [
     12.471891,
     41.894234
    ]
   },
   "properties": {
    "painter": "Artemisia Gentileschi",
    "title": "Saint Cecilia",
    "year": "1620",
    "location": "Galleria Spada",
    "city": "Rome",
    "country": "Italy",
    "attribution": "generally accepted",
    "image": "https://commons.wikimedia.org/wiki/Special:FilePath/Saint%20Cecilia%20by%20Artemisia%20Gentileschi.jpg?width=500",
    "qid": "Q3948947",
    "wikidata": "https://www.wikidata.org/wiki/Q3948947",
    "_source": {
     "source": "Wikidata",
     "url": "https://www.wikidata.org/wiki/Q3948947",
     "note": "harvested: painting by this creator with an image and a documented collection"
    },
    "creation_place": "Florence",
    "creation_lat": 43.771389,
    "creation_lon": 11.254167,
    "_overrides": {
     "creation": {
      "at": "2026-08-24",
      "source": "derived",
      "note": "creation place inferred from the painter's itinerary at this work's date (approximate)"
     }
    }
   }
  },
  {
   "type": "Feature",
   "geometry": {
    "type": "Point",
    "coordinates": [
     10.39974,
     43.71565
    ]
   },
   "properties": {
    "painter": "Artemisia Gentileschi",
    "title": "Clío, musa de la historia",
    "year": "1632",
    "location": "Palazzo Giuli Rosselmini Gualandi",
    "city": "Pisa",
    "country": "Italy",
    "attribution": "generally accepted",
    "image": "https://commons.wikimedia.org/wiki/Special:FilePath/Clio%2C%20muse%20de%20l%27Histoire%2C%20par%20Artemisia%20Gentileschi.webp?width=500",
    "qid": "Q29016692",
    "wikidata": "https://www.wikidata.org/wiki/Q29016692",
    "_source": {
     "source": "Wikidata",
     "url": "https://www.wikidata.org/wiki/Q29016692",
     "note": "harvested: painting by this creator with an image and a documented collection"
    },
    "creation_place": "Naples",
    "creation_lat": 40.8358,
    "creation_lon": 14.2486,
    "_overrides": {
     "creation": {
      "at": "2026-08-24",
      "source": "derived",
      "note": "creation place inferred from the painter's itinerary at this work's date (approximate)"
     }
    }
   }
  },
  {
   "type": "Feature",
   "geometry": {
    "type": "Point",
    "coordinates": [
     -106.490109,
     31.758506
    ]
   },
   "properties": {
    "painter": "Artemisia Gentileschi",
    "title": "St. Catherine of Alexandria",
    "year": "1620",
    "location": "El Paso Museum of Art",
    "city": "El Paso",
    "country": "United States",
    "attribution": "generally accepted",
    "image": "https://commons.wikimedia.org/wiki/Special:FilePath/Artemisia%20Gentileschi%20-%20%27Saint%20Catherine%20of%20Alexandria%27%2C%20oil%20on%20canvas%20painting%2C%20c.%201620%2C%20El%20Paso%20Museum%20of%20Art.jpg?width=500",
    "qid": "Q29023829",
    "wikidata": "https://www.wikidata.org/wiki/Q29023829",
    "_source": {
     "source": "Wikidata",
     "url": "https://www.wikidata.org/wiki/Q29023829",
     "note": "harvested: painting by this creator with an image and a documented collection"
    },
    "creation_place": "Florence",
    "creation_lat": 43.771389,
    "creation_lon": 11.254167,
    "_overrides": {
     "creation": {
      "at": "2026-08-24",
      "source": "derived",
      "note": "creation place inferred from the painter's itinerary at this work's date (approximate)"
     }
    }
   }
  },
  {
   "type": "Feature",
   "geometry": {
    "type": "Point",
    "coordinates": [
     11.6175,
     44.839166666
    ]
   },
   "properties": {
    "painter": "Artemisia Gentileschi",
    "title": "Cleopatra",
    "year": "1620",
    "location": "Ferrara",
    "city": "Province of Ferrara",
    "country": "Italy",
    "attribution": "generally accepted",
    "image": "https://commons.wikimedia.org/wiki/Special:FilePath/Artemisia%20Gentileschi%20Cleopatra%20Ferrara.jpg?width=500",
    "qid": "Q3680519",
    "wikidata": "https://www.wikidata.org/wiki/Q3680519",
    "_source": {
     "source": "Wikidata",
     "url": "https://www.wikidata.org/wiki/Q3680519",
     "note": "harvested: painting by this creator with an image and a documented collection"
    },
    "creation_place": "Florence",
    "creation_lat": 43.771389,
    "creation_lon": 11.254167,
    "_overrides": {
     "creation": {
      "at": "2026-08-24",
      "source": "derived",
      "note": "creation place inferred from the painter's itinerary at this work's date (approximate)"
     }
    }
   }
  },
  {
   "type": "Feature",
   "geometry": {
    "type": "Point",
    "coordinates": [
     12.5,
     42.5
    ]
   },
   "properties": {
    "painter": "Artemisia Gentileschi",
    "title": "Bathsheba",
    "year": "1640",
    "location": "Italy",
    "city": "",
    "country": "Italy",
    "attribution": "generally accepted",
    "image": "https://commons.wikimedia.org/wiki/Special:FilePath/Artemisia%20Gentileschi%20-%20Bathsheba%20at%20Her%20Bath%20%28ca.%201640-1645%29.jpg?width=500",
    "qid": "Q29015025",
    "wikidata": "https://www.wikidata.org/wiki/Q29015025",
    "_source": {
     "source": "Wikidata",
     "url": "https://www.wikidata.org/wiki/Q29015025",
     "note": "harvested: painting by this creator with an image and a documented collection"
    },
    "creation_place": "Naples",
    "creation_lat": 40.8358,
    "creation_lon": 14.2486,
    "_overrides": {
     "creation": {
      "at": "2026-08-24",
      "source": "derived",
      "note": "creation place inferred from the painter's itinerary at this work's date (approximate)"
     }
    }
   }
  },
  {
   "type": "Feature",
   "geometry": {
    "type": "Point",
    "coordinates": [
     16.3725,
     48.208333333
    ]
   },
   "properties": {
    "painter": "Artemisia Gentileschi",
    "title": "Bathsheba",
    "year": "1640",
    "location": "Vienna",
    "city": "Austria",
    "country": "Austria",
    "attribution": "generally accepted",
    "image": "https://commons.wikimedia.org/wiki/Special:FilePath/Bathsheba%20at%20Her%20Bath%20by%20Artemisia%20Gentileschi%20ca.%201640-1645%20%28Vienna%29.jpg?width=500",
    "qid": "Q29016299",
    "wikidata": "https://www.wikidata.org/wiki/Q29016299",
    "_source": {
     "source": "Wikidata",
     "url": "https://www.wikidata.org/wiki/Q29016299",
     "note": "harvested: painting by this creator with an image and a documented collection"
    },
    "creation_place": "Naples",
    "creation_lat": 40.8358,
    "creation_lon": 14.2486,
    "_overrides": {
     "creation": {
      "at": "2026-08-24",
      "source": "derived",
      "note": "creation place inferred from the painter's itinerary at this work's date (approximate)"
     }
    }
   }
  },
  {
   "type": "Feature",
   "geometry": {
    "type": "Point",
    "coordinates": [
     10.729166666,
     59.911666666
    ]
   },
   "properties": {
    "painter": "Artemisia Gentileschi",
    "title": "Judith and her Maidservant with the Head of Holofernes",
    "year": "1639",
    "location": "National Museum of Art, Architecture and Design",
    "city": "Oslo",
    "country": "Norway",
    "attribution": "generally accepted",
    "image": "https://commons.wikimedia.org/wiki/Special:FilePath/Artemisia%20Gentileschi%20-%20Judith%20and%20her%20Maidservant%20with%20the%20Head%20of%20Holofernes%20-%20NMK.LAAN.2022.0028%20-%20National%20Museum%20of%20Art%2C%20Architecture%20and%20Design.jpg?width=500",
    "qid": "Q114417791",
    "wikidata": "https://www.wikidata.org/wiki/Q114417791",
    "_source": {
     "source": "Wikidata",
     "url": "https://www.wikidata.org/wiki/Q114417791",
     "note": "harvested: painting by this creator with an image and a documented collection"
    },
    "creation_place": "Naples",
    "creation_lat": 40.8358,
    "creation_lon": 14.2486,
    "_overrides": {
     "creation": {
      "at": "2026-08-24",
      "source": "derived",
      "note": "creation place inferred from the painter's itinerary at this work's date (approximate)"
     }
    }
   }
  },
  {
   "type": "Feature",
   "geometry": {
    "type": "Point",
    "coordinates": [
     -4.1023,
     47.9962
    ]
   },
   "properties": {
    "painter": "Artemisia Gentileschi",
    "title": "Judith carrying the head of Holofernes",
    "year": "1635",
    "location": "Musée des Beaux-Arts de Quimper",
    "city": "Quimper",
    "country": "France",
    "attribution": "generally accepted",
    "image": "https://commons.wikimedia.org/wiki/Special:FilePath/Judith%20portant%20la%20t%C3%AAte%20d%27Holopherne%2C%20par%20Artemisia%20Gentileschi.jpg?width=500",
    "qid": "Q112860995",
    "wikidata": "https://www.wikidata.org/wiki/Q112860995",
    "_source": {
     "source": "Wikidata",
     "url": "https://www.wikidata.org/wiki/Q112860995",
     "note": "harvested: painting by this creator with an image and a documented collection"
    },
    "creation_place": "Naples",
    "creation_lat": 40.8358,
    "creation_lon": 14.2486,
    "_overrides": {
     "creation": {
      "at": "2026-08-24",
      "source": "derived",
      "note": "creation place inferred from the painter's itinerary at this work's date (approximate)"
     }
    }
   }
  },
  {
   "type": "Feature",
   "geometry": {
    "type": "Point",
    "coordinates": [
     -2.878763306,
     55.997100461
    ]
   },
   "properties": {
    "painter": "Artemisia Gentileschi",
    "title": "Bathsheba, c. 1650-52",
    "year": "1651",
    "location": "Gosford House",
    "city": "East Lothian",
    "country": "United Kingdom",
    "attribution": "generally accepted",
    "image": "https://commons.wikimedia.org/wiki/Special:FilePath/Gentileschi%20-%20Bathsheba%2C%20c.%201650-52.jpg?width=500",
    "qid": "Q104905034",
    "wikidata": "https://www.wikidata.org/wiki/Q104905034",
    "_source": {
     "source": "Wikidata",
     "url": "https://www.wikidata.org/wiki/Q104905034",
     "note": "harvested: painting by this creator with an image and a documented collection"
    },
    "creation_place": "Naples",
    "creation_lat": 40.8358,
    "creation_lon": 14.2486,
    "_overrides": {
     "creation": {
      "at": "2026-08-24",
      "source": "derived",
      "note": "creation place inferred from the painter's itinerary at this work's date (approximate)"
     }
    }
   }
  },
  {
   "type": "Feature",
   "geometry": {
    "type": "Point",
    "coordinates": [
     -0.1375,
     51.5072
    ]
   },
   "properties": {
    "painter": "Artemisia Gentileschi",
    "title": "Bathsheba at Her Bath",
    "year": "1637",
    "location": "Matthiesen Gallery",
    "city": "London",
    "country": "United Kingdom",
    "attribution": "generally accepted",
    "image": "https://commons.wikimedia.org/wiki/Special:FilePath/Artemisia%20Gentileschi%20-%20Bathsheba%20at%20Her%20Bath%20%28ca.%201636-1638%29.jpg?width=500",
    "qid": "Q123785856",
    "wikidata": "https://www.wikidata.org/wiki/Q123785856",
    "_source": {
     "source": "Wikidata",
     "url": "https://www.wikidata.org/wiki/Q123785856",
     "note": "harvested: painting by this creator with an image and a documented collection"
    },
    "creation_place": "Naples",
    "creation_lat": 40.8358,
    "creation_lon": 14.2486,
    "_overrides": {
     "creation": {
      "at": "2026-08-24",
      "source": "derived",
      "note": "creation place inferred from the painter's itinerary at this work's date (approximate)"
     }
    }
   }
  },
  {
   "type": "Feature",
   "geometry": {
    "type": "Point",
    "coordinates": [
     4.668055555,
     50.641111111
    ]
   },
   "properties": {
    "painter": "Artemisia Gentileschi",
    "title": "Tête d'héroïne",
    "year": "1620",
    "location": "Belgium",
    "city": "",
    "country": "Belgium",
    "attribution": "generally accepted",
    "image": "https://commons.wikimedia.org/wiki/Special:FilePath/2025-07-13%20Artemisia%20011.jpg?width=500",
    "qid": "Q133734437",
    "wikidata": "https://www.wikidata.org/wiki/Q133734437",
    "_source": {
     "source": "Wikidata",
     "url": "https://www.wikidata.org/wiki/Q133734437",
     "note": "harvested: painting by this creator with an image and a documented collection"
    },
    "creation_place": "Florence",
    "creation_lat": 43.771389,
    "creation_lon": 11.254167,
    "_overrides": {
     "creation": {
      "at": "2026-08-24",
      "source": "derived",
      "note": "creation place inferred from the painter's itinerary at this work's date (approximate)"
     }
    }
   }
  },
  {
   "type": "Feature",
   "geometry": {
    "type": "Point",
    "coordinates": [
     4.394349,
     51.208819
    ]
   },
   "properties": {
    "painter": "Artemisia Gentileschi",
    "title": "David avec la tête de Goliath",
    "year": "1610",
    "location": "Royal Museum of Fine Arts Antwerp",
    "city": "Antwerp",
    "country": "Belgium",
    "attribution": "generally accepted",
    "image": "https://commons.wikimedia.org/wiki/Special:FilePath/David%20avec%20la%20t%C3%AAte%20de%20Goliath%2C%20par%20Artemisia%20Gentileschi.jpg?width=500",
    "qid": "Q133725486",
    "wikidata": "https://www.wikidata.org/wiki/Q133725486",
    "_source": {
     "source": "Wikidata",
     "url": "https://www.wikidata.org/wiki/Q133725486",
     "note": "harvested: painting by this creator with an image and a documented collection"
    },
    "creation_place": "Rome",
    "creation_lat": 41.893333,
    "creation_lon": 12.482778,
    "_overrides": {
     "creation": {
      "at": "2026-08-24",
      "source": "derived",
      "note": "creation place inferred from the painter's itinerary at this work's date (approximate)"
     }
    }
   }
  },
  {
   "type": "Feature",
   "geometry": {
    "type": "Point",
    "coordinates": [
     -97.365,
     32.748611111
    ]
   },
   "properties": {
    "painter": "Artemisia Gentileschi",
    "title": "Penitent Mary Magdalene",
    "year": "1625",
    "location": "Museo de Arte Kimbell",
    "city": "Fort Worth",
    "country": "United States",
    "attribution": "generally accepted",
    "image": "https://commons.wikimedia.org/wiki/Special:FilePath/Marie%20Madeleine%20p%C3%A9nitente.jpg?width=500",
    "qid": "Q130333490",
    "wikidata": "https://www.wikidata.org/wiki/Q130333490",
    "_source": {
     "source": "Wikidata",
     "url": "https://www.wikidata.org/wiki/Q130333490",
     "note": "harvested: painting by this creator with an image and a documented collection"
    },
    "creation_place": "Rome",
    "creation_lat": 41.893333,
    "creation_lon": 12.482778,
    "_overrides": {
     "creation": {
      "at": "2026-08-24",
      "source": "derived",
      "note": "creation place inferred from the painter's itinerary at this work's date (approximate)"
     }
    }
   }
  }
 ]
}