{
 "type": "FeatureCollection",
 "_note": "Canon from List of paintings by Hieronymus Bosch (Wikipedia). Coords via MediaWiki API.",
 "features": [
  {
   "type": "Feature",
   "geometry": {
    "type": "Point",
    "coordinates": [
     -3.6922,
     40.4139
    ]
   },
   "properties": {
    "painter": "Hieronymus Bosch",
    "title": "Adoration of the Magi",
    "year": "c. 1491–1498",
    "city": "Madrid",
    "country": "Spain",
    "location": "Museo del Prado",
    "attribution": "generally accepted",
    "medium": "Oil on wood",
    "dimensions": "138 × 144 cm",
    "image": "https://upload.wikimedia.org/wikipedia/commons/thumb/2/21/Hieronymus_Bosch_-_Triptych_of_the_Adoration_of_the_Magi_-_WGA2606.jpg/500px-Hieronymus_Bosch_-_Triptych_of_the_Adoration_of_the_Magi_-_WGA2606.jpg?utm_source=en.wikipedia.org&amp;utm_campaign=parser&amp;utm_content=thumbnail",
    "notable": true,
    "wikipedia_en": "https://en.wikipedia.org/wiki/The_Epiphany_(Bosch_triptych)",
    "creation_place": "'s-Hertogenbosch",
    "creation_lat": 51.6978,
    "creation_lon": 5.3037,
    "_source": {
     "source": "Wikipedia: List of paintings by Hieronymus Bosch",
     "coord": "MediaWiki coordinates API"
    },
    "museum_id": "museo-del-prado",
    "qid": "Q2276130",
    "wikidata": "https://www.wikidata.org/wiki/Q2276130"
   }
  },
  {
   "type": "Feature",
   "geometry": {
    "type": "Point",
    "coordinates": [
     -3.6922,
     40.4139
    ]
   },
   "properties": {
    "painter": "Hieronymus Bosch",
    "title": "Saint Gregory's Mass",
    "year": "c. 1491–1498",
    "city": "Madrid",
    "country": "Spain",
    "location": "Museo del Prado",
    "attribution": "generally accepted",
    "medium": "Oil on wood",
    "dimensions": "138 × 144 cm",
    "image": "https://upload.wikimedia.org/wikipedia/commons/thumb/2/27/Hieronymus_Bosch_062.jpg/500px-Hieronymus_Bosch_062.jpg?utm_source=en.wikipedia.org&amp;utm_campaign=parser&amp;utm_content=thumbnail",
    "notable": true,
    "wikipedia_en": "https://en.wikipedia.org/wiki/Saint_Gregory%27s_Mass",
    "creation_place": "'s-Hertogenbosch",
    "creation_lat": 51.6978,
    "creation_lon": 5.3037,
    "_source": {
     "source": "Wikipedia: List of paintings by Hieronymus Bosch",
     "coord": "MediaWiki coordinates API"
    },
    "museum_id": "museo-del-prado",
    "qid": "Q1368767",
    "wikidata": "https://www.wikidata.org/wiki/Q1368767"
   }
  },
  {
   "type": "Feature",
   "geometry": {
    "type": "Point",
    "coordinates": [
     -3.6922,
     40.4139
    ]
   },
   "properties": {
    "painter": "Hieronymus Bosch",
    "title": "The Garden of Earthly Delights",
    "year": "c. 1495–1505",
    "city": "Madrid",
    "country": "Spain",
    "location": "Museo del Prado",
    "attribution": "generally accepted",
    "medium": "Oil on wood",
    "dimensions": "220 × 389 cm",
    "image": "https://upload.wikimedia.org/wikipedia/commons/thumb/a/ae/El_jard%C3%ADn_de_las_Delicias%2C_de_El_Bosco.jpg/500px-El_jard%C3%ADn_de_las_Delicias%2C_de_El_Bosco.jpg?utm_source=en.wikipedia.org&amp;utm_campaign=parser&amp;utm_content=thumbnail",
    "notable": true,
    "wikipedia_en": "https://en.wikipedia.org/wiki/The_Garden_of_Earthly_Delights",
    "creation_place": "'s-Hertogenbosch",
    "creation_lat": 51.6978,
    "creation_lon": 5.3037,
    "_source": {
     "source": "Wikipedia: List of paintings by Hieronymus Bosch",
     "coord": "MediaWiki coordinates API"
    },
    "museum_id": "museo-del-prado",
    "qid": "Q321303",
    "wikidata": "https://www.wikidata.org/wiki/Q321303",
    "wga_url": "https://www.wga.hu/html/b/bosch/3garden/wings/20right.html"
   }
  },
  {
   "type": "Feature",
   "geometry": {
    "type": "Point",
    "coordinates": [
     -3.6922,
     40.4139
    ]
   },
   "properties": {
    "painter": "Hieronymus Bosch",
    "title": "The Creation of the World",
    "year": "c. 1495–1505",
    "city": "Madrid",
    "country": "Spain",
    "location": "Museo del Prado",
    "attribution": "generally accepted",
    "medium": "Oil on wood",
    "dimensions": "220 × 389 cm",
    "image": "https://upload.wikimedia.org/wikipedia/commons/thumb/e/ea/Hieronymus_Bosch_-_The_Garden_of_Earthly_Delights_-_The_exterior_%28shutters%29.jpg/500px-Hieronymus_Bosch_-_The_Garden_of_Earthly_Delights_-_The_exterior_%28shutters%29.jpg?utm_source=en.wikipedia.org&amp;utm_campaign=parser&amp;utm_content=thumbnail",
    "notable": true,
    "wikipedia_en": "https://en.wikipedia.org/wiki/The_Garden_of_Earthly_Delights",
    "creation_place": "'s-Hertogenbosch",
    "creation_lat": 51.6978,
    "creation_lon": 5.3037,
    "_source": {
     "source": "Wikipedia: List of paintings by Hieronymus Bosch",
     "coord": "MediaWiki coordinates API"
    },
    "museum_id": "museo-del-prado",
    "qid": "Q321303",
    "wikidata": "https://www.wikidata.org/wiki/Q321303",
    "wga_url": "https://www.wga.hu/html/b/bosch/3garden/wings/20right.html"
   }
  },
  {
   "type": "Feature",
   "geometry": {
    "type": "Point",
    "coordinates": [
     12.32814,
     45.43108
    ]
   },
   "properties": {
    "painter": "Hieronymus Bosch",
    "title": "Hermit Saints Triptych",
    "year": "c. 1495–1505",
    "city": "Venice",
    "country": "Italy",
    "location": "Gallerie dell'Accademia",
    "attribution": "generally accepted",
    "medium": "Oil on wood",
    "dimensions": "86 × 100 cm",
    "image": "https://upload.wikimedia.org/wikipedia/commons/thumb/f/f8/Hieronymus_Bosch_-_Hermit_Saints_Triptych.jpg/500px-Hieronymus_Bosch_-_Hermit_Saints_Triptych.jpg?utm_source=en.wikipedia.org&amp;utm_campaign=parser&amp;utm_content=thumbnail",
    "notable": true,
    "wikipedia_en": "https://en.wikipedia.org/wiki/The_Hermit_Saints",
    "creation_place": "'s-Hertogenbosch",
    "creation_lat": 51.6978,
    "creation_lon": 5.3037,
    "_source": {
     "source": "Wikipedia: List of paintings by Hieronymus Bosch",
     "coord": "MediaWiki coordinates API"
    },
    "museum_id": "gallerie-dell-accademia",
    "qid": "Q2389534",
    "wikidata": "https://www.wikidata.org/wiki/Q2389534"
   }
  },
  {
   "type": "Feature",
   "geometry": {
    "type": "Point",
    "coordinates": [
     3.22667,
     51.20528
    ]
   },
   "properties": {
    "painter": "Hieronymus Bosch",
    "title": "The Last Judgment",
    "year": "c. 1495–1505",
    "city": "Bruges",
    "location": "Groeningemuseum",
    "attribution": "generally accepted",
    "medium": "Oil on wood",
    "dimensions": "99.5 × 117.5 cm",
    "image": "https://upload.wikimedia.org/wikipedia/commons/thumb/f/fe/Bosch_laatste_oordeel_drieluik.jpg/500px-Bosch_laatste_oordeel_drieluik.jpg?utm_source=en.wikipedia.org&amp;utm_campaign=parser&amp;utm_content=thumbnail",
    "notable": true,
    "wikipedia_en": "https://en.wikipedia.org/wiki/The_Last_Judgment_(Bosch_triptych,_Bruges)",
    "creation_place": "'s-Hertogenbosch",
    "creation_lat": 51.6978,
    "creation_lon": 5.3037,
    "_source": {
     "source": "Wikipedia: List of paintings by Hieronymus Bosch",
     "coord": "MediaWiki coordinates API"
    },
    "museum_id": "groeningemuseum",
    "country": "Belgium",
    "qid": "Q2844476",
    "wikidata": "https://www.wikidata.org/wiki/Q2844476"
   }
  },
  {
   "type": "Feature",
   "geometry": {
    "type": "Point",
    "coordinates": [
     3.22667,
     51.20528
    ]
   },
   "properties": {
    "painter": "Hieronymus Bosch",
    "title": "Outside panels of \"The Last Judgment\"",
    "year": "c. 1495–1505",
    "city": "Bruges",
    "location": "Groeningemuseum",
    "attribution": "generally accepted",
    "medium": "Oil on wood",
    "dimensions": "99.5 × 117.5 cm",
    "image": "https://upload.wikimedia.org/wikipedia/commons/thumb/b/bb/Bosch_laatste_oordeel_drieluik_%28exterior%29.jpg/500px-Bosch_laatste_oordeel_drieluik_%28exterior%29.jpg?utm_source=en.wikipedia.org&amp;utm_campaign=parser&amp;utm_content=thumbnail",
    "notable": true,
    "creation_place": "'s-Hertogenbosch",
    "creation_lat": 51.6978,
    "creation_lon": 5.3037,
    "_source": {
     "source": "Wikipedia: List of paintings by Hieronymus Bosch",
     "coord": "MediaWiki coordinates API"
    },
    "museum_id": "groeningemuseum",
    "country": "Belgium"
   }
  },
  {
   "type": "Feature",
   "geometry": {
    "type": "Point",
    "coordinates": [
     12.32814,
     45.43108
    ]
   },
   "properties": {
    "painter": "Hieronymus Bosch",
    "title": "The Martyrdom of St. Julia",
    "year": "c. 1495–1505",
    "city": "Venice",
    "country": "Italy",
    "location": "Gallerie dell'Accademia",
    "attribution": "generally accepted",
    "medium": "Oil on wood",
    "dimensions": "104 × 119 cm",
    "image": "https://upload.wikimedia.org/wikipedia/commons/thumb/0/0c/BoschTheCrucifixionOfStJulia.jpg/500px-BoschTheCrucifixionOfStJulia.jpg?utm_source=en.wikipedia.org&amp;utm_campaign=parser&amp;utm_content=thumbnail",
    "notable": true,
    "wikipedia_en": "https://en.wikipedia.org/wiki/The_Crucifixion_of_St_Julia",
    "creation_place": "'s-Hertogenbosch",
    "creation_lat": 51.6978,
    "creation_lon": 5.3037,
    "_source": {
     "source": "Wikipedia: List of paintings by Hieronymus Bosch",
     "coord": "MediaWiki coordinates API"
    },
    "museum_id": "gallerie-dell-accademia",
    "qid": "Q2390224",
    "wikidata": "https://www.wikidata.org/wiki/Q2390224",
    "wga_url": "https://www.wga.hu/html/b/bosch/6venice/st_julib.html"
   }
  },
  {
   "type": "Feature",
   "geometry": {
    "type": "Point",
    "coordinates": [
     12.32814,
     45.43108
    ]
   },
   "properties": {
    "painter": "Hieronymus Bosch",
    "title": "The Martyrdom of St. Julia",
    "year": "c. 1495–1505",
    "city": "Venice",
    "country": "Italy",
    "location": "Gallerie dell'Accademia",
    "attribution": "generally accepted",
    "medium": "Oil on wood",
    "dimensions": "104 × 119 cm",
    "image": "https://upload.wikimedia.org/wikipedia/commons/thumb/4/46/Triptych_of_the_crucified_Martyr_%28infra-red_reflectography%29.jpg/500px-Triptych_of_the_crucified_Martyr_%28infra-red_reflectography%29.jpg?utm_source=en.wikipedia.org&amp;utm_campaign=parser&amp;utm_content=thumbnail",
    "notable": true,
    "wikipedia_en": "https://en.wikipedia.org/wiki/The_Crucifixion_of_St_Julia",
    "creation_place": "'s-Hertogenbosch",
    "creation_lat": 51.6978,
    "creation_lon": 5.3037,
    "_source": {
     "source": "Wikipedia: List of paintings by Hieronymus Bosch",
     "coord": "MediaWiki coordinates API"
    },
    "museum_id": "gallerie-dell-accademia",
    "qid": "Q2390224",
    "wikidata": "https://www.wikidata.org/wiki/Q2390224",
    "wga_url": "https://www.wga.hu/html/b/bosch/6venice/st_julib.html"
   }
  },
  {
   "type": "Feature",
   "geometry": {
    "type": "Point",
    "coordinates": [
     -9.16167,
     38.70444
    ]
   },
   "properties": {
    "painter": "Hieronymus Bosch",
    "title": "The Temptation of St. Anthony (left, central and right panels)",
    "year": "c. 1500–1510",
    "city": "Lisbon",
    "country": "Portugal",
    "location": "Museu Nacional de Arte Antiga",
    "attribution": "generally accepted",
    "medium": "Oil on wood",
    "dimensions": "131.5 × 225 cm",
    "image": "https://upload.wikimedia.org/wikipedia/commons/thumb/7/76/Jheronimus_Bosch_001.jpg/500px-Jheronimus_Bosch_001.jpg?utm_source=en.wikipedia.org&amp;utm_campaign=parser&amp;utm_content=thumbnail",
    "notable": true,
    "wikipedia_en": "https://en.wikipedia.org/wiki/Triptych_of_the_Temptation_of_St._Anthony",
    "creation_place": "'s-Hertogenbosch",
    "creation_lat": 51.6978,
    "creation_lon": 5.3037,
    "_source": {
     "source": "Wikipedia: List of paintings by Hieronymus Bosch",
     "coord": "MediaWiki coordinates API"
    },
    "museum_id": "museu-nacional-de-arte-antiga",
    "qid": "Q1217288",
    "wikidata": "https://www.wikidata.org/wiki/Q1217288",
    "wga_url": "https://www.wga.hu/html/b/bosch/90anthon/1triptyc.html"
   }
  },
  {
   "type": "Feature",
   "geometry": {
    "type": "Point",
    "coordinates": [
     -9.16167,
     38.70444
    ]
   },
   "properties": {
    "painter": "Hieronymus Bosch",
    "title": "The Temptation of St. Anthony (Reverse side of the outer panels)",
    "year": "c. 1500–1510",
    "city": "Lisbon",
    "country": "Portugal",
    "location": "Museu Nacional de Arte Antiga",
    "attribution": "generally accepted",
    "medium": "Oil on wood",
    "dimensions": "131.5 × 225 cm",
    "image": "https://upload.wikimedia.org/wikipedia/commons/thumb/f/f8/TriptychOfTemptationOfStAnthony%28OuterWings%29.jpg/500px-TriptychOfTemptationOfStAnthony%28OuterWings%29.jpg?utm_source=en.wikipedia.org&amp;utm_campaign=parser&amp;utm_content=thumbnail",
    "notable": true,
    "wikipedia_en": "https://en.wikipedia.org/wiki/Triptych_of_the_Temptation_of_St._Anthony",
    "creation_place": "'s-Hertogenbosch",
    "creation_lat": 51.6978,
    "creation_lon": 5.3037,
    "_source": {
     "source": "Wikipedia: List of paintings by Hieronymus Bosch",
     "coord": "MediaWiki coordinates API"
    },
    "museum_id": "museu-nacional-de-arte-antiga",
    "qid": "Q1217288",
    "wikidata": "https://www.wikidata.org/wiki/Q1217288",
    "wga_url": "https://www.wga.hu/html/b/bosch/90anthon/1triptyc.html"
   }
  },
  {
   "type": "Feature",
   "geometry": {
    "type": "Point",
    "coordinates": [
     16.36528,
     48.20139
    ]
   },
   "properties": {
    "painter": "Hieronymus Bosch",
    "title": "The Last Judgment",
    "year": "c. 1500–1505",
    "city": "Austria",
    "location": "Academy of Fine Arts Vienna",
    "attribution": "generally accepted",
    "medium": "Oil on wood",
    "dimensions": "163.7 × 127 cm (central panel) 167.7 × 60 cm (left wing) 167 × 60 cm (right wing)",
    "image": "https://upload.wikimedia.org/wikipedia/commons/thumb/d/d8/Bosch_laatste_oordeel_drieluik_wenen.jpg/500px-Bosch_laatste_oordeel_drieluik_wenen.jpg?utm_source=en.wikipedia.org&amp;utm_campaign=parser&amp;utm_content=thumbnail",
    "notable": true,
    "wikipedia_en": "https://en.wikipedia.org/wiki/The_Last_Judgment_(Bosch_triptych)",
    "creation_place": "'s-Hertogenbosch",
    "creation_lat": 51.6978,
    "creation_lon": 5.3037,
    "_source": {
     "source": "Wikipedia: List of paintings by Hieronymus Bosch",
     "coord": "MediaWiki coordinates API"
    },
    "museum_id": "academy-of-fine-arts-vienna",
    "country": "Austria",
    "qid": "Q1387483",
    "wikidata": "https://www.wikidata.org/wiki/Q1387483"
   }
  },
  {
   "type": "Feature",
   "geometry": {
    "type": "Point",
    "coordinates": [
     16.3725,
     48.2083
    ]
   },
   "properties": {
    "painter": "Hieronymus Bosch",
    "title": "Outside panels of The Last Judgment",
    "year": "c. 1500–1505",
    "city": "Vienna",
    "country": "Austria",
    "location": "Academy of Fine Arts",
    "attribution": "generally accepted",
    "medium": "Oil on wood",
    "dimensions": "167.7 × 60 cm (left wing) 167 × 60 cm (right wing)",
    "image": "https://upload.wikimedia.org/wikipedia/commons/thumb/b/b5/Jheronimus_Bosch_Last_Judgment_triptych_%28Vienna%29_exterior.jpg/500px-Jheronimus_Bosch_Last_Judgment_triptych_%28Vienna%29_exterior.jpg?utm_source=en.wikipedia.org&amp;utm_campaign=parser&amp;utm_content=thumbnail",
    "notable": true,
    "wikipedia_en": "https://en.wikipedia.org/wiki/The_Last_Judgment_(Bosch_triptych)",
    "creation_place": "'s-Hertogenbosch",
    "creation_lat": 51.6978,
    "creation_lon": 5.3037,
    "_source": {
     "source": "Wikipedia: List of paintings by Hieronymus Bosch",
     "coord": "MediaWiki coordinates API"
    },
    "museum_id": "academy-of-fine-arts",
    "qid": "Q1387483",
    "wikidata": "https://www.wikidata.org/wiki/Q1387483"
   }
  },
  {
   "type": "Feature",
   "geometry": {
    "type": "Point",
    "coordinates": [
     -4.15,
     40.59
    ]
   },
   "properties": {
    "painter": "Hieronymus Bosch",
    "title": "The Haywain",
    "year": "1510–1516",
    "city": "Spain",
    "location": "El Escorial",
    "attribution": "generally accepted",
    "medium": "Oil on wood",
    "dimensions": "147 × 232 cm (Escorial version) 135 x 190 cm (Prado version)",
    "image": "https://upload.wikimedia.org/wikipedia/commons/thumb/4/4c/Jheronimus_Bosch_-_De_hooiwagen_%28c.1516%2C_Prado%29.jpg/500px-Jheronimus_Bosch_-_De_hooiwagen_%28c.1516%2C_Prado%29.jpg?utm_source=en.wikipedia.org&amp;utm_campaign=parser&amp;utm_content=thumbnail",
    "notable": true,
    "wikipedia_en": "https://en.wikipedia.org/wiki/The_Haywain_Triptych",
    "creation_place": "'s-Hertogenbosch",
    "creation_lat": 51.6978,
    "creation_lon": 5.3037,
    "_source": {
     "source": "Wikipedia: List of paintings by Hieronymus Bosch",
     "coord": "MediaWiki coordinates API"
    },
    "museum_id": "el-escorial",
    "qid": "Q2213811",
    "wikidata": "https://www.wikidata.org/wiki/Q2213811",
    "wga_url": "https://www.wga.hu/html/b/bosch/4haywain/01pinner.html"
   }
  },
  {
   "type": "Feature",
   "geometry": {
    "type": "Point",
    "coordinates": [
     -3.6922,
     40.4139
    ]
   },
   "properties": {
    "painter": "Hieronymus Bosch",
    "title": "Outside panels of \"The Haywain Triptych\"",
    "year": "1510–1516",
    "city": "Madrid",
    "country": "Spain",
    "location": "Museo del Prado",
    "attribution": "generally accepted",
    "medium": "Oil on wood",
    "dimensions": "135 x 190 cm (Prado version)",
    "image": "https://upload.wikimedia.org/wikipedia/commons/thumb/7/74/Hieronymus_Bosch_070.jpg/500px-Hieronymus_Bosch_070.jpg?utm_source=en.wikipedia.org&amp;utm_campaign=parser&amp;utm_content=thumbnail",
    "notable": true,
    "creation_place": "'s-Hertogenbosch",
    "creation_lat": 51.6978,
    "creation_lon": 5.3037,
    "_source": {
     "source": "Wikipedia: List of paintings by Hieronymus Bosch",
     "coord": "MediaWiki coordinates API"
    },
    "museum_id": "museo-del-prado"
   }
  },
  {
   "type": "Feature",
   "geometry": {
    "type": "Point",
    "coordinates": [
     -0.37083,
     39.47917
    ]
   },
   "properties": {
    "painter": "Hieronymus Bosch",
    "title": "Passion Triptych",
    "year": "c. 1530",
    "city": "Valencia",
    "country": "Spain",
    "location": "Museu de Belles Arts de València",
    "attribution": "generally accepted",
    "medium": "Oil on panel",
    "dimensions": "163 × 382 cm",
    "image": "https://upload.wikimedia.org/wikipedia/commons/thumb/6/6e/Tr%C3%ADptico_de_la_Passi%C3%B3n_Museo_de_Bellas_Artes_de_Valecia.jpg/500px-Tr%C3%ADptico_de_la_Passi%C3%B3n_Museo_de_Bellas_Artes_de_Valecia.jpg?utm_source=en.wikipedia.org&amp;utm_campaign=parser&amp;utm_content=thumbnail",
    "notable": true,
    "_source": {
     "source": "Wikipedia: List of paintings by Hieronymus Bosch",
     "coord": "MediaWiki coordinates API"
    },
    "museum_id": "museu-de-belles-arts-de-valencia"
   }
  },
  {
   "type": "Feature",
   "geometry": {
    "type": "Point",
    "coordinates": [
     4.47334,
     51.91421
    ]
   },
   "properties": {
    "painter": "Hieronymus Bosch",
    "title": "Diptych ( Hell and the Flood [ nl ] ) Mankind Beset by Devils (Panel at left Outside of The Fall of the Rebel Angels ) The Fall of the Rebel Angels Noah's Ark on Mount Ararat Mankind Beset by Devils (Panel at right outside of Noah's Ark on Mount Ararat )",
    "year": "c. 1514",
    "city": "Rotterdam",
    "country": "Netherlands",
    "location": "Museum Boijmans Van Beuningen",
    "attribution": "generally accepted",
    "medium": "Oil on wood",
    "dimensions": "69.5 × 35 cm (each panel) 34.5 cm (diameter of paintings on the reverse sides)",
    "image": "https://upload.wikimedia.org/wikipedia/commons/thumb/e/e7/The_Hell_and_the_Flood_P3.jpg/500px-The_Hell_and_the_Flood_P3.jpg?utm_source=en.wikipedia.org&amp;utm_campaign=parser&amp;utm_content=thumbnail",
    "notable": true,
    "wikipedia_en": "https://en.wikipedia.org/wiki/Hell_and_the_Flood",
    "creation_place": "'s-Hertogenbosch",
    "creation_lat": 51.6978,
    "creation_lon": 5.3037,
    "_source": {
     "source": "Wikipedia: List of paintings by Hieronymus Bosch",
     "coord": "MediaWiki coordinates API"
    },
    "museum_id": "museum-boijmans-van-beuningen",
    "qid": "Q2284243",
    "wikidata": "https://www.wikidata.org/wiki/Q2284243"
   }
  },
  {
   "type": "Feature",
   "geometry": {
    "type": "Point",
    "coordinates": [
     12.32814,
     45.43108
    ]
   },
   "properties": {
    "painter": "Hieronymus Bosch",
    "title": "Polyptych ( Visions of the Hereafter ) Fall of the Damned Hell Terrestrial Paradise Ascent of the Blessed",
    "year": "c. 1505–15",
    "city": "Venice",
    "country": "Italy",
    "location": "Gallerie dell'Accademia",
    "attribution": "generally accepted",
    "medium": "Oil on wood",
    "dimensions": "86.5 × 39.5 cm (each)",
    "image": "https://upload.wikimedia.org/wikipedia/commons/thumb/5/52/Poliptyk_Hieronima_Bocha_Visions_of_the_Hereafter.JPG/500px-Poliptyk_Hieronima_Bocha_Visions_of_the_Hereafter.JPG?utm_source=en.wikipedia.org&amp;utm_campaign=parser&amp;utm_content=thumbnail",
    "notable": true,
    "wikipedia_en": "https://en.wikipedia.org/wiki/Fall_of_the_Damned_into_Hell",
    "creation_place": "'s-Hertogenbosch",
    "creation_lat": 51.6978,
    "creation_lon": 5.3037,
    "_source": {
     "source": "Wikipedia: List of paintings by Hieronymus Bosch",
     "coord": "MediaWiki coordinates API"
    },
    "museum_id": "gallerie-dell-accademia",
    "qid": "Q16944824",
    "wikidata": "https://www.wikidata.org/wiki/Q16944824",
    "wga_url": "https://www.wga.hu/html/b/bosch/6venice/2hell1.html"
   }
  },
  {
   "type": "Feature",
   "geometry": {
    "type": "Point",
    "coordinates": [
     6.95861,
     50.9375
    ]
   },
   "properties": {
    "painter": "Hieronymus Bosch",
    "title": "Adoration of the Child",
    "year": "c. 1560",
    "city": "Cologne",
    "country": "Germany",
    "location": "Wallraf-Richartz Museum",
    "attribution": "generally accepted",
    "medium": "Oil on wood",
    "dimensions": "66 × 43 cm",
    "image": "https://upload.wikimedia.org/wikipedia/commons/thumb/2/29/BoschAdorationOfTheChildPainting.jpg/500px-BoschAdorationOfTheChildPainting.jpg?utm_source=en.wikipedia.org&amp;utm_campaign=parser&amp;utm_content=thumbnail",
    "notable": true,
    "wikipedia_en": "https://en.wikipedia.org/wiki/Adoration_of_the_Child_(Bosch)",
    "_source": {
     "source": "Wikipedia: List of paintings by Hieronymus Bosch",
     "coord": "MediaWiki coordinates API"
    },
    "museum_id": "wallraf-richartz-museum",
    "qid": "Q2346030",
    "wikidata": "https://www.wikidata.org/wiki/Q2346030",
    "wga_url": "https://www.wga.hu/html/b/bosch/5panels/15adorat.html"
   }
  },
  {
   "type": "Feature",
   "geometry": {
    "type": "Point",
    "coordinates": [
     5.3047,
     51.6864
    ]
   },
   "properties": {
    "painter": "Hieronymus Bosch",
    "title": "Adoration of the Child",
    "year": "c. 1568",
    "city": "'s-Hertogenbosch",
    "location": "Noordbrabants Museum",
    "attribution": "generally accepted",
    "medium": "Oil on wood",
    "image": "https://upload.wikimedia.org/wikipedia/commons/thumb/b/b2/Bosch_copyist_The_adoration_of_the_Child.jpg/500px-Bosch_copyist_The_adoration_of_the_Child.jpg?utm_source=en.wikipedia.org&amp;utm_campaign=parser&amp;utm_content=thumbnail",
    "notable": true,
    "wikipedia_en": "https://en.wikipedia.org/wiki/Adoration_of_the_Child_(Bosch)",
    "_source": {
     "source": "Wikipedia: List of paintings by Hieronymus Bosch",
     "coord": "MediaWiki coordinates API"
    },
    "museum_id": "noordbrabants-museum",
    "qid": "Q2346030",
    "wikidata": "https://www.wikidata.org/wiki/Q2346030",
    "wga_url": "https://www.wga.hu/html/b/bosch/5panels/15adorat.html"
   }
  },
  {
   "type": "Feature",
   "geometry": {
    "type": "Point",
    "coordinates": [
     -73.9631,
     40.7794
    ]
   },
   "properties": {
    "painter": "Hieronymus Bosch",
    "title": "Adoration of the Magi",
    "year": "c. 1470–1480",
    "city": "New York",
    "country": "United States",
    "location": "Metropolitan Museum of Art",
    "attribution": "generally accepted",
    "medium": "Oil on wood",
    "dimensions": "71.1 × 56.5 cm",
    "image": "https://upload.wikimedia.org/wikipedia/commons/thumb/7/7f/Adoration_of_the_Magi_Hieronymus_Bosch_autograph_ca._1470%E2%80%9375_%28NY%29.jpg/500px-Adoration_of_the_Magi_Hieronymus_Bosch_autograph_ca._1470%E2%80%9375_%28NY%29.jpg?utm_source=en.wikipedia.org&amp;utm_campaign=parser&amp;utm_content=thumbnail",
    "notable": true,
    "wikipedia_en": "https://en.wikipedia.org/wiki/Adoration_of_the_Magi_(Hieronymus_Bosch,_New_York)",
    "creation_place": "'s-Hertogenbosch",
    "creation_lat": 51.6978,
    "creation_lon": 5.3037,
    "_source": {
     "source": "Wikipedia: List of paintings by Hieronymus Bosch",
     "coord": "MediaWiki coordinates API"
    },
    "museum_id": "metropolitan-museum-of-art",
    "qid": "Q2489939",
    "wikidata": "https://www.wikidata.org/wiki/Q2489939"
   }
  },
  {
   "type": "Feature",
   "geometry": {
    "type": "Point",
    "coordinates": [
     -75.181,
     39.966
    ]
   },
   "properties": {
    "painter": "Hieronymus Bosch",
    "title": "Adoration of the Magi",
    "year": "c. 1499",
    "city": "Philadelphia",
    "country": "United States",
    "location": "Philadelphia Museum of Art",
    "attribution": "generally accepted",
    "medium": "Oil on wood",
    "dimensions": "94 × 74 cm",
    "image": "https://upload.wikimedia.org/wikipedia/commons/thumb/c/c1/Hieronymus_Bosch_or_follower_-_Adoration_of_the_Magi.jpg/500px-Hieronymus_Bosch_or_follower_-_Adoration_of_the_Magi.jpg?utm_source=en.wikipedia.org&amp;utm_campaign=parser&amp;utm_content=thumbnail",
    "notable": true,
    "wikipedia_en": "https://en.wikipedia.org/wiki/Adoration_of_the_Magi_(Bosch_painting,_Philadelphia)",
    "creation_place": "'s-Hertogenbosch",
    "creation_lat": 51.6978,
    "creation_lon": 5.3037,
    "_source": {
     "source": "Wikipedia: List of paintings by Hieronymus Bosch",
     "coord": "MediaWiki coordinates API"
    },
    "museum_id": "philadelphia-museum-of-art",
    "qid": "Q4680459",
    "wikidata": "https://www.wikidata.org/wiki/Q4680459"
   }
  },
  {
   "type": "Feature",
   "geometry": {
    "type": "Point",
    "coordinates": [
     -1.7972,
     51.5637
    ]
   },
   "properties": {
    "painter": "Hieronymus Bosch",
    "title": "Adoration of the Magi",
    "year": "c. 1515",
    "city": "Kingston Lacy",
    "location": "National Trust",
    "attribution": "generally accepted",
    "medium": "Oil on panel",
    "dimensions": "100.5 x 73.5 cm",
    "image": "https://upload.wikimedia.org/wikipedia/commons/thumb/d/df/After_Hieronymus_Bosch_-_Adoration_of_the_Magi_-_Petworth_House.jpg/500px-After_Hieronymus_Bosch_-_Adoration_of_the_Magi_-_Petworth_House.jpg?utm_source=en.wikipedia.org&amp;utm_campaign=parser&amp;utm_content=thumbnail",
    "notable": true,
    "creation_place": "'s-Hertogenbosch",
    "creation_lat": 51.6978,
    "creation_lon": 5.3037,
    "_source": {
     "source": "Wikipedia: List of paintings by Hieronymus Bosch",
     "coord": "MediaWiki coordinates API"
    },
    "museum_id": "national-trust",
    "wga_url": "https://www.wga.hu/html/b/bosch/91adorat/11centre.html",
    "country": "United Kingdom"
   }
  },
  {
   "type": "Feature",
   "geometry": {
    "type": "Point",
    "coordinates": [
     4.35824,
     50.84168
    ]
   },
   "properties": {
    "painter": "Hieronymus Bosch",
    "title": "Crucifixion with a Donor",
    "year": "c. 1480–1485",
    "city": "Brussels-Capital Region",
    "country": "Belgium",
    "location": "Royal Museums of Fine Arts of Belgium",
    "attribution": "generally accepted",
    "medium": "Oil on wood",
    "dimensions": "74.7 × 61 cm",
    "image": "https://upload.wikimedia.org/wikipedia/commons/thumb/4/47/CrucifixionWithADonorBosch.jpg/500px-CrucifixionWithADonorBosch.jpg?utm_source=en.wikipedia.org&amp;utm_campaign=parser&amp;utm_content=thumbnail",
    "notable": true,
    "wikipedia_en": "https://en.wikipedia.org/wiki/Crucifixion_with_a_Donor",
    "creation_place": "'s-Hertogenbosch",
    "creation_lat": 51.6978,
    "creation_lon": 5.3037,
    "_source": {
     "source": "Wikipedia: List of paintings by Hieronymus Bosch",
     "coord": "MediaWiki coordinates API"
    },
    "museum_id": "royal-museums-of-fine-arts-of-belgium",
    "qid": "Q2390211",
    "wikidata": "https://www.wikidata.org/wiki/Q2390211",
    "wga_url": "https://www.wga.hu/html/b/bosch/1early/08crucif.html"
   }
  },
  {
   "type": "Feature",
   "geometry": {
    "type": "Point",
    "coordinates": [
     16.3616,
     48.20388
    ]
   },
   "properties": {
    "painter": "Hieronymus Bosch",
    "title": "Christ Carrying the Cross (Vienna) [top panel] Christ Child with a Walking Frame (Vienna) [bottom panel]",
    "year": "c. 1490–1510",
    "city": "Vienna",
    "country": "Austria",
    "location": "Kunsthistorisches Museum",
    "attribution": "generally accepted",
    "medium": "Oil on wood",
    "dimensions": "57 × 32 cm",
    "image": "https://upload.wikimedia.org/wikipedia/commons/thumb/8/82/Hieronymus_Bosch_054.jpg/500px-Hieronymus_Bosch_054.jpg?utm_source=en.wikipedia.org&amp;utm_campaign=parser&amp;utm_content=thumbnail",
    "notable": true,
    "wikipedia_en": "https://en.wikipedia.org/wiki/Christ_Carrying_the_Cross_(Bosch,_Vienna)",
    "creation_place": "'s-Hertogenbosch",
    "creation_lat": 51.6978,
    "creation_lon": 5.3037,
    "_source": {
     "source": "Wikipedia: List of paintings by Hieronymus Bosch",
     "coord": "MediaWiki coordinates API"
    },
    "museum_id": "kunsthistorisches-museum",
    "qid": "Q2567058",
    "wikidata": "https://www.wikidata.org/wiki/Q2567058",
    "wga_url": "https://www.wga.hu/html/b/bosch/1early/12carry.html"
   }
  },
  {
   "type": "Feature",
   "geometry": {
    "type": "Point",
    "coordinates": [
     -71.05778,
     42.36028
    ]
   },
   "properties": {
    "painter": "Hieronymus Bosch",
    "title": "Christ Carrying the Cross (Ghent)",
    "year": "c. 1530–1540",
    "city": "Boston",
    "location": "Museum of Fine Arts",
    "attribution": "generally accepted",
    "medium": "Oil on wood",
    "dimensions": "74 × 81 cm",
    "image": "https://upload.wikimedia.org/wikipedia/commons/thumb/1/14/Jheronimus_Bosch_or_follower_001.jpg/500px-Jheronimus_Bosch_or_follower_001.jpg?utm_source=en.wikipedia.org&amp;utm_campaign=parser&amp;utm_content=thumbnail",
    "notable": true,
    "wikipedia_en": "https://en.wikipedia.org/wiki/Christ_Carrying_the_Cross_(Bosch,_Ghent)",
    "_source": {
     "source": "Wikipedia: List of paintings by Hieronymus Bosch",
     "coord": "MediaWiki coordinates API"
    },
    "museum_id": "museum-of-fine-arts",
    "qid": "Q680128",
    "wikidata": "https://www.wikidata.org/wiki/Q680128",
    "country": "United States"
   }
  },
  {
   "type": "Feature",
   "geometry": {
    "type": "Point",
    "coordinates": [
     -3.71431,
     40.41795
    ]
   },
   "properties": {
    "painter": "Hieronymus Bosch",
    "title": "Christ Carrying the Cross (Madrid)",
    "year": "c. 1495–1505",
    "city": "Madrid",
    "country": "Spain",
    "location": "Royal Palace of Madrid",
    "attribution": "generally accepted",
    "medium": "Oil on wood",
    "dimensions": "150 × 94 cm",
    "image": "https://upload.wikimedia.org/wikipedia/commons/thumb/b/bd/Hieronymus_Bosch_-_Christ_Carrying_the_Cross_-_WGA02556.jpg/500px-Hieronymus_Bosch_-_Christ_Carrying_the_Cross_-_WGA02556.jpg?utm_source=en.wikipedia.org&amp;utm_campaign=parser&amp;utm_content=thumbnail",
    "notable": true,
    "wikipedia_en": "https://en.wikipedia.org/wiki/Christ_Carrying_the_Cross_(Bosch,_Madrid)",
    "creation_place": "'s-Hertogenbosch",
    "creation_lat": 51.6978,
    "creation_lon": 5.3037,
    "_source": {
     "source": "Wikipedia: List of paintings by Hieronymus Bosch",
     "coord": "MediaWiki coordinates API"
    },
    "museum_id": "royal-palace-of-madrid",
    "qid": "Q2328603",
    "wikidata": "https://www.wikidata.org/wiki/Q2328603",
    "wga_url": "https://www.wga.hu/html/b/bosch/5panels/14carryi.html"
   }
  },
  {
   "type": "Feature",
   "geometry": {
    "type": "Point",
    "coordinates": [
     -0.1283,
     51.5089
    ]
   },
   "properties": {
    "painter": "Hieronymus Bosch",
    "title": "Christ Crowned with Thorns (London)",
    "year": "c. 1490–1500",
    "city": "London",
    "country": "United Kingdom",
    "location": "National Gallery",
    "attribution": "generally accepted",
    "medium": "Oil on wood",
    "dimensions": "73 × 59 cm",
    "image": "https://upload.wikimedia.org/wikipedia/commons/thumb/b/bf/Hieronymus_Bosch_-_Christ_Mocked_%28The_Crowning_with_Thorns%29_-_Google_Art_Project.jpg/500px-Hieronymus_Bosch_-_Christ_Mocked_%28The_Crowning_with_Thorns%29_-_Google_Art_Project.jpg?utm_source=en.wikipedia.org&amp;utm_campaign=parser&amp;utm_content=thumbnail",
    "notable": true,
    "wikipedia_en": "https://en.wikipedia.org/wiki/Christ_Crowned_with_Thorns_(1495-1500)",
    "creation_place": "'s-Hertogenbosch",
    "creation_lat": 51.6978,
    "creation_lon": 5.3037,
    "_source": {
     "source": "Wikipedia: List of paintings by Hieronymus Bosch",
     "coord": "MediaWiki coordinates API"
    },
    "museum_id": "national-gallery",
    "qid": "Q2733729",
    "wikidata": "https://www.wikidata.org/wiki/Q2733729",
    "wga_url": "https://www.wga.hu/html/b/bosch/5panels/18mocked.html"
   }
  },
  {
   "type": "Feature",
   "geometry": {
    "type": "Point",
    "coordinates": [
     -4.15,
     40.59
    ]
   },
   "properties": {
    "painter": "Hieronymus Bosch",
    "title": "Christ Crowned with Thorns (Escorial)",
    "year": "c. 1530–1540",
    "city": "Spain",
    "location": "El Escorial",
    "attribution": "generally accepted",
    "medium": "Oil on wood",
    "dimensions": "165 × 195 cm",
    "image": "https://upload.wikimedia.org/wikipedia/commons/thumb/5/5a/Crowned_with_Thorns_Bosch.jpg/500px-Crowned_with_Thorns_Bosch.jpg?utm_source=en.wikipedia.org&amp;utm_campaign=parser&amp;utm_content=thumbnail",
    "notable": true,
    "wikipedia_en": "https://en.wikipedia.org/wiki/Christ_Crowned_with_Thorns_(El_Escorial_version)",
    "_source": {
     "source": "Wikipedia: List of paintings by Hieronymus Bosch",
     "coord": "MediaWiki coordinates API"
    },
    "museum_id": "el-escorial",
    "qid": "Q732277",
    "wikidata": "https://www.wikidata.org/wiki/Q732277",
    "wga_url": "https://www.wga.hu/html/b/bosch/5panels/12thorns.html"
   }
  },
  {
   "type": "Feature",
   "geometry": {
    "type": "Point",
    "coordinates": [
     -75.181,
     39.966
    ]
   },
   "properties": {
    "painter": "Hieronymus Bosch",
    "title": "Ecce Homo (Philadelphia)",
    "year": "c. 1510",
    "city": "Philadelphia",
    "country": "United States",
    "location": "Philadelphia Museum of Art",
    "attribution": "generally accepted",
    "medium": "Oil on wood",
    "dimensions": "52 × 54 cm",
    "image": "https://upload.wikimedia.org/wikipedia/commons/thumb/6/65/Bosch_Ecce_Homo.jpg/500px-Bosch_Ecce_Homo.jpg?utm_source=en.wikipedia.org&amp;utm_campaign=parser&amp;utm_content=thumbnail",
    "notable": true,
    "wikipedia_en": "https://en.wikipedia.org/wiki/Ecce_Homo_(Bosch,_1490s)",
    "creation_place": "'s-Hertogenbosch",
    "creation_lat": 51.6978,
    "creation_lon": 5.3037,
    "_source": {
     "source": "Wikipedia: List of paintings by Hieronymus Bosch",
     "coord": "MediaWiki coordinates API"
    },
    "museum_id": "philadelphia-museum-of-art",
    "qid": "Q924482",
    "wikidata": "https://www.wikidata.org/wiki/Q924482"
   }
  },
  {
   "type": "Feature",
   "geometry": {
    "type": "Point",
    "coordinates": [
     8.67388,
     50.10322
    ]
   },
   "properties": {
    "painter": "Hieronymus Bosch",
    "title": "Ecce Homo (Frankfurt)",
    "year": "c. 1475–1485",
    "city": "Frankfurt",
    "country": "Germany",
    "location": "Städel Museum",
    "attribution": "generally accepted",
    "medium": "Oil on wood",
    "dimensions": "71 × 61 cm",
    "image": "https://upload.wikimedia.org/wikipedia/commons/thumb/4/4f/Ecce_homo_by_Hieronymus_Bosch.jpg/500px-Ecce_homo_by_Hieronymus_Bosch.jpg?utm_source=en.wikipedia.org&amp;utm_campaign=parser&amp;utm_content=thumbnail",
    "notable": true,
    "wikipedia_en": "https://en.wikipedia.org/wiki/Ecce_Homo_(Bosch,_1470s)",
    "creation_place": "'s-Hertogenbosch",
    "creation_lat": 51.6978,
    "creation_lon": 5.3037,
    "_source": {
     "source": "Wikipedia: List of paintings by Hieronymus Bosch",
     "coord": "MediaWiki coordinates API"
    },
    "museum_id": "stadel-museum",
    "qid": "Q430069",
    "wikidata": "https://www.wikidata.org/wiki/Q430069",
    "wga_url": "https://www.wga.hu/html/b/bosch/1early/06ecce1d.html"
   }
  },
  {
   "type": "Feature",
   "geometry": {
    "type": "Point",
    "coordinates": [
     4.47334,
     51.91421
    ]
   },
   "properties": {
    "painter": "Hieronymus Bosch",
    "title": "The Marriage Feast at Cana",
    "year": "c. 1500",
    "city": "Rotterdam",
    "country": "Netherlands",
    "location": "Museum Boijmans Van Beuningen",
    "attribution": "generally accepted",
    "medium": "Oil on wood",
    "dimensions": "93 × 72 cm",
    "image": "https://upload.wikimedia.org/wikipedia/commons/thumb/d/da/Bosch_The_marriage-feast_at_Cana_%28Boijmans_Van_Beuningen%29.jpg/500px-Bosch_The_marriage-feast_at_Cana_%28Boijmans_Van_Beuningen%29.jpg?utm_source=en.wikipedia.org&amp;utm_campaign=parser&amp;utm_content=thumbnail",
    "notable": true,
    "wikipedia_en": "https://en.wikipedia.org/wiki/The_Marriage_Feast_at_Cana_(Bosch)",
    "creation_place": "'s-Hertogenbosch",
    "creation_lat": 51.6978,
    "creation_lon": 5.3037,
    "_source": {
     "source": "Wikipedia: List of paintings by Hieronymus Bosch",
     "coord": "MediaWiki coordinates API"
    },
    "museum_id": "museum-boijmans-van-beuningen",
    "qid": "Q2329843",
    "wikidata": "https://www.wikidata.org/wiki/Q2329843"
   }
  },
  {
   "type": "Feature",
   "geometry": {
    "type": "Point",
    "coordinates": [
     21.02472,
     52.23167
    ]
   },
   "properties": {
    "painter": "Hieronymus Bosch",
    "title": "Christ descent into Hell",
    "year": "c. 1550",
    "location": "National Museum in Warsaw",
    "attribution": "generally accepted",
    "medium": "Oil on panel",
    "dimensions": "13.7 x 10.2 cm",
    "image": "https://upload.wikimedia.org/wikipedia/commons/thumb/3/30/Jheronimus_Bosch_-_Descent_into_Hell_-_M.Ob.1610_MNW_-_National_Museum_in_Warsaw.jpg/500px-Jheronimus_Bosch_-_Descent_into_Hell_-_M.Ob.1610_MNW_-_National_Museum_in_Warsaw.jpg?utm_source=en.wikipedia.org&amp;utm_campaign=parser&amp;utm_content=thumbnail",
    "notable": true,
    "_source": {
     "source": "Wikipedia: List of paintings by Hieronymus Bosch",
     "coord": "MediaWiki coordinates API"
    },
    "museum_id": "national-museum-in-warsaw",
    "city": "Śródmieście",
    "country": "Poland"
   }
  },
  {
   "type": "Feature",
   "geometry": {
    "type": "Point",
    "coordinates": [
     -71.05778,
     42.36028
    ]
   },
   "properties": {
    "painter": "Hieronymus Bosch",
    "title": "St. Jerome at Prayer",
    "year": "c. 1485–1495",
    "city": "Boston",
    "location": "Museum of Fine Arts",
    "attribution": "generally accepted",
    "medium": "Oil on wood",
    "dimensions": "77 × 59 cm",
    "image": "https://upload.wikimedia.org/wikipedia/commons/thumb/b/b9/Hieronymus_Bosch_012.jpg/500px-Hieronymus_Bosch_012.jpg?utm_source=en.wikipedia.org&amp;utm_campaign=parser&amp;utm_content=thumbnail",
    "notable": true,
    "wikipedia_en": "https://en.wikipedia.org/wiki/St._Jerome_at_Prayer_(Bosch)",
    "creation_place": "'s-Hertogenbosch",
    "creation_lat": 51.6978,
    "creation_lon": 5.3037,
    "_source": {
     "source": "Wikipedia: List of paintings by Hieronymus Bosch",
     "coord": "MediaWiki coordinates API"
    },
    "museum_id": "museum-of-fine-arts",
    "qid": "Q2566840",
    "wikidata": "https://www.wikidata.org/wiki/Q2566840",
    "wga_url": "https://www.wga.hu/html/b/bosch/5panels/09jerome.html",
    "country": "United States"
   }
  },
  {
   "type": "Feature",
   "geometry": {
    "type": "Point",
    "coordinates": [
     4.47334,
     51.91421
    ]
   },
   "properties": {
    "painter": "Hieronymus Bosch",
    "title": "St. Christopher Carrying the Christ Child",
    "year": "c. 1490–1500",
    "city": "Rotterdam",
    "country": "Netherlands",
    "location": "Museum Boijmans Van Beuningen",
    "attribution": "generally accepted",
    "medium": "Oil on wood",
    "dimensions": "113 × 71.5 cm",
    "image": "https://upload.wikimedia.org/wikipedia/commons/thumb/5/52/Jheronimus_Bosch_-_Saint_Christopher_-_Google_Art_Project.jpg/500px-Jheronimus_Bosch_-_Saint_Christopher_-_Google_Art_Project.jpg?utm_source=en.wikipedia.org&amp;utm_campaign=parser&amp;utm_content=thumbnail",
    "notable": true,
    "wikipedia_en": "https://en.wikipedia.org/wiki/St._Christopher_Carrying_the_Christ_Child",
    "creation_place": "'s-Hertogenbosch",
    "creation_lat": 51.6978,
    "creation_lon": 5.3037,
    "_source": {
     "source": "Wikipedia: List of paintings by Hieronymus Bosch",
     "coord": "MediaWiki coordinates API"
    },
    "museum_id": "museum-boijmans-van-beuningen",
    "qid": "Q2565646",
    "wikidata": "https://www.wikidata.org/wiki/Q2565646",
    "wga_url": "https://www.wga.hu/html/b/bosch/5panels/01christ.html"
   }
  },
  {
   "type": "Feature",
   "geometry": {
    "type": "Point",
    "coordinates": [
     -3.68585,
     40.43691
    ]
   },
   "properties": {
    "painter": "Hieronymus Bosch",
    "title": "St. John the Baptist in the Wilderness",
    "year": "c. 1490–1495",
    "city": "Madrid",
    "country": "Spain",
    "location": "Museo Lázaro Galdiano",
    "attribution": "generally accepted",
    "medium": "Oil on wood",
    "dimensions": "48.5 × 40 cm",
    "image": "https://upload.wikimedia.org/wikipedia/commons/thumb/7/70/StJohnWildernessBosch.jpg/500px-StJohnWildernessBosch.jpg?utm_source=en.wikipedia.org&amp;utm_campaign=parser&amp;utm_content=thumbnail",
    "notable": true,
    "wikipedia_en": "https://en.wikipedia.org/wiki/St._John_the_Baptist_in_the_Wilderness",
    "creation_place": "'s-Hertogenbosch",
    "creation_lat": 51.6978,
    "creation_lon": 5.3037,
    "_source": {
     "source": "Wikipedia: List of paintings by Hieronymus Bosch",
     "coord": "MediaWiki coordinates API"
    },
    "museum_id": "museo-lazaro-galdiano",
    "qid": "Q2453980",
    "wikidata": "https://www.wikidata.org/wiki/Q2453980",
    "wga_url": "https://www.wga.hu/html/b/bosch/5panels/04stjohn.html"
   }
  },
  {
   "type": "Feature",
   "geometry": {
    "type": "Point",
    "coordinates": [
     13.3647,
     52.5086
    ]
   },
   "properties": {
    "painter": "Hieronymus Bosch",
    "title": "St. John the Evangelist on Patmos",
    "year": "c. 1490–1495",
    "city": "Berlin",
    "country": "Germany",
    "location": "Gemäldegalerie",
    "attribution": "generally accepted",
    "medium": "Oil on wood",
    "dimensions": "63 × 43.3 cm",
    "image": "https://upload.wikimedia.org/wikipedia/commons/thumb/9/98/Johannes_op_Patmos_Saint_John_on_Patmos_Berlin%2C_Staatlichen_Museen_zu_Berlin%2C_Gemaldegalerie_HR.jpg/500px-Johannes_op_Patmos_Saint_John_on_Patmos_Berlin%2C_Staatlichen_Museen_zu_Berlin%2C_Gemaldegalerie_HR.jpg?utm_source=en.wikipedia.org&amp;utm_campaign=parser&amp;utm_content=thumbnail",
    "notable": true,
    "wikipedia_en": "https://en.wikipedia.org/wiki/St._John_the_Evangelist_on_Patmos",
    "creation_place": "'s-Hertogenbosch",
    "creation_lat": 51.6978,
    "creation_lon": 5.3037,
    "_source": {
     "source": "Wikipedia: List of paintings by Hieronymus Bosch",
     "coord": "MediaWiki coordinates API"
    },
    "museum_id": "gemaldegalerie",
    "qid": "Q2390197",
    "wikidata": "https://www.wikidata.org/wiki/Q2390197",
    "wga_url": "https://www.wga.hu/html/b/bosch/5panels/05patmos.html"
   }
  },
  {
   "type": "Feature",
   "geometry": {
    "type": "Point",
    "coordinates": [
     13.3647,
     52.5086
    ]
   },
   "properties": {
    "painter": "Hieronymus Bosch",
    "title": "Outside panel of St. John the Evangelist on Patmos",
    "year": "c. 1490–1495",
    "city": "Berlin",
    "country": "Germany",
    "location": "Gemäldegalerie",
    "attribution": "generally accepted",
    "medium": "Oil on wood",
    "dimensions": "diameter 39 cm.",
    "image": "https://upload.wikimedia.org/wikipedia/commons/thumb/0/0f/Jheronimus_Bosch_Scenes_from_the_Passion_%28full%29.jpg/500px-Jheronimus_Bosch_Scenes_from_the_Passion_%28full%29.jpg?utm_source=en.wikipedia.org&amp;utm_campaign=parser&amp;utm_content=thumbnail",
    "notable": true,
    "creation_place": "'s-Hertogenbosch",
    "creation_lat": 51.6978,
    "creation_lon": 5.3037,
    "_source": {
     "source": "Wikipedia: List of paintings by Hieronymus Bosch",
     "coord": "MediaWiki coordinates API"
    },
    "museum_id": "gemaldegalerie"
   }
  },
  {
   "type": "Feature",
   "geometry": {
    "type": "Point",
    "coordinates": [
     -94.58084,
     39.04531
    ]
   },
   "properties": {
    "painter": "Hieronymus Bosch",
    "title": "The Temptation of St. Anthony",
    "year": "c. 1500–1510",
    "city": "Kansas City",
    "country": "United States",
    "location": "Nelson-Atkins Museum of Art",
    "attribution": "generally accepted",
    "medium": "Oil on wood",
    "dimensions": "38.6 x 25.1 cm",
    "image": "https://upload.wikimedia.org/wikipedia/commons/thumb/f/f8/The_temptation_of_Saint_Anthony%2C_by_Jheronimus_Bosch_%28Kansas%29.jpg/500px-The_temptation_of_Saint_Anthony%2C_by_Jheronimus_Bosch_%28Kansas%29.jpg?utm_source=en.wikipedia.org&amp;utm_campaign=parser&amp;utm_content=thumbnail",
    "notable": true,
    "wikipedia_en": "https://en.wikipedia.org/wiki/The_Temptation_of_St_Anthony_(Kansas_City)",
    "creation_place": "'s-Hertogenbosch",
    "creation_lat": 51.6978,
    "creation_lon": 5.3037,
    "_source": {
     "source": "Wikipedia: List of paintings by Hieronymus Bosch",
     "coord": "MediaWiki coordinates API"
    },
    "museum_id": "nelson-atkins-museum-of-art",
    "qid": "Q22669126",
    "wikidata": "https://www.wikidata.org/wiki/Q22669126"
   }
  },
  {
   "type": "Feature",
   "geometry": {
    "type": "Point",
    "coordinates": [
     -3.6922,
     40.4139
    ]
   },
   "properties": {
    "painter": "Hieronymus Bosch",
    "title": "The Temptation of St. Anthony",
    "year": "c. 1530–1540",
    "city": "Madrid",
    "country": "Spain",
    "location": "Museo del Prado",
    "attribution": "generally accepted",
    "medium": "Oil on wood",
    "dimensions": "70 × 51 cm",
    "image": "https://upload.wikimedia.org/wikipedia/commons/thumb/b/b4/The_Temptation_of_St_Anthony_%28Bosch%29.jpg/500px-The_Temptation_of_St_Anthony_%28Bosch%29.jpg?utm_source=en.wikipedia.org&amp;utm_campaign=parser&amp;utm_content=thumbnail",
    "notable": true,
    "wikipedia_en": "https://en.wikipedia.org/wiki/The_Temptation_of_St_Anthony_(Bosch_painting)",
    "_source": {
     "source": "Wikipedia: List of paintings by Hieronymus Bosch",
     "coord": "MediaWiki coordinates API"
    },
    "museum_id": "museo-del-prado",
    "qid": "Q2512728",
    "wikidata": "https://www.wikidata.org/wiki/Q2512728",
    "wga_url": "https://www.wga.hu/html/b/bosch/5panels/07anthon.html"
   }
  },
  {
   "type": "Feature",
   "geometry": {
    "type": "Point",
    "coordinates": [
     2.3358,
     48.8611
    ]
   },
   "properties": {
    "painter": "Hieronymus Bosch",
    "title": "Ship of Fools",
    "year": "c. 1500–1510",
    "city": "Paris",
    "country": "France",
    "location": "Louvre",
    "attribution": "generally accepted",
    "medium": "Oil on wood",
    "dimensions": "58 × 33 cm",
    "image": "https://upload.wikimedia.org/wikipedia/commons/thumb/a/a2/Jheronimus_Bosch_011.jpg/500px-Jheronimus_Bosch_011.jpg?utm_source=en.wikipedia.org&amp;utm_campaign=parser&amp;utm_content=thumbnail",
    "notable": true,
    "wikipedia_en": "https://en.wikipedia.org/wiki/Ship_of_Fools_(painting)",
    "creation_place": "'s-Hertogenbosch",
    "creation_lat": 51.6978,
    "creation_lon": 5.3037,
    "_source": {
     "source": "Wikipedia: List of paintings by Hieronymus Bosch",
     "coord": "MediaWiki coordinates API"
    },
    "museum_id": "louvre",
    "qid": "Q405814",
    "wikidata": "https://www.wikidata.org/wiki/Q405814",
    "wga_url": "https://www.wga.hu/html/b/bosch/5panels/11shipfo.html"
   }
  },
  {
   "type": "Feature",
   "geometry": {
    "type": "Point",
    "coordinates": [
     -72.93099,
     41.30846
    ]
   },
   "properties": {
    "painter": "Hieronymus Bosch",
    "title": "Allegory of Gluttony and Lust",
    "year": "c. 1500–1510",
    "city": "New Haven",
    "location": "Yale University Art Gallery",
    "attribution": "generally accepted",
    "medium": "Oil on wood",
    "dimensions": "35.8 × 32 cm",
    "image": "https://upload.wikimedia.org/wikipedia/commons/thumb/9/9b/Jheronimus_Bosch_003.jpg/500px-Jheronimus_Bosch_003.jpg?utm_source=en.wikipedia.org&amp;utm_campaign=parser&amp;utm_content=thumbnail",
    "notable": true,
    "wikipedia_en": "https://en.wikipedia.org/wiki/Allegory_of_Gluttony_and_Lust",
    "creation_place": "'s-Hertogenbosch",
    "creation_lat": 51.6978,
    "creation_lon": 5.3037,
    "_source": {
     "source": "Wikipedia: List of paintings by Hieronymus Bosch",
     "coord": "MediaWiki coordinates API"
    },
    "museum_id": "yale-university-art-gallery",
    "country": "United States",
    "qid": "Q2091114",
    "wikidata": "https://www.wikidata.org/wiki/Q2091114",
    "wga_url": "https://www.wga.hu/html/b/bosch/5panels/16allego.html"
   }
  },
  {
   "type": "Feature",
   "geometry": {
    "type": "Point",
    "coordinates": [
     -77.02,
     38.8914
    ]
   },
   "properties": {
    "painter": "Hieronymus Bosch",
    "title": "Death and the Miser",
    "year": "c. 1500–1510",
    "city": "Washington",
    "country": "United States",
    "location": "National Gallery of Art",
    "attribution": "generally accepted",
    "medium": "Oil on wood",
    "dimensions": "92.6 × 30.8 cm",
    "image": "https://upload.wikimedia.org/wikipedia/commons/thumb/4/48/Jheronimus_Bosch_050.jpg/500px-Jheronimus_Bosch_050.jpg?utm_source=en.wikipedia.org&amp;utm_campaign=parser&amp;utm_content=thumbnail",
    "notable": true,
    "wikipedia_en": "https://en.wikipedia.org/wiki/Death_and_the_Miser",
    "creation_place": "'s-Hertogenbosch",
    "creation_lat": 51.6978,
    "creation_lon": 5.3037,
    "_source": {
     "source": "Wikipedia: List of paintings by Hieronymus Bosch",
     "coord": "MediaWiki coordinates API"
    },
    "museum_id": "national-gallery-of-art",
    "qid": "Q2203011",
    "wikidata": "https://www.wikidata.org/wiki/Q2203011",
    "wga_url": "https://www.wga.hu/html/b/bosch/5panels/10deathm.html"
   }
  },
  {
   "type": "Feature",
   "geometry": {
    "type": "Point",
    "coordinates": [
     4.47334,
     51.91421
    ]
   },
   "properties": {
    "painter": "Hieronymus Bosch",
    "title": "The Wayfarer",
    "year": "c. 1500–1510",
    "city": "Rotterdam",
    "country": "Netherlands",
    "location": "Museum Boijmans Van Beuningen",
    "attribution": "generally accepted",
    "medium": "Oil on wood",
    "dimensions": "71.5 cm (diameter)",
    "image": "https://upload.wikimedia.org/wikipedia/commons/thumb/4/4e/Jheronimus_Bosch_112.jpg/500px-Jheronimus_Bosch_112.jpg?utm_source=en.wikipedia.org&amp;utm_campaign=parser&amp;utm_content=thumbnail",
    "notable": true,
    "wikipedia_en": "https://en.wikipedia.org/wiki/The_Wayfarer_(painting)",
    "creation_place": "'s-Hertogenbosch",
    "creation_lat": 51.6978,
    "creation_lon": 5.3037,
    "_source": {
     "source": "Wikipedia: List of paintings by Hieronymus Bosch",
     "coord": "MediaWiki coordinates API"
    },
    "museum_id": "museum-boijmans-van-beuningen",
    "qid": "Q2400652",
    "wikidata": "https://www.wikidata.org/wiki/Q2400652",
    "wga_url": "https://www.wga.hu/html/b/bosch/5panels/03wayfar.html"
   }
  },
  {
   "type": "Feature",
   "geometry": {
    "type": "Point",
    "coordinates": [
     -3.6922,
     40.4139
    ]
   },
   "properties": {
    "painter": "Hieronymus Bosch",
    "title": "Cutting the Stone",
    "year": "c. 1500–1520",
    "city": "Madrid",
    "country": "Spain",
    "location": "Museo del Prado",
    "attribution": "generally accepted",
    "medium": "Oil on wood",
    "dimensions": "48 × 35 cm",
    "image": "https://upload.wikimedia.org/wikipedia/commons/thumb/b/b1/Cutting_the_Stone_%28Bosch%29.jpg/500px-Cutting_the_Stone_%28Bosch%29.jpg?utm_source=en.wikipedia.org&amp;utm_campaign=parser&amp;utm_content=thumbnail",
    "notable": true,
    "wikipedia_en": "https://en.wikipedia.org/wiki/Cutting_the_Stone",
    "creation_place": "'s-Hertogenbosch",
    "creation_lat": 51.6978,
    "creation_lon": 5.3037,
    "_source": {
     "source": "Wikipedia: List of paintings by Hieronymus Bosch",
     "coord": "MediaWiki coordinates API"
    },
    "museum_id": "museo-del-prado",
    "qid": "Q2270768",
    "wikidata": "https://www.wikidata.org/wiki/Q2270768",
    "wga_url": "https://www.wga.hu/html/b/bosch/1early/09folly.html"
   }
  },
  {
   "type": "Feature",
   "geometry": {
    "type": "Point",
    "coordinates": [
     -3.6922,
     40.4139
    ]
   },
   "properties": {
    "painter": "Hieronymus Bosch",
    "title": "The Seven Deadly Sins and the Four Last Things",
    "year": "c. 1510–1520",
    "city": "Madrid",
    "country": "Spain",
    "location": "Museo del Prado",
    "attribution": "generally accepted",
    "medium": "Oil on wood",
    "dimensions": "120 × 150 cm",
    "image": "https://upload.wikimedia.org/wikipedia/commons/thumb/0/03/Hieronymus_Bosch-_The_Seven_Deadly_Sins_and_the_Four_Last_Things.JPG/500px-Hieronymus_Bosch-_The_Seven_Deadly_Sins_and_the_Four_Last_Things.JPG?utm_source=en.wikipedia.org&amp;utm_campaign=parser&amp;utm_content=thumbnail",
    "notable": true,
    "wikipedia_en": "https://en.wikipedia.org/wiki/The_Seven_Deadly_Sins_and_the_Four_Last_Things",
    "creation_place": "'s-Hertogenbosch",
    "creation_lat": 51.6978,
    "creation_lon": 5.3037,
    "_source": {
     "source": "Wikipedia: List of paintings by Hieronymus Bosch",
     "coord": "MediaWiki coordinates API"
    },
    "museum_id": "museo-del-prado",
    "qid": "Q2304870",
    "wikidata": "https://www.wikidata.org/wiki/Q2304870",
    "wga_url": "https://www.wga.hu/html/b/bosch/2deadly/7deadly4.html"
   }
  },
  {
   "type": "Feature",
   "geometry": {
    "type": "Point",
    "coordinates": [
     11.57,
     48.14833
    ]
   },
   "properties": {
    "painter": "Hieronymus Bosch",
    "title": "The Last Judgment (fragment)",
    "year": "c. 1530–1540",
    "city": "Munich",
    "country": "Germany",
    "location": "Alte Pinakothek",
    "attribution": "generally accepted",
    "medium": "Oil on wood",
    "dimensions": "60 × 114 cm",
    "image": "https://upload.wikimedia.org/wikipedia/commons/thumb/d/da/Last_Judgement.jpg/500px-Last_Judgement.jpg?utm_source=en.wikipedia.org&amp;utm_campaign=parser&amp;utm_content=thumbnail",
    "notable": true,
    "wikipedia_en": "https://en.wikipedia.org/wiki/The_Last_Judgment_(Bosch_triptych_fragment)",
    "_source": {
     "source": "Wikipedia: List of paintings by Hieronymus Bosch",
     "coord": "MediaWiki coordinates API"
    },
    "museum_id": "alte-pinakothek",
    "qid": "Q1995698",
    "wikidata": "https://www.wikidata.org/wiki/Q1995698",
    "wga_url": "https://www.wga.hu/html/b/bosch/5panels/17fragme.html"
   }
  },
  {
   "type": "Feature",
   "geometry": {
    "type": "Point",
    "coordinates": [
     2.0938,
     48.8989
    ]
   },
   "properties": {
    "painter": "Hieronymus Bosch",
    "title": "The Conjurer",
    "year": "c. 1530–1540",
    "city": "Saint-Germain-en-Laye",
    "location": "Musée Municipal",
    "attribution": "generally accepted",
    "medium": "Oil on wood",
    "dimensions": "53 × 65 cm",
    "image": "https://upload.wikimedia.org/wikipedia/commons/thumb/2/2a/Conjurer_Bosch.jpg/500px-Conjurer_Bosch.jpg?utm_source=en.wikipedia.org&amp;utm_campaign=parser&amp;utm_content=thumbnail",
    "notable": true,
    "wikipedia_en": "https://en.wikipedia.org/wiki/The_Conjurer_(painting)",
    "_source": {
     "source": "Wikipedia: List of paintings by Hieronymus Bosch",
     "coord": "MediaWiki coordinates API"
    },
    "museum_id": "musee-municipal",
    "qid": "Q2155289",
    "wikidata": "https://www.wikidata.org/wiki/Q2155289",
    "wga_url": "https://www.wga.hu/html/b/bosch/1early/11magici.html"
   }
  },
  {
   "type": "Feature",
   "geometry": {
    "type": "Point",
    "coordinates": [
     -3.6922,
     40.4139
    ]
   },
   "properties": {
    "painter": "Hieronymus Bosch",
    "title": "Head of a Halberdier",
    "year": "c. 1490–1500",
    "city": "Madrid",
    "country": "Spain",
    "location": "Museo del Prado",
    "attribution": "generally accepted",
    "medium": "Oil on wood",
    "dimensions": "28 × 20 cm",
    "image": "https://upload.wikimedia.org/wikipedia/commons/thumb/2/2e/BoschHeadOfAHalberdierFragment.jpg/500px-BoschHeadOfAHalberdierFragment.jpg?utm_source=en.wikipedia.org&amp;utm_campaign=parser&amp;utm_content=thumbnail",
    "notable": true,
    "wikipedia_en": "https://en.wikipedia.org/wiki/Head_of_a_Halberdier",
    "creation_place": "'s-Hertogenbosch",
    "creation_lat": 51.6978,
    "creation_lon": 5.3037,
    "_source": {
     "source": "Wikipedia: List of paintings by Hieronymus Bosch",
     "coord": "MediaWiki coordinates API"
    },
    "museum_id": "museo-del-prado",
    "qid": "Q5689364",
    "wikidata": "https://www.wikidata.org/wiki/Q5689364",
    "wga_url": "https://www.wga.hu/html/b/bosch/1early/02fragme.html"
   }
  },
  {
   "type": "Feature",
   "geometry": {
    "type": "Point",
    "coordinates": [
     4.47334,
     51.91421
    ]
   },
   "properties": {
    "painter": "Hieronymus Bosch",
    "title": "Head of a Woman",
    "year": "c. 1500",
    "city": "Rotterdam",
    "country": "Netherlands",
    "location": "Museum Boijmans Van Beuningen",
    "attribution": "generally accepted",
    "medium": "Oil on wood",
    "dimensions": "13 × 5 cm",
    "image": "https://upload.wikimedia.org/wikipedia/commons/thumb/e/ee/BoschHeadOfAWomanFragment.jpg/500px-BoschHeadOfAWomanFragment.jpg?utm_source=en.wikipedia.org&amp;utm_campaign=parser&amp;utm_content=thumbnail",
    "notable": true,
    "wikipedia_en": "https://en.wikipedia.org/wiki/Head_of_a_Woman_(Bosch)",
    "creation_place": "'s-Hertogenbosch",
    "creation_lat": 51.6978,
    "creation_lon": 5.3037,
    "_source": {
     "source": "Wikipedia: List of paintings by Hieronymus Bosch",
     "coord": "MediaWiki coordinates API"
    },
    "museum_id": "museum-boijmans-van-beuningen",
    "qid": "Q2536010",
    "wikidata": "https://www.wikidata.org/wiki/Q2536010",
    "wga_url": "https://www.wga.hu/html/b/bosch/1early/01fragme.html"
   }
  }
 ]
}