{
 "type": "FeatureCollection",
 "_note": "Canon from List of works by Bronzino (Wikipedia). Coords via MediaWiki API.",
 "features": [
  {
   "type": "Feature",
   "geometry": {
    "type": "Point",
    "coordinates": [
     11.25528,
     43.76833
    ]
   },
   "properties": {
    "painter": "Bronzino",
    "title": "Pietà",
    "year": "1529",
    "city": "Florence",
    "country": "Italy",
    "location": "Uffizi Gallery",
    "attribution": "generally accepted",
    "medium": "Oil on panel",
    "dimensions": "105 x 100 cm",
    "image": "https://upload.wikimedia.org/wikipedia/commons/thumb/5/5d/Angelo_Bronzino_-_Piet%C3%A0_-_WGA3284.jpg/500px-Angelo_Bronzino_-_Piet%C3%A0_-_WGA3284.jpg?utm_source=en.wikipedia.org&amp;utm_campaign=parser&amp;utm_content=thumbnail",
    "notable": true,
    "wikipedia_en": "https://en.wikipedia.org/wiki/Piet%C3%A0_(Bronzino,_1529)",
    "creation_place": "Florence",
    "creation_lat": 43.7696,
    "creation_lon": 11.2558,
    "_source": {
     "source": "Wikipedia: List of works by Bronzino",
     "coord": "MediaWiki coordinates API"
    },
    "museum_id": "uffizi-gallery",
    "qid": "Q83295755",
    "wikidata": "https://www.wikidata.org/wiki/Q83295755",
    "wga_url": "https://www.wga.hu/html/b/bronzino/3/e_pieta.html"
   }
  },
  {
   "type": "Feature",
   "geometry": {
    "type": "Point",
    "coordinates": [
     30.3136,
     59.9406
    ]
   },
   "properties": {
    "painter": "Bronzino",
    "title": "Flaying of Marsyas",
    "year": "c. 1531–1532",
    "city": "Saint Petersburg",
    "location": "Hermitage Museum",
    "attribution": "generally accepted",
    "medium": "Oil on canvas",
    "dimensions": "48 × 119 cm",
    "image": "https://upload.wikimedia.org/wikipedia/commons/thumb/b/b6/Angelo_Bronzino_-_Sfida_tra_apollo_e_marsia.jpg/500px-Angelo_Bronzino_-_Sfida_tra_apollo_e_marsia.jpg?utm_source=en.wikipedia.org&amp;utm_campaign=parser&amp;utm_content=thumbnail",
    "notable": true,
    "wikipedia_en": "https://en.wikipedia.org/wiki/Flaying_of_Marsyas_(Bronzino)",
    "creation_place": "Florence",
    "creation_lat": 43.7696,
    "creation_lon": 11.2558,
    "_source": {
     "source": "Wikipedia: List of works by Bronzino",
     "coord": "MediaWiki coordinates API"
    },
    "museum_id": "hermitage-museum",
    "country": "Russia",
    "qid": "Q21723151",
    "wikidata": "https://www.wikidata.org/wiki/Q21723151"
   }
  },
  {
   "type": "Feature",
   "geometry": {
    "type": "Point",
    "coordinates": [
     -0.142,
     51.501
    ]
   },
   "properties": {
    "painter": "Bronzino",
    "title": "Portrait of a Lady in Green",
    "year": "1530–1532",
    "city": "England",
    "location": "Royal Collection",
    "attribution": "generally accepted",
    "medium": "Oil on poplar panel",
    "dimensions": "76.6 x 66.2 cm",
    "image": "https://upload.wikimedia.org/wikipedia/commons/thumb/9/9a/Agnolo_Bronzino_%281503-72%29_-_Portrait_of_a_Lady_in_Green_-_RCIN_405754_-_Royal_Collection.jpg/500px-Agnolo_Bronzino_%281503-72%29_-_Portrait_of_a_Lady_in_Green_-_RCIN_405754_-_Royal_Collection.jpg?utm_source=en.wikipedia.org&amp;utm_campaign=parser&amp;utm_content=thumbnail",
    "notable": true,
    "creation_place": "Florence",
    "creation_lat": 43.7696,
    "creation_lon": 11.2558,
    "_source": {
     "source": "Wikipedia: List of works by Bronzino",
     "coord": "MediaWiki coordinates API"
    },
    "museum_id": "royal-collection",
    "country": "United Kingdom"
   }
  },
  {
   "type": "Feature",
   "geometry": {
    "type": "Point",
    "coordinates": [
     -3.69493,
     40.41604
    ]
   },
   "properties": {
    "painter": "Bronzino",
    "title": "Portrait of a Young Man as Saint Sebastian",
    "year": "c. 1533",
    "city": "Madrid",
    "country": "Spain",
    "location": "Thyssen-Bornemisza Museum",
    "attribution": "generally accepted",
    "medium": "Oil on panel",
    "dimensions": "87 x 76.5 cm",
    "image": "https://upload.wikimedia.org/wikipedia/commons/thumb/b/bb/Bronzino_-_Saint_Sebastian_-_Google_Art_Project.jpg/500px-Bronzino_-_Saint_Sebastian_-_Google_Art_Project.jpg?utm_source=en.wikipedia.org&amp;utm_campaign=parser&amp;utm_content=thumbnail",
    "notable": true,
    "wikipedia_en": "https://en.wikipedia.org/wiki/Portrait_of_a_Young_Man_as_Saint_Sebastian",
    "creation_place": "Florence",
    "creation_lat": 43.7696,
    "creation_lon": 11.2558,
    "_source": {
     "source": "Wikipedia: List of works by Bronzino",
     "coord": "MediaWiki coordinates API"
    },
    "museum_id": "thyssen-bornemisza-museum",
    "qid": "Q18683039",
    "wikidata": "https://www.wikidata.org/wiki/Q18683039",
    "wga_url": "https://www.wga.hu/html/b/bronzino/3/sebastia.html"
   }
  },
  {
   "type": "Feature",
   "geometry": {
    "type": "Point",
    "coordinates": [
     13.3647,
     52.5086
    ]
   },
   "properties": {
    "painter": "Bronzino",
    "title": "Portrait of Ugolino Martelli",
    "year": "1536–1537",
    "city": "Berlin",
    "country": "Germany",
    "location": "Gemäldegalerie",
    "attribution": "generally accepted",
    "medium": "Oil on poplar panel",
    "dimensions": "102 × 85 cm",
    "image": "https://upload.wikimedia.org/wikipedia/commons/thumb/b/b9/Angelo_Bronzino_-_portrait_of_Ugolino_Martelli_-_WGA3264.jpg/500px-Angelo_Bronzino_-_portrait_of_Ugolino_Martelli_-_WGA3264.jpg?utm_source=en.wikipedia.org&amp;utm_campaign=parser&amp;utm_content=thumbnail",
    "notable": true,
    "wikipedia_en": "https://en.wikipedia.org/wiki/Portrait_of_Ugolino_Martelli",
    "creation_place": "Florence",
    "creation_lat": 43.7696,
    "creation_lon": 11.2558,
    "_source": {
     "source": "Wikipedia: List of works by Bronzino",
     "coord": "MediaWiki coordinates API"
    },
    "museum_id": "gemaldegalerie",
    "qid": "Q7232310",
    "wikidata": "https://www.wikidata.org/wiki/Q7232310"
   }
  },
  {
   "type": "Feature",
   "geometry": {
    "type": "Point",
    "coordinates": [
     -73.9631,
     40.7794
    ]
   },
   "properties": {
    "painter": "Bronzino",
    "title": "Portrait of a Young Man with a Book",
    "year": "1530s",
    "city": "New York",
    "location": "Metropolitan Museum of Art",
    "attribution": "generally accepted",
    "medium": "Oil on wood",
    "dimensions": "95.6 cm × 74.9 cm",
    "image": "https://upload.wikimedia.org/wikipedia/commons/thumb/d/d4/Bronzino_%28Agnolo_di_Cosimo_di_Mariano%29_-_Portrait_of_a_Young_Man_-_The_Metropolitan_Museum_of_Art.jpg/500px-Bronzino_%28Agnolo_di_Cosimo_di_Mariano%29_-_Portrait_of_a_Young_Man_-_The_Metropolitan_Museum_of_Art.jpg?utm_source=en.wikipedia.org&amp;utm_campaign=parser&amp;utm_content=thumbnail",
    "notable": true,
    "wikipedia_en": "https://en.wikipedia.org/wiki/Portrait_of_a_Young_Man_with_a_Book_(Bronzino)",
    "creation_place": "Florence",
    "creation_lat": 43.7696,
    "creation_lon": 11.2558,
    "_source": {
     "source": "Wikipedia: List of works by Bronzino",
     "coord": "MediaWiki coordinates API"
    },
    "museum_id": "metropolitan-museum-of-art",
    "country": "United States",
    "qid": "Q3937730",
    "wikidata": "https://www.wikidata.org/wiki/Q3937730",
    "wga_url": "https://www.wga.hu/html/b/bronzino/2/young_ma.html"
   }
  },
  {
   "type": "Feature",
   "geometry": {
    "type": "Point",
    "coordinates": [
     2.3358,
     48.8611
    ]
   },
   "properties": {
    "painter": "Bronzino",
    "title": "Portrait of a Man Holding a Statuette",
    "year": "c. 1525–1575",
    "city": "Paris",
    "country": "France",
    "location": "Louvre",
    "attribution": "generally accepted",
    "medium": "Oil on wood transferred to canvas",
    "dimensions": "99 x 79 cm",
    "image": "https://upload.wikimedia.org/wikipedia/commons/thumb/0/00/Bronzino_-_Portrait_d%27homme_tenant_une_statuette_02.jpg/500px-Bronzino_-_Portrait_d%27homme_tenant_une_statuette_02.jpg?utm_source=en.wikipedia.org&amp;utm_campaign=parser&amp;utm_content=thumbnail",
    "notable": true,
    "creation_place": "Florence",
    "creation_lat": 43.7696,
    "creation_lon": 11.2558,
    "_source": {
     "source": "Wikipedia: List of works by Bronzino",
     "coord": "MediaWiki coordinates API"
    },
    "museum_id": "louvre"
   }
  },
  {
   "type": "Feature",
   "geometry": {
    "type": "Point",
    "coordinates": [
     -71.05778,
     42.36028
    ]
   },
   "properties": {
    "painter": "Bronzino",
    "title": "Adoration of the Shepherds",
    "year": "1539–1540",
    "city": "Boston",
    "country": "United States",
    "location": "Museum of Fine Arts",
    "attribution": "generally accepted",
    "medium": "Oil on poplar panel",
    "dimensions": "65.3 x 46.7 cm",
    "image": "https://upload.wikimedia.org/wikipedia/commons/thumb/3/36/Worship_of_the_shepherds_by_bronzino.jpg/500px-Worship_of_the_shepherds_by_bronzino.jpg?utm_source=en.wikipedia.org&amp;utm_campaign=parser&amp;utm_content=thumbnail",
    "notable": true,
    "wikipedia_en": "https://en.wikipedia.org/wiki/Adoration_of_the_Shepherds_(Bronzino)",
    "creation_place": "Florence",
    "creation_lat": 43.7696,
    "creation_lon": 11.2558,
    "_source": {
     "source": "Wikipedia: List of works by Bronzino",
     "coord": "MediaWiki coordinates API"
    },
    "museum_id": "museum-of-fine-arts",
    "qid": "Q50973173",
    "wikidata": "https://www.wikidata.org/wiki/Q50973173",
    "wga_url": "https://www.wga.hu/html/b/bronzino/3/adorati3.html"
   }
  },
  {
   "type": "Feature",
   "geometry": {
    "type": "Point",
    "coordinates": [
     11.25528,
     43.76833
    ]
   },
   "properties": {
    "painter": "Bronzino",
    "title": "Panciatichi Holy Family",
    "year": "1541",
    "city": "Florence",
    "country": "Italy",
    "location": "Uffizi Gallery",
    "attribution": "generally accepted",
    "medium": "Oil on panel",
    "dimensions": "117 x 93 cm",
    "image": "https://upload.wikimedia.org/wikipedia/commons/thumb/b/b1/Bronzino_-_Sacra_famiglia_Panciatichi_or_Madonna_Panciatichi_-_Google_Art_Project.jpg/500px-Bronzino_-_Sacra_famiglia_Panciatichi_or_Madonna_Panciatichi_-_Google_Art_Project.jpg?utm_source=en.wikipedia.org&amp;utm_campaign=parser&amp;utm_content=thumbnail",
    "notable": true,
    "wikipedia_en": "https://en.wikipedia.org/wiki/Panciatichi_Holy_Family",
    "creation_place": "Florence",
    "creation_lat": 43.7696,
    "creation_lon": 11.2558,
    "_source": {
     "source": "Wikipedia: List of works by Bronzino",
     "coord": "MediaWiki coordinates API"
    },
    "museum_id": "uffizi-gallery",
    "qid": "Q3944462",
    "wikidata": "https://www.wikidata.org/wiki/Q3944462",
    "wga_url": "https://www.wga.hu/html/b/bronzino/3/holyfamx.html"
   }
  },
  {
   "type": "Feature",
   "geometry": {
    "type": "Point",
    "coordinates": [
     2.3358,
     48.8611
    ]
   },
   "properties": {
    "painter": "Bronzino",
    "title": "Head of a Smiling Young Woman",
    "year": "c. 1542–1543",
    "city": "Paris",
    "country": "France",
    "location": "Louvre",
    "attribution": "generally accepted",
    "medium": "Charcoal and black chalk, with stumping, highlighted with white chalk",
    "dimensions": "28.8 x 21.6 cm",
    "image": "https://upload.wikimedia.org/wikipedia/commons/thumb/4/46/Bronzino-head-of-a-smiling-young-woman-1542-43.jpg/500px-Bronzino-head-of-a-smiling-young-woman-1542-43.jpg?utm_source=en.wikipedia.org&amp;utm_campaign=parser&amp;utm_content=thumbnail",
    "notable": true,
    "creation_place": "Florence",
    "creation_lat": 43.7696,
    "creation_lon": 11.2558,
    "_source": {
     "source": "Wikipedia: List of works by Bronzino",
     "coord": "MediaWiki coordinates API"
    },
    "museum_id": "louvre"
   }
  },
  {
   "type": "Feature",
   "geometry": {
    "type": "Point",
    "coordinates": [
     11.2561,
     43.7694
    ]
   },
   "properties": {
    "painter": "Bronzino",
    "title": "Crossing of the Red Sea",
    "year": "1542",
    "city": "Florence",
    "country": "Italy",
    "location": "Palazzo Vecchio",
    "attribution": "generally accepted",
    "medium": "Fresco",
    "dimensions": "320 x 490 cm",
    "image": "https://upload.wikimedia.org/wikipedia/commons/thumb/3/3c/Agnolo_Bronzino_-_The_crossing_of_the_Red_Sea_-_Google_Art_Project.jpg/500px-Agnolo_Bronzino_-_The_crossing_of_the_Red_Sea_-_Google_Art_Project.jpg?utm_source=en.wikipedia.org&amp;utm_campaign=parser&amp;utm_content=thumbnail",
    "notable": true,
    "wikipedia_en": "https://en.wikipedia.org/wiki/Crossing_of_the_Red_Sea_(Bronzino)",
    "creation_place": "Florence",
    "creation_lat": 43.7696,
    "creation_lon": 11.2558,
    "_source": {
     "source": "Wikipedia: List of works by Bronzino",
     "coord": "MediaWiki coordinates API"
    },
    "museum_id": "palazzo-vecchio",
    "qid": "Q1404331",
    "wikidata": "https://www.wikidata.org/wiki/Q1404331"
   }
  },
  {
   "type": "Feature",
   "geometry": {
    "type": "Point",
    "coordinates": [
     11.2561,
     43.7694
    ]
   },
   "properties": {
    "painter": "Bronzino",
    "title": "Adoration of the Bronze Snake",
    "year": "1540–1545",
    "city": "Florence",
    "country": "Italy",
    "location": "Palazzo Vecchio",
    "attribution": "generally accepted",
    "medium": "Fresco",
    "dimensions": "380 x 300 cm",
    "image": "https://upload.wikimedia.org/wikipedia/commons/thumb/1/1d/Agnolo_Bronzino_-_The_adoration_of_the_bronze_snake_-_Google_Art_Project_%2827465014%29.jpg/500px-Agnolo_Bronzino_-_The_adoration_of_the_bronze_snake_-_Google_Art_Project_%2827465014%29.jpg?utm_source=en.wikipedia.org&amp;utm_campaign=parser&amp;utm_content=thumbnail",
    "notable": true,
    "creation_place": "Florence",
    "creation_lat": 43.7696,
    "creation_lon": 11.2558,
    "_source": {
     "source": "Wikipedia: List of works by Bronzino",
     "coord": "MediaWiki coordinates API"
    },
    "museum_id": "palazzo-vecchio"
   }
  },
  {
   "type": "Feature",
   "geometry": {
    "type": "Point",
    "coordinates": [
     6.02,
     47.24
    ]
   },
   "properties": {
    "painter": "Bronzino",
    "title": "Deposition of Christ",
    "year": "1545",
    "city": "Besançon",
    "location": "Musée des Beaux-Arts",
    "attribution": "generally accepted",
    "medium": "Oil on panel",
    "dimensions": "268 × 173 cm",
    "image": "https://upload.wikimedia.org/wikipedia/commons/thumb/7/7f/D%C3%A9ploration_sur_le_Christ_mort_%28Bronzino%29.jpg/500px-D%C3%A9ploration_sur_le_Christ_mort_%28Bronzino%29.jpg?utm_source=en.wikipedia.org&amp;utm_campaign=parser&amp;utm_content=thumbnail",
    "notable": true,
    "wikipedia_en": "https://en.wikipedia.org/wiki/Deposition_of_Christ_(Bronzino)",
    "creation_place": "Florence",
    "creation_lat": 43.7696,
    "creation_lon": 11.2558,
    "_source": {
     "source": "Wikipedia: List of works by Bronzino",
     "coord": "MediaWiki coordinates API"
    },
    "museum_id": "musee-des-beaux-arts",
    "qid": "Q1131476",
    "wikidata": "https://www.wikidata.org/wiki/Q1131476",
    "wga_url": "https://www.wga.hu/html/b/bronzino/3a/01eleono.html",
    "country": "France"
   }
  },
  {
   "type": "Feature",
   "geometry": {
    "type": "Point",
    "coordinates": [
     9.18782,
     45.47196
    ]
   },
   "properties": {
    "painter": "Bronzino",
    "title": "Portrait of Andrea Doria as Neptune",
    "year": "c. 1530s–1540s",
    "city": "Milan",
    "country": "Italy",
    "location": "Pinacoteca di Brera",
    "attribution": "generally accepted",
    "medium": "Oil on canvas",
    "dimensions": "199.5 × 149 cm",
    "image": "https://upload.wikimedia.org/wikipedia/commons/thumb/d/d0/Angelo_Bronzino_-_Portrait_of_Andrea_Doria_as_Neptune_-_WGA3261.jpg/500px-Angelo_Bronzino_-_Portrait_of_Andrea_Doria_as_Neptune_-_WGA3261.jpg?utm_source=en.wikipedia.org&amp;utm_campaign=parser&amp;utm_content=thumbnail",
    "notable": true,
    "wikipedia_en": "https://en.wikipedia.org/wiki/Portrait_of_Andrea_Doria_as_Neptune",
    "creation_place": "Florence",
    "creation_lat": 43.7696,
    "creation_lon": 11.2558,
    "_source": {
     "source": "Wikipedia: List of works by Bronzino",
     "coord": "MediaWiki coordinates API"
    },
    "museum_id": "pinacoteca-di-brera",
    "qid": "Q493792",
    "wikidata": "https://www.wikidata.org/wiki/Q493792",
    "wga_url": "https://www.wga.hu/html/b/bronzino/2/doria.html"
   }
  },
  {
   "type": "Feature",
   "geometry": {
    "type": "Point",
    "coordinates": [
     11.25528,
     43.76833
    ]
   },
   "properties": {
    "painter": "Bronzino",
    "title": "Portrait of Bartolomeo Panciatichi",
    "year": "c. 1540",
    "city": "Florence",
    "country": "Italy",
    "location": "Uffizi Gallery",
    "attribution": "generally accepted",
    "medium": "Oil on panel",
    "dimensions": "104 × 85 cm",
    "image": "https://upload.wikimedia.org/wikipedia/commons/thumb/a/a3/Painting_-_Portrait_of_Bartolomeo_Panciatichi_by_Bronzino.jpg/500px-Painting_-_Portrait_of_Bartolomeo_Panciatichi_by_Bronzino.jpg?utm_source=en.wikipedia.org&amp;utm_campaign=parser&amp;utm_content=thumbnail",
    "notable": true,
    "wikipedia_en": "https://en.wikipedia.org/wiki/Portrait_of_Bartolomeo_Panciatichi",
    "creation_place": "Florence",
    "creation_lat": 43.7696,
    "creation_lon": 11.2558,
    "_source": {
     "source": "Wikipedia: List of works by Bronzino",
     "coord": "MediaWiki coordinates API"
    },
    "museum_id": "uffizi-gallery",
    "qid": "Q3937473",
    "wikidata": "https://www.wikidata.org/wiki/Q3937473",
    "wga_url": "https://www.wga.hu/html/b/bronzino/2/panciat1.html"
   }
  },
  {
   "type": "Feature",
   "geometry": {
    "type": "Point",
    "coordinates": [
     11.25528,
     43.76833
    ]
   },
   "properties": {
    "painter": "Bronzino",
    "title": "Portrait of Lucrezia Panciatichi",
    "year": "c. 1540–1545",
    "city": "Florence",
    "country": "Italy",
    "location": "Uffizi Gallery",
    "attribution": "generally accepted",
    "medium": "Oil on panel",
    "dimensions": "101 x 82.8 cm",
    "image": "https://upload.wikimedia.org/wikipedia/commons/thumb/f/ff/Agnolo_di_Cosimo_Tori_detto_Bronzino_%28Firenze%2C_1503-1572%29_-_Ritratto_di_Lucrezia_Panciatichi_-_736_-_Uffizi_Gallery.jpg/500px-Agnolo_di_Cosimo_Tori_detto_Bronzino_%28Firenze%2C_1503-1572%29_-_Ritratto_di_Lucrezia_Panciatichi_-_736_-_Uffizi_Gallery.jpg?utm_source=en.wikipedia.org&amp;utm_campaign=parser&amp;utm_content=thumbnail",
    "notable": true,
    "wikipedia_en": "https://en.wikipedia.org/wiki/Portrait_of_Lucrezia_Panciatichi",
    "creation_place": "Florence",
    "creation_lat": 43.7696,
    "creation_lon": 11.2558,
    "_source": {
     "source": "Wikipedia: List of works by Bronzino",
     "coord": "MediaWiki coordinates API"
    },
    "museum_id": "uffizi-gallery",
    "qid": "Q1990128",
    "wikidata": "https://www.wikidata.org/wiki/Q1990128",
    "wga_url": "https://www.wga.hu/html/b/bronzino/2/panciat2.html"
   }
  },
  {
   "type": "Feature",
   "geometry": {
    "type": "Point",
    "coordinates": [
     11.25528,
     43.76833
    ]
   },
   "properties": {
    "painter": "Bronzino",
    "title": "Portrait of Bia de' Medici",
    "year": "c. 1542",
    "city": "Florence",
    "country": "Italy",
    "location": "Uffizi Gallery",
    "attribution": "generally accepted",
    "medium": "Oil on panel",
    "dimensions": "63.3 x 48 cm",
    "image": "https://upload.wikimedia.org/wikipedia/commons/thumb/7/7b/Bia_di_Cosimo_de%E2%80%98_Medici%2C_by_Agnolo_Bronzino.jpg/500px-Bia_di_Cosimo_de%E2%80%98_Medici%2C_by_Agnolo_Bronzino.jpg?utm_source=en.wikipedia.org&amp;utm_campaign=parser&amp;utm_content=thumbnail",
    "notable": true,
    "wikipedia_en": "https://en.wikipedia.org/wiki/Portrait_of_Bia_de%27_Medici",
    "creation_place": "Florence",
    "creation_lat": 43.7696,
    "creation_lon": 11.2558,
    "_source": {
     "source": "Wikipedia: List of works by Bronzino",
     "coord": "MediaWiki coordinates API"
    },
    "museum_id": "uffizi-gallery",
    "qid": "Q3937472",
    "wikidata": "https://www.wikidata.org/wiki/Q3937472"
   }
  },
  {
   "type": "Feature",
   "geometry": {
    "type": "Point",
    "coordinates": [
     11.25528,
     43.76833
    ]
   },
   "properties": {
    "painter": "Bronzino",
    "title": "Portrait of Giovanni de' Medici as a Child",
    "year": "1545",
    "city": "Florence",
    "country": "Italy",
    "location": "Uffizi Gallery",
    "attribution": "generally accepted",
    "medium": "Tempera on panel",
    "dimensions": "58 × 48 cm",
    "image": "https://upload.wikimedia.org/wikipedia/commons/thumb/e/e6/Giovanni_de%27_Medici_as_a_Child.jpg/500px-Giovanni_de%27_Medici_as_a_Child.jpg?utm_source=en.wikipedia.org&amp;utm_campaign=parser&amp;utm_content=thumbnail",
    "notable": true,
    "wikipedia_en": "https://en.wikipedia.org/wiki/Portrait_of_Giovanni_de%27_Medici_as_a_Child",
    "creation_place": "Florence",
    "creation_lat": 43.7696,
    "creation_lon": 11.2558,
    "_source": {
     "source": "Wikipedia: List of works by Bronzino",
     "coord": "MediaWiki coordinates API"
    },
    "museum_id": "uffizi-gallery",
    "qid": "Q3784272",
    "wikidata": "https://www.wikidata.org/wiki/Q3784272",
    "wga_url": "https://www.wga.hu/html/b/bronzino/1/g_medici.html"
   }
  },
  {
   "type": "Feature",
   "geometry": {
    "type": "Point",
    "coordinates": [
     -83.0647,
     42.3594
    ]
   },
   "properties": {
    "painter": "Bronzino",
    "title": "Portrait of Eleanor of Toledo and her son Giovanni de' Medici",
    "year": "c. 1545",
    "location": "Detroit Institute of Arts",
    "attribution": "generally accepted",
    "medium": "Oil on panel",
    "dimensions": "115 x 96 cm",
    "image": "https://upload.wikimedia.org/wikipedia/commons/thumb/f/f0/Bronzino_-_Eleonora_di_Toledo_col_figlio_Giovanni_-_Google_Art_Project.jpg/500px-Bronzino_-_Eleonora_di_Toledo_col_figlio_Giovanni_-_Google_Art_Project.jpg?utm_source=en.wikipedia.org&amp;utm_campaign=parser&amp;utm_content=thumbnail",
    "notable": true,
    "wikipedia_en": "https://en.wikipedia.org/wiki/Portrait_of_Eleanor_of_Toledo",
    "creation_place": "Florence",
    "creation_lat": 43.7696,
    "creation_lon": 11.2558,
    "_source": {
     "source": "Wikipedia: List of works by Bronzino",
     "coord": "MediaWiki coordinates API"
    },
    "museum_id": "detroit-institute-of-arts",
    "city": "Detroit",
    "country": "United States",
    "qid": "Q1328065",
    "wikidata": "https://www.wikidata.org/wiki/Q1328065",
    "wga_url": "https://www.wga.hu/html/b/bronzino/1/eleonora.html"
   }
  },
  {
   "type": "Feature",
   "geometry": {
    "type": "Point",
    "coordinates": [
     11.25528,
     43.76833
    ]
   },
   "properties": {
    "painter": "Bronzino",
    "title": "Portrait of Cosimo I de' Medici",
    "year": "1543–1545",
    "city": "Florence",
    "country": "Italy",
    "location": "Uffizi Gallery",
    "attribution": "generally accepted",
    "medium": "Oil on panel",
    "dimensions": "74 x 58 cm",
    "image": "https://upload.wikimedia.org/wikipedia/commons/thumb/3/30/Portrait_of_Cosimo_I_de%27_Medici_in_armour%2C_by_Agnolo_Bronzino_%28Uffizi_Gallery%2C_Florence%29.jpg/500px-Portrait_of_Cosimo_I_de%27_Medici_in_armour%2C_by_Agnolo_Bronzino_%28Uffizi_Gallery%2C_Florence%29.jpg?utm_source=en.wikipedia.org&amp;utm_campaign=parser&amp;utm_content=thumbnail",
    "notable": true,
    "wikipedia_en": "https://en.wikipedia.org/wiki/Portrait_of_Cosimo_I_de%27_Medici",
    "creation_place": "Florence",
    "creation_lat": 43.7696,
    "creation_lon": 11.2558,
    "_source": {
     "source": "Wikipedia: List of works by Bronzino",
     "coord": "MediaWiki coordinates API"
    },
    "museum_id": "uffizi-gallery",
    "qid": "Q3625842",
    "wikidata": "https://www.wikidata.org/wiki/Q3625842",
    "wga_url": "https://www.wga.hu/html/b/bronzino/1/cosimo.html"
   }
  },
  {
   "type": "Feature",
   "geometry": {
    "type": "Point",
    "coordinates": [
     16.93361,
     52.40833
    ]
   },
   "properties": {
    "painter": "Bronzino",
    "title": "Portrait of Cosimo I de' Medici",
    "year": "c. 1545",
    "city": "Poznań",
    "location": "National Museum",
    "attribution": "generally accepted",
    "medium": "Oil on panel",
    "dimensions": "76 x 59 cm",
    "image": "https://upload.wikimedia.org/wikipedia/commons/thumb/b/b2/Bronzino_Cosimo_de%27_Medici.jpg/500px-Bronzino_Cosimo_de%27_Medici.jpg?utm_source=en.wikipedia.org&amp;utm_campaign=parser&amp;utm_content=thumbnail",
    "notable": true,
    "creation_place": "Florence",
    "creation_lat": 43.7696,
    "creation_lon": 11.2558,
    "_source": {
     "source": "Wikipedia: List of works by Bronzino",
     "coord": "MediaWiki coordinates API"
    },
    "museum_id": "national-museum"
   }
  },
  {
   "type": "Feature",
   "geometry": {
    "type": "Point",
    "coordinates": [
     151.2172,
     -33.8686
    ]
   },
   "properties": {
    "painter": "Bronzino",
    "title": "Portrait of Cosimo I de' Medici",
    "year": "c. 1545",
    "city": "Sydney",
    "location": "Art Gallery of New South Wales",
    "attribution": "generally accepted",
    "medium": "Oil on poplar panel",
    "dimensions": "86 x 66.8 cm",
    "image": "https://upload.wikimedia.org/wikipedia/commons/thumb/f/f2/Agnolo_Bronzino_-_Cosimo_I_de%27_Medici_in_armour_-_Google_Art_Project.jpg/500px-Agnolo_Bronzino_-_Cosimo_I_de%27_Medici_in_armour_-_Google_Art_Project.jpg?utm_source=en.wikipedia.org&amp;utm_campaign=parser&amp;utm_content=thumbnail",
    "notable": true,
    "creation_place": "Florence",
    "creation_lat": 43.7696,
    "creation_lon": 11.2558,
    "_source": {
     "source": "Wikipedia: List of works by Bronzino",
     "coord": "MediaWiki coordinates API"
    },
    "museum_id": "art-gallery-of-new-south-wales"
   }
  },
  {
   "type": "Feature",
   "geometry": {
    "type": "Point",
    "coordinates": [
     -3.69493,
     40.41604
    ]
   },
   "properties": {
    "painter": "Bronzino",
    "title": "Portrait of Cosimo I de' Medici",
    "year": "c. 1545",
    "city": "Madrid",
    "country": "Spain",
    "location": "Thyssen-Bornemisza Museum",
    "attribution": "generally accepted",
    "medium": "Oil on panel",
    "dimensions": "76.5 x 59 cm",
    "image": "https://upload.wikimedia.org/wikipedia/commons/thumb/7/79/Cosimo_I_de%27_Medici_in_Armour_%28by_Agnolo_Bronzino%2C_ca._1545%29_-_Museo_Nacional_Thyssen-Bornemisza%2C_Madrid.jpg/500px-Cosimo_I_de%27_Medici_in_Armour_%28by_Agnolo_Bronzino%2C_ca._1545%29_-_Museo_Nacional_Thyssen-Bornemisza%2C_Madrid.jpg?utm_source=en.wikipedia.org&amp;utm_campaign=parser&amp;utm_content=thumbnail",
    "notable": true,
    "creation_place": "Florence",
    "creation_lat": 43.7696,
    "creation_lon": 11.2558,
    "_source": {
     "source": "Wikipedia: List of works by Bronzino",
     "coord": "MediaWiki coordinates API"
    },
    "museum_id": "thyssen-bornemisza-museum"
   }
  },
  {
   "type": "Feature",
   "geometry": {
    "type": "Point",
    "coordinates": [
     12.48953,
     41.90278
    ]
   },
   "properties": {
    "painter": "Bronzino",
    "title": "Portrait of Stefano Colonna",
    "year": "c. 1546",
    "city": "Rome",
    "country": "Italy",
    "location": "Galleria Nazionale d'Arte Antica",
    "attribution": "generally accepted",
    "medium": "Tempera on wood",
    "dimensions": "125 x 95 cm",
    "image": "https://upload.wikimedia.org/wikipedia/commons/thumb/6/69/Stefano_IV_Colonna%2C_por_Bronzino.jpg/500px-Stefano_IV_Colonna%2C_por_Bronzino.jpg?utm_source=en.wikipedia.org&amp;utm_campaign=parser&amp;utm_content=thumbnail",
    "notable": true,
    "wikipedia_en": "https://en.wikipedia.org/wiki/Portrait_of_Stefano_Colonna",
    "creation_place": "Florence",
    "creation_lat": 43.7696,
    "creation_lon": 11.2558,
    "_source": {
     "source": "Wikipedia: List of works by Bronzino",
     "coord": "MediaWiki coordinates API"
    },
    "museum_id": "galleria-nazionale-d-arte-antica",
    "qid": "Q28113318",
    "wikidata": "https://www.wikidata.org/wiki/Q28113318",
    "wga_url": "https://www.wga.hu/html/b/bronzino/2/colonna.html"
   }
  },
  {
   "type": "Feature",
   "geometry": {
    "type": "Point",
    "coordinates": [
     16.3616,
     48.20388
    ]
   },
   "properties": {
    "painter": "Bronzino",
    "title": "Holy Family with Saint Anne and the Infant Saint John",
    "year": "c. 1545–1546",
    "city": "Vienna",
    "country": "Austria",
    "location": "Kunsthistorisches Museum",
    "attribution": "generally accepted",
    "medium": "Oil on wood",
    "dimensions": "126.8 x 101.5 cm",
    "image": "https://upload.wikimedia.org/wikipedia/commons/thumb/1/1f/Agnolo_di_Cosimo%2C_called_Bronzino_-_Holy_Family_with_St._Anne_and_the_Infant_St._John_-_Google_Art_Project.jpg/500px-Agnolo_di_Cosimo%2C_called_Bronzino_-_Holy_Family_with_St._Anne_and_the_Infant_St._John_-_Google_Art_Project.jpg?utm_source=en.wikipedia.org&amp;utm_campaign=parser&amp;utm_content=thumbnail",
    "notable": true,
    "wikipedia_en": "https://en.wikipedia.org/wiki/Holy_Family_with_Saint_Anne_and_the_Infant_Saint_John",
    "creation_place": "Florence",
    "creation_lat": 43.7696,
    "creation_lon": 11.2558,
    "_source": {
     "source": "Wikipedia: List of works by Bronzino",
     "coord": "MediaWiki coordinates API"
    },
    "museum_id": "kunsthistorisches-museum",
    "qid": "Q118190483",
    "wikidata": "https://www.wikidata.org/wiki/Q118190483"
   }
  },
  {
   "type": "Feature",
   "geometry": {
    "type": "Point",
    "coordinates": [
     2.3358,
     48.8611
    ]
   },
   "properties": {
    "painter": "Bronzino",
    "title": "Holy Family with Saint Elizabeth and the Infant Saint John the Baptist",
    "year": "c. 1525–1550",
    "city": "Paris",
    "country": "France",
    "location": "Louvre",
    "attribution": "generally accepted",
    "medium": "Oil on panel",
    "dimensions": "133 x 101 cm",
    "image": "https://upload.wikimedia.org/wikipedia/commons/thumb/5/55/Bronzino_-_La_Sainte_Famille_avec_sainte_Anne_et_le_petit_saint_Jean-Baptiste_02.jpg/500px-Bronzino_-_La_Sainte_Famille_avec_sainte_Anne_et_le_petit_saint_Jean-Baptiste_02.jpg?utm_source=en.wikipedia.org&amp;utm_campaign=parser&amp;utm_content=thumbnail",
    "notable": true,
    "creation_place": "Florence",
    "creation_lat": 43.7696,
    "creation_lon": 11.2558,
    "_source": {
     "source": "Wikipedia: List of works by Bronzino",
     "coord": "MediaWiki coordinates API"
    },
    "museum_id": "louvre"
   }
  },
  {
   "type": "Feature",
   "geometry": {
    "type": "Point",
    "coordinates": [
     -0.1283,
     51.5089
    ]
   },
   "properties": {
    "painter": "Bronzino",
    "title": "Venus, Cupid, Folly and Time",
    "year": "c. 1545",
    "city": "London",
    "country": "United Kingdom",
    "location": "National Gallery",
    "attribution": "generally accepted",
    "medium": "Oil on wood",
    "dimensions": "146.1 × 116.2 cm",
    "image": "https://upload.wikimedia.org/wikipedia/commons/thumb/8/83/Angelo_Bronzino_-_Venus%2C_Cupid%2C_Folly_and_Time_-_National_Gallery%2C_London.jpg/500px-Angelo_Bronzino_-_Venus%2C_Cupid%2C_Folly_and_Time_-_National_Gallery%2C_London.jpg?utm_source=en.wikipedia.org&amp;utm_campaign=parser&amp;utm_content=thumbnail",
    "notable": true,
    "wikipedia_en": "https://en.wikipedia.org/wiki/Venus,_Cupid,_Folly_and_Time",
    "creation_place": "Florence",
    "creation_lat": 43.7696,
    "creation_lon": 11.2558,
    "_source": {
     "source": "Wikipedia: List of works by Bronzino",
     "coord": "MediaWiki coordinates API"
    },
    "museum_id": "national-gallery",
    "qid": "Q1430990",
    "wikidata": "https://www.wikidata.org/wiki/Q1430990",
    "wga_url": "https://www.wga.hu/html/b/bronzino/4/venus_cx.html"
   }
  },
  {
   "type": "Feature",
   "geometry": {
    "type": "Point",
    "coordinates": [
     -71.05778,
     42.36028
    ]
   },
   "properties": {
    "painter": "Bronzino",
    "title": "Venus, Cupid and Jealousy",
    "year": "1548–1550",
    "city": "Boston",
    "country": "United States",
    "location": "Museum of Fine Arts",
    "attribution": "generally accepted",
    "medium": "Oil on poplar",
    "dimensions": "192 x 142 cm",
    "image": "https://upload.wikimedia.org/wikipedia/commons/thumb/3/3b/Budapest_kunst_0018.tif/lossy-page1-250px-Budapest_kunst_0018.tif.jpg?utm_source=en.wikipedia.org&amp;utm_campaign=parser&amp;utm_content=thumbnail",
    "notable": true,
    "creation_place": "Florence",
    "creation_lat": 43.7696,
    "creation_lon": 11.2558,
    "_source": {
     "source": "Wikipedia: List of works by Bronzino",
     "coord": "MediaWiki coordinates API"
    },
    "museum_id": "museum-of-fine-arts"
   }
  },
  {
   "type": "Feature",
   "geometry": {
    "type": "Point",
    "coordinates": [
     -0.1283,
     51.5089
    ]
   },
   "properties": {
    "painter": "Bronzino",
    "title": "Portrait of a Young Man",
    "year": "c. 1550–1555",
    "city": "London",
    "country": "United Kingdom",
    "location": "National Gallery",
    "attribution": "generally accepted",
    "medium": "Oil on panel",
    "dimensions": "75 x 57.5 cm",
    "image": "https://upload.wikimedia.org/wikipedia/commons/thumb/9/91/Angelo_Bronzino_-_Portrait_of_a_Young_Man.jpg/500px-Angelo_Bronzino_-_Portrait_of_a_Young_Man.jpg?utm_source=en.wikipedia.org&amp;utm_campaign=parser&amp;utm_content=thumbnail",
    "notable": true,
    "creation_place": "Florence",
    "creation_lat": 43.7696,
    "creation_lon": 11.2558,
    "_source": {
     "source": "Wikipedia: List of works by Bronzino",
     "coord": "MediaWiki coordinates API"
    },
    "museum_id": "national-gallery"
   }
  },
  {
   "type": "Feature",
   "geometry": {
    "type": "Point",
    "coordinates": [
     -73.9672,
     40.7711
    ]
   },
   "properties": {
    "painter": "Bronzino",
    "title": "Portrait of Lodovico Capponi",
    "year": "c. 1550–1555",
    "city": "New York",
    "location": "Frick Collection",
    "attribution": "generally accepted",
    "medium": "Oil on panel",
    "dimensions": "117 x 86 cm",
    "image": "https://upload.wikimedia.org/wikipedia/commons/thumb/c/ca/Angelo_Bronzino_055.jpg/500px-Angelo_Bronzino_055.jpg?utm_source=en.wikipedia.org&amp;utm_campaign=parser&amp;utm_content=thumbnail",
    "notable": true,
    "creation_place": "Florence",
    "creation_lat": 43.7696,
    "creation_lon": 11.2558,
    "_source": {
     "source": "Wikipedia: List of works by Bronzino",
     "coord": "MediaWiki coordinates API"
    },
    "museum_id": "frick-collection",
    "country": "United States"
   }
  },
  {
   "type": "Feature",
   "geometry": {
    "type": "Point",
    "coordinates": [
     -3.6922,
     40.4139
    ]
   },
   "properties": {
    "painter": "Bronzino",
    "title": "Portrait of Don Garcia de' Medici",
    "year": "c. 1550",
    "city": "Madrid",
    "country": "Spain",
    "location": "Museo del Prado",
    "attribution": "generally accepted",
    "medium": "Oil on panel",
    "dimensions": "38 x 48 cm",
    "image": "https://upload.wikimedia.org/wikipedia/commons/thumb/5/52/Garcia_de%27_Medici_by_Angelo_Bronzino.jpg/500px-Garcia_de%27_Medici_by_Angelo_Bronzino.jpg?utm_source=en.wikipedia.org&amp;utm_campaign=parser&amp;utm_content=thumbnail",
    "notable": true,
    "creation_place": "Florence",
    "creation_lat": 43.7696,
    "creation_lon": 11.2558,
    "_source": {
     "source": "Wikipedia: List of works by Bronzino",
     "coord": "MediaWiki coordinates API"
    },
    "museum_id": "museo-del-prado"
   }
  },
  {
   "type": "Feature",
   "geometry": {
    "type": "Point",
    "coordinates": [
     11.25528,
     43.76833
    ]
   },
   "properties": {
    "painter": "Bronzino",
    "title": "Portrait of Don Garcia de' Medici",
    "year": "1555–1565",
    "city": "Florence",
    "country": "Italy",
    "location": "Uffizi Gallery",
    "attribution": "generally accepted",
    "medium": "Oil on tin",
    "dimensions": "15 x 12 cm",
    "image": "https://upload.wikimedia.org/wikipedia/commons/thumb/4/4c/Angelo_Bronzino_-_Garcia_de%27_Medici_-_WGA3255.jpg/500px-Angelo_Bronzino_-_Garcia_de%27_Medici_-_WGA3255.jpg?utm_source=en.wikipedia.org&amp;utm_campaign=parser&amp;utm_content=thumbnail",
    "notable": true,
    "creation_place": "Florence",
    "creation_lat": 43.7696,
    "creation_lon": 11.2558,
    "_source": {
     "source": "Wikipedia: List of works by Bronzino",
     "coord": "MediaWiki coordinates API"
    },
    "museum_id": "uffizi-gallery"
   }
  },
  {
   "type": "Feature",
   "geometry": {
    "type": "Point",
    "coordinates": [
     11.2501,
     43.7652
    ]
   },
   "properties": {
    "painter": "Bronzino",
    "title": "Portrait of the Dwarf Nano Morgante",
    "year": "1552",
    "city": "Florence",
    "country": "Italy",
    "location": "Palazzo Pitti",
    "attribution": "generally accepted",
    "medium": "Oil on canvas",
    "image": "https://upload.wikimedia.org/wikipedia/commons/thumb/1/16/Nano_Morgante.jpg/500px-Nano_Morgante.jpg?utm_source=en.wikipedia.org&amp;utm_campaign=parser&amp;utm_content=thumbnail",
    "notable": true,
    "wikipedia_en": "https://en.wikipedia.org/wiki/Portrait_of_the_Dwarf_Nano_Morgante",
    "creation_place": "Florence",
    "creation_lat": 43.7696,
    "creation_lon": 11.2558,
    "_source": {
     "source": "Wikipedia: List of works by Bronzino",
     "coord": "MediaWiki coordinates API"
    },
    "museum_id": "palazzo-pitti",
    "qid": "Q108314527",
    "wikidata": "https://www.wikidata.org/wiki/Q108314527"
   }
  },
  {
   "type": "Feature",
   "geometry": {
    "type": "Point",
    "coordinates": [
     13.3647,
     52.5086
    ]
   },
   "properties": {
    "painter": "Bronzino",
    "title": "Portrait of a Young Man",
    "year": "c. 1560",
    "city": "Berlin",
    "country": "Germany",
    "location": "Gemäldegalerie",
    "attribution": "generally accepted",
    "medium": "Oil on poplar panel",
    "image": "https://upload.wikimedia.org/wikipedia/commons/thumb/6/6a/Bronzino_-_Bildnis_eines_J%C3%BCnglings%2C_um_1560%2C_S.2_%28cropped%29.jpg/500px-Bronzino_-_Bildnis_eines_J%C3%BCnglings%2C_um_1560%2C_S.2_%28cropped%29.jpg?utm_source=en.wikipedia.org&amp;utm_campaign=parser&amp;utm_content=thumbnail",
    "notable": true,
    "creation_place": "Florence",
    "creation_lat": 43.7696,
    "creation_lon": 11.2558,
    "_source": {
     "source": "Wikipedia: List of works by Bronzino",
     "coord": "MediaWiki coordinates API"
    },
    "museum_id": "gemaldegalerie"
   }
  },
  {
   "type": "Feature",
   "geometry": {
    "type": "Point",
    "coordinates": [
     11.25528,
     43.76833
    ]
   },
   "properties": {
    "painter": "Bronzino",
    "title": "Allegory of Happiness",
    "year": "c. 1567",
    "city": "Florence",
    "country": "Italy",
    "location": "Uffizi Gallery",
    "attribution": "generally accepted",
    "medium": "Oil on copper",
    "dimensions": "40 x 30 cm",
    "image": "https://upload.wikimedia.org/wikipedia/commons/thumb/b/b4/Angelo_Bronzino_-_Allegorie_Des_Gl%C3%BCcks.jpg/500px-Angelo_Bronzino_-_Allegorie_Des_Gl%C3%BCcks.jpg?utm_source=en.wikipedia.org&amp;utm_campaign=parser&amp;utm_content=thumbnail",
    "notable": true,
    "wikipedia_en": "https://en.wikipedia.org/wiki/Allegory_of_Happiness",
    "creation_place": "Florence",
    "creation_lat": 43.7696,
    "creation_lon": 11.2558,
    "_source": {
     "source": "Wikipedia: List of works by Bronzino",
     "coord": "MediaWiki coordinates API"
    },
    "museum_id": "uffizi-gallery",
    "qid": "Q50474718",
    "wikidata": "https://www.wikidata.org/wiki/Q50474718",
    "wga_url": "https://www.wga.hu/html/b/bronzino/4/happines.html"
   }
  }
 ]
}