{
 "type": "FeatureCollection",
 "_note": "Canon from List of paintings by Pieter Bruegel the Elder (Wikipedia). Coords via MediaWiki API.",
 "features": [
  {
   "type": "Feature",
   "geometry": {
    "type": "Point",
    "coordinates": [
     -74.0061,
     40.7128
    ]
   },
   "properties": {
    "painter": "Pieter Bruegel the Elder",
    "title": "Seascape with Ships and a Burning City (disputed attribution)",
    "year": "1553",
    "city": "New York City",
    "location": "Private collection",
    "attribution": "generally accepted",
    "medium": "Oil on panel",
    "dimensions": "22.4 × 34.8 cm",
    "image": "https://upload.wikimedia.org/wikipedia/commons/thumb/5/51/Bruegel%2C_Pieter_Anh%C3%A4nger_-_Seest%C3%BCck_mit_Schiffen_und_brennender_Stadt.jpg/500px-Bruegel%2C_Pieter_Anh%C3%A4nger_-_Seest%C3%BCck_mit_Schiffen_und_brennender_Stadt.jpg?utm_source=en.wikipedia.org&amp;utm_campaign=parser&amp;utm_content=thumbnail",
    "notable": true,
    "creation_place": "Antwerp",
    "creation_lat": 51.2194,
    "creation_lon": 4.4025,
    "_source": {
     "source": "Wikipedia: List of paintings by Pieter Bruegel the Elder",
     "coord": "MediaWiki coordinates API"
    },
    "museum_id": "private-collection"
   }
  },
  {
   "type": "Feature",
   "geometry": {
    "type": "Point",
    "coordinates": [
     4.35824,
     50.84168
    ]
   },
   "properties": {
    "painter": "Pieter Bruegel the Elder",
    "title": "The Adoration of the Kings",
    "year": "c. 1556-1562",
    "location": "Royal Museums of Fine Arts of Belgium",
    "attribution": "generally accepted",
    "medium": "Tempera on canvas",
    "dimensions": "124 × 169 cm",
    "image": "https://upload.wikimedia.org/wikipedia/commons/thumb/5/5f/Anbetung_der_K%C3%B6nige_%28Bruegel%2C_um_1564%29.jpg/500px-Anbetung_der_K%C3%B6nige_%28Bruegel%2C_um_1564%29.jpg?utm_source=en.wikipedia.org&amp;utm_campaign=parser&amp;utm_content=thumbnail",
    "notable": true,
    "creation_place": "Antwerp",
    "creation_lat": 51.2194,
    "creation_lon": 4.4025,
    "_source": {
     "source": "Wikipedia: List of paintings by Pieter Bruegel the Elder",
     "coord": "MediaWiki coordinates API"
    },
    "museum_id": "royal-museums-of-fine-arts-of-belgium",
    "city": "Brussels-Capital Region",
    "country": "Belgium"
   }
  },
  {
   "type": "Feature",
   "geometry": {
    "type": "Point",
    "coordinates": [
     -117.1496,
     32.7318
    ]
   },
   "properties": {
    "painter": "Pieter Bruegel the Elder",
    "title": "Parable of the Sower",
    "year": "1557",
    "location": "Timken Museum of Art",
    "attribution": "generally accepted",
    "medium": "Oil on panel",
    "dimensions": "73.7 × 102.9 cm",
    "image": "https://upload.wikimedia.org/wikipedia/commons/thumb/e/e9/Pieter_Bruegel_d._%C3%84._030.jpg/500px-Pieter_Bruegel_d._%C3%84._030.jpg?utm_source=en.wikipedia.org&amp;utm_campaign=parser&amp;utm_content=thumbnail",
    "notable": true,
    "creation_place": "Antwerp",
    "creation_lat": 51.2194,
    "creation_lon": 4.4025,
    "_source": {
     "source": "Wikipedia: List of paintings by Pieter Bruegel the Elder",
     "coord": "MediaWiki coordinates API"
    },
    "museum_id": "timken-museum-of-art",
    "city": "San Diego",
    "country": "United States"
   }
  },
  {
   "type": "Feature",
   "geometry": {
    "type": "Point",
    "coordinates": [
     4.405,
     51.215
    ]
   },
   "properties": {
    "painter": "Pieter Bruegel the Elder",
    "title": "Twelve Proverbs",
    "year": "1558",
    "location": "Museum Mayer van den Bergh",
    "attribution": "generally accepted",
    "medium": "Oil on panel",
    "dimensions": "75 × 98 cm",
    "image": "https://upload.wikimedia.org/wikipedia/commons/thumb/5/5a/Pieter_%28I%29_Bruegel_-_Twaalf_spreuken_op_borden_-_MMB.0046_-_Museum_Mayer_van_den_Bergh.tiff/lossy-page1-250px-Pieter_%28I%29_Bruegel_-_Twaalf_spreuken_op_borden_-_MMB.0046_-_Museum_Mayer_van_den_Bergh.tiff.jpg?utm_source=en.wikipedia.org&amp;utm_campaign=parser&amp;utm_content=thumbnail",
    "notable": true,
    "creation_place": "Antwerp",
    "creation_lat": 51.2194,
    "creation_lon": 4.4025,
    "_source": {
     "source": "Wikipedia: List of paintings by Pieter Bruegel the Elder",
     "coord": "MediaWiki coordinates API"
    },
    "museum_id": "museum-mayer-van-den-bergh"
   }
  },
  {
   "type": "Feature",
   "geometry": {
    "type": "Point",
    "coordinates": [
     13.35519,
     52.5067
    ]
   },
   "properties": {
    "painter": "Pieter Bruegel the Elder",
    "title": "Netherlandish Proverbs",
    "year": "1559",
    "location": "Berlin State Museums",
    "attribution": "generally accepted",
    "medium": "Oil on panel",
    "dimensions": "117 × 163 cm",
    "image": "https://upload.wikimedia.org/wikipedia/commons/thumb/7/7e/Pieter_Brueghel_the_Elder_-_The_Dutch_Proverbs_-_Google_Art_Project.jpg/500px-Pieter_Brueghel_the_Elder_-_The_Dutch_Proverbs_-_Google_Art_Project.jpg?utm_source=en.wikipedia.org&amp;utm_campaign=parser&amp;utm_content=thumbnail",
    "notable": true,
    "creation_place": "Antwerp",
    "creation_lat": 51.2194,
    "creation_lon": 4.4025,
    "_source": {
     "source": "Wikipedia: List of paintings by Pieter Bruegel the Elder",
     "coord": "MediaWiki coordinates API"
    },
    "museum_id": "berlin-state-museums"
   }
  },
  {
   "type": "Feature",
   "geometry": {
    "type": "Point",
    "coordinates": [
     16.3616,
     48.20388
    ]
   },
   "properties": {
    "painter": "Pieter Bruegel the Elder",
    "title": "The Fight Between Carnival and Lent",
    "year": "1559",
    "location": "Kunsthistorisches Museum",
    "attribution": "generally accepted",
    "medium": "Oil on panel",
    "dimensions": "118 × 164 cm",
    "image": "https://upload.wikimedia.org/wikipedia/commons/thumb/1/1a/Pieter_Bruegel_d._%C3%84._066.jpg/500px-Pieter_Bruegel_d._%C3%84._066.jpg?utm_source=en.wikipedia.org&amp;utm_campaign=parser&amp;utm_content=thumbnail",
    "notable": true,
    "creation_place": "Antwerp",
    "creation_lat": 51.2194,
    "creation_lon": 4.4025,
    "_source": {
     "source": "Wikipedia: List of paintings by Pieter Bruegel the Elder",
     "coord": "MediaWiki coordinates API"
    },
    "museum_id": "kunsthistorisches-museum",
    "city": "Vienna",
    "country": "Austria"
   }
  },
  {
   "type": "Feature",
   "geometry": {
    "type": "Point",
    "coordinates": [
     16.3616,
     48.20388
    ]
   },
   "properties": {
    "painter": "Pieter Bruegel the Elder",
    "title": "Children's Games",
    "year": "1560",
    "location": "Kunsthistorisches Museum",
    "attribution": "generally accepted",
    "medium": "Oil on panel",
    "dimensions": "118 × 161 cm",
    "image": "https://upload.wikimedia.org/wikipedia/commons/thumb/1/1e/Pieter_Bruegel_the_Elder_-_Children%E2%80%99s_Games_-_Google_Art_Project.jpg/500px-Pieter_Bruegel_the_Elder_-_Children%E2%80%99s_Games_-_Google_Art_Project.jpg?utm_source=en.wikipedia.org&amp;utm_campaign=parser&amp;utm_content=thumbnail",
    "notable": true,
    "creation_place": "Antwerp",
    "creation_lat": 51.2194,
    "creation_lon": 4.4025,
    "_source": {
     "source": "Wikipedia: List of paintings by Pieter Bruegel the Elder",
     "coord": "MediaWiki coordinates API"
    },
    "museum_id": "kunsthistorisches-museum",
    "city": "Vienna",
    "country": "Austria"
   }
  },
  {
   "type": "Feature",
   "geometry": {
    "type": "Point",
    "coordinates": [
     12.48114,
     41.89767
    ]
   },
   "properties": {
    "painter": "Pieter Bruegel the Elder",
    "title": "Naval Battle in the Gulf of Naples",
    "year": "c. 1560",
    "location": "Doria Pamphilj Gallery",
    "attribution": "generally accepted",
    "medium": "Oil on panel",
    "dimensions": "42.2 × 71.2 cm",
    "image": "https://upload.wikimedia.org/wikipedia/commons/thumb/a/a3/Pieter_Bruegel_d._%C3%84._031.jpg/500px-Pieter_Bruegel_d._%C3%84._031.jpg?utm_source=en.wikipedia.org&amp;utm_campaign=parser&amp;utm_content=thumbnail",
    "notable": true,
    "creation_place": "Antwerp",
    "creation_lat": 51.2194,
    "creation_lon": 4.4025,
    "_source": {
     "source": "Wikipedia: List of paintings by Pieter Bruegel the Elder",
     "coord": "MediaWiki coordinates API"
    },
    "museum_id": "doria-pamphilj-gallery",
    "city": "Rome",
    "country": "Italy"
   }
  },
  {
   "type": "Feature",
   "geometry": {
    "type": "Point",
    "coordinates": [
     4.35824,
     50.84168
    ]
   },
   "properties": {
    "painter": "Pieter Bruegel the Elder",
    "title": "Landscape with the Fall of Icarus (copy)",
    "year": "1560s",
    "location": "Royal Museums of Fine Arts of Belgium",
    "attribution": "generally accepted",
    "medium": "Oil on canvas",
    "dimensions": "73.5 × 112 cm",
    "image": "https://upload.wikimedia.org/wikipedia/commons/thumb/c/c2/Pieter_Bruegel_de_Oude_-_De_val_van_Icarus.jpg/500px-Pieter_Bruegel_de_Oude_-_De_val_van_Icarus.jpg?utm_source=en.wikipedia.org&amp;utm_campaign=parser&amp;utm_content=thumbnail",
    "notable": true,
    "creation_place": "Antwerp",
    "creation_lat": 51.2194,
    "creation_lon": 4.4025,
    "_source": {
     "source": "Wikipedia: List of paintings by Pieter Bruegel the Elder",
     "coord": "MediaWiki coordinates API"
    },
    "museum_id": "royal-museums-of-fine-arts-of-belgium",
    "city": "Brussels-Capital Region",
    "country": "Belgium"
   }
  },
  {
   "type": "Feature",
   "geometry": {
    "type": "Point",
    "coordinates": [
     16.3616,
     48.20388
    ]
   },
   "properties": {
    "painter": "Pieter Bruegel the Elder",
    "title": "The Suicide of Saul",
    "year": "1562",
    "location": "Kunsthistorisches Museum",
    "attribution": "generally accepted",
    "medium": "Oil on panel",
    "dimensions": "33.5 × 55 cm",
    "image": "https://upload.wikimedia.org/wikipedia/commons/thumb/8/80/Pieter_Bruegel_d._%C3%84._Selbstmord_Sauls.jpg/500px-Pieter_Bruegel_d._%C3%84._Selbstmord_Sauls.jpg?utm_source=en.wikipedia.org&amp;utm_campaign=parser&amp;utm_content=thumbnail",
    "notable": true,
    "creation_place": "Antwerp",
    "creation_lat": 51.2194,
    "creation_lon": 4.4025,
    "_source": {
     "source": "Wikipedia: List of paintings by Pieter Bruegel the Elder",
     "coord": "MediaWiki coordinates API"
    },
    "museum_id": "kunsthistorisches-museum",
    "city": "Vienna",
    "country": "Austria"
   }
  },
  {
   "type": "Feature",
   "geometry": {
    "type": "Point",
    "coordinates": [
     4.35824,
     50.84168
    ]
   },
   "properties": {
    "painter": "Pieter Bruegel the Elder",
    "title": "The Fall of the Rebel Angels",
    "year": "1562",
    "location": "Royal Museums of Fine Arts of Belgium",
    "attribution": "generally accepted",
    "medium": "Oil on panel",
    "dimensions": "117 × 162 cm",
    "image": "https://upload.wikimedia.org/wikipedia/commons/thumb/9/9d/Pieter_Bruegel_the_Elder_-_The_Fall_of_the_Rebel_Angels_-_Google_Art_Project.jpg/500px-Pieter_Bruegel_the_Elder_-_The_Fall_of_the_Rebel_Angels_-_Google_Art_Project.jpg?utm_source=en.wikipedia.org&amp;utm_campaign=parser&amp;utm_content=thumbnail",
    "notable": true,
    "creation_place": "Antwerp",
    "creation_lat": 51.2194,
    "creation_lon": 4.4025,
    "_source": {
     "source": "Wikipedia: List of paintings by Pieter Bruegel the Elder",
     "coord": "MediaWiki coordinates API"
    },
    "museum_id": "royal-museums-of-fine-arts-of-belgium",
    "city": "Brussels-Capital Region",
    "country": "Belgium"
   }
  },
  {
   "type": "Feature",
   "geometry": {
    "type": "Point",
    "coordinates": [
     4.405,
     51.215
    ]
   },
   "properties": {
    "painter": "Pieter Bruegel the Elder",
    "title": "Mad Meg (Dulle Griet)",
    "year": "1562",
    "location": "Museum Mayer van den Bergh",
    "attribution": "generally accepted",
    "medium": "Oil on panel",
    "dimensions": "117.4 × 162 cm",
    "image": "https://upload.wikimedia.org/wikipedia/commons/thumb/e/e5/Pieter_Bruegel_d._%C3%84._023.jpg/500px-Pieter_Bruegel_d._%C3%84._023.jpg?utm_source=en.wikipedia.org&amp;utm_campaign=parser&amp;utm_content=thumbnail",
    "notable": true,
    "creation_place": "Antwerp",
    "creation_lat": 51.2194,
    "creation_lon": 4.4025,
    "_source": {
     "source": "Wikipedia: List of paintings by Pieter Bruegel the Elder",
     "coord": "MediaWiki coordinates API"
    },
    "museum_id": "museum-mayer-van-den-bergh"
   }
  },
  {
   "type": "Feature",
   "geometry": {
    "type": "Point",
    "coordinates": [
     -3.6922,
     40.4139
    ]
   },
   "properties": {
    "painter": "Pieter Bruegel the Elder",
    "title": "The Triumph of Death",
    "year": "с. 1562",
    "location": "Prado",
    "attribution": "generally accepted",
    "medium": "Oil on panel",
    "dimensions": "117 × 162 cm",
    "image": "https://upload.wikimedia.org/wikipedia/commons/thumb/b/b3/The_Triumph_of_Death_by_Pieter_Bruegel_the_Elder.jpg/500px-The_Triumph_of_Death_by_Pieter_Bruegel_the_Elder.jpg?utm_source=en.wikipedia.org&amp;utm_campaign=parser&amp;utm_content=thumbnail",
    "notable": true,
    "creation_place": "Antwerp",
    "creation_lat": 51.2194,
    "creation_lon": 4.4025,
    "_source": {
     "source": "Wikipedia: List of paintings by Pieter Bruegel the Elder",
     "coord": "MediaWiki coordinates API"
    },
    "museum_id": "prado",
    "city": "Madrid",
    "country": "Spain"
   }
  },
  {
   "type": "Feature",
   "geometry": {
    "type": "Point",
    "coordinates": [
     13.35519,
     52.5067
    ]
   },
   "properties": {
    "painter": "Pieter Bruegel the Elder",
    "title": "Two Monkeys",
    "year": "1562",
    "location": "Berlin State Museums",
    "attribution": "generally accepted",
    "medium": "Oil on panel",
    "dimensions": "20 × 23 cm",
    "image": "https://upload.wikimedia.org/wikipedia/commons/thumb/c/ce/Pieter_Bruegel_d._%C3%84._095.jpg/500px-Pieter_Bruegel_d._%C3%84._095.jpg?utm_source=en.wikipedia.org&amp;utm_campaign=parser&amp;utm_content=thumbnail",
    "notable": true,
    "creation_place": "Antwerp",
    "creation_lat": 51.2194,
    "creation_lon": 4.4025,
    "_source": {
     "source": "Wikipedia: List of paintings by Pieter Bruegel the Elder",
     "coord": "MediaWiki coordinates API"
    },
    "museum_id": "berlin-state-museums"
   }
  },
  {
   "type": "Feature",
   "geometry": {
    "type": "Point",
    "coordinates": [
     16.3616,
     48.20388
    ]
   },
   "properties": {
    "painter": "Pieter Bruegel the Elder",
    "title": "The Tower of Babel",
    "year": "1563",
    "location": "Kunsthistorisches Museum",
    "attribution": "generally accepted",
    "medium": "Oil on panel",
    "dimensions": "114 × 155 cm",
    "image": "https://upload.wikimedia.org/wikipedia/commons/thumb/5/50/Pieter_Bruegel_the_Elder_-_The_Tower_of_Babel_%28Vienna%29_-_Google_Art_Project.jpg/500px-Pieter_Bruegel_the_Elder_-_The_Tower_of_Babel_%28Vienna%29_-_Google_Art_Project.jpg?utm_source=en.wikipedia.org&amp;utm_campaign=parser&amp;utm_content=thumbnail",
    "notable": true,
    "creation_place": "Brussels",
    "creation_lat": 50.8503,
    "creation_lon": 4.3517,
    "_source": {
     "source": "Wikipedia: List of paintings by Pieter Bruegel the Elder",
     "coord": "MediaWiki coordinates API"
    },
    "museum_id": "kunsthistorisches-museum",
    "city": "Vienna",
    "country": "Austria"
   }
  },
  {
   "type": "Feature",
   "geometry": {
    "type": "Point",
    "coordinates": [
     4.47334,
     51.91421
    ]
   },
   "properties": {
    "painter": "Pieter Bruegel the Elder",
    "title": "The Tower of Babel",
    "year": "1563–1565",
    "location": "Museum Boijmans Van Beuningen",
    "attribution": "generally accepted",
    "medium": "Oil on panel",
    "dimensions": "59.9 × 74.6 cm",
    "image": "https://upload.wikimedia.org/wikipedia/commons/thumb/3/3a/Pieter_Bruegel_the_Elder_-_The_Tower_of_Babel_%28Rotterdam%29_-_Google_Art_Project_-_edited.jpg/500px-Pieter_Bruegel_the_Elder_-_The_Tower_of_Babel_%28Rotterdam%29_-_Google_Art_Project_-_edited.jpg?utm_source=en.wikipedia.org&amp;utm_campaign=parser&amp;utm_content=thumbnail",
    "notable": true,
    "creation_place": "Brussels",
    "creation_lat": 50.8503,
    "creation_lon": 4.3517,
    "_source": {
     "source": "Wikipedia: List of paintings by Pieter Bruegel the Elder",
     "coord": "MediaWiki coordinates API"
    },
    "museum_id": "museum-boijmans-van-beuningen",
    "city": "Rotterdam",
    "country": "Netherlands"
   }
  },
  {
   "type": "Feature",
   "geometry": {
    "type": "Point",
    "coordinates": [
     -0.11747,
     51.51175
    ]
   },
   "properties": {
    "painter": "Pieter Bruegel the Elder",
    "title": "Landscape with the Flight into Egypt",
    "year": "1563",
    "location": "Courtauld Institute Galleries",
    "attribution": "generally accepted",
    "medium": "Oil on panel",
    "dimensions": "37.1 × 55.6 cm",
    "image": "https://upload.wikimedia.org/wikipedia/commons/thumb/0/09/Pieter_Bruegel_der_%C3%84ltere_-_Landschaft_mit_der_Flucht_nach_%C3%84gypten.jpg/500px-Pieter_Bruegel_der_%C3%84ltere_-_Landschaft_mit_der_Flucht_nach_%C3%84gypten.jpg?utm_source=en.wikipedia.org&amp;utm_campaign=parser&amp;utm_content=thumbnail",
    "notable": true,
    "creation_place": "Brussels",
    "creation_lat": 50.8503,
    "creation_lon": 4.3517,
    "_source": {
     "source": "Wikipedia: List of paintings by Pieter Bruegel the Elder",
     "coord": "MediaWiki coordinates API"
    },
    "museum_id": "courtauld-institute-galleries"
   }
  },
  {
   "type": "Feature",
   "geometry": {
    "type": "Point",
    "coordinates": [
     11.57,
     48.14833
    ]
   },
   "properties": {
    "painter": "Pieter Bruegel the Elder",
    "title": "Portrait of an Old Woman",
    "year": "1563",
    "location": "Alte Pinakothek",
    "attribution": "generally accepted",
    "medium": "Oil on panel",
    "dimensions": "22 × 18 cm",
    "image": "https://upload.wikimedia.org/wikipedia/commons/thumb/b/b8/Pieter_Bruegel_the_Elder_-_Portrait_of_an_old_woman.jpg/500px-Pieter_Bruegel_the_Elder_-_Portrait_of_an_old_woman.jpg?utm_source=en.wikipedia.org&amp;utm_campaign=parser&amp;utm_content=thumbnail",
    "notable": true,
    "creation_place": "Brussels",
    "creation_lat": 50.8503,
    "creation_lon": 4.3517,
    "_source": {
     "source": "Wikipedia: List of paintings by Pieter Bruegel the Elder",
     "coord": "MediaWiki coordinates API"
    },
    "museum_id": "alte-pinakothek",
    "city": "Munich",
    "country": "Germany"
   }
  },
  {
   "type": "Feature",
   "geometry": {
    "type": "Point",
    "coordinates": [
     8.72861,
     47.49889
    ]
   },
   "properties": {
    "painter": "Pieter Bruegel the Elder",
    "title": "Adoration of the Magi in the Snow",
    "year": "1563",
    "city": "Winterthur",
    "location": "Oskar Reinhart Collection 'Am Römerholz'",
    "attribution": "generally accepted",
    "medium": "Oil on panel",
    "dimensions": "35 × 55 cm",
    "image": "https://upload.wikimedia.org/wikipedia/commons/thumb/1/14/Anbetung_der_K%C3%B6nige_im_Schnee.jpg/500px-Anbetung_der_K%C3%B6nige_im_Schnee.jpg?utm_source=en.wikipedia.org&amp;utm_campaign=parser&amp;utm_content=thumbnail",
    "notable": true,
    "creation_place": "Brussels",
    "creation_lat": 50.8503,
    "creation_lon": 4.3517,
    "_source": {
     "source": "Wikipedia: List of paintings by Pieter Bruegel the Elder",
     "coord": "MediaWiki coordinates API"
    },
    "museum_id": "oskar-reinhart-collection-am-romerholz"
   }
  },
  {
   "type": "Feature",
   "geometry": {
    "type": "Point",
    "coordinates": [
     4.35824,
     50.84168
    ]
   },
   "properties": {
    "painter": "Pieter Bruegel the Elder",
    "title": "Yawning Man (disputed attribution)",
    "year": "c. 1563",
    "location": "Royal Museums of Fine Arts of Belgium",
    "attribution": "generally accepted",
    "medium": "Oil on panel",
    "dimensions": "12.6 x 9.2",
    "image": "https://upload.wikimedia.org/wikipedia/en/thumb/d/dc/Bruegel_Yawning_Man.jpg/500px-Bruegel_Yawning_Man.jpg?utm_source=en.wikipedia.org&amp;utm_campaign=parser&amp;utm_content=thumbnail",
    "notable": true,
    "creation_place": "Brussels",
    "creation_lat": 50.8503,
    "creation_lon": 4.3517,
    "_source": {
     "source": "Wikipedia: List of paintings by Pieter Bruegel the Elder",
     "coord": "MediaWiki coordinates API"
    },
    "museum_id": "royal-museums-of-fine-arts-of-belgium",
    "city": "Brussels-Capital Region",
    "country": "Belgium"
   }
  },
  {
   "type": "Feature",
   "geometry": {
    "type": "Point",
    "coordinates": [
     -0.1283,
     51.5089
    ]
   },
   "properties": {
    "painter": "Pieter Bruegel the Elder",
    "title": "The Adoration of the Kings",
    "year": "1564",
    "city": "London",
    "country": "United Kingdom",
    "location": "National Gallery",
    "attribution": "generally accepted",
    "medium": "Oil on panel",
    "dimensions": "111.1 × 83.2 cm",
    "image": "https://upload.wikimedia.org/wikipedia/commons/thumb/b/be/Anbetung_der_K%C3%B6nige_%28Bruegel%2C_1564%29_%E2%80%93_cropped.jpg/500px-Anbetung_der_K%C3%B6nige_%28Bruegel%2C_1564%29_%E2%80%93_cropped.jpg?utm_source=en.wikipedia.org&amp;utm_campaign=parser&amp;utm_content=thumbnail",
    "notable": true,
    "creation_place": "Brussels",
    "creation_lat": 50.8503,
    "creation_lon": 4.3517,
    "_source": {
     "source": "Wikipedia: List of paintings by Pieter Bruegel the Elder",
     "coord": "MediaWiki coordinates API"
    },
    "museum_id": "national-gallery"
   }
  },
  {
   "type": "Feature",
   "geometry": {
    "type": "Point",
    "coordinates": [
     16.3616,
     48.20388
    ]
   },
   "properties": {
    "painter": "Pieter Bruegel the Elder",
    "title": "The Procession to Calvary",
    "year": "1564",
    "location": "Kunsthistorisches Museum",
    "attribution": "generally accepted",
    "medium": "Oil on panel",
    "dimensions": "124 × 170 cm",
    "image": "https://upload.wikimedia.org/wikipedia/commons/thumb/4/4e/Pieter_Bruegel_d._%C3%84._007.jpg/500px-Pieter_Bruegel_d._%C3%84._007.jpg?utm_source=en.wikipedia.org&amp;utm_campaign=parser&amp;utm_content=thumbnail",
    "notable": true,
    "creation_place": "Brussels",
    "creation_lat": 50.8503,
    "creation_lon": 4.3517,
    "_source": {
     "source": "Wikipedia: List of paintings by Pieter Bruegel the Elder",
     "coord": "MediaWiki coordinates API"
    },
    "museum_id": "kunsthistorisches-museum",
    "city": "Vienna",
    "country": "Austria"
   }
  },
  {
   "type": "Feature",
   "geometry": {
    "type": "Point",
    "coordinates": [
     -73.9631,
     40.7794
    ]
   },
   "properties": {
    "painter": "Pieter Bruegel the Elder",
    "title": "The Harvesters",
    "year": "1565",
    "location": "Metropolitan Museum of Art",
    "attribution": "generally accepted",
    "medium": "Oil on panel",
    "dimensions": "116.5 × 159.5 cm",
    "image": "https://upload.wikimedia.org/wikipedia/commons/thumb/0/05/Pieter_Bruegel_the_Elder-_The_Harvesters_-_Google_Art_Project.jpg/500px-Pieter_Bruegel_the_Elder-_The_Harvesters_-_Google_Art_Project.jpg?utm_source=en.wikipedia.org&amp;utm_campaign=parser&amp;utm_content=thumbnail",
    "notable": true,
    "creation_place": "Brussels",
    "creation_lat": 50.8503,
    "creation_lon": 4.3517,
    "_source": {
     "source": "Wikipedia: List of paintings by Pieter Bruegel the Elder",
     "coord": "MediaWiki coordinates API"
    },
    "museum_id": "metropolitan-museum-of-art",
    "city": "New York",
    "country": "United States"
   }
  },
  {
   "type": "Feature",
   "geometry": {
    "type": "Point",
    "coordinates": [
     16.3616,
     48.20388
    ]
   },
   "properties": {
    "painter": "Pieter Bruegel the Elder",
    "title": "The Return of the Herd",
    "year": "1565",
    "location": "Kunsthistorisches Museum",
    "attribution": "generally accepted",
    "medium": "Oil on panel",
    "dimensions": "117 × 159 cm",
    "image": "https://upload.wikimedia.org/wikipedia/commons/thumb/b/bd/La_rentr%C3%A9e_des_troupeaux_Pieter_Brueghel_l%27Ancien.jpg/500px-La_rentr%C3%A9e_des_troupeaux_Pieter_Brueghel_l%27Ancien.jpg?utm_source=en.wikipedia.org&amp;utm_campaign=parser&amp;utm_content=thumbnail",
    "notable": true,
    "creation_place": "Brussels",
    "creation_lat": 50.8503,
    "creation_lon": 4.3517,
    "_source": {
     "source": "Wikipedia: List of paintings by Pieter Bruegel the Elder",
     "coord": "MediaWiki coordinates API"
    },
    "museum_id": "kunsthistorisches-museum",
    "city": "Vienna",
    "country": "Austria"
   }
  },
  {
   "type": "Feature",
   "geometry": {
    "type": "Point",
    "coordinates": [
     16.3616,
     48.20388
    ]
   },
   "properties": {
    "painter": "Pieter Bruegel the Elder",
    "title": "The Hunters in the Snow",
    "year": "1565",
    "location": "Kunsthistorisches Museum",
    "attribution": "generally accepted",
    "medium": "Oil on panel",
    "dimensions": "117 × 162 cm",
    "image": "https://upload.wikimedia.org/wikipedia/commons/thumb/d/d8/Pieter_Bruegel_the_Elder_-_Hunters_in_the_Snow_%28Winter%29_-_Google_Art_Project.jpg/500px-Pieter_Bruegel_the_Elder_-_Hunters_in_the_Snow_%28Winter%29_-_Google_Art_Project.jpg?utm_source=en.wikipedia.org&amp;utm_campaign=parser&amp;utm_content=thumbnail",
    "notable": true,
    "creation_place": "Brussels",
    "creation_lat": 50.8503,
    "creation_lon": 4.3517,
    "_source": {
     "source": "Wikipedia: List of paintings by Pieter Bruegel the Elder",
     "coord": "MediaWiki coordinates API"
    },
    "museum_id": "kunsthistorisches-museum",
    "city": "Vienna",
    "country": "Austria"
   }
  },
  {
   "type": "Feature",
   "geometry": {
    "type": "Point",
    "coordinates": [
     16.3616,
     48.20388
    ]
   },
   "properties": {
    "painter": "Pieter Bruegel the Elder",
    "title": "The Gloomy Day",
    "year": "1565",
    "location": "Kunsthistorisches Museum",
    "attribution": "generally accepted",
    "medium": "Oil on panel",
    "dimensions": "118 × 163 cm",
    "image": "https://upload.wikimedia.org/wikipedia/commons/thumb/f/fb/Pieter_Bruegel_de_Oude_-_De_sombere_dag_%28vroege_voorjaar%29.jpg/500px-Pieter_Bruegel_de_Oude_-_De_sombere_dag_%28vroege_voorjaar%29.jpg?utm_source=en.wikipedia.org&amp;utm_campaign=parser&amp;utm_content=thumbnail",
    "notable": true,
    "creation_place": "Brussels",
    "creation_lat": 50.8503,
    "creation_lon": 4.3517,
    "_source": {
     "source": "Wikipedia: List of paintings by Pieter Bruegel the Elder",
     "coord": "MediaWiki coordinates API"
    },
    "museum_id": "kunsthistorisches-museum",
    "city": "Vienna",
    "country": "Austria"
   }
  },
  {
   "type": "Feature",
   "geometry": {
    "type": "Point",
    "coordinates": [
     4.35824,
     50.84168
    ]
   },
   "properties": {
    "painter": "Pieter Bruegel the Elder",
    "title": "Winter Landscape with a Bird Trap",
    "year": "1565",
    "city": "Brussels-Capital Region",
    "location": "Royal Museums of Fine Arts of Belgium",
    "attribution": "generally accepted",
    "medium": "Oil on panel",
    "dimensions": "37 × 55.5 cm",
    "image": "https://upload.wikimedia.org/wikipedia/commons/thumb/3/31/Circle_of_Pieter_Bruegel_the_Elder_-_Winter_Landscape_with_a_Bird_Trap.jpg/500px-Circle_of_Pieter_Bruegel_the_Elder_-_Winter_Landscape_with_a_Bird_Trap.jpg?utm_source=en.wikipedia.org&amp;utm_campaign=parser&amp;utm_content=thumbnail",
    "notable": true,
    "creation_place": "Brussels",
    "creation_lat": 50.8503,
    "creation_lon": 4.3517,
    "_source": {
     "source": "Wikipedia: List of paintings by Pieter Bruegel the Elder",
     "coord": "MediaWiki coordinates API"
    },
    "museum_id": "royal-museums-of-fine-arts-of-belgium",
    "country": "Belgium"
   }
  },
  {
   "type": "Feature",
   "geometry": {
    "type": "Point",
    "coordinates": [
     -0.11747,
     51.51175
    ]
   },
   "properties": {
    "painter": "Pieter Bruegel the Elder",
    "title": "Christ and the Woman Taken in Adultery",
    "year": "c. 1565",
    "location": "Courtauld Institute Galleries",
    "attribution": "generally accepted",
    "medium": "Oil on panel",
    "dimensions": "24 × 34 cm",
    "image": "https://upload.wikimedia.org/wikipedia/commons/thumb/9/99/Pieter_Bruegel_the_Elder_-_Christ_and_the_Woman_Taken_in_Adultery_-_WGA03469.jpg/500px-Pieter_Bruegel_the_Elder_-_Christ_and_the_Woman_Taken_in_Adultery_-_WGA03469.jpg?utm_source=en.wikipedia.org&amp;utm_campaign=parser&amp;utm_content=thumbnail",
    "notable": true,
    "creation_place": "Brussels",
    "creation_lat": 50.8503,
    "creation_lon": 4.3517,
    "_source": {
     "source": "Wikipedia: List of paintings by Pieter Bruegel the Elder",
     "coord": "MediaWiki coordinates API"
    },
    "museum_id": "courtauld-institute-galleries"
   }
  },
  {
   "type": "Feature",
   "geometry": {
    "type": "Point",
    "coordinates": [
     -3.6922,
     40.4139
    ]
   },
   "properties": {
    "painter": "Pieter Bruegel the Elder",
    "title": "The Wine of Saint Martin's Day",
    "year": "1565–1568",
    "location": "Prado",
    "attribution": "generally accepted",
    "medium": "Tempera on canvas",
    "dimensions": "148 × 270.5 cm",
    "image": "https://upload.wikimedia.org/wikipedia/commons/thumb/a/a6/El_vino_de_la_fiesta_de_San_Mart%C3%ADn_%28Pieter_Brueghel_el_Viejo%29_%28restaurada%29.jpg/500px-El_vino_de_la_fiesta_de_San_Mart%C3%ADn_%28Pieter_Brueghel_el_Viejo%29_%28restaurada%29.jpg?utm_source=en.wikipedia.org&amp;utm_campaign=parser&amp;utm_content=thumbnail",
    "notable": true,
    "creation_place": "Brussels",
    "creation_lat": 50.8503,
    "creation_lon": 4.3517,
    "_source": {
     "source": "Wikipedia: List of paintings by Pieter Bruegel the Elder",
     "coord": "MediaWiki coordinates API"
    },
    "museum_id": "prado",
    "city": "Madrid",
    "country": "Spain"
   }
  },
  {
   "type": "Feature",
   "geometry": {
    "type": "Point",
    "coordinates": [
     4.35824,
     50.84168
    ]
   },
   "properties": {
    "painter": "Pieter Bruegel the Elder",
    "title": "The Wine of Saint Martin's Day (copy)",
    "year": "1565–1568",
    "location": "Royal Museums of Fine Arts of Belgium",
    "attribution": "generally accepted",
    "medium": "Oil on canvas",
    "dimensions": "147 × 269.5 cm",
    "image": "https://upload.wikimedia.org/wikipedia/commons/thumb/7/79/Le_vin_de_la_Saint-Martin_-_d%27apr%C3%A8s_Pieter_Bruegel_I.jpg/500px-Le_vin_de_la_Saint-Martin_-_d%27apr%C3%A8s_Pieter_Bruegel_I.jpg?utm_source=en.wikipedia.org&amp;utm_campaign=parser&amp;utm_content=thumbnail",
    "notable": true,
    "creation_place": "Brussels",
    "creation_lat": 50.8503,
    "creation_lon": 4.3517,
    "_source": {
     "source": "Wikipedia: List of paintings by Pieter Bruegel the Elder",
     "coord": "MediaWiki coordinates API"
    },
    "museum_id": "royal-museums-of-fine-arts-of-belgium",
    "city": "Brussels-Capital Region",
    "country": "Belgium"
   }
  },
  {
   "type": "Feature",
   "geometry": {
    "type": "Point",
    "coordinates": [
     4.35824,
     50.84168
    ]
   },
   "properties": {
    "painter": "Pieter Bruegel the Elder",
    "title": "The Census at Bethlehem",
    "year": "1566",
    "location": "Royal Museums of Fine Arts of Belgium",
    "attribution": "generally accepted",
    "medium": "Oil on panel",
    "dimensions": "115.5 × 163.5 cm",
    "image": "https://upload.wikimedia.org/wikipedia/commons/thumb/e/ea/Pieter_Bruegel_the_Elder_-_The_Numbering_at_Bethlehem_-_Google_Art_Project.jpg/500px-Pieter_Bruegel_the_Elder_-_The_Numbering_at_Bethlehem_-_Google_Art_Project.jpg?utm_source=en.wikipedia.org&amp;utm_campaign=parser&amp;utm_content=thumbnail",
    "notable": true,
    "creation_place": "Brussels",
    "creation_lat": 50.8503,
    "creation_lon": 4.3517,
    "_source": {
     "source": "Wikipedia: List of paintings by Pieter Bruegel the Elder",
     "coord": "MediaWiki coordinates API"
    },
    "museum_id": "royal-museums-of-fine-arts-of-belgium",
    "city": "Brussels-Capital Region",
    "country": "Belgium"
   }
  },
  {
   "type": "Feature",
   "geometry": {
    "type": "Point",
    "coordinates": [
     -73.55417,
     45.50889
    ]
   },
   "properties": {
    "painter": "Pieter Bruegel the Elder",
    "title": "The Sermon of Saint John the Baptist",
    "year": "1566",
    "city": "Montréal",
    "country": "United States",
    "location": "Museum of Fine Arts",
    "attribution": "generally accepted",
    "medium": "Oil on panel",
    "dimensions": "95 × 160.5 cm",
    "image": "https://upload.wikimedia.org/wikipedia/commons/thumb/f/fb/Pieter_Bruegel_the_Elder_-_The_Sermon_of_Saint_John_the_Baptist_-_Google_Art_Project.jpg/500px-Pieter_Bruegel_the_Elder_-_The_Sermon_of_Saint_John_the_Baptist_-_Google_Art_Project.jpg?utm_source=en.wikipedia.org&amp;utm_campaign=parser&amp;utm_content=thumbnail",
    "notable": true,
    "creation_place": "Brussels",
    "creation_lat": 50.8503,
    "creation_lon": 4.3517,
    "_source": {
     "source": "Wikipedia: List of paintings by Pieter Bruegel the Elder",
     "coord": "MediaWiki coordinates API"
    },
    "museum_id": "museum-of-fine-arts"
   }
  },
  {
   "type": "Feature",
   "geometry": {
    "type": "Point",
    "coordinates": [
     -83.0647,
     42.3594
    ]
   },
   "properties": {
    "painter": "Pieter Bruegel the Elder",
    "title": "The Wedding Dance",
    "year": "c. 1566",
    "location": "Detroit Institute of Arts",
    "attribution": "generally accepted",
    "medium": "Oil on panel",
    "dimensions": "119.4 × 157.5 cm",
    "image": "https://upload.wikimedia.org/wikipedia/commons/thumb/c/cd/Pieter_Bruegel_de_Oude_-_De_bruiloft_dans_%28Detroit%29.jpg/500px-Pieter_Bruegel_de_Oude_-_De_bruiloft_dans_%28Detroit%29.jpg?utm_source=en.wikipedia.org&amp;utm_campaign=parser&amp;utm_content=thumbnail",
    "notable": true,
    "creation_place": "Brussels",
    "creation_lat": 50.8503,
    "creation_lon": 4.3517,
    "_source": {
     "source": "Wikipedia: List of paintings by Pieter Bruegel the Elder",
     "coord": "MediaWiki coordinates API"
    },
    "museum_id": "detroit-institute-of-arts",
    "city": "Detroit",
    "country": "United States"
   }
  },
  {
   "type": "Feature",
   "geometry": {
    "type": "Point",
    "coordinates": [
     11.57,
     48.14833
    ]
   },
   "properties": {
    "painter": "Pieter Bruegel the Elder",
    "title": "The Land of Cockaigne",
    "year": "1566",
    "location": "Alte Pinakothek",
    "attribution": "generally accepted",
    "medium": "Oil on panel",
    "dimensions": "52 × 78 cm",
    "image": "https://upload.wikimedia.org/wikipedia/commons/thumb/0/0a/Pieter_Bruegel_d._%C3%84._037-color.jpg/500px-Pieter_Bruegel_d._%C3%84._037-color.jpg?utm_source=en.wikipedia.org&amp;utm_campaign=parser&amp;utm_content=thumbnail",
    "notable": true,
    "creation_place": "Brussels",
    "creation_lat": 50.8503,
    "creation_lon": 4.3517,
    "_source": {
     "source": "Wikipedia: List of paintings by Pieter Bruegel the Elder",
     "coord": "MediaWiki coordinates API"
    },
    "museum_id": "alte-pinakothek",
    "city": "Munich",
    "country": "Germany"
   }
  },
  {
   "type": "Feature",
   "geometry": {
    "type": "Point",
    "coordinates": [
     16.3616,
     48.20388
    ]
   },
   "properties": {
    "painter": "Pieter Bruegel the Elder",
    "title": "Conversion of Paul",
    "year": "1567",
    "location": "Kunsthistorisches Museum",
    "attribution": "generally accepted",
    "medium": "Oil on panel",
    "dimensions": "108 × 156 cm",
    "image": "https://upload.wikimedia.org/wikipedia/commons/thumb/4/47/Pieter_Bruegel_d._%C3%84._019.jpg/500px-Pieter_Bruegel_d._%C3%84._019.jpg?utm_source=en.wikipedia.org&amp;utm_campaign=parser&amp;utm_content=thumbnail",
    "notable": true,
    "creation_place": "Brussels",
    "creation_lat": 50.8503,
    "creation_lon": 4.3517,
    "_source": {
     "source": "Wikipedia: List of paintings by Pieter Bruegel the Elder",
     "coord": "MediaWiki coordinates API"
    },
    "museum_id": "kunsthistorisches-museum",
    "city": "Vienna",
    "country": "Austria"
   }
  },
  {
   "type": "Feature",
   "geometry": {
    "type": "Point",
    "coordinates": [
     16.3616,
     48.20388
    ]
   },
   "properties": {
    "painter": "Pieter Bruegel the Elder",
    "title": "The Peasant Wedding",
    "year": "1568",
    "location": "Kunsthistorisches Museum",
    "attribution": "generally accepted",
    "medium": "Oil on panel",
    "dimensions": "114 × 164 cm",
    "image": "https://upload.wikimedia.org/wikipedia/commons/thumb/7/70/Pieter_Bruegel_the_Elder_-_Peasant_Wedding_-_Google_Art_Project_2.jpg/500px-Pieter_Bruegel_the_Elder_-_Peasant_Wedding_-_Google_Art_Project_2.jpg?utm_source=en.wikipedia.org&amp;utm_campaign=parser&amp;utm_content=thumbnail",
    "notable": true,
    "creation_place": "Brussels",
    "creation_lat": 50.8503,
    "creation_lon": 4.3517,
    "_source": {
     "source": "Wikipedia: List of paintings by Pieter Bruegel the Elder",
     "coord": "MediaWiki coordinates API"
    },
    "museum_id": "kunsthistorisches-museum",
    "city": "Vienna",
    "country": "Austria"
   }
  },
  {
   "type": "Feature",
   "geometry": {
    "type": "Point",
    "coordinates": [
     16.3616,
     48.20388
    ]
   },
   "properties": {
    "painter": "Pieter Bruegel the Elder",
    "title": "The Peasant Dance",
    "year": "1568",
    "location": "Kunsthistorisches Museum",
    "attribution": "generally accepted",
    "medium": "Oil on panel",
    "dimensions": "114 × 164 cm",
    "image": "https://upload.wikimedia.org/wikipedia/commons/thumb/a/aa/Pieter_Bruegel_The_Peasant_Dance.jpg/500px-Pieter_Bruegel_The_Peasant_Dance.jpg?utm_source=en.wikipedia.org&amp;utm_campaign=parser&amp;utm_content=thumbnail",
    "notable": true,
    "creation_place": "Brussels",
    "creation_lat": 50.8503,
    "creation_lon": 4.3517,
    "_source": {
     "source": "Wikipedia: List of paintings by Pieter Bruegel the Elder",
     "coord": "MediaWiki coordinates API"
    },
    "museum_id": "kunsthistorisches-museum",
    "city": "Vienna",
    "country": "Austria"
   }
  },
  {
   "type": "Feature",
   "geometry": {
    "type": "Point",
    "coordinates": [
     16.3616,
     48.20388
    ]
   },
   "properties": {
    "painter": "Pieter Bruegel the Elder",
    "title": "The Peasant and the Nest Robber",
    "year": "1568",
    "location": "Kunsthistorisches Museum",
    "attribution": "generally accepted",
    "medium": "Oil on panel",
    "dimensions": "59.3 × 68.3 cm",
    "image": "https://upload.wikimedia.org/wikipedia/commons/thumb/5/5c/Pieter_Bruegel_d._%C3%84._036.jpg/500px-Pieter_Bruegel_d._%C3%84._036.jpg?utm_source=en.wikipedia.org&amp;utm_campaign=parser&amp;utm_content=thumbnail",
    "notable": true,
    "creation_place": "Brussels",
    "creation_lat": 50.8503,
    "creation_lon": 4.3517,
    "_source": {
     "source": "Wikipedia: List of paintings by Pieter Bruegel the Elder",
     "coord": "MediaWiki coordinates API"
    },
    "museum_id": "kunsthistorisches-museum",
    "city": "Vienna",
    "country": "Austria"
   }
  },
  {
   "type": "Feature",
   "geometry": {
    "type": "Point",
    "coordinates": [
     14.25053,
     40.86701
    ]
   },
   "properties": {
    "painter": "Pieter Bruegel the Elder",
    "title": "The Misanthrope",
    "year": "1568",
    "location": "Museo di Capodimonte",
    "attribution": "generally accepted",
    "medium": "Tempera on canvas",
    "dimensions": "86 × 85 cm",
    "image": "https://upload.wikimedia.org/wikipedia/commons/thumb/6/65/Pieter_Bruegel_d._%C3%84._035-2.jpg/500px-Pieter_Bruegel_d._%C3%84._035-2.jpg?utm_source=en.wikipedia.org&amp;utm_campaign=parser&amp;utm_content=thumbnail",
    "notable": true,
    "creation_place": "Brussels",
    "creation_lat": 50.8503,
    "creation_lon": 4.3517,
    "_source": {
     "source": "Wikipedia: List of paintings by Pieter Bruegel the Elder",
     "coord": "MediaWiki coordinates API"
    },
    "museum_id": "museo-di-capodimonte",
    "city": "Naples",
    "country": "Italy"
   }
  },
  {
   "type": "Feature",
   "geometry": {
    "type": "Point",
    "coordinates": [
     2.3358,
     48.8611
    ]
   },
   "properties": {
    "painter": "Pieter Bruegel the Elder",
    "title": "The Beggars",
    "year": "1568",
    "location": "Louvre",
    "attribution": "generally accepted",
    "medium": "Oil on panel",
    "dimensions": "18.5 × 21.5 cm",
    "image": "https://upload.wikimedia.org/wikipedia/commons/thumb/4/49/Pieter_Bruegel_the_Elder_-_The_Beggars_%281568%29.jpg/500px-Pieter_Bruegel_the_Elder_-_The_Beggars_%281568%29.jpg?utm_source=en.wikipedia.org&amp;utm_campaign=parser&amp;utm_content=thumbnail",
    "notable": true,
    "creation_place": "Brussels",
    "creation_lat": 50.8503,
    "creation_lon": 4.3517,
    "_source": {
     "source": "Wikipedia: List of paintings by Pieter Bruegel the Elder",
     "coord": "MediaWiki coordinates API"
    },
    "museum_id": "louvre",
    "city": "Paris",
    "country": "France"
   }
  },
  {
   "type": "Feature",
   "geometry": {
    "type": "Point",
    "coordinates": [
     14.25053,
     40.86701
    ]
   },
   "properties": {
    "painter": "Pieter Bruegel the Elder",
    "title": "Parable of the Blind",
    "year": "1568",
    "location": "Museo di Capodimonte",
    "attribution": "generally accepted",
    "medium": "Tempera on canvas",
    "dimensions": "85.5 × 154 cm",
    "image": "https://upload.wikimedia.org/wikipedia/commons/thumb/d/d6/Pieter_Bruegel_the_Elder_-_The_Parable_of_the_Blind_Leading_the_Blind_-_WGA3511.jpg/500px-Pieter_Bruegel_the_Elder_-_The_Parable_of_the_Blind_Leading_the_Blind_-_WGA3511.jpg?utm_source=en.wikipedia.org&amp;utm_campaign=parser&amp;utm_content=thumbnail",
    "notable": true,
    "creation_place": "Brussels",
    "creation_lat": 50.8503,
    "creation_lon": 4.3517,
    "_source": {
     "source": "Wikipedia: List of paintings by Pieter Bruegel the Elder",
     "coord": "MediaWiki coordinates API"
    },
    "museum_id": "museo-di-capodimonte",
    "city": "Naples",
    "country": "Italy"
   }
  },
  {
   "type": "Feature",
   "geometry": {
    "type": "Point",
    "coordinates": [
     8.6535,
     49.8749
    ]
   },
   "properties": {
    "painter": "Pieter Bruegel the Elder",
    "title": "The Magpie on the Gallows",
    "year": "1568",
    "location": "Hessisches Landesmuseum",
    "attribution": "generally accepted",
    "medium": "Oil on panel",
    "dimensions": "45.9 × 50.8 cm",
    "image": "https://upload.wikimedia.org/wikipedia/commons/thumb/1/1c/Die_Elster_auf_dem_Galgen.jpg/500px-Die_Elster_auf_dem_Galgen.jpg?utm_source=en.wikipedia.org&amp;utm_campaign=parser&amp;utm_content=thumbnail",
    "notable": true,
    "creation_place": "Brussels",
    "creation_lat": 50.8503,
    "creation_lon": 4.3517,
    "_source": {
     "source": "Wikipedia: List of paintings by Pieter Bruegel the Elder",
     "coord": "MediaWiki coordinates API"
    },
    "museum_id": "hessisches-landesmuseum"
   }
  },
  {
   "type": "Feature",
   "geometry": {
    "type": "Point",
    "coordinates": [
     -73.9672,
     40.7711
    ]
   },
   "properties": {
    "painter": "Pieter Bruegel the Elder",
    "title": "The Three Soldiers",
    "year": "1568",
    "location": "Frick Collection",
    "attribution": "generally accepted",
    "medium": "Oil on panel",
    "dimensions": "20.3 × 17.8 cm",
    "image": "https://upload.wikimedia.org/wikipedia/commons/thumb/d/d1/Pieter_Bruegel_de_Oude_-_De_drie_soldaten.jpg/500px-Pieter_Bruegel_de_Oude_-_De_drie_soldaten.jpg?utm_source=en.wikipedia.org&amp;utm_campaign=parser&amp;utm_content=thumbnail",
    "notable": true,
    "creation_place": "Brussels",
    "creation_lat": 50.8503,
    "creation_lon": 4.3517,
    "_source": {
     "source": "Wikipedia: List of paintings by Pieter Bruegel the Elder",
     "coord": "MediaWiki coordinates API"
    },
    "museum_id": "frick-collection",
    "city": "New York",
    "country": "United States"
   }
  },
  {
   "type": "Feature",
   "geometry": {
    "type": "Point",
    "coordinates": [
     16.3616,
     48.20388
    ]
   },
   "properties": {
    "painter": "Pieter Bruegel the Elder",
    "title": "The Storm at Sea (disputed attribution)",
    "year": "1569",
    "location": "Kunsthistorisches Museum",
    "attribution": "generally accepted",
    "medium": "Oil on panel",
    "dimensions": "70.3 × 97 cm",
    "image": "https://upload.wikimedia.org/wikipedia/commons/thumb/d/dd/Joos_de_Momper_the_Younger_-_Storm_at_Sea_-_WGA3342.jpg/500px-Joos_de_Momper_the_Younger_-_Storm_at_Sea_-_WGA3342.jpg?utm_source=en.wikipedia.org&amp;utm_campaign=parser&amp;utm_content=thumbnail",
    "notable": true,
    "creation_place": "Brussels",
    "creation_lat": 50.8503,
    "creation_lon": 4.3517,
    "_source": {
     "source": "Wikipedia: List of paintings by Pieter Bruegel the Elder",
     "coord": "MediaWiki coordinates API"
    },
    "museum_id": "kunsthistorisches-museum",
    "city": "Vienna",
    "country": "Austria"
   }
  }
 ]
}