{
 "type": "FeatureCollection",
 "_note": "Generated by scripts/build.py from Wikidata. Do not edit by hand — put manual fixes in the painter's overlay (data/overlay/*.json). Each feature carries _source (scraped base or manual addition) and, when edited, _overrides.",
 "features": [
  {
   "type": "Feature",
   "geometry": {
    "type": "Point",
    "coordinates": [
     2.3358,
     48.8611
    ]
   },
   "properties": {
    "painter": "Correggio",
    "title": "Venus and Cupid with a Satyr",
    "year": "1526",
    "country": "France",
    "location": "Louvre",
    "kind": "museum",
    "attribution": "generally accepted",
    "status": "present",
    "medium": "Oil on canvas",
    "dimensions": "188 × 125 cm",
    "genre": "mythological painting, nude",
    "image": "https://commons.wikimedia.org/wiki/Special:FilePath/Correggio%20-%20Venus%20and%20Cupid%20with%20a%20Satyr.jpg?width=420",
    "wikipedia_es": "https://es.wikipedia.org/wiki/Venus_y_Amor_descubiertos_por_un_s%C3%A1tiro",
    "wikipedia_en": "https://en.wikipedia.org/wiki/Venus_and_Cupid_with_a_Satyr",
    "wikipedia_it": "https://it.wikipedia.org/wiki/Venere_e_Amore_spiati_da_un_satiro",
    "wikidata": "https://www.wikidata.org/wiki/Q1133114",
    "creation_place": "Parma",
    "creation_lat": 44.8015,
    "creation_lon": 10.3279,
    "_source": {
     "source": "Wikidata",
     "url": "https://www.wikidata.org/wiki/Q1133114",
     "retrieved_at": "2026-08-23"
    },
    "_overrides": {
     "creation": {
      "at": "2026-08-23",
      "source": "derived from start date + Caravaggio's documented itinerary (approximate)"
     }
    },
    "museum_id": "louvre",
    "city": "Paris",
    "qid": "Q1133114",
    "wga_url": "https://www.wga.hu/html/c/correggi/mytholog/venus_cu.html"
   }
  },
  {
   "type": "Feature",
   "geometry": {
    "type": "Point",
    "coordinates": [
     -73.9631,
     40.7794
    ]
   },
   "properties": {
    "painter": "Correggio",
    "title": "The Annunciation",
    "city": "New York",
    "country": "United States",
    "location": "Metropolitan Museum of Art",
    "kind": "museum",
    "attribution": "attributed",
    "status": "present",
    "genre": "religious art",
    "wikidata": "https://www.wikidata.org/wiki/Q131450158",
    "_source": {
     "source": "Wikidata",
     "url": "https://www.wikidata.org/wiki/Q131450158",
     "retrieved_at": "2026-08-23"
    },
    "museum_id": "metropolitan-museum-of-art",
    "qid": "Q131450158"
   }
  },
  {
   "type": "Feature",
   "geometry": {
    "type": "Point",
    "coordinates": [
     12.45277,
     41.90573
    ]
   },
   "properties": {
    "painter": "Correggio",
    "title": "Christ the Redeemer",
    "year": "1527",
    "city": "Vatican City",
    "country": "Vatican City",
    "location": "Pinacoteca Vaticana",
    "kind": "museum",
    "attribution": "attributed",
    "status": "present",
    "medium": "Oil on canvas",
    "dimensions": "105 × 98 cm",
    "genre": "religious art",
    "image": "https://commons.wikimedia.org/wiki/Special:FilePath/Il%20Redentore%20%28Correggio%29%20September%202015-1.jpg?width=420",
    "wikidata": "https://www.wikidata.org/wiki/Q131704772",
    "creation_place": "Parma",
    "creation_lat": 44.8015,
    "creation_lon": 10.3279,
    "_source": {
     "source": "Wikidata",
     "url": "https://www.wikidata.org/wiki/Q131704772",
     "retrieved_at": "2026-08-23"
    },
    "_overrides": {
     "creation": {
      "at": "2026-08-23",
      "source": "derived from start date + Caravaggio's documented itinerary (approximate)"
     }
    },
    "museum_id": "pinacoteca-vaticana",
    "qid": "Q131704772"
   }
  },
  {
   "type": "Feature",
   "geometry": {
    "type": "Point",
    "coordinates": [
     12.49214,
     41.91421
    ]
   },
   "properties": {
    "painter": "Correggio",
    "title": "Danaë",
    "year": "1530",
    "city": "Rome",
    "country": "Italy",
    "location": "Galleria Borghese",
    "kind": "museum",
    "attribution": "generally accepted",
    "status": "present",
    "medium": "Oil on canvas",
    "dimensions": "158 × 189 cm",
    "genre": "mythological painting, nude",
    "image": "https://commons.wikimedia.org/wiki/Special:FilePath/Correggio%20008.jpg?width=420",
    "wikipedia_es": "https://es.wikipedia.org/wiki/D%C3%A1nae_(Correggio)",
    "wikipedia_en": "https://en.wikipedia.org/wiki/Dana%C3%AB_(Correggio)",
    "wikipedia_it": "https://it.wikipedia.org/wiki/Danae_(Correggio)",
    "wikidata": "https://www.wikidata.org/wiki/Q1408753",
    "creation_place": "Parma",
    "creation_lat": 44.8015,
    "creation_lon": 10.3279,
    "_source": {
     "source": "Wikidata",
     "url": "https://www.wikidata.org/wiki/Q1408753",
     "retrieved_at": "2026-08-23"
    },
    "_overrides": {
     "creation": {
      "at": "2026-08-23",
      "source": "derived from start date + Caravaggio's documented itinerary (approximate)"
     }
    },
    "museum_id": "galleria-borghese",
    "qid": "Q1408753",
    "wga_url": "https://www.wga.hu/html/c/correggi/mytholog/danae1.html"
   }
  },
  {
   "type": "Feature",
   "geometry": {
    "type": "Point",
    "coordinates": [
     9.41611,
     51.315
    ]
   },
   "properties": {
    "painter": "Correggio",
    "title": "Nativity",
    "year": "1529",
    "city": "Kassel",
    "country": "Germany",
    "location": "Gemäldegalerie Alte Meister",
    "kind": "museum",
    "attribution": "generally accepted",
    "status": "present",
    "medium": "Oil on panel",
    "dimensions": "2565 × 1880 cm",
    "genre": "religious art",
    "image": "https://commons.wikimedia.org/wiki/Special:FilePath/Correggio%20-%20The%20Holy%20Night%20-%20Google%20Art%20Project.jpg?width=420",
    "wikipedia_es": "https://es.wikipedia.org/wiki/Adoraci%C3%B3n_de_los_pastores_(Correggio)",
    "wikipedia_en": "https://en.wikipedia.org/wiki/Nativity_(Correggio)",
    "wikipedia_it": "https://it.wikipedia.org/wiki/Adorazione_dei_pastori_(Correggio)",
    "wikidata": "https://www.wikidata.org/wiki/Q1527541",
    "creation_place": "Parma",
    "creation_lat": 44.8015,
    "creation_lon": 10.3279,
    "_source": {
     "source": "Wikidata",
     "url": "https://www.wikidata.org/wiki/Q1527541",
     "retrieved_at": "2026-08-23"
    },
    "_overrides": {
     "creation": {
      "at": "2026-08-23",
      "source": "derived from start date + Caravaggio's documented itinerary (approximate)"
     }
    },
    "museum_id": "gemaldegalerie-alte-meister",
    "qid": "Q1527541",
    "wga_url": "https://www.wga.hu/html/c/correggi/madonna/night.html"
   }
  },
  {
   "type": "Feature",
   "geometry": {
    "type": "Point",
    "coordinates": [
     2.3358,
     48.8611
    ]
   },
   "properties": {
    "painter": "Correggio",
    "title": "Portrait of a Young Man",
    "year": "1525",
    "country": "France",
    "location": "Louvre",
    "kind": "museum",
    "attribution": "attributed",
    "status": "present",
    "medium": "Fir panel, oil paint",
    "dimensions": "59 × 44 cm",
    "genre": "portrait, self-portrait",
    "image": "https://commons.wikimedia.org/wiki/Special:FilePath/Parmigianino%20-%20Portrait%20of%20a%20Young%20man.jpg?width=420",
    "wikidata": "https://www.wikidata.org/wiki/Q18572256",
    "creation_place": "Parma",
    "creation_lat": 44.8015,
    "creation_lon": 10.3279,
    "_source": {
     "source": "Wikidata",
     "url": "https://www.wikidata.org/wiki/Q18572256",
     "retrieved_at": "2026-08-23"
    },
    "_overrides": {
     "creation": {
      "at": "2026-08-23",
      "source": "derived from start date + Caravaggio's documented itinerary (approximate)"
     }
    },
    "museum_id": "louvre",
    "city": "Paris",
    "qid": "Q18572256",
    "wga_url": "https://www.wga.hu/html/p/parmigia/port_you.html"
   }
  },
  {
   "type": "Feature",
   "geometry": {
    "type": "Point",
    "coordinates": [
     30.3136,
     59.9406
    ]
   },
   "properties": {
    "painter": "Correggio",
    "title": "Portrait of a Woman",
    "year": "1520",
    "city": "Saint Petersburg",
    "country": "Russia",
    "location": "Hermitage Museum",
    "kind": "museum",
    "attribution": "generally accepted",
    "status": "present",
    "medium": "Oil on canvas",
    "dimensions": "103 × 87.5 cm",
    "genre": "portrait",
    "image": "https://commons.wikimedia.org/wiki/Special:FilePath/Hermitagecorreggioportraitofawoman.jpg?width=420",
    "wikipedia_es": "https://es.wikipedia.org/wiki/Retrato_de_una_dama_(Correggio)",
    "wikipedia_en": "https://en.wikipedia.org/wiki/Portrait_of_a_Lady_(Correggio)",
    "wikipedia_it": "https://it.wikipedia.org/wiki/Ritratto_di_dama_(Correggio)",
    "wikidata": "https://www.wikidata.org/wiki/Q2017819",
    "creation_place": "Parma",
    "creation_lat": 44.8015,
    "creation_lon": 10.3279,
    "_source": {
     "source": "Wikidata",
     "url": "https://www.wikidata.org/wiki/Q2017819",
     "retrieved_at": "2026-08-23"
    },
    "_overrides": {
     "creation": {
      "at": "2026-08-23",
      "source": "derived from start date + Caravaggio's documented itinerary (approximate)"
     }
    },
    "museum_id": "hermitage-museum",
    "qid": "Q2017819",
    "wga_url": "https://www.wga.hu/html/c/correggi/various/portrait.html"
   }
  },
  {
   "type": "Feature",
   "geometry": {
    "type": "Point",
    "coordinates": [
     10.32586,
     44.80472
    ]
   },
   "properties": {
    "painter": "Correggio",
    "title": "Madonna della Scodella",
    "year": "1528",
    "city": "Parma",
    "country": "Italy",
    "location": "Galleria Nazionale di Parma",
    "kind": "museum",
    "attribution": "generally accepted",
    "status": "present",
    "medium": "Oil on panel",
    "dimensions": "218 × 137 cm",
    "genre": "religious art",
    "image": "https://commons.wikimedia.org/wiki/Special:FilePath/Correggio%20041.jpg?width=420",
    "wikipedia_es": "https://es.wikipedia.org/wiki/Madonna_de_la_escudilla",
    "wikipedia_en": "https://en.wikipedia.org/wiki/Madonna_della_Scodella",
    "wikipedia_it": "https://it.wikipedia.org/wiki/Madonna_della_Scodella",
    "wikidata": "https://www.wikidata.org/wiki/Q23014521",
    "creation_place": "Parma",
    "creation_lat": 44.8015,
    "creation_lon": 10.3279,
    "_source": {
     "source": "Wikidata",
     "url": "https://www.wikidata.org/wiki/Q23014521",
     "retrieved_at": "2026-08-23"
    },
    "_overrides": {
     "creation": {
      "at": "2026-08-23",
      "source": "derived from start date + Caravaggio's documented itinerary (approximate)"
     }
    },
    "museum_id": "galleria-nazionale-di-parma",
    "qid": "Q23014521",
    "wga_url": "https://www.wga.hu/html/c/correggi/madonna/scodella.html"
   }
  },
  {
   "type": "Feature",
   "geometry": {
    "type": "Point",
    "coordinates": [
     -0.3375,
     51.4034
    ]
   },
   "properties": {
    "painter": "Correggio",
    "title": "The Holy Family with Saint Jerome",
    "year": "1515-1519",
    "city": "London Borough of Richmond upon Thames",
    "country": "United Kingdom",
    "location": "Hampton Court Palace",
    "kind": "museum",
    "attribution": "generally accepted",
    "status": "present",
    "medium": "Oil paint, poplar panel",
    "dimensions": "68.9 × 56.6 cm",
    "genre": "religious art",
    "image": "https://commons.wikimedia.org/wiki/Special:FilePath/Antonio%20Allegri%20Correggio%20%28c.%201489-1534%29%20-%20The%20Holy%20Family%20with%20Saint%20Jerome%20-%20RCIN%20400029%20-%20Royal%20Collection.jpg?width=420",
    "wikipedia_en": "https://en.wikipedia.org/wiki/The_Holy_Family_with_Saint_Jerome",
    "wikipedia_it": "https://it.wikipedia.org/wiki/Sacra_Famiglia_con_san_Girolamo",
    "wikidata": "https://www.wikidata.org/wiki/Q28029242",
    "creation_place": "Parma",
    "creation_lat": 44.8015,
    "creation_lon": 10.3279,
    "_source": {
     "source": "Wikidata",
     "url": "https://www.wikidata.org/wiki/Q28029242",
     "retrieved_at": "2026-08-23"
    },
    "_overrides": {
     "creation": {
      "at": "2026-08-23",
      "source": "derived from start date + Caravaggio's documented itinerary (approximate)"
     }
    },
    "museum_id": "hampton-court-palace",
    "qid": "Q28029242"
   }
  },
  {
   "type": "Feature",
   "geometry": {
    "type": "Point",
    "coordinates": [
     10.32586,
     44.80472
    ]
   },
   "properties": {
    "painter": "Correggio",
    "title": "Annunciation",
    "year": "1525",
    "city": "Parma",
    "country": "Italy",
    "location": "Galleria Nazionale di Parma",
    "kind": "museum",
    "attribution": "generally accepted",
    "status": "present",
    "medium": "Fresco",
    "dimensions": "157 × 315 cm",
    "genre": "religious art",
    "image": "https://commons.wikimedia.org/wiki/Special:FilePath/Correggio%2C%20annunciazione.jpg?width=420",
    "wikipedia_en": "https://en.wikipedia.org/wiki/Annunciation_(Correggio)",
    "wikipedia_it": "https://it.wikipedia.org/wiki/Annunciazione_(Correggio)",
    "wikidata": "https://www.wikidata.org/wiki/Q3202071",
    "creation_place": "Parma",
    "creation_lat": 44.8015,
    "creation_lon": 10.3279,
    "_source": {
     "source": "Wikidata",
     "url": "https://www.wikidata.org/wiki/Q3202071",
     "retrieved_at": "2026-08-23"
    },
    "_overrides": {
     "creation": {
      "at": "2026-08-23",
      "source": "derived from start date + Caravaggio's documented itinerary (approximate)"
     }
    },
    "museum_id": "galleria-nazionale-di-parma",
    "qid": "Q3202071"
   }
  },
  {
   "type": "Feature",
   "geometry": {
    "type": "Point",
    "coordinates": [
     -0.1517,
     51.5035
    ]
   },
   "properties": {
    "painter": "Correggio",
    "title": "Agony in the Garden",
    "year": "1525",
    "city": "London",
    "country": "United Kingdom",
    "location": "Apsley House",
    "kind": "museum",
    "attribution": "generally accepted",
    "status": "present",
    "medium": "Oil on panel",
    "dimensions": "40 × 42.2 cm",
    "genre": "religious art",
    "image": "https://commons.wikimedia.org/wiki/Special:FilePath/Antonio%20Allegri%2C%20called%20Correggio%20-%20The%20Agony%20in%20the%20Garden%20-%20WM.1585-1948%20-%20Apsley%20House.jpg?width=420",
    "wikipedia_en": "https://en.wikipedia.org/wiki/Agony_in_the_Garden_(Correggio)",
    "wikipedia_it": "https://it.wikipedia.org/wiki/Orazione_nell%27orto_(Correggio)",
    "wikidata": "https://www.wikidata.org/wiki/Q3535914",
    "creation_place": "Parma",
    "creation_lat": 44.8015,
    "creation_lon": 10.3279,
    "_source": {
     "source": "Wikidata",
     "url": "https://www.wikidata.org/wiki/Q3535914",
     "retrieved_at": "2026-08-23"
    },
    "_overrides": {
     "creation": {
      "at": "2026-08-23",
      "source": "derived from start date + Caravaggio's documented itinerary (approximate)"
     }
    },
    "museum_id": "apsley-house",
    "qid": "Q3535914"
   }
  },
  {
   "type": "Feature",
   "geometry": {
    "type": "Point",
    "coordinates": [
     9.18782,
     45.47196
    ]
   },
   "properties": {
    "painter": "Correggio",
    "title": "Adoration of the Magi",
    "year": "1515",
    "city": "Milan",
    "country": "Italy",
    "location": "Pinacoteca di Brera",
    "kind": "museum",
    "attribution": "generally accepted",
    "status": "present",
    "medium": "Oil on canvas",
    "dimensions": "84 × 108 cm",
    "genre": "religious art",
    "image": "https://commons.wikimedia.org/wiki/Special:FilePath/Correggio%2C%20adorazione%20dei%20magi%2C%20brera.jpg?width=420",
    "wikipedia_en": "https://en.wikipedia.org/wiki/Adoration_of_the_Magi_(Correggio)",
    "wikipedia_it": "https://it.wikipedia.org/wiki/Adorazione_dei_Magi_(Correggio)",
    "wikidata": "https://www.wikidata.org/wiki/Q3605527",
    "creation_place": "Parma",
    "creation_lat": 44.8015,
    "creation_lon": 10.3279,
    "_source": {
     "source": "Wikidata",
     "url": "https://www.wikidata.org/wiki/Q3605527",
     "retrieved_at": "2026-08-23"
    },
    "_overrides": {
     "creation": {
      "at": "2026-08-23",
      "source": "derived from start date + Caravaggio's documented itinerary (approximate)"
     }
    },
    "museum_id": "pinacoteca-di-brera",
    "qid": "Q3605527",
    "wga_url": "https://www.wga.hu/html/c/correggi/various/adorati.html"
   }
  },
  {
   "type": "Feature",
   "geometry": {
    "type": "Point",
    "coordinates": [
     11.25528,
     43.76833
    ]
   },
   "properties": {
    "painter": "Correggio",
    "title": "Adoration of the Christ Child",
    "year": "1525",
    "city": "Florence",
    "country": "Italy",
    "location": "Uffizi Gallery",
    "kind": "museum",
    "attribution": "generally accepted",
    "status": "present",
    "medium": "Oil on panel",
    "dimensions": "81 × 77 cm",
    "genre": "religious art",
    "image": "https://commons.wikimedia.org/wiki/Special:FilePath/Correggio%20-%20La%20Vergine%20che%20adora%20il%20Bambino%20-%20Google%20Art%20Project.jpg?width=420",
    "wikipedia_en": "https://en.wikipedia.org/wiki/Adoration_of_the_Christ_Child_(Correggio)",
    "wikipedia_it": "https://it.wikipedia.org/wiki/Adorazione_del_Bambino_(Correggio)",
    "wikidata": "https://www.wikidata.org/wiki/Q3605562",
    "creation_place": "Parma",
    "creation_lat": 44.8015,
    "creation_lon": 10.3279,
    "_source": {
     "source": "Wikidata",
     "url": "https://www.wikidata.org/wiki/Q3605562",
     "retrieved_at": "2026-08-23"
    },
    "_overrides": {
     "creation": {
      "at": "2026-08-23",
      "source": "derived from start date + Caravaggio's documented itinerary (approximate)"
     }
    },
    "museum_id": "uffizi-gallery",
    "qid": "Q3605562",
    "wga_url": "https://www.wga.hu/html/c/correggi/madonna/adoratio.html"
   }
  },
  {
   "type": "Feature",
   "geometry": {
    "type": "Point",
    "coordinates": [
     10.7988,
     45.16034
    ]
   },
   "properties": {
    "painter": "Correggio",
    "title": "Allegory of Vices",
    "year": "1531",
    "city": "Mantua",
    "country": "Italy",
    "location": "Palazzo Ducale Mantua",
    "kind": "museum",
    "attribution": "generally accepted",
    "status": "present",
    "medium": "Oil on canvas",
    "dimensions": "148 × 88 cm",
    "genre": "allegory",
    "image": "https://commons.wikimedia.org/wiki/Special:FilePath/Correggio%20037.jpg?width=420",
    "wikipedia_es": "https://es.wikipedia.org/wiki/Alegor%C3%ADa_del_Vicio",
    "wikipedia_en": "https://en.wikipedia.org/wiki/Allegory_of_Vice_(Correggio)",
    "wikipedia_it": "https://it.wikipedia.org/wiki/Allegoria_del_Vizio",
    "wikidata": "https://www.wikidata.org/wiki/Q3612413",
    "creation_place": "Parma",
    "creation_lat": 44.8015,
    "creation_lon": 10.3279,
    "_source": {
     "source": "Wikidata",
     "url": "https://www.wikidata.org/wiki/Q3612413",
     "retrieved_at": "2026-08-23"
    },
    "_overrides": {
     "creation": {
      "at": "2026-08-23",
      "source": "derived from start date + Caravaggio's documented itinerary (approximate)"
     }
    },
    "museum_id": "palazzo-ducale-mantua",
    "qid": "Q3612413",
    "wga_url": "https://www.wga.hu/html/c/correggi/mytholog/allegorz.html"
   }
  },
  {
   "type": "Feature",
   "geometry": {
    "type": "Point",
    "coordinates": [
     2.33583,
     48.86111
    ]
   },
   "properties": {
    "painter": "Correggio",
    "title": "Allegory of Virtues",
    "year": "1531",
    "country": "France",
    "location": "Department of Prints and Drawings of the Louvre",
    "kind": "museum",
    "attribution": "generally accepted",
    "status": "present",
    "medium": "Canvas",
    "dimensions": "148 × 88 cm",
    "genre": "allegory",
    "image": "https://commons.wikimedia.org/wiki/Special:FilePath/Correggio%20-%20Allegory%20of%20Virtues%20-%20WGA05338.jpg?width=420",
    "wikipedia_en": "https://en.wikipedia.org/wiki/Allegory_of_Virtue_(Correggio)",
    "wikipedia_it": "https://it.wikipedia.org/wiki/Allegoria_della_Virt%C3%B9",
    "wikidata": "https://www.wikidata.org/wiki/Q3612419",
    "creation_place": "Parma",
    "creation_lat": 44.8015,
    "creation_lon": 10.3279,
    "_source": {
     "source": "Wikidata",
     "url": "https://www.wikidata.org/wiki/Q3612419",
     "retrieved_at": "2026-08-23"
    },
    "_overrides": {
     "creation": {
      "at": "2026-08-23",
      "source": "derived from start date + Caravaggio's documented itinerary (approximate)"
     }
    },
    "museum_id": "department-of-prints-and-drawings-of-the-louvre",
    "qid": "Q3612419",
    "wga_url": "https://www.wga.hu/html/c/correggi/mytholog/allegory.html"
   }
  },
  {
   "type": "Feature",
   "geometry": {
    "type": "Point",
    "coordinates": [
     10.794469,
     45.159011
    ]
   },
   "properties": {
    "painter": "Correggio",
    "title": "Mural painting of the funeral chapel of Andrea Mantegna",
    "year": "1507",
    "city": "Mantua",
    "country": "Italy",
    "location": "Basilica of Sant'Andrea",
    "kind": "church",
    "attribution": "generally accepted",
    "status": "present",
    "image": "https://commons.wikimedia.org/wiki/Special:FilePath/Correggio%2C%20cappella%20funeraria%20del%20mantegna%2C%20cupola%2001.jpg?width=420",
    "wikipedia_en": "https://en.wikipedia.org/wiki/Mantegna_funerary_chapel",
    "wikipedia_it": "https://it.wikipedia.org/wiki/Cappella_funeraria_di_Andrea_Mantegna",
    "wikidata": "https://www.wikidata.org/wiki/Q3657723",
    "_source": {
     "source": "Wikidata",
     "url": "https://www.wikidata.org/wiki/Q3657723",
     "retrieved_at": "2026-08-23"
    },
    "museum_id": "basilica-of-sant-andrea",
    "qid": "Q3657723"
   }
  },
  {
   "type": "Feature",
   "geometry": {
    "type": "Point",
    "coordinates": [
     -0.1283,
     51.5089
    ]
   },
   "properties": {
    "painter": "Correggio",
    "title": "Christ taking Leave of his Mother",
    "year": "1513",
    "city": "London",
    "country": "United Kingdom",
    "location": "National Gallery",
    "kind": "museum",
    "attribution": "generally accepted",
    "status": "present",
    "medium": "Oil on canvas",
    "dimensions": "87 × 77 cm",
    "genre": "religious art",
    "image": "https://commons.wikimedia.org/wiki/Special:FilePath/Correggio%2C%20commiato%20di%20cristo%20dalla%20madre.jpg?width=420",
    "wikipedia_it": "https://it.wikipedia.org/wiki/Commiato_di_Cristo_dalla_madre_(Correggio)",
    "wikidata": "https://www.wikidata.org/wiki/Q3684647",
    "_source": {
     "source": "Wikidata",
     "url": "https://www.wikidata.org/wiki/Q3684647",
     "retrieved_at": "2026-08-23"
    },
    "museum_id": "national-gallery",
    "qid": "Q3684647"
   }
  },
  {
   "type": "Feature",
   "geometry": {
    "type": "Point",
    "coordinates": [
     10.32586,
     44.80472
    ]
   },
   "properties": {
    "painter": "Correggio",
    "title": "Lamentation over the Dead Christ",
    "year": "1524",
    "city": "Parma",
    "country": "Italy",
    "location": "Galleria Nazionale di Parma",
    "kind": "museum",
    "attribution": "generally accepted",
    "status": "present",
    "medium": "Oil on canvas",
    "dimensions": "157 × 182 cm",
    "genre": "religious art",
    "image": "https://commons.wikimedia.org/wiki/Special:FilePath/Correggio%20-%20Compianto%20su%20Cristo%20morto%2C%201524%20ca.%2C%20GN%20352.jpg?width=420",
    "wikipedia_en": "https://en.wikipedia.org/wiki/Lamentation_(Correggio)",
    "wikipedia_it": "https://it.wikipedia.org/wiki/Compianto_sul_Cristo_morto_(Correggio)",
    "wikidata": "https://www.wikidata.org/wiki/Q3685121",
    "creation_place": "Parma",
    "creation_lat": 44.8015,
    "creation_lon": 10.3279,
    "_source": {
     "source": "Wikidata",
     "url": "https://www.wikidata.org/wiki/Q3685121",
     "retrieved_at": "2026-08-23"
    },
    "_overrides": {
     "creation": {
      "at": "2026-08-23",
      "source": "derived from start date + Caravaggio's documented itinerary (approximate)"
     }
    },
    "museum_id": "galleria-nazionale-di-parma",
    "qid": "Q3685121",
    "wga_url": "https://www.wga.hu/html/c/correggi/various/depositi.html"
   }
  },
  {
   "type": "Feature",
   "geometry": {
    "type": "Point",
    "coordinates": [
     -77.02,
     38.8914
    ]
   },
   "properties": {
    "painter": "Correggio",
    "title": "Christ in the Temple",
    "year": "1513",
    "city": "Washington",
    "country": "United States",
    "location": "National Gallery of Art",
    "kind": "museum",
    "attribution": "generally accepted",
    "status": "present",
    "medium": "Oil on panel",
    "dimensions": "42.6 × 33.3 cm",
    "genre": "religious art",
    "image": "https://commons.wikimedia.org/wiki/Special:FilePath/Correggio%2C%20salvator%20mundi.jpg?width=420",
    "wikipedia_it": "https://it.wikipedia.org/wiki/Cristo_giovane_nel_Tempio",
    "wikidata": "https://www.wikidata.org/wiki/Q3697625",
    "_source": {
     "source": "Wikidata",
     "url": "https://www.wikidata.org/wiki/Q3697625",
     "retrieved_at": "2026-08-23"
    },
    "museum_id": "national-gallery-of-art",
    "qid": "Q3697625"
   }
  },
  {
   "type": "Feature",
   "geometry": {
    "type": "Point",
    "coordinates": [
     10.79433,
     45.16146
    ]
   },
   "properties": {
    "painter": "Correggio",
    "title": "Deposition of Saint Andrew",
    "year": "1509",
    "city": "Mantua",
    "country": "Italy",
    "location": "Museo diocesano Francesco Gonzaga",
    "kind": "museum",
    "attribution": "generally accepted",
    "status": "present",
    "dimensions": "150 × 150 cm",
    "genre": "religious art",
    "image": "https://commons.wikimedia.org/wiki/Special:FilePath/Correggio%2C%20deposizione%20di%20sant%27andrea.jpg?width=420",
    "wikipedia_it": "https://it.wikipedia.org/wiki/Deposizione_(Correggio)",
    "wikidata": "https://www.wikidata.org/wiki/Q3705701",
    "_source": {
     "source": "Wikidata",
     "url": "https://www.wikidata.org/wiki/Q3705701",
     "retrieved_at": "2026-08-23"
    },
    "museum_id": "museo-diocesano-francesco-gonzaga",
    "qid": "Q3705701"
   }
  },
  {
   "type": "Feature",
   "geometry": {
    "type": "Point",
    "coordinates": [
     -0.1283,
     51.5089
    ]
   },
   "properties": {
    "painter": "Correggio",
    "title": "Christ presented to the People (Ecce Homo)",
    "year": "1526",
    "city": "London",
    "country": "United Kingdom",
    "location": "National Gallery",
    "kind": "museum",
    "attribution": "generally accepted",
    "status": "present",
    "medium": "Oil on canvas",
    "dimensions": "99 × 80 cm",
    "genre": "religious art",
    "image": "https://commons.wikimedia.org/wiki/Special:FilePath/Correggio%20Ecce%20Homo.jpg?width=420",
    "wikipedia_en": "https://en.wikipedia.org/wiki/Ecce_Homo_(Correggio)",
    "wikipedia_it": "https://it.wikipedia.org/wiki/Ecce_Homo_(Correggio)",
    "wikidata": "https://www.wikidata.org/wiki/Q3717885",
    "creation_place": "Parma",
    "creation_lat": 44.8015,
    "creation_lon": 10.3279,
    "_source": {
     "source": "Wikidata",
     "url": "https://www.wikidata.org/wiki/Q3717885",
     "retrieved_at": "2026-08-23"
    },
    "_overrides": {
     "creation": {
      "at": "2026-08-23",
      "source": "derived from start date + Caravaggio's documented itinerary (approximate)"
     }
    },
    "museum_id": "national-gallery",
    "qid": "Q3717885",
    "wga_url": "https://www.wga.hu/html/c/correggi/various/eccehomo.html"
   }
  },
  {
   "type": "Feature",
   "geometry": {
    "type": "Point",
    "coordinates": [
     -0.1283,
     51.5089
    ]
   },
   "properties": {
    "painter": "Correggio",
    "title": "Venus with Mercury and Cupid ('The School of Love')",
    "year": "1527",
    "city": "London",
    "country": "United Kingdom",
    "location": "National Gallery",
    "kind": "museum",
    "attribution": "generally accepted",
    "status": "present",
    "medium": "Oil on canvas",
    "dimensions": "155 × 92 cm",
    "genre": "mythological painting, nude",
    "image": "https://commons.wikimedia.org/wiki/Special:FilePath/Cupido.jpg?width=420",
    "wikipedia_es": "https://es.wikipedia.org/wiki/La_escuela_del_amor",
    "wikipedia_en": "https://en.wikipedia.org/wiki/Venus_with_Mercury_and_Cupid",
    "wikipedia_it": "https://it.wikipedia.org/wiki/Educazione_di_Cupido",
    "wikidata": "https://www.wikidata.org/wiki/Q3719885",
    "creation_place": "Parma",
    "creation_lat": 44.8015,
    "creation_lon": 10.3279,
    "_source": {
     "source": "Wikidata",
     "url": "https://www.wikidata.org/wiki/Q3719885",
     "retrieved_at": "2026-08-23"
    },
    "_overrides": {
     "creation": {
      "at": "2026-08-23",
      "source": "derived from start date + Caravaggio's documented itinerary (approximate)"
     }
    },
    "museum_id": "national-gallery",
    "qid": "Q3719885",
    "wga_url": "https://www.wga.hu/html/c/correggi/mytholog/cupid.html"
   }
  },
  {
   "type": "Feature",
   "geometry": {
    "type": "Point",
    "coordinates": [
     10.32586,
     44.80472
    ]
   },
   "properties": {
    "painter": "Correggio",
    "title": "The Betrayal of Christ, with a soldier in pursuit of Mark the Evangelist",
    "year": "1522-1600",
    "city": "Parma",
    "country": "Italy",
    "location": "Galleria Nazionale di Parma",
    "kind": "museum",
    "attribution": "generally accepted",
    "status": "present",
    "medium": "Oil on canvas",
    "dimensions": "67 × 54 cm",
    "genre": "nude, religious art",
    "image": "https://commons.wikimedia.org/wiki/Special:FilePath/Correggio%20-%20Cattura%20di%20Cristo%2C%20524.jpg?width=420",
    "wikipedia_en": "https://en.wikipedia.org/wiki/Saint_John_Fleeing_Christ%27s_Arrest",
    "wikipedia_it": "https://it.wikipedia.org/wiki/Giovane_in_fuga_dalla_cattura_di_Cristo",
    "wikidata": "https://www.wikidata.org/wiki/Q3766168",
    "creation_place": "Parma",
    "creation_lat": 44.8015,
    "creation_lon": 10.3279,
    "_source": {
     "source": "Wikidata",
     "url": "https://www.wikidata.org/wiki/Q3766168",
     "retrieved_at": "2026-08-23"
    },
    "_overrides": {
     "creation": {
      "at": "2026-08-23",
      "source": "derived from start date + Caravaggio's documented itinerary (approximate)"
     }
    },
    "museum_id": "galleria-nazionale-di-parma",
    "qid": "Q3766168"
   }
  },
  {
   "type": "Feature",
   "geometry": {
    "type": "Point",
    "coordinates": [
     7.7524,
     48.5799
    ]
   },
   "properties": {
    "painter": "Correggio",
    "title": "Judith and Her Maidservant",
    "year": "1510",
    "city": "Strasbourg",
    "country": "France",
    "location": "Musée des Beaux-Arts de Strasbourg",
    "kind": "museum",
    "attribution": "generally accepted",
    "status": "present",
    "medium": "Oil paint, poplar panel",
    "dimensions": "30 × 22 cm",
    "genre": "religious art",
    "image": "https://commons.wikimedia.org/wiki/Special:FilePath/Corr%C3%A8ge-Judith-Mus%C3%A9e%20des%20Bx-Arts%20Strasbourg%20%282%29.jpg?width=420",
    "wikipedia_en": "https://en.wikipedia.org/wiki/Judith_and_Her_Maidservant_(Correggio)",
    "wikipedia_it": "https://it.wikipedia.org/wiki/Giuditta_e_la_sua_ancella_con_la_testa_di_Oloferne",
    "wikidata": "https://www.wikidata.org/wiki/Q3769183",
    "_source": {
     "source": "Wikidata",
     "url": "https://www.wikidata.org/wiki/Q3769183",
     "retrieved_at": "2026-08-23"
    },
    "museum_id": "musee-des-beaux-arts-de-strasbourg",
    "qid": "Q3769183"
   }
  },
  {
   "type": "Feature",
   "geometry": {
    "type": "Point",
    "coordinates": [
     10.32586,
     44.80472
    ]
   },
   "properties": {
    "painter": "Correggio",
    "title": "Coronation of Mary",
    "year": "1521",
    "city": "Parma",
    "country": "Italy",
    "location": "Galleria Nazionale di Parma",
    "kind": "museum",
    "attribution": "generally accepted",
    "status": "present",
    "medium": "Fresco",
    "dimensions": "212 × 324 cm",
    "genre": "religious art",
    "image": "https://commons.wikimedia.org/wiki/Special:FilePath/Correggio%20023.jpg?width=420",
    "wikipedia_it": "https://it.wikipedia.org/wiki/Incoronazione_della_Vergine_(Correggio)",
    "wikidata": "https://www.wikidata.org/wiki/Q3797772",
    "creation_place": "Parma",
    "creation_lat": 44.8015,
    "creation_lon": 10.3279,
    "_source": {
     "source": "Wikidata",
     "url": "https://www.wikidata.org/wiki/Q3797772",
     "retrieved_at": "2026-08-23"
    },
    "_overrides": {
     "creation": {
      "at": "2026-08-23",
      "source": "derived from start date + Caravaggio's documented itinerary (approximate)"
     }
    },
    "museum_id": "galleria-nazionale-di-parma",
    "qid": "Q3797772"
   }
  },
  {
   "type": "Feature",
   "geometry": {
    "type": "Point",
    "coordinates": [
     14.25053,
     40.86701
    ]
   },
   "properties": {
    "painter": "Correggio",
    "title": "Madonna and Child, \"Zingarella\"",
    "year": "1516",
    "city": "Naples",
    "country": "Italy",
    "location": "Museo di Capodimonte",
    "kind": "museum",
    "attribution": "generally accepted",
    "status": "present",
    "medium": "Oil on canvas",
    "dimensions": "39 × 47 cm",
    "genre": "religious art",
    "image": "https://commons.wikimedia.org/wiki/Special:FilePath/Correggio%2C%20zingarella.jpg?width=420",
    "wikipedia_en": "https://en.wikipedia.org/wiki/La_Zingarella_(Correggio)",
    "wikipedia_it": "https://it.wikipedia.org/wiki/La_Zingarella",
    "wikidata": "https://www.wikidata.org/wiki/Q3821326",
    "creation_place": "Parma",
    "creation_lat": 44.8015,
    "creation_lon": 10.3279,
    "_source": {
     "source": "Wikidata",
     "url": "https://www.wikidata.org/wiki/Q3821326",
     "retrieved_at": "2026-08-23"
    },
    "_overrides": {
     "creation": {
      "at": "2026-08-23",
      "source": "derived from start date + Caravaggio's documented itinerary (approximate)"
     }
    },
    "museum_id": "museo-di-capodimonte",
    "qid": "Q3821326"
   }
  },
  {
   "type": "Feature",
   "geometry": {
    "type": "Point",
    "coordinates": [
     13.36472,
     52.50861
    ]
   },
   "properties": {
    "painter": "Correggio",
    "title": "Leda and the Swan",
    "year": "1532",
    "city": "Bezirk Mitte",
    "country": "Germany",
    "location": "Gemäldegalerie Berlin",
    "kind": "museum",
    "attribution": "generally accepted",
    "status": "present",
    "medium": "Oil on canvas",
    "dimensions": "152 × 191 cm",
    "genre": "mythological painting",
    "image": "https://commons.wikimedia.org/wiki/Special:FilePath/Correggio%20%28Antonio%20Allegri%29%20%28ca.%201489%20-%201534%29%20-%20Leda%20and%20the%20Swan%20-%20218%20-%20Gem%C3%A4ldegalerie.jpg?width=420",
    "wikipedia_es": "https://es.wikipedia.org/wiki/Leda_con_el_cisne",
    "wikipedia_en": "https://en.wikipedia.org/wiki/Leda_and_the_Swan_(Correggio)",
    "wikipedia_it": "https://it.wikipedia.org/wiki/Leda_(Correggio)",
    "wikidata": "https://www.wikidata.org/wiki/Q3829339",
    "creation_place": "Parma",
    "creation_lat": 44.8015,
    "creation_lon": 10.3279,
    "_source": {
     "source": "Wikidata",
     "url": "https://www.wikidata.org/wiki/Q3829339",
     "retrieved_at": "2026-08-23"
    },
    "_overrides": {
     "creation": {
      "at": "2026-08-23",
      "source": "derived from start date + Caravaggio's documented itinerary (approximate)"
     }
    },
    "museum_id": "gemaldegalerie-berlin",
    "qid": "Q3829339",
    "wga_url": "https://www.wga.hu/html/c/correggi/mytholog/leda.html"
   }
  },
  {
   "type": "Feature",
   "geometry": {
    "type": "Point",
    "coordinates": [
     -77.02,
     38.8914
    ]
   },
   "properties": {
    "painter": "Correggio",
    "title": "Madonna and Child",
    "year": "1508",
    "city": "Washington",
    "country": "United States",
    "location": "National Gallery of Art",
    "kind": "museum",
    "attribution": "generally accepted",
    "status": "present",
    "medium": "Oil on canvas",
    "dimensions": "56.3 × 41 cm",
    "genre": "religious art",
    "image": "https://commons.wikimedia.org/wiki/Special:FilePath/Correggio%2C%20Madonna%20Barrymore.jpg?width=420",
    "wikipedia_en": "https://en.wikipedia.org/wiki/Barrymore_Madonna",
    "wikipedia_it": "https://it.wikipedia.org/wiki/Madonna_Barrymore",
    "wikidata": "https://www.wikidata.org/wiki/Q3842386",
    "_source": {
     "source": "Wikidata",
     "url": "https://www.wikidata.org/wiki/Q3842386",
     "retrieved_at": "2026-08-23"
    },
    "museum_id": "national-gallery-of-art",
    "qid": "Q3842386"
   }
  },
  {
   "type": "Feature",
   "geometry": {
    "type": "Point",
    "coordinates": [
     9.18028,
     45.46972
    ]
   },
   "properties": {
    "painter": "Correggio",
    "title": "Bolognini Madonna",
    "year": "1514",
    "city": "Milan",
    "country": "Italy",
    "location": "Pinacoteca del Castello Sforzesco",
    "kind": "museum",
    "attribution": "generally accepted",
    "status": "present",
    "medium": "Oil on panel",
    "dimensions": "60 × 51 cm",
    "genre": "religious art",
    "image": "https://commons.wikimedia.org/wiki/Special:FilePath/Correggio%20048.jpg?width=420",
    "wikipedia_en": "https://en.wikipedia.org/wiki/Bolognini_Madonna",
    "wikipedia_it": "https://it.wikipedia.org/wiki/Madonna_Bolognini",
    "wikidata": "https://www.wikidata.org/wiki/Q3842389",
    "creation_place": "Parma",
    "creation_lat": 44.8015,
    "creation_lon": 10.3279,
    "_source": {
     "source": "Wikidata",
     "url": "https://www.wikidata.org/wiki/Q3842389",
     "retrieved_at": "2026-08-23"
    },
    "_overrides": {
     "creation": {
      "at": "2026-08-23",
      "source": "derived from start date + Caravaggio's documented itinerary (approximate)"
     }
    },
    "museum_id": "pinacoteca-del-castello-sforzesco",
    "qid": "Q3842389"
   }
  },
  {
   "type": "Feature",
   "geometry": {
    "type": "Point",
    "coordinates": [
     10.9216,
     44.6485
    ]
   },
   "properties": {
    "painter": "Correggio",
    "title": "Madonna with child",
    "year": "1517",
    "city": "Modena",
    "country": "Italy",
    "location": "Galleria Estense",
    "kind": "museum",
    "attribution": "generally accepted",
    "status": "present",
    "medium": "Oil on panel",
    "dimensions": "58 × 45 cm",
    "genre": "religious art",
    "image": "https://commons.wikimedia.org/wiki/Special:FilePath/Correggio%20-%20Madonna%20Campori%2C%20ca.%201517%20-%201518%2C%20R.C.G.E.%204172.png?width=420",
    "wikipedia_en": "https://en.wikipedia.org/wiki/Campori_Madonna",
    "wikipedia_it": "https://it.wikipedia.org/wiki/Madonna_Campori",
    "wikidata": "https://www.wikidata.org/wiki/Q3842393",
    "creation_place": "Parma",
    "creation_lat": 44.8015,
    "creation_lon": 10.3279,
    "_source": {
     "source": "Wikidata",
     "url": "https://www.wikidata.org/wiki/Q3842393",
     "retrieved_at": "2026-08-23"
    },
    "_overrides": {
     "creation": {
      "at": "2026-08-23",
      "source": "derived from start date + Caravaggio's documented itinerary (approximate)"
     }
    },
    "museum_id": "galleria-estense",
    "qid": "Q3842393"
   }
  },
  {
   "type": "Feature",
   "geometry": {
    "type": "Point",
    "coordinates": [
     16.3616,
     48.20388
    ]
   },
   "properties": {
    "painter": "Correggio",
    "title": "Mary and Child",
    "year": "1512",
    "city": "Vienna",
    "country": "Austria",
    "location": "Kunsthistorisches Museum",
    "kind": "museum",
    "attribution": "generally accepted",
    "status": "present",
    "medium": "Oil on canvas",
    "dimensions": "66 × 55 cm",
    "genre": "religious art",
    "image": "https://commons.wikimedia.org/wiki/Special:FilePath/Correggio%20064.jpg?width=420",
    "wikipedia_en": "https://en.wikipedia.org/wiki/Madonna_and_Child_(Correggio,_Vienna)",
    "wikipedia_it": "https://it.wikipedia.org/wiki/Madonna_col_Bambino_(Correggio_Vienna)",
    "wikidata": "https://www.wikidata.org/wiki/Q3842466",
    "_source": {
     "source": "Wikidata",
     "url": "https://www.wikidata.org/wiki/Q3842466",
     "retrieved_at": "2026-08-23"
    },
    "museum_id": "kunsthistorisches-museum",
    "qid": "Q3842466"
   }
  },
  {
   "type": "Feature",
   "geometry": {
    "type": "Point",
    "coordinates": [
     -87.62389,
     41.87944
    ]
   },
   "properties": {
    "painter": "Correggio",
    "title": "Virgin and Child with the Young Saint John the Baptist",
    "year": "1515",
    "city": "Chicago",
    "country": "United States",
    "location": "Art Institute of Chicago",
    "kind": "museum",
    "attribution": "generally accepted",
    "status": "present",
    "medium": "Oil on panel",
    "dimensions": "64.2 × 50.2 cm",
    "genre": "religious art",
    "image": "https://commons.wikimedia.org/wiki/Special:FilePath/Correggio%20-%20Virgin%20and%20Child%20with%20the%20Young%20Saint%20John%20the%20Baptist%20-%201965.688%20-%20Art%20Institute%20of%20Chicago.jpg?width=420",
    "wikipedia_en": "https://en.wikipedia.org/wiki/Madonna_and_Child_with_the_Infant_John_the_Baptist_(Correggio,_Chicago)",
    "wikipedia_it": "https://it.wikipedia.org/wiki/Madonna_col_Bambino_e_san_Giovannino_(Correggio_Chicago)",
    "wikidata": "https://www.wikidata.org/wiki/Q3842518",
    "creation_place": "Parma",
    "creation_lat": 44.8015,
    "creation_lon": 10.3279,
    "_source": {
     "source": "Wikidata",
     "url": "https://www.wikidata.org/wiki/Q3842518",
     "retrieved_at": "2026-08-23"
    },
    "_overrides": {
     "creation": {
      "at": "2026-08-23",
      "source": "derived from start date + Caravaggio's documented itinerary (approximate)"
     }
    },
    "museum_id": "art-institute-of-chicago",
    "qid": "Q3842518"
   }
  },
  {
   "type": "Feature",
   "geometry": {
    "type": "Point",
    "coordinates": [
     -3.6922,
     40.4139
    ]
   },
   "properties": {
    "painter": "Correggio",
    "title": "Madonna and Child with the Young Saint John",
    "year": "1515-1516",
    "city": "Madrid",
    "country": "Spain",
    "location": "Museo del Prado",
    "kind": "museum",
    "attribution": "generally accepted",
    "status": "present",
    "medium": "Oil on panel",
    "dimensions": "48 × 37 cm",
    "genre": "religious art",
    "image": "https://commons.wikimedia.org/wiki/Special:FilePath/Correggio%20047.jpg?width=420",
    "wikipedia_es": "https://es.wikipedia.org/wiki/La_Virgen_con_el_Ni%C3%B1o_y_san_Juan_(Correggio)",
    "wikipedia_en": "https://en.wikipedia.org/wiki/Madonna_and_Child_with_the_Infant_John_the_Baptist_(Correggio,_Madrid)",
    "wikipedia_it": "https://it.wikipedia.org/wiki/Madonna_col_Bambino_e_san_Giovannino_(Correggio_Madrid)",
    "wikidata": "https://www.wikidata.org/wiki/Q3842519",
    "creation_place": "Parma",
    "creation_lat": 44.8015,
    "creation_lon": 10.3279,
    "_source": {
     "source": "Wikidata",
     "url": "https://www.wikidata.org/wiki/Q3842519",
     "retrieved_at": "2026-08-23"
    },
    "_overrides": {
     "creation": {
      "at": "2026-08-23",
      "source": "derived from start date + Caravaggio's documented itinerary (approximate)"
     }
    },
    "museum_id": "museo-del-prado",
    "qid": "Q3842519",
    "wga_url": "https://www.wga.hu/html/c/correggi/madonna/madonna.html"
   }
  },
  {
   "type": "Feature",
   "geometry": {
    "type": "Point",
    "coordinates": [
     11.25528,
     43.76833
    ]
   },
   "properties": {
    "painter": "Correggio",
    "title": "Madonna with child and two angel musicians",
    "year": "1515",
    "city": "Florence",
    "country": "Italy",
    "location": "Uffizi Gallery",
    "kind": "museum",
    "attribution": "generally accepted",
    "status": "present",
    "medium": "Oil on panel",
    "dimensions": "20 × 16 cm",
    "genre": "religious art",
    "image": "https://commons.wikimedia.org/wiki/Special:FilePath/Correggio%2C%20madonna%20col%20bambino%20tra%20due%20angeli%20musicanti.jpg?width=420",
    "wikipedia_en": "https://en.wikipedia.org/wiki/Madonna_and_Child_with_Two_Musician_Angels",
    "wikipedia_it": "https://it.wikipedia.org/wiki/Madonna_col_Bambino_tra_due_angeli_musicanti",
    "wikidata": "https://www.wikidata.org/wiki/Q3842555",
    "creation_place": "Parma",
    "creation_lat": 44.8015,
    "creation_lon": 10.3279,
    "_source": {
     "source": "Wikidata",
     "url": "https://www.wikidata.org/wiki/Q3842555",
     "retrieved_at": "2026-08-23"
    },
    "_overrides": {
     "creation": {
      "at": "2026-08-23",
      "source": "derived from start date + Caravaggio's documented itinerary (approximate)"
     }
    },
    "museum_id": "uffizi-gallery",
    "qid": "Q3842555",
    "wga_url": "https://www.wga.hu/html/c/correggi/madonna/madglory.html"
   }
  },
  {
   "type": "Feature",
   "geometry": {
    "type": "Point",
    "coordinates": [
     -75.181,
     39.966
    ]
   },
   "properties": {
    "painter": "Correggio",
    "title": "Virgin and Child, with Saint Elizabeth and the Young Saint John the Baptist",
    "year": "1510",
    "city": "Philadelphia",
    "country": "United States",
    "location": "Philadelphia Museum of Art",
    "kind": "museum",
    "attribution": "generally accepted",
    "status": "present",
    "medium": "Oil on panel",
    "dimensions": "61 × 48 cm",
    "genre": "religious art",
    "image": "https://commons.wikimedia.org/wiki/Special:FilePath/Correggio%2C%20Madonna%20col%20Bambino%20tra%20i%20santi%20Elisabetta%20e%20Giovanni%20Battista.jpg?width=420",
    "wikipedia_en": "https://en.wikipedia.org/wiki/Madonna_and_Child_with_Saints_Elizabeth_and_John_the_Baptist",
    "wikipedia_it": "https://it.wikipedia.org/wiki/Madonna_col_Bambino_tra_i_santi_Elisabetta_e_Giovanni_Battista",
    "wikidata": "https://www.wikidata.org/wiki/Q3842564",
    "_source": {
     "source": "Wikidata",
     "url": "https://www.wikidata.org/wiki/Q3842564",
     "retrieved_at": "2026-08-23"
    },
    "museum_id": "philadelphia-museum-of-art",
    "qid": "Q3842564"
   }
  },
  {
   "type": "Feature",
   "geometry": {
    "type": "Point",
    "coordinates": [
     19.07678,
     47.51587
    ]
   },
   "properties": {
    "painter": "Correggio",
    "title": "Virgin and Child with an Angel (Madonna del Latte)",
    "year": "1523-1524",
    "city": "Budapest district XIV",
    "country": "Hungary",
    "location": "Museum of Fine Arts, Budapest",
    "kind": "museum",
    "attribution": "generally accepted",
    "status": "present",
    "medium": "Oil on panel",
    "dimensions": "68.5 × 56.5 cm",
    "genre": "religious art",
    "image": "https://commons.wikimedia.org/wiki/Special:FilePath/Correggio%20-%20Nursing%20Madonna.jpg?width=420",
    "wikipedia_en": "https://en.wikipedia.org/wiki/Nursing_Madonna_with_an_Angel",
    "wikipedia_it": "https://it.wikipedia.org/wiki/Madonna_del_Latte_e_un_angelo",
    "wikidata": "https://www.wikidata.org/wiki/Q3842618",
    "creation_place": "Parma",
    "creation_lat": 44.8015,
    "creation_lon": 10.3279,
    "_source": {
     "source": "Wikidata",
     "url": "https://www.wikidata.org/wiki/Q3842618",
     "retrieved_at": "2026-08-23"
    },
    "_overrides": {
     "creation": {
      "at": "2026-08-23",
      "source": "derived from start date + Caravaggio's documented itinerary (approximate)"
     }
    },
    "museum_id": "museum-of-fine-arts-budapest",
    "qid": "Q3842618",
    "wga_url": "https://www.wga.hu/html/c/correggi/madonna/latte2.html"
   }
  },
  {
   "type": "Feature",
   "geometry": {
    "type": "Point",
    "coordinates": [
     -0.1283,
     51.5089
    ]
   },
   "properties": {
    "painter": "Correggio",
    "title": "Madonna of the Basket",
    "year": "1525",
    "city": "London",
    "country": "United Kingdom",
    "location": "National Gallery",
    "kind": "museum",
    "attribution": "generally accepted",
    "status": "present",
    "medium": "Oil on canvas",
    "dimensions": "33 × 25 cm",
    "genre": "religious art",
    "image": "https://commons.wikimedia.org/wiki/Special:FilePath/Correggio%20-%20Madonna%20of%20the%20Basket.jpg?width=420",
    "wikipedia_es": "https://es.wikipedia.org/wiki/La_Virgen_de_la_cesta_(Correggio)",
    "wikipedia_en": "https://en.wikipedia.org/wiki/Madonna_of_the_Basket_(Correggio)",
    "wikipedia_it": "https://it.wikipedia.org/wiki/Madonna_della_Cesta",
    "wikidata": "https://www.wikidata.org/wiki/Q3842660",
    "creation_place": "Parma",
    "creation_lat": 44.8015,
    "creation_lon": 10.3279,
    "_source": {
     "source": "Wikidata",
     "url": "https://www.wikidata.org/wiki/Q3842660",
     "retrieved_at": "2026-08-23"
    },
    "_overrides": {
     "creation": {
      "at": "2026-08-23",
      "source": "derived from start date + Caravaggio's documented itinerary (approximate)"
     }
    },
    "museum_id": "national-gallery",
    "qid": "Q3842660",
    "wga_url": "https://www.wga.hu/html/c/correggi/madonna/basket.html"
   }
  },
  {
   "type": "Feature",
   "geometry": {
    "type": "Point",
    "coordinates": [
     9.41611,
     51.315
    ]
   },
   "properties": {
    "painter": "Correggio",
    "title": "Madonna with St. Francis",
    "year": "1514",
    "city": "Kassel",
    "country": "Germany",
    "location": "Gemäldegalerie Alte Meister",
    "kind": "museum",
    "attribution": "generally accepted",
    "status": "present",
    "medium": "Oil on panel",
    "dimensions": "299 × 245 cm",
    "genre": "religious art",
    "image": "https://commons.wikimedia.org/wiki/Special:FilePath/Correggio%20MadonnaSzentFerenccel.jpg?width=420",
    "wikipedia_es": "https://es.wikipedia.org/wiki/Virgen_de_San_Francisco",
    "wikipedia_en": "https://en.wikipedia.org/wiki/Madonna_and_Child_with_St_Francis",
    "wikipedia_it": "https://it.wikipedia.org/wiki/Madonna_di_San_Francesco",
    "wikidata": "https://www.wikidata.org/wiki/Q3842732",
    "creation_place": "Parma",
    "creation_lat": 44.8015,
    "creation_lon": 10.3279,
    "_source": {
     "source": "Wikidata",
     "url": "https://www.wikidata.org/wiki/Q3842732",
     "retrieved_at": "2026-08-23"
    },
    "_overrides": {
     "creation": {
      "at": "2026-08-23",
      "source": "derived from start date + Caravaggio's documented itinerary (approximate)"
     }
    },
    "museum_id": "gemaldegalerie-alte-meister",
    "qid": "Q3842732",
    "wga_url": "https://www.wga.hu/html/c/correggi/madonna/francesc.html"
   }
  },
  {
   "type": "Feature",
   "geometry": {
    "type": "Point",
    "coordinates": [
     9.41611,
     51.315
    ]
   },
   "properties": {
    "painter": "Correggio",
    "title": "Madonna of Saint George",
    "year": "1529-1530",
    "city": "Kassel",
    "country": "Germany",
    "location": "Gemäldegalerie Alte Meister",
    "kind": "museum",
    "attribution": "generally accepted",
    "status": "present",
    "medium": "Oil on panel",
    "dimensions": "285 × 190 cm",
    "genre": "religious art",
    "image": "https://commons.wikimedia.org/wiki/Special:FilePath/Correggio%20043.jpg?width=420",
    "wikipedia_es": "https://es.wikipedia.org/wiki/Virgen_de_San_Jorge",
    "wikipedia_en": "https://en.wikipedia.org/wiki/Madonna_and_Child_with_Saint_George",
    "wikipedia_it": "https://it.wikipedia.org/wiki/Madonna_di_San_Giorgio",
    "wikidata": "https://www.wikidata.org/wiki/Q3842733",
    "creation_place": "Parma",
    "creation_lat": 44.8015,
    "creation_lon": 10.3279,
    "_source": {
     "source": "Wikidata",
     "url": "https://www.wikidata.org/wiki/Q3842733",
     "retrieved_at": "2026-08-23"
    },
    "_overrides": {
     "creation": {
      "at": "2026-08-23",
      "source": "derived from start date + Caravaggio's documented itinerary (approximate)"
     }
    },
    "museum_id": "gemaldegalerie-alte-meister",
    "qid": "Q3842733",
    "wga_url": "https://www.wga.hu/html/c/correggi/madonna/mad_geor.html"
   }
  },
  {
   "type": "Feature",
   "geometry": {
    "type": "Point",
    "coordinates": [
     9.41611,
     51.315
    ]
   },
   "properties": {
    "painter": "Correggio",
    "title": "Madonna of Saint Sebastian",
    "year": "1524",
    "city": "Kassel",
    "country": "Germany",
    "location": "Gemäldegalerie Alte Meister",
    "kind": "museum",
    "attribution": "generally accepted",
    "status": "present",
    "medium": "Oil paint, poplar panel",
    "dimensions": "265 × 161 cm",
    "genre": "religious art",
    "image": "https://commons.wikimedia.org/wiki/Special:FilePath/Correggio%2C%20Madonna%20di%20San%20Sebastiano.jpg?width=420",
    "wikipedia_es": "https://es.wikipedia.org/wiki/Virgen_de_San_Sebasti%C3%A1n",
    "wikipedia_en": "https://en.wikipedia.org/wiki/San_Sebastiano_Madonna",
    "wikipedia_it": "https://it.wikipedia.org/wiki/Madonna_di_San_Sebastiano",
    "wikidata": "https://www.wikidata.org/wiki/Q3842735",
    "creation_place": "Parma",
    "creation_lat": 44.8015,
    "creation_lon": 10.3279,
    "_source": {
     "source": "Wikidata",
     "url": "https://www.wikidata.org/wiki/Q3842735",
     "retrieved_at": "2026-08-23"
    },
    "_overrides": {
     "creation": {
      "at": "2026-08-23",
      "source": "derived from start date + Caravaggio's documented itinerary (approximate)"
     }
    },
    "museum_id": "gemaldegalerie-alte-meister",
    "qid": "Q3842735"
   }
  },
  {
   "type": "Feature",
   "geometry": {
    "type": "Point",
    "coordinates": [
     10.32586,
     44.80472
    ]
   },
   "properties": {
    "painter": "Correggio",
    "title": "Madonna of St. Jerome",
    "year": "1528",
    "city": "Parma",
    "country": "Italy",
    "location": "Galleria Nazionale di Parma",
    "kind": "museum",
    "attribution": "generally accepted",
    "status": "present",
    "medium": "Oil on canvas",
    "dimensions": "235 × 141 cm",
    "genre": "religious art",
    "image": "https://commons.wikimedia.org/wiki/Special:FilePath/Correggio%20-%20Madonna%20and%20Child%20with%20Sts%20Jerome%20and%20Mary%20Magdalen%20%28The%20Day%29%20-%20WGA05327.jpg?width=420",
    "wikipedia_en": "https://en.wikipedia.org/wiki/Madonna_of_St._Jerome_(Correggio)",
    "wikipedia_it": "https://it.wikipedia.org/wiki/Madonna_di_San_Girolamo",
    "wikidata": "https://www.wikidata.org/wiki/Q3842738",
    "creation_place": "Parma",
    "creation_lat": 44.8015,
    "creation_lon": 10.3279,
    "_source": {
     "source": "Wikidata",
     "url": "https://www.wikidata.org/wiki/Q3842738",
     "retrieved_at": "2026-08-23"
    },
    "_overrides": {
     "creation": {
      "at": "2026-08-23",
      "source": "derived from start date + Caravaggio's documented itinerary (approximate)"
     }
    },
    "museum_id": "galleria-nazionale-di-parma",
    "qid": "Q3842738",
    "wga_url": "https://www.wga.hu/html/c/correggi/madonna/day.html"
   }
  },
  {
   "type": "Feature",
   "geometry": {
    "type": "Point",
    "coordinates": [
     -0.1283,
     51.5089
    ]
   },
   "properties": {
    "painter": "Correggio",
    "title": "The Magdalen",
    "year": "1517",
    "city": "London",
    "country": "United Kingdom",
    "location": "National Gallery",
    "kind": "museum",
    "attribution": "generally accepted",
    "status": "present",
    "medium": "Oil on canvas",
    "dimensions": "38 × 30 cm",
    "genre": "nude, religious art",
    "image": "https://commons.wikimedia.org/wiki/Special:FilePath/Correggio%2C%20maria%20maddalena.jpg?width=420",
    "wikipedia_it": "https://it.wikipedia.org/wiki/Maria_Maddalena_(Correggio)",
    "wikidata": "https://www.wikidata.org/wiki/Q3847397",
    "creation_place": "Parma",
    "creation_lat": 44.8015,
    "creation_lon": 10.3279,
    "_source": {
     "source": "Wikidata",
     "url": "https://www.wikidata.org/wiki/Q3847397",
     "retrieved_at": "2026-08-23"
    },
    "_overrides": {
     "creation": {
      "at": "2026-08-23",
      "source": "derived from start date + Caravaggio's documented itinerary (approximate)"
     }
    },
    "museum_id": "national-gallery",
    "qid": "Q3847397"
   }
  },
  {
   "type": "Feature",
   "geometry": {
    "type": "Point",
    "coordinates": [
     10.32586,
     44.80472
    ]
   },
   "properties": {
    "painter": "Correggio",
    "title": "Martyrdom of Four Saints",
    "year": "1524",
    "city": "Parma",
    "country": "Italy",
    "location": "Galleria Nazionale di Parma",
    "kind": "museum",
    "attribution": "generally accepted",
    "status": "present",
    "medium": "Oil on canvas",
    "dimensions": "157 × 182 cm",
    "genre": "religious art",
    "image": "https://commons.wikimedia.org/wiki/Special:FilePath/Correggio%20-%20Martirio%20dei%20santi%20Placido%2C%20Flavia%2C%20Eutichio%20e%20Vittorino%2C%201524%20circa%2C%20GN353.jpg?width=420",
    "wikipedia_es": "https://es.wikipedia.org/wiki/Martirio_de_cuatro_santos",
    "wikipedia_en": "https://en.wikipedia.org/wiki/Martyrdom_of_Four_Saints",
    "wikipedia_it": "https://it.wikipedia.org/wiki/Martirio_di_quattro_santi",
    "wikidata": "https://www.wikidata.org/wiki/Q3850306",
    "creation_place": "Parma",
    "creation_lat": 44.8015,
    "creation_lon": 10.3279,
    "_source": {
     "source": "Wikidata",
     "url": "https://www.wikidata.org/wiki/Q3850306",
     "retrieved_at": "2026-08-23"
    },
    "_overrides": {
     "creation": {
      "at": "2026-08-23",
      "source": "derived from start date + Caravaggio's documented itinerary (approximate)"
     }
    },
    "museum_id": "galleria-nazionale-di-parma",
    "qid": "Q3850306"
   }
  },
  {
   "type": "Feature",
   "geometry": {
    "type": "Point",
    "coordinates": [
     14.25053,
     40.86701
    ]
   },
   "properties": {
    "painter": "Correggio",
    "title": "The Mystical Marriage of St. Catherine",
    "year": "1520",
    "city": "Naples",
    "country": "Italy",
    "location": "Museo di Capodimonte",
    "kind": "museum",
    "attribution": "generally accepted",
    "status": "present",
    "medium": "Oil on canvas",
    "dimensions": "28 × 24 cm",
    "genre": "religious art",
    "image": "https://commons.wikimedia.org/wiki/Special:FilePath/Correggio%20-%20Lo%20Sposalizio%20mistico%20di%20Santa%20Caterina%20-%20circa%201518%20-%20WD%20Q3851960.jpg?width=420",
    "wikipedia_en": "https://en.wikipedia.org/wiki/Mystic_Marriage_of_Saint_Catherine_(Correggio,_Naples)",
    "wikipedia_it": "https://it.wikipedia.org/wiki/Matrimonio_mistico_di_santa_Caterina_d%27Alessandria_(Correggio_Capodimonte)",
    "wikidata": "https://www.wikidata.org/wiki/Q3851960",
    "creation_place": "Parma",
    "creation_lat": 44.8015,
    "creation_lon": 10.3279,
    "_source": {
     "source": "Wikidata",
     "url": "https://www.wikidata.org/wiki/Q3851960",
     "retrieved_at": "2026-08-23"
    },
    "_overrides": {
     "creation": {
      "at": "2026-08-23",
      "source": "derived from start date + Caravaggio's documented itinerary (approximate)"
     }
    },
    "museum_id": "museo-di-capodimonte",
    "qid": "Q3851960"
   }
  },
  {
   "type": "Feature",
   "geometry": {
    "type": "Point",
    "coordinates": [
     2.3358,
     48.8611
    ]
   },
   "properties": {
    "painter": "Correggio",
    "title": "Mystic Marriage of Saint Catherine of Alexandria with Saint Sebastian",
    "year": "1526",
    "country": "France",
    "location": "Louvre",
    "kind": "museum",
    "attribution": "generally accepted",
    "status": "present",
    "medium": "Oil paint, poplar panel",
    "dimensions": "105 × 102 cm",
    "genre": "religious art",
    "image": "https://commons.wikimedia.org/wiki/Special:FilePath/Le%20Mariage%20mystique%20de%20sainte%20Catherine%20d%27Alexandrie%20en%20pr%C3%A9sence%20de%20saint%20S%C3%A9bastien%20-%20Le%20Corr%C3%A8ge%20-%20Mus%C3%A9e%20du%20Louvre%20Peintures%20INV%2041.jpg?width=420",
    "wikipedia_en": "https://en.wikipedia.org/wiki/Mystic_Marriage_of_Saint_Catherine_(Correggio,_Paris)",
    "wikipedia_it": "https://it.wikipedia.org/wiki/Matrimonio_mistico_di_santa_Caterina_d%27Alessandria_alla_presenza_di_san_Sebastiano",
    "wikidata": "https://www.wikidata.org/wiki/Q3851966",
    "creation_place": "Parma",
    "creation_lat": 44.8015,
    "creation_lon": 10.3279,
    "_source": {
     "source": "Wikidata",
     "url": "https://www.wikidata.org/wiki/Q3851966",
     "retrieved_at": "2026-08-23"
    },
    "_overrides": {
     "creation": {
      "at": "2026-08-23",
      "source": "derived from start date + Caravaggio's documented itinerary (approximate)"
     }
    },
    "museum_id": "louvre",
    "city": "Paris",
    "qid": "Q3851966",
    "wga_url": "https://www.wga.hu/html/c/correggi/various/mystic_m.html"
   }
  },
  {
   "type": "Feature",
   "geometry": {
    "type": "Point",
    "coordinates": [
     -77.02,
     38.8914
    ]
   },
   "properties": {
    "painter": "Correggio",
    "title": "Mystical marriage of Saint Catherine",
    "year": "1510",
    "city": "Washington",
    "country": "United States",
    "location": "National Gallery of Art",
    "kind": "museum",
    "attribution": "generally accepted",
    "status": "present",
    "medium": "Oil on canvas",
    "dimensions": "29 × 22 cm",
    "genre": "religious art",
    "image": "https://commons.wikimedia.org/wiki/Special:FilePath/Correggio%2C%20matrimonio%20mistico%20%28washington%29.jpg?width=420",
    "wikipedia_en": "https://en.wikipedia.org/wiki/Mystic_Marriage_of_Saint_Catherine_(Correggio,_Washington)",
    "wikipedia_it": "https://it.wikipedia.org/wiki/Matrimonio_mistico_di_santa_Caterina_d%27Alessandria_e_santi",
    "wikidata": "https://www.wikidata.org/wiki/Q3851968",
    "_source": {
     "source": "Wikidata",
     "url": "https://www.wikidata.org/wiki/Q3851968",
     "retrieved_at": "2026-08-23"
    },
    "museum_id": "national-gallery-of-art",
    "qid": "Q3851968",
    "wga_url": "https://www.wga.hu/html/c/correggi/various/mystic.html"
   }
  },
  {
   "type": "Feature",
   "geometry": {
    "type": "Point",
    "coordinates": [
     -83.0647,
     42.3594
    ]
   },
   "properties": {
    "painter": "Correggio",
    "title": "The Mystic Marriage of Saint Catherine",
    "year": "1512",
    "city": "Detroit",
    "country": "United States",
    "location": "Detroit Institute of Arts",
    "kind": "museum",
    "attribution": "generally accepted",
    "status": "present",
    "medium": "Oil on panel",
    "dimensions": "167.6 × 155.3 cm",
    "genre": "religious art",
    "image": "https://commons.wikimedia.org/wiki/Special:FilePath/Correggio%20-%20The%20Mystic%20Marriage%20of%20Saint%20Catherine%20-%2026.94%20-%20Detroit%20Institute%20of%20Arts.jpg?width=420",
    "wikipedia_en": "https://en.wikipedia.org/wiki/Mystic_Marriage_of_Saint_Catherine_(Correggio,_Detroit)",
    "wikipedia_it": "https://it.wikipedia.org/wiki/Matrimonio_mistico_di_santa_Caterina_d%27Alessandria_e_tre_santi_in_un_paesaggio",
    "wikidata": "https://www.wikidata.org/wiki/Q3851969",
    "_source": {
     "source": "Wikidata",
     "url": "https://www.wikidata.org/wiki/Q3851969",
     "retrieved_at": "2026-08-23"
    },
    "museum_id": "detroit-institute-of-arts",
    "qid": "Q3851969"
   }
  },
  {
   "type": "Feature",
   "geometry": {
    "type": "Point",
    "coordinates": [
     9.18782,
     45.47196
    ]
   },
   "properties": {
    "painter": "Correggio",
    "title": "Nativity with Saints Elizabeth and John the Baptist",
    "year": "1512",
    "city": "Milan",
    "country": "Italy",
    "location": "Pinacoteca di Brera",
    "kind": "museum",
    "attribution": "generally accepted",
    "status": "present",
    "medium": "Oil on panel",
    "dimensions": "79 × 100 cm",
    "genre": "religious art",
    "image": "https://commons.wikimedia.org/wiki/Special:FilePath/Correggio%20007.jpg?width=420",
    "wikipedia_en": "https://en.wikipedia.org/wiki/Nativity_with_St_Elizabeth_and_the_Infant_John_the_Baptist",
    "wikipedia_it": "https://it.wikipedia.org/wiki/Nativit%C3%A0_con_i_santi_Elisabetta_e_Giovannino",
    "wikidata": "https://www.wikidata.org/wiki/Q3873238",
    "_source": {
     "source": "Wikidata",
     "url": "https://www.wikidata.org/wiki/Q3873238",
     "retrieved_at": "2026-08-23"
    },
    "museum_id": "pinacoteca-di-brera",
    "qid": "Q3873238",
    "wga_url": "https://www.wga.hu/html/c/correggi/various/nativity.html"
   }
  },
  {
   "type": "Feature",
   "geometry": {
    "type": "Point",
    "coordinates": [
     -3.6922,
     40.4139
    ]
   },
   "properties": {
    "painter": "Correggio",
    "title": "Noli me tangere",
    "year": "1523-1525",
    "city": "Madrid",
    "country": "Spain",
    "location": "Museo del Prado",
    "kind": "museum",
    "attribution": "generally accepted",
    "status": "present",
    "medium": "Oil on canvas",
    "dimensions": "130 × 103 cm",
    "genre": "religious art",
    "image": "https://commons.wikimedia.org/wiki/Special:FilePath/Correggio%20056.jpg?width=420",
    "wikipedia_es": "https://es.wikipedia.org/wiki/Noli_me_tangere_(Correggio)",
    "wikipedia_en": "https://en.wikipedia.org/wiki/Noli_me_tangere_(Correggio)",
    "wikipedia_it": "https://it.wikipedia.org/wiki/Noli_me_tangere_(Correggio)",
    "wikidata": "https://www.wikidata.org/wiki/Q3877896",
    "creation_place": "Parma",
    "creation_lat": 44.8015,
    "creation_lon": 10.3279,
    "_source": {
     "source": "Wikidata",
     "url": "https://www.wikidata.org/wiki/Q3877896",
     "retrieved_at": "2026-08-23"
    },
    "_overrides": {
     "creation": {
      "at": "2026-08-23",
      "source": "derived from start date + Caravaggio's documented itinerary (approximate)"
     }
    },
    "museum_id": "museo-del-prado",
    "qid": "Q3877896",
    "wga_url": "https://www.wga.hu/html/c/correggi/various/noli_me.html"
   }
  },
  {
   "type": "Feature",
   "geometry": {
    "type": "Point",
    "coordinates": [
     10.78019,
     44.77036
    ]
   },
   "properties": {
    "painter": "Correggio",
    "title": "Pietà",
    "year": "1512",
    "city": "Correggio",
    "country": "Italy",
    "location": "Civic Museum il Correggio",
    "kind": "museum",
    "attribution": "generally accepted",
    "status": "present",
    "dimensions": "34.2 × 29.2 cm",
    "genre": "religious art",
    "image": "https://commons.wikimedia.org/wiki/Special:FilePath/Correggio%2C%20piet%C3%A0.jpg?width=420",
    "wikipedia_it": "https://it.wikipedia.org/wiki/Piet%C3%A0_(Correggio)",
    "wikidata": "https://www.wikidata.org/wiki/Q3904387",
    "_source": {
     "source": "Wikidata",
     "url": "https://www.wikidata.org/wiki/Q3904387",
     "retrieved_at": "2026-08-23"
    },
    "museum_id": "civic-museum-il-correggio",
    "qid": "Q3904387"
   }
  },
  {
   "type": "Feature",
   "geometry": {
    "type": "Point",
    "coordinates": [
     -73.9631,
     40.7794
    ]
   },
   "properties": {
    "painter": "Correggio",
    "title": "Saints Peter, Martha, Mary Magdalen, and Leonard",
    "year": "1515",
    "city": "New York",
    "country": "United States",
    "location": "Metropolitan Museum of Art",
    "kind": "museum",
    "attribution": "generally accepted",
    "status": "present",
    "medium": "Oil on canvas",
    "dimensions": "221.6 × 161.9 cm",
    "genre": "religious art",
    "image": "https://commons.wikimedia.org/wiki/Special:FilePath/Saints%20Peter%2C%20Martha%2C%20Mary%20Magdalen%2C%20and%20Leonard%20MET%20DT2838.jpg?width=420",
    "wikipedia_es": "https://es.wikipedia.org/wiki/Santos_Pedro,_Marta,_Mar%C3%ADa_Magdalena_y_Leonardo",
    "wikipedia_en": "https://en.wikipedia.org/wiki/Saints_Peter,_Martha,_Mary_Magdalen_and_Leonard",
    "wikipedia_it": "https://it.wikipedia.org/wiki/Quattro_santi",
    "wikidata": "https://www.wikidata.org/wiki/Q3927386",
    "creation_place": "Parma",
    "creation_lat": 44.8015,
    "creation_lon": 10.3279,
    "_source": {
     "source": "Wikidata",
     "url": "https://www.wikidata.org/wiki/Q3927386",
     "retrieved_at": "2026-08-23"
    },
    "_overrides": {
     "creation": {
      "at": "2026-08-23",
      "source": "derived from start date + Caravaggio's documented itinerary (approximate)"
     }
    },
    "museum_id": "metropolitan-museum-of-art",
    "qid": "Q3927386"
   }
  },
  {
   "type": "Feature",
   "geometry": {
    "type": "Point",
    "coordinates": [
     11.25528,
     43.76833
    ]
   },
   "properties": {
    "painter": "Correggio",
    "title": "The Rest on the Flight to Egypt with Saint Francis",
    "year": "1520",
    "city": "Florence",
    "country": "Italy",
    "location": "Uffizi Gallery",
    "kind": "museum",
    "attribution": "generally accepted",
    "status": "present",
    "medium": "Oil on canvas",
    "dimensions": "123.5 × 106.5 cm",
    "genre": "religious art",
    "image": "https://commons.wikimedia.org/wiki/Special:FilePath/Correggio%20059.jpg?width=420",
    "wikipedia_en": "https://en.wikipedia.org/wiki/Rest_on_the_Flight_into_Egypt_with_Saint_Francis",
    "wikipedia_it": "https://it.wikipedia.org/wiki/Riposo_in_Egitto_con_san_Francesco",
    "wikidata": "https://www.wikidata.org/wiki/Q3936375",
    "creation_place": "Parma",
    "creation_lat": 44.8015,
    "creation_lon": 10.3279,
    "_source": {
     "source": "Wikidata",
     "url": "https://www.wikidata.org/wiki/Q3936375",
     "retrieved_at": "2026-08-23"
    },
    "_overrides": {
     "creation": {
      "at": "2026-08-23",
      "source": "derived from start date + Caravaggio's documented itinerary (approximate)"
     }
    },
    "museum_id": "uffizi-gallery",
    "qid": "Q3936375",
    "wga_url": "https://www.wga.hu/html/c/correggi/various/restflig.html"
   }
  },
  {
   "type": "Feature",
   "geometry": {
    "type": "Point",
    "coordinates": [
     9.18028,
     45.46972
    ]
   },
   "properties": {
    "painter": "Correggio",
    "title": "Portrait of a Man with a Book",
    "year": "1522",
    "city": "Milan",
    "country": "Italy",
    "location": "Pinacoteca del Castello Sforzesco",
    "kind": "museum",
    "attribution": "generally accepted",
    "status": "present",
    "medium": "Oil on canvas",
    "dimensions": "60 × 43 cm",
    "genre": "portrait",
    "image": "https://commons.wikimedia.org/wiki/Special:FilePath/Correggio%20058.jpg?width=420",
    "wikipedia_en": "https://en.wikipedia.org/wiki/Portrait_of_a_Man_with_a_Book",
    "wikipedia_it": "https://it.wikipedia.org/wiki/Ritratto_d%27uomo_con_libro",
    "wikidata": "https://www.wikidata.org/wiki/Q3937414",
    "creation_place": "Parma",
    "creation_lat": 44.8015,
    "creation_lon": 10.3279,
    "_source": {
     "source": "Wikidata",
     "url": "https://www.wikidata.org/wiki/Q3937414",
     "retrieved_at": "2026-08-23"
    },
    "_overrides": {
     "creation": {
      "at": "2026-08-23",
      "source": "derived from start date + Caravaggio's documented itinerary (approximate)"
     }
    },
    "museum_id": "pinacoteca-del-castello-sforzesco",
    "qid": "Q3937414"
   }
  },
  {
   "type": "Feature",
   "geometry": {
    "type": "Point",
    "coordinates": [
     -80.19361,
     25.77417
    ]
   },
   "properties": {
    "painter": "Correggio",
    "title": "Portrait of a Young Girl",
    "year": "1515",
    "city": "Miami",
    "country": "United States",
    "location": "Lowe Art Museum",
    "kind": "museum",
    "attribution": "generally accepted",
    "status": "present",
    "dimensions": "42.9 × 33 cm",
    "genre": "portrait",
    "image": "https://commons.wikimedia.org/wiki/Special:FilePath/Correggio%2C%20ritratto%20di%20giovane%20donna%2C%20lowe%20museum.jpg?width=420",
    "wikipedia_it": "https://it.wikipedia.org/wiki/Ritratto_di_giovane_donna_(Correggio)",
    "wikidata": "https://www.wikidata.org/wiki/Q3937720",
    "creation_place": "Parma",
    "creation_lat": 44.8015,
    "creation_lon": 10.3279,
    "_source": {
     "source": "Wikidata",
     "url": "https://www.wikidata.org/wiki/Q3937720",
     "retrieved_at": "2026-08-23"
    },
    "_overrides": {
     "creation": {
      "at": "2026-08-23",
      "source": "derived from start date + Caravaggio's documented itinerary (approximate)"
     }
    },
    "museum_id": "lowe-art-museum",
    "qid": "Q3937720"
   }
  },
  {
   "type": "Feature",
   "geometry": {
    "type": "Point",
    "coordinates": [
     -3.69493,
     40.41604
    ]
   },
   "properties": {
    "painter": "Correggio",
    "title": "Portrait of a student",
    "year": "1525",
    "city": "Madrid",
    "country": "Spain",
    "location": "Thyssen-Bornemisza Museum",
    "kind": "museum",
    "attribution": "generally accepted",
    "status": "present",
    "medium": "Oil on canvas",
    "dimensions": "55 × 40 cm",
    "genre": "portrait",
    "image": "https://commons.wikimedia.org/wiki/Special:FilePath/Correggio%2C%20ritratto%20di%20scolaro.jpg?width=420",
    "wikipedia_it": "https://it.wikipedia.org/wiki/Ritratto_di_scolaro",
    "wikidata": "https://www.wikidata.org/wiki/Q3937757",
    "creation_place": "Parma",
    "creation_lat": 44.8015,
    "creation_lon": 10.3279,
    "_source": {
     "source": "Wikidata",
     "url": "https://www.wikidata.org/wiki/Q3937757",
     "retrieved_at": "2026-08-23"
    },
    "_overrides": {
     "creation": {
      "at": "2026-08-23",
      "source": "derived from start date + Caravaggio's documented itinerary (approximate)"
     }
    },
    "museum_id": "thyssen-bornemisza-museum",
    "qid": "Q3937757"
   }
  },
  {
   "type": "Feature",
   "geometry": {
    "type": "Point",
    "coordinates": [
     10.79433,
     45.16146
    ]
   },
   "properties": {
    "painter": "Correggio",
    "title": "Holy Family with Saints Elizabeth and John the Baptist",
    "year": "1509",
    "city": "Mantua",
    "country": "Italy",
    "location": "Museo diocesano Francesco Gonzaga",
    "kind": "museum",
    "attribution": "generally accepted",
    "status": "present",
    "dimensions": "150 × 150 cm",
    "genre": "religious art",
    "image": "https://commons.wikimedia.org/wiki/Special:FilePath/Correggio%2C%20sacra%20famiglia%20coi%20santi%20elisabetta%20e%20giovannino.jpg?width=420",
    "wikipedia_en": "https://en.wikipedia.org/wiki/Holy_Family_with_Saints_Elizabeth_and_John_the_Baptist_(Correggio,_Mantua)",
    "wikipedia_it": "https://it.wikipedia.org/wiki/Sacra_Famiglia_con_i_santi_Elisabetta_e_Giovannino_(Correggio_Mantova)",
    "wikidata": "https://www.wikidata.org/wiki/Q3944471",
    "_source": {
     "source": "Wikidata",
     "url": "https://www.wikidata.org/wiki/Q3944471",
     "retrieved_at": "2026-08-23"
    },
    "museum_id": "museo-diocesano-francesco-gonzaga",
    "qid": "Q3944471"
   }
  },
  {
   "type": "Feature",
   "geometry": {
    "type": "Point",
    "coordinates": [
     9.15812,
     45.19075
    ]
   },
   "properties": {
    "painter": "Correggio",
    "title": "Holy family with Saints John the Baptist and Elizabeth",
    "year": "1510",
    "city": "Pavia",
    "country": "Italy",
    "location": "Malaspina Picture Gallery",
    "kind": "museum",
    "attribution": "generally accepted",
    "status": "present",
    "dimensions": "28 × 21.5 cm",
    "genre": "religious art",
    "image": "https://commons.wikimedia.org/wiki/Special:FilePath/Correggio%2C%20madonna%20pavia.jpg?width=420",
    "wikipedia_en": "https://en.wikipedia.org/wiki/Holy_Family_with_Saints_Elizabeth_and_John_the_Baptist_(Correggio,_Pavia)",
    "wikipedia_it": "https://it.wikipedia.org/wiki/Sacra_Famiglia_con_i_santi_Elisabetta_e_Giovannino_(Correggio_Pavia)",
    "wikidata": "https://www.wikidata.org/wiki/Q3944472",
    "_source": {
     "source": "Wikidata",
     "url": "https://www.wikidata.org/wiki/Q3944472",
     "retrieved_at": "2026-08-23"
    },
    "museum_id": "malaspina-picture-gallery",
    "qid": "Q3944472"
   }
  },
  {
   "type": "Feature",
   "geometry": {
    "type": "Point",
    "coordinates": [
     -118.3592,
     34.0633
    ]
   },
   "properties": {
    "painter": "Correggio",
    "title": "Holy Family with the Infant St. John",
    "year": "1514",
    "city": "Los Angeles",
    "country": "United States",
    "location": "Los Angeles County Museum of Art",
    "kind": "museum",
    "attribution": "generally accepted",
    "status": "present",
    "medium": "Oil on panel",
    "dimensions": "26.0 × 19.7 cm",
    "genre": "religious art",
    "image": "https://commons.wikimedia.org/wiki/Special:FilePath/Holy%20Family%20with%20the%20Infant%20St.%20John%20LACMA%2046.48.jpg?width=420",
    "wikipedia_en": "https://en.wikipedia.org/wiki/Holy_Family_with_the_Infant_Saint_John_the_Baptist_(Correggio,_Los_Angeles)",
    "wikipedia_it": "https://it.wikipedia.org/wiki/Sacra_Famiglia_con_san_Giovannino_(Correggio_Los_Angeles)",
    "wikidata": "https://www.wikidata.org/wiki/Q3944482",
    "creation_place": "Parma",
    "creation_lat": 44.8015,
    "creation_lon": 10.3279,
    "_source": {
     "source": "Wikidata",
     "url": "https://www.wikidata.org/wiki/Q3944482",
     "retrieved_at": "2026-08-23"
    },
    "_overrides": {
     "creation": {
      "at": "2026-08-23",
      "source": "derived from start date + Caravaggio's documented itinerary (approximate)"
     }
    },
    "museum_id": "los-angeles-county-museum-of-art",
    "qid": "Q3944482"
   }
  },
  {
   "type": "Feature",
   "geometry": {
    "type": "Point",
    "coordinates": [
     1.90957,
     47.90259
    ]
   },
   "properties": {
    "painter": "Correggio",
    "title": "The Holy Family with St. John the Baptist",
    "year": "1518",
    "city": "Orléans",
    "country": "France",
    "location": "Musée des Beaux-Arts d'Orléans",
    "kind": "museum",
    "attribution": "generally accepted",
    "status": "present",
    "dimensions": "63 × 53 cm",
    "genre": "religious art",
    "image": "https://commons.wikimedia.org/wiki/Special:FilePath/Correggio%2C%20sacra%20famiglia%20con%20san%20giovannino%2C%20orleans.jpg?width=420",
    "wikipedia_en": "https://en.wikipedia.org/wiki/Holy_Family_with_the_Infant_Saint_John_the_Baptist_(Correggio,_Orl%C3%A9ans)",
    "wikipedia_it": "https://it.wikipedia.org/wiki/Sacra_Famiglia_con_san_Giovannino_(Correggio_Orl%C3%A9ans)",
    "wikidata": "https://www.wikidata.org/wiki/Q3944483",
    "creation_place": "Parma",
    "creation_lat": 44.8015,
    "creation_lon": 10.3279,
    "_source": {
     "source": "Wikidata",
     "url": "https://www.wikidata.org/wiki/Q3944483",
     "retrieved_at": "2026-08-23"
    },
    "_overrides": {
     "creation": {
      "at": "2026-08-23",
      "source": "derived from start date + Caravaggio's documented itinerary (approximate)"
     }
    },
    "museum_id": "musee-des-beaux-arts-d-orleans",
    "qid": "Q3944483"
   }
  },
  {
   "type": "Feature",
   "geometry": {
    "type": "Point",
    "coordinates": [
     10.33219,
     44.802925
    ]
   },
   "properties": {
    "painter": "Correggio",
    "title": "Saint John and eagle",
    "year": "1520",
    "city": "Parma",
    "country": "Italy",
    "location": "San Giovanni Evangelista",
    "kind": "church",
    "attribution": "generally accepted",
    "status": "present",
    "dimensions": "79 × 160 cm",
    "genre": "religious art",
    "image": "https://commons.wikimedia.org/wiki/Special:FilePath/Correggio%2C%20lunetta%20della%20sagrestia%20di%20san%20giovanni%20con%20san%20giovanni%20evangelista%20e%20l%27aquila%2C%201523%20ca.%2001%20%28cropped%29.jpg?width=420",
    "wikipedia_it": "https://it.wikipedia.org/wiki/San_Giovanni_e_l%27aquila",
    "wikidata": "https://www.wikidata.org/wiki/Q3947277",
    "creation_place": "Parma",
    "creation_lat": 44.8015,
    "creation_lon": 10.3279,
    "_source": {
     "source": "Wikidata",
     "url": "https://www.wikidata.org/wiki/Q3947277",
     "retrieved_at": "2026-08-23"
    },
    "_overrides": {
     "creation": {
      "at": "2026-08-23",
      "source": "derived from start date + Caravaggio's documented itinerary (approximate)"
     }
    },
    "museum_id": "san-giovanni-evangelista",
    "qid": "Q3947277"
   }
  },
  {
   "type": "Feature",
   "geometry": {
    "type": "Point",
    "coordinates": [
     -3.70071,
     40.41779
    ]
   },
   "properties": {
    "painter": "Correggio",
    "title": "Saint Jerome",
    "year": "1516",
    "city": "Madrid",
    "country": "Spain",
    "location": "Royal Academy of Fine Arts of San Fernando",
    "kind": "museum",
    "attribution": "generally accepted",
    "status": "present",
    "medium": "Oil on panel",
    "dimensions": "64 × 51 cm",
    "genre": "religious art",
    "image": "https://commons.wikimedia.org/wiki/Special:FilePath/Correggio%2C%20san%20girolamo.jpg?width=420",
    "wikipedia_it": "https://it.wikipedia.org/wiki/San_Girolamo_(Correggio)",
    "wikidata": "https://www.wikidata.org/wiki/Q3947287",
    "creation_place": "Parma",
    "creation_lat": 44.8015,
    "creation_lon": 10.3279,
    "_source": {
     "source": "Wikidata",
     "url": "https://www.wikidata.org/wiki/Q3947287",
     "retrieved_at": "2026-08-23"
    },
    "_overrides": {
     "creation": {
      "at": "2026-08-23",
      "source": "derived from start date + Caravaggio's documented itinerary (approximate)"
     }
    },
    "museum_id": "royal-academy-of-fine-arts-of-san-fernando",
    "qid": "Q3947287"
   }
  },
  {
   "type": "Feature",
   "geometry": {
    "type": "Point",
    "coordinates": [
     14.25053,
     40.86701
    ]
   },
   "properties": {
    "painter": "Correggio",
    "title": "Saint Joseph and a follower",
    "year": "1529",
    "city": "Naples",
    "country": "Italy",
    "location": "Museo di Capodimonte",
    "kind": "museum",
    "attribution": "generally accepted",
    "status": "present",
    "dimensions": "165 × 63 cm",
    "genre": "religious art",
    "image": "https://commons.wikimedia.org/wiki/Special:FilePath/Correggio%2C%20san%20giuseppe%20e%20un%20devoto.jpg?width=420",
    "wikipedia_en": "https://en.wikipedia.org/wiki/Saint_Joseph_and_a_Devotee",
    "wikipedia_it": "https://it.wikipedia.org/wiki/San_Giuseppe_e_un_devoto",
    "wikidata": "https://www.wikidata.org/wiki/Q3947332",
    "creation_place": "Parma",
    "creation_lat": 44.8015,
    "creation_lon": 10.3279,
    "_source": {
     "source": "Wikidata",
     "url": "https://www.wikidata.org/wiki/Q3947332",
     "retrieved_at": "2026-08-23"
    },
    "_overrides": {
     "creation": {
      "at": "2026-08-23",
      "source": "derived from start date + Caravaggio's documented itinerary (approximate)"
     }
    },
    "museum_id": "museo-di-capodimonte",
    "qid": "Q3947332"
   }
  },
  {
   "type": "Feature",
   "geometry": {
    "type": "Point",
    "coordinates": [
     14.25053,
     40.86701
    ]
   },
   "properties": {
    "painter": "Correggio",
    "title": "Saint Anthony Abbot",
    "year": "1517",
    "city": "Naples",
    "country": "Italy",
    "location": "Museo di Capodimonte",
    "kind": "museum",
    "attribution": "generally accepted",
    "status": "present",
    "medium": "Oil on panel",
    "dimensions": "47 × 37 cm",
    "genre": "religious art",
    "image": "https://commons.wikimedia.org/wiki/Special:FilePath/Correggio%2C%20antonio%20abate.jpg?width=420",
    "wikipedia_en": "https://en.wikipedia.org/wiki/Saint_Anthony_Abbot_(Correggio)",
    "wikipedia_it": "https://it.wikipedia.org/wiki/Sant%27Antonio_Abate_(dipinto_Correggio)",
    "wikidata": "https://www.wikidata.org/wiki/Q3948768",
    "creation_place": "Parma",
    "creation_lat": 44.8015,
    "creation_lon": 10.3279,
    "_source": {
     "source": "Wikidata",
     "url": "https://www.wikidata.org/wiki/Q3948768",
     "retrieved_at": "2026-08-23"
    },
    "_overrides": {
     "creation": {
      "at": "2026-08-23",
      "source": "derived from start date + Caravaggio's documented itinerary (approximate)"
     }
    },
    "museum_id": "museo-di-capodimonte",
    "qid": "Q3948768"
   }
  },
  {
   "type": "Feature",
   "geometry": {
    "type": "Point",
    "coordinates": [
     -0.3375,
     51.4034
    ]
   },
   "properties": {
    "painter": "Correggio",
    "title": "Saint Catherine Reading",
    "year": "1530",
    "city": "London Borough of Richmond upon Thames",
    "country": "United Kingdom",
    "location": "Hampton Court Palace",
    "kind": "museum",
    "attribution": "generally accepted",
    "status": "present",
    "medium": "Oil on canvas",
    "dimensions": "64.5 × 52.2 cm",
    "genre": "religious art",
    "image": "https://commons.wikimedia.org/wiki/Special:FilePath/Antonio%20Allegri%20Correggio%20%28c.%201489-1534%29%20-%20Saint%20Catherine%20Reading%20-%20RCIN%20405768%20-%20Royal%20Collection.jpg?width=420",
    "wikipedia_en": "https://en.wikipedia.org/wiki/Saint_Catherine_Reading",
    "wikipedia_it": "https://it.wikipedia.org/wiki/Santa_Caterina_leggente",
    "wikidata": "https://www.wikidata.org/wiki/Q3948946",
    "creation_place": "Parma",
    "creation_lat": 44.8015,
    "creation_lon": 10.3279,
    "_source": {
     "source": "Wikidata",
     "url": "https://www.wikidata.org/wiki/Q3948946",
     "retrieved_at": "2026-08-23"
    },
    "_overrides": {
     "creation": {
      "at": "2026-08-23",
      "source": "derived from start date + Caravaggio's documented itinerary (approximate)"
     }
    },
    "museum_id": "hampton-court-palace",
    "qid": "Q3948946"
   }
  },
  {
   "type": "Feature",
   "geometry": {
    "type": "Point",
    "coordinates": [
     -118.475,
     34.0775
    ]
   },
   "properties": {
    "painter": "Correggio",
    "title": "Head of Christ",
    "year": "1521",
    "city": "Los Angeles",
    "country": "United States",
    "location": "Getty Center",
    "kind": "museum",
    "attribution": "generally accepted",
    "status": "present",
    "medium": "Oil on panel",
    "dimensions": "286 × 235 cm",
    "genre": "religious art",
    "image": "https://commons.wikimedia.org/wiki/Special:FilePath/Correggio%20%28Antonio%20Allegri%29%20%28Italian%29%20-%20Head%20of%20Christ%20-%20Google%20Art%20Project.jpg?width=420",
    "wikipedia_en": "https://en.wikipedia.org/wiki/Head_of_Christ_(Correggio)",
    "wikipedia_it": "https://it.wikipedia.org/wiki/Velo_della_Veronica_(Correggio)",
    "wikidata": "https://www.wikidata.org/wiki/Q4009400",
    "creation_place": "Parma",
    "creation_lat": 44.8015,
    "creation_lon": 10.3279,
    "_source": {
     "source": "Wikidata",
     "url": "https://www.wikidata.org/wiki/Q4009400",
     "retrieved_at": "2026-08-23"
    },
    "_overrides": {
     "creation": {
      "at": "2026-08-23",
      "source": "derived from start date + Caravaggio's documented itinerary (approximate)"
     }
    },
    "museum_id": "getty-center",
    "qid": "Q4009400"
   }
  },
  {
   "type": "Feature",
   "geometry": {
    "type": "Point",
    "coordinates": [
     10.78019,
     44.77036
    ]
   },
   "properties": {
    "painter": "Correggio",
    "title": "Head of Christ",
    "year": "1518",
    "city": "Correggio",
    "country": "Italy",
    "location": "Civic Museum il Correggio",
    "kind": "museum",
    "attribution": "generally accepted",
    "status": "present",
    "dimensions": "24 × 18 cm",
    "genre": "religious art",
    "image": "https://commons.wikimedia.org/wiki/Special:FilePath/Correggio%2C%20volto%20di%20cristo.jpg?width=420",
    "wikipedia_it": "https://it.wikipedia.org/wiki/Volto_di_Cristo",
    "wikidata": "https://www.wikidata.org/wiki/Q4016334",
    "creation_place": "Parma",
    "creation_lat": 44.8015,
    "creation_lon": 10.3279,
    "_source": {
     "source": "Wikidata",
     "url": "https://www.wikidata.org/wiki/Q4016334",
     "retrieved_at": "2026-08-23"
    },
    "_overrides": {
     "creation": {
      "at": "2026-08-23",
      "source": "derived from start date + Caravaggio's documented itinerary (approximate)"
     }
    },
    "museum_id": "civic-museum-il-correggio",
    "qid": "Q4016334"
   }
  },
  {
   "type": "Feature",
   "geometry": {
    "type": "Point",
    "coordinates": [
     9.41611,
     51.315
    ]
   },
   "properties": {
    "painter": "Correggio",
    "title": "Magdalen in the Desert",
    "year": "1623",
    "city": "Kassel",
    "country": "Germany",
    "location": "Gemäldegalerie Alte Meister",
    "kind": "museum",
    "attribution": "generally accepted",
    "status": "present",
    "dimensions": "29 × 39 cm",
    "genre": "religious art",
    "image": "https://commons.wikimedia.org/wiki/Special:FilePath/Gem%C3%A4ldegalerie%20Alte%20Meister%20%28Dresden%29%20Galeriewerk%20L%C3%BCcke%20012.jpg?width=420",
    "wikipedia_en": "https://en.wikipedia.org/wiki/Magdalen_in_the_Desert",
    "wikidata": "https://www.wikidata.org/wiki/Q50321650",
    "_source": {
     "source": "Wikidata",
     "url": "https://www.wikidata.org/wiki/Q50321650",
     "retrieved_at": "2026-08-23"
    },
    "museum_id": "gemaldegalerie-alte-meister",
    "qid": "Q50321650"
   }
  },
  {
   "type": "Feature",
   "geometry": {
    "type": "Point",
    "coordinates": [
     8.67388,
     50.10322
    ]
   },
   "properties": {
    "painter": "Correggio",
    "title": "Madonna and Child with the Infant Saint John",
    "year": "1522",
    "city": "Frankfurt",
    "country": "Germany",
    "location": "Städel Museum",
    "kind": "museum",
    "attribution": "attributed",
    "status": "present",
    "medium": "Oil on canvas",
    "dimensions": "90.5 × 72.2 cm",
    "genre": "religious art",
    "image": "https://commons.wikimedia.org/wiki/Special:FilePath/Correggio%20-%20Maria%20met%20Christus%20en%20Johannes%20de%20Doper%20als%20kinderen%20-%201176%20-%20St%C3%A4del%20Museum.jpg?width=420",
    "wikidata": "https://www.wikidata.org/wiki/Q64787450",
    "creation_place": "Parma",
    "creation_lat": 44.8015,
    "creation_lon": 10.3279,
    "_source": {
     "source": "Wikidata",
     "url": "https://www.wikidata.org/wiki/Q64787450",
     "retrieved_at": "2026-08-23"
    },
    "_overrides": {
     "creation": {
      "at": "2026-08-23",
      "source": "derived from start date + Caravaggio's documented itinerary (approximate)"
     }
    },
    "museum_id": "stadel-museum",
    "qid": "Q64787450"
   }
  },
  {
   "type": "Feature",
   "geometry": {
    "type": "Point",
    "coordinates": [
     16.3616,
     48.20388
    ]
   },
   "properties": {
    "painter": "Correggio",
    "title": "Jupiter and Io",
    "year": "1530",
    "city": "Vienna",
    "country": "Austria",
    "location": "Kunsthistorisches Museum",
    "kind": "museum",
    "attribution": "generally accepted",
    "status": "present",
    "medium": "Oil on canvas",
    "dimensions": "162 × 73.5 cm",
    "genre": "mythological painting, nude",
    "image": "https://commons.wikimedia.org/wiki/Special:FilePath/Antonio%20Allegri%2C%20gen.%20Correggio%2C%20Kunsthistorisches%20Museum%20Wien%2C%20Gem%C3%A4ldegalerie%20-%20Jupiter%20und%20Io%20-%20GG%20274%20-%20Kunsthistorisches%20Museum.jpg?width=420",
    "wikipedia_es": "https://es.wikipedia.org/wiki/J%C3%BApiter_e_%C3%8Do",
    "wikipedia_en": "https://en.wikipedia.org/wiki/Jupiter_and_Io",
    "wikipedia_it": "https://it.wikipedia.org/wiki/Giove_e_Io",
    "wikidata": "https://www.wikidata.org/wiki/Q700834",
    "creation_place": "Parma",
    "creation_lat": 44.8015,
    "creation_lon": 10.3279,
    "_source": {
     "source": "Wikidata",
     "url": "https://www.wikidata.org/wiki/Q700834",
     "retrieved_at": "2026-08-23"
    },
    "_overrides": {
     "creation": {
      "at": "2026-08-23",
      "source": "derived from start date + Caravaggio's documented itinerary (approximate)"
     }
    },
    "museum_id": "kunsthistorisches-museum",
    "qid": "Q700834",
    "wga_url": "https://www.wga.hu/html/c/correggi/mytholog/io.html"
   }
  },
  {
   "type": "Feature",
   "geometry": {
    "type": "Point",
    "coordinates": [
     16.3616,
     48.20388
    ]
   },
   "properties": {
    "painter": "Correggio",
    "title": "Ganymede Abducted by the Eagle",
    "year": "1530",
    "city": "Vienna",
    "country": "Austria",
    "location": "Kunsthistorisches Museum",
    "kind": "museum",
    "attribution": "generally accepted",
    "status": "present",
    "medium": "Oil on canvas",
    "dimensions": "1635 × 720 cm",
    "genre": "mythological painting",
    "image": "https://commons.wikimedia.org/wiki/Special:FilePath/Antonio%20Allegri%2C%20called%20Correggio%20-%20The%20Abduction%20of%20Ganymede%20-%20Google%20Art%20Project.jpg?width=420",
    "wikipedia_es": "https://es.wikipedia.org/wiki/El_rapto_de_Ganimedes",
    "wikipedia_en": "https://en.wikipedia.org/wiki/Ganymede_Abducted_by_the_Eagle",
    "wikipedia_it": "https://it.wikipedia.org/wiki/Ratto_di_Ganimede_(Correggio)",
    "wikidata": "https://www.wikidata.org/wiki/Q939962",
    "creation_place": "Parma",
    "creation_lat": 44.8015,
    "creation_lon": 10.3279,
    "_source": {
     "source": "Wikidata",
     "url": "https://www.wikidata.org/wiki/Q939962",
     "retrieved_at": "2026-08-23"
    },
    "_overrides": {
     "creation": {
      "at": "2026-08-23",
      "source": "derived from start date + Caravaggio's documented itinerary (approximate)"
     }
    },
    "museum_id": "kunsthistorisches-museum",
    "qid": "Q939962",
    "wga_url": "https://www.wga.hu/html/c/correggi/mytholog/ganymede.html"
   }
  }
 ]
}