{
 "type": "FeatureCollection",
 "_note": "Canon from List of paintings by Jacques-Louis David (Wikipedia). Coords via MediaWiki API.",
 "features": [
  {
   "type": "Feature",
   "geometry": {
    "type": "Point",
    "coordinates": [
     -87.62389,
     41.87944
    ]
   },
   "properties": {
    "painter": "Jacques-Louis David",
    "title": "Portrait of Madame François Buron",
    "year": "1769",
    "location": "Art Institute of Chicago",
    "attribution": "generally accepted",
    "medium": "oil on canvas",
    "dimensions": "66 × 55 cm",
    "image": "https://upload.wikimedia.org/wikipedia/commons/thumb/d/d5/Jacques_Louis_David_-_Madame_Fran%C3%A7ois_Buron_-_1963.205_-_Art_Institute_of_Chicago.jpg/500px-Jacques_Louis_David_-_Madame_Fran%C3%A7ois_Buron_-_1963.205_-_Art_Institute_of_Chicago.jpg?utm_source=en.wikipedia.org&amp;utm_campaign=parser&amp;utm_content=thumbnail",
    "notable": true,
    "wikipedia_en": "https://en.wikipedia.org/wiki/Portrait_of_Madame_Fran%C3%A7ois_Buron",
    "_source": {
     "source": "Wikipedia: List of paintings by Jacques-Louis David",
     "coord": "MediaWiki coordinates API"
    },
    "museum_id": "art-institute-of-chicago",
    "city": "Chicago",
    "country": "United States",
    "qid": "Q20273723",
    "wikidata": "https://www.wikidata.org/wiki/Q20273723"
   }
  },
  {
   "type": "Feature",
   "geometry": {
    "type": "Point",
    "coordinates": [
     3.07222,
     36.74611
    ]
   },
   "properties": {
    "painter": "Jacques-Louis David",
    "title": "Portrait of Marie-Françoise Buron",
    "year": "1769",
    "location": "National Museum of Fine Arts of Algiers",
    "attribution": "generally accepted",
    "medium": "oil on canvas",
    "dimensions": "66 × 54 cm",
    "image": "https://upload.wikimedia.org/wikipedia/commons/thumb/f/f2/Jacques-Louis_David_-_Portrait_of_Marie-Fran%C3%A7oise_Buron_-_WGA06039.jpg/500px-Jacques-Louis_David_-_Portrait_of_Marie-Fran%C3%A7oise_Buron_-_WGA06039.jpg?utm_source=en.wikipedia.org&amp;utm_campaign=parser&amp;utm_content=thumbnail",
    "notable": true,
    "_source": {
     "source": "Wikipedia: List of paintings by Jacques-Louis David",
     "coord": "MediaWiki coordinates API"
    },
    "museum_id": "national-museum-of-fine-arts-of-algiers",
    "wga_url": "https://www.wga.hu/html/d/david_j/1/102david.html"
   }
  },
  {
   "type": "Feature",
   "geometry": {
    "type": "Point",
    "coordinates": [
     2.3358,
     48.8611
    ]
   },
   "properties": {
    "painter": "Jacques-Louis David",
    "title": "Minerva Fighting Mars",
    "year": "1771",
    "city": "Paris",
    "country": "France",
    "location": "Louvre",
    "attribution": "generally accepted",
    "medium": "oil on canvas",
    "dimensions": "114 × 140 cm",
    "image": "https://upload.wikimedia.org/wikipedia/commons/thumb/b/b6/The_Combat_of_Ares_and_Athena.jpg/500px-The_Combat_of_Ares_and_Athena.jpg?utm_source=en.wikipedia.org&amp;utm_campaign=parser&amp;utm_content=thumbnail",
    "notable": true,
    "wikipedia_en": "https://en.wikipedia.org/wiki/Minerva_Fighting_Mars",
    "_source": {
     "source": "Wikipedia: List of paintings by Jacques-Louis David",
     "coord": "MediaWiki coordinates API"
    },
    "museum_id": "louvre",
    "qid": "Q2984817",
    "wikidata": "https://www.wikidata.org/wiki/Q2984817",
    "wga_url": "https://www.wga.hu/html/d/david_j/1/103david.html"
   }
  },
  {
   "type": "Feature",
   "geometry": {
    "type": "Point",
    "coordinates": [
     3.2877,
     48.1975
    ]
   },
   "properties": {
    "painter": "Jacques-Louis David",
    "title": "Jupiter and Antiope",
    "year": "1771",
    "city": "Sens",
    "location": "Musées de Sens",
    "attribution": "generally accepted",
    "medium": "oil on canvas",
    "dimensions": "87 × 79 cm",
    "image": "https://upload.wikimedia.org/wikipedia/commons/thumb/1/13/Jacques-Louis_David_-_Jupiter_et_Antiope.jpg/500px-Jacques-Louis_David_-_Jupiter_et_Antiope.jpg?utm_source=en.wikipedia.org&amp;utm_campaign=parser&amp;utm_content=thumbnail",
    "notable": true,
    "wikipedia_en": "https://en.wikipedia.org/wiki/Jupiter_and_Antiope_(David)",
    "_source": {
     "source": "Wikipedia: List of paintings by Jacques-Louis David",
     "coord": "MediaWiki coordinates API"
    },
    "museum_id": "musees-de-sens",
    "qid": "Q18649388",
    "wikidata": "https://www.wikidata.org/wiki/Q18649388"
   }
  },
  {
   "type": "Feature",
   "geometry": {
    "type": "Point",
    "coordinates": [
     -96.80089,
     32.78756
    ]
   },
   "properties": {
    "painter": "Jacques-Louis David",
    "title": "Diana and Apollo Killing Niobe's Children",
    "year": "1772",
    "city": "Dallas",
    "location": "Dallas Museum of Art",
    "attribution": "generally accepted",
    "medium": "oil on canvas",
    "dimensions": "120.65 × 153.67 cm",
    "image": "https://upload.wikimedia.org/wikipedia/commons/thumb/6/6c/Niobe_JacquesLouisDavid_1772_Dallas_Museum_of_Art.jpg/500px-Niobe_JacquesLouisDavid_1772_Dallas_Museum_of_Art.jpg?utm_source=en.wikipedia.org&amp;utm_campaign=parser&amp;utm_content=thumbnail",
    "notable": true,
    "wikipedia_en": "https://en.wikipedia.org/wiki/Diana_and_Apollo_Killing_Niobe%27s_Children",
    "_source": {
     "source": "Wikipedia: List of paintings by Jacques-Louis David",
     "coord": "MediaWiki coordinates API"
    },
    "museum_id": "dallas-museum-of-art",
    "country": "United States",
    "qid": "Q3026259",
    "wikidata": "https://www.wikidata.org/wiki/Q3026259"
   }
  },
  {
   "type": "Feature",
   "geometry": {
    "type": "Point",
    "coordinates": [
     2.31453,
     48.86604
    ]
   },
   "properties": {
    "painter": "Jacques-Louis David",
    "title": "The Death of Seneca",
    "year": "1773",
    "city": "Paris",
    "country": "France",
    "location": "Petit Palais",
    "attribution": "generally accepted",
    "medium": "oil on canvas",
    "dimensions": "122 × 155 cm",
    "image": "https://upload.wikimedia.org/wikipedia/commons/thumb/5/5c/David_La_morte_di_Seneca.jpg/500px-David_La_morte_di_Seneca.jpg?utm_source=en.wikipedia.org&amp;utm_campaign=parser&amp;utm_content=thumbnail",
    "notable": true,
    "wikipedia_en": "https://en.wikipedia.org/wiki/The_Death_of_Seneca_(David)",
    "_source": {
     "source": "Wikipedia: List of paintings by Jacques-Louis David",
     "coord": "MediaWiki coordinates API"
    },
    "museum_id": "petit-palais",
    "qid": "Q3210841",
    "wikidata": "https://www.wikidata.org/wiki/Q3210841",
    "wga_url": "https://www.wga.hu/html/d/david_j/1/104david.html"
   }
  },
  {
   "type": "Feature",
   "geometry": {
    "type": "Point",
    "coordinates": [
     2.33333,
     48.85694
    ]
   },
   "properties": {
    "painter": "Jacques-Louis David",
    "title": "Erasistratus Discovering the Cause of Antiochus' Disease",
    "year": "1774",
    "city": "Paris",
    "country": "France",
    "location": "École nationale supérieure des Beaux-Arts",
    "attribution": "generally accepted",
    "medium": "oil on canvas",
    "dimensions": "120 × 155 cm",
    "image": "https://upload.wikimedia.org/wikipedia/commons/thumb/7/73/David-Antiochus_et_Stratonice.jpg/500px-David-Antiochus_et_Stratonice.jpg?utm_source=en.wikipedia.org&amp;utm_campaign=parser&amp;utm_content=thumbnail",
    "notable": true,
    "wikipedia_en": "https://en.wikipedia.org/wiki/Erasistratus_Discovering_the_Cause_of_Antiochus%27_Disease",
    "_source": {
     "source": "Wikipedia: List of paintings by Jacques-Louis David",
     "coord": "MediaWiki coordinates API"
    },
    "museum_id": "ecole-nationale-superieure-des-beaux-arts",
    "qid": "Q3590926",
    "wikidata": "https://www.wikidata.org/wiki/Q3590926",
    "wga_url": "https://www.wga.hu/html/d/david_j/1/105david.html"
   }
  },
  {
   "type": "Feature",
   "geometry": {
    "type": "Point",
    "coordinates": [
     3.88,
     43.612
    ]
   },
   "properties": {
    "painter": "Jacques-Louis David",
    "title": "Hector",
    "year": "1778",
    "city": "Montpellier",
    "location": "Fabre Museum",
    "attribution": "generally accepted",
    "medium": "oil on canvas",
    "dimensions": "123 × 172 cm",
    "image": "https://upload.wikimedia.org/wikipedia/commons/thumb/b/b8/Le_corps_d%27Hector_-_Hector%27s_body_-_El_cuerpo_de_H%C3%A9ctor.jpg/500px-Le_corps_d%27Hector_-_Hector%27s_body_-_El_cuerpo_de_H%C3%A9ctor.jpg?utm_source=en.wikipedia.org&amp;utm_campaign=parser&amp;utm_content=thumbnail",
    "notable": true,
    "wikipedia_en": "https://en.wikipedia.org/wiki/Hector_(Jacques-Louis_David)",
    "creation_place": "Rome",
    "creation_lat": 41.9028,
    "creation_lon": 12.4964,
    "_source": {
     "source": "Wikipedia: List of paintings by Jacques-Louis David",
     "coord": "MediaWiki coordinates API"
    },
    "museum_id": "fabre-museum",
    "qid": "Q117225365",
    "wikidata": "https://www.wikidata.org/wiki/Q117225365"
   }
  },
  {
   "type": "Feature",
   "geometry": {
    "type": "Point",
    "coordinates": [
     -6.25255,
     53.34091
    ]
   },
   "properties": {
    "painter": "Jacques-Louis David",
    "title": "The Funeral Games of Patroclus",
    "year": "1778",
    "city": "Dublin",
    "country": "Ireland",
    "location": "National Gallery of Ireland",
    "attribution": "generally accepted",
    "medium": "oil on canvas",
    "dimensions": "94 × 218 cm",
    "image": "https://upload.wikimedia.org/wikipedia/commons/thumb/d/d1/JL_David_Les_fun%C3%A9railles_de_Patrocle.jpg/500px-JL_David_Les_fun%C3%A9railles_de_Patrocle.jpg?utm_source=en.wikipedia.org&amp;utm_campaign=parser&amp;utm_content=thumbnail",
    "notable": true,
    "wikipedia_en": "https://en.wikipedia.org/wiki/The_Funeral_Games_of_Patroclus",
    "creation_place": "Rome",
    "creation_lat": 41.9028,
    "creation_lon": 12.4964,
    "_source": {
     "source": "Wikipedia: List of paintings by Jacques-Louis David",
     "coord": "MediaWiki coordinates API"
    },
    "museum_id": "national-gallery-of-ireland",
    "qid": "Q3232845",
    "wikidata": "https://www.wikidata.org/wiki/Q3232845"
   }
  },
  {
   "type": "Feature",
   "geometry": {
    "type": "Point",
    "coordinates": [
     -0.7028,
     49.2794
    ]
   },
   "properties": {
    "painter": "Jacques-Louis David",
    "title": "Ancient Philosopher",
    "year": "1779",
    "city": "Bayeux",
    "location": "Museum of Baron Gerard",
    "attribution": "generally accepted",
    "medium": "oil on canvas",
    "dimensions": "74 × 64 cm",
    "image": "https://upload.wikimedia.org/wikipedia/commons/thumb/4/45/Le_Philosophe_Jacques_Louis_David.jpg/500px-Le_Philosophe_Jacques_Louis_David.jpg?utm_source=en.wikipedia.org&amp;utm_campaign=parser&amp;utm_content=thumbnail",
    "notable": true,
    "wikipedia_en": "https://en.wikipedia.org/wiki/Ancient_Philosopher_(David)",
    "creation_place": "Rome",
    "creation_lat": 41.9028,
    "creation_lon": 12.4964,
    "_source": {
     "source": "Wikipedia: List of paintings by Jacques-Louis David",
     "coord": "MediaWiki coordinates API"
    },
    "museum_id": "museum-of-baron-gerard",
    "qid": "Q97013120",
    "wikidata": "https://www.wikidata.org/wiki/Q97013120"
   }
  },
  {
   "type": "Feature",
   "geometry": {
    "type": "Point",
    "coordinates": [
     -71.20238,
     46.81511
    ]
   },
   "properties": {
    "painter": "Jacques-Louis David",
    "title": "Saint Jerome Hears the Trumpet of the Last Judgment",
    "year": "1779",
    "city": "Quebec",
    "location": "Musée de la civilisation",
    "attribution": "generally accepted",
    "medium": "oil on canvas",
    "dimensions": "174 × 124 cm",
    "image": "https://upload.wikimedia.org/wikipedia/commons/thumb/6/67/Saint-J%C3%A9r%C3%B4me_par_David.jpg/500px-Saint-J%C3%A9r%C3%B4me_par_David.jpg?utm_source=en.wikipedia.org&amp;utm_campaign=parser&amp;utm_content=thumbnail",
    "notable": true,
    "wikipedia_en": "https://en.wikipedia.org/wiki/Saint_Jerome_Hears_the_Trumpet_of_the_Last_Judgment",
    "creation_place": "Rome",
    "creation_lat": 41.9028,
    "creation_lon": 12.4964,
    "_source": {
     "source": "Wikipedia: List of paintings by Jacques-Louis David",
     "coord": "MediaWiki coordinates API"
    },
    "museum_id": "musee-de-la-civilisation",
    "qid": "Q52365481",
    "wikidata": "https://www.wikidata.org/wiki/Q52365481"
   }
  },
  {
   "type": "Feature",
   "geometry": {
    "type": "Point",
    "coordinates": [
     -1.62306,
     49.63722
    ]
   },
   "properties": {
    "painter": "Jacques-Louis David",
    "title": "Patroclus",
    "year": "1780",
    "city": "Cherbourg-en-Cotentin",
    "location": "Musée Thomas-Henry",
    "attribution": "generally accepted",
    "medium": "oil on canvas",
    "dimensions": "122 × 170 cm",
    "image": "https://upload.wikimedia.org/wikipedia/commons/thumb/e/ea/Jacques-Louis_David_Patrocle.jpg/500px-Jacques-Louis_David_Patrocle.jpg?utm_source=en.wikipedia.org&amp;utm_campaign=parser&amp;utm_content=thumbnail",
    "notable": true,
    "creation_place": "Rome",
    "creation_lat": 41.9028,
    "creation_lon": 12.4964,
    "_source": {
     "source": "Wikipedia: List of paintings by Jacques-Louis David",
     "coord": "MediaWiki coordinates API"
    },
    "museum_id": "musee-thomas-henry",
    "country": "France",
    "wga_url": "https://www.wga.hu/html/d/david_j/1/107david.html"
   }
  },
  {
   "type": "Feature",
   "geometry": {
    "type": "Point",
    "coordinates": [
     -71.05778,
     42.36028
    ]
   },
   "properties": {
    "painter": "Jacques-Louis David",
    "title": "Saint Roch Interceding with the Virgin for the Plague-Stricken",
    "year": "1780",
    "city": "Boston",
    "location": "Museum of Fine Arts",
    "attribution": "generally accepted",
    "medium": "oil on canvas",
    "dimensions": "260 × 195 cm",
    "image": "https://upload.wikimedia.org/wikipedia/commons/thumb/0/0d/David_San_Rocco.jpg/500px-David_San_Rocco.jpg?utm_source=en.wikipedia.org&amp;utm_campaign=parser&amp;utm_content=thumbnail",
    "notable": true,
    "wikipedia_en": "https://en.wikipedia.org/wiki/Saint_Roch_Interceding_with_the_Virgin_for_the_Plague-Stricken",
    "creation_place": "Rome",
    "creation_lat": 41.9028,
    "creation_lon": 12.4964,
    "_source": {
     "source": "Wikipedia: List of paintings by Jacques-Louis David",
     "coord": "MediaWiki coordinates API"
    },
    "museum_id": "museum-of-fine-arts",
    "qid": "Q3464047",
    "wikidata": "https://www.wikidata.org/wiki/Q3464047",
    "wga_url": "https://www.wga.hu/html/d/david_j/1/108david.html",
    "country": "United States"
   }
  },
  {
   "type": "Feature",
   "geometry": {
    "type": "Point",
    "coordinates": [
     -81.61167,
     41.50889
    ]
   },
   "properties": {
    "painter": "Jacques-Louis David",
    "title": "Young Woman with a Turban",
    "year": "1780",
    "city": "Cleveland",
    "country": "United States",
    "location": "Cleveland Museum of Art",
    "attribution": "generally accepted",
    "medium": "oil on canvas",
    "dimensions": "55 × 46 cm",
    "image": "https://upload.wikimedia.org/wikipedia/commons/thumb/d/d1/Jacques-Louis_David_-_Young_Woman_with_a_Turban_-_1952.542_-_Cleveland_Museum_of_Art.tiff/lossy-page1-250px-Jacques-Louis_David_-_Young_Woman_with_a_Turban_-_1952.542_-_Cleveland_Museum_of_Art.tiff.jpg?utm_source=en.wikipedia.org&amp;utm_campaign=parser&amp;utm_content=thumbnail",
    "notable": true,
    "wikipedia_en": "https://en.wikipedia.org/wiki/Portrait_of_a_Young_Woman_in_a_Turban",
    "creation_place": "Rome",
    "creation_lat": 41.9028,
    "creation_lon": 12.4964,
    "_source": {
     "source": "Wikipedia: List of paintings by Jacques-Louis David",
     "coord": "MediaWiki coordinates API"
    },
    "museum_id": "cleveland-museum-of-art",
    "qid": "Q60516167",
    "wikidata": "https://www.wikidata.org/wiki/Q60516167"
   }
  },
  {
   "type": "Feature",
   "geometry": {
    "type": "Point",
    "coordinates": [
     21.01111,
     52.23
    ]
   },
   "properties": {
    "painter": "Jacques-Louis David",
    "title": "Portrait of Count Stanislas Potocki",
    "year": "1781",
    "city": "Warsaw",
    "location": "Museum of the Palace of King John III in Wilanow",
    "attribution": "generally accepted",
    "medium": "oil on canvas",
    "dimensions": "304 × 218 cm",
    "image": "https://upload.wikimedia.org/wikipedia/commons/thumb/8/89/David_Stanis%C5%82aw_Kostka_Potocki.jpg/500px-David_Stanis%C5%82aw_Kostka_Potocki.jpg?utm_source=en.wikipedia.org&amp;utm_campaign=parser&amp;utm_content=thumbnail",
    "notable": true,
    "wikipedia_en": "https://en.wikipedia.org/wiki/Portrait_of_Count_Stanislas_Potocki",
    "creation_place": "Paris",
    "creation_lat": 48.8566,
    "creation_lon": 2.3522,
    "_source": {
     "source": "Wikipedia: List of paintings by Jacques-Louis David",
     "coord": "MediaWiki coordinates API"
    },
    "museum_id": "museum-of-the-palace-of-king-john-iii-in-wilanow",
    "qid": "Q2749266",
    "wikidata": "https://www.wikidata.org/wiki/Q2749266",
    "wga_url": "https://www.wga.hu/html/d/david_j/1/110david.html"
   }
  },
  {
   "type": "Feature",
   "geometry": {
    "type": "Point",
    "coordinates": [
     3.06291,
     50.63035
    ]
   },
   "properties": {
    "painter": "Jacques-Louis David",
    "title": "Belisarius Begging for Alms",
    "year": "1781",
    "city": "Lille",
    "location": "Palais des Beaux-Arts de Lille",
    "attribution": "generally accepted",
    "medium": "oil on canvas",
    "dimensions": "288 × 312 cm",
    "image": "https://upload.wikimedia.org/wikipedia/commons/thumb/b/b1/David_-_Belisarius.jpg/500px-David_-_Belisarius.jpg?utm_source=en.wikipedia.org&amp;utm_campaign=parser&amp;utm_content=thumbnail",
    "notable": true,
    "wikipedia_en": "https://en.wikipedia.org/wiki/Belisarius_Begging_for_Alms",
    "creation_place": "Paris",
    "creation_lat": 48.8566,
    "creation_lon": 2.3522,
    "_source": {
     "source": "Wikipedia: List of paintings by Jacques-Louis David",
     "coord": "MediaWiki coordinates API"
    },
    "museum_id": "palais-des-beaux-arts-de-lille",
    "country": "France",
    "qid": "Q2698149",
    "wikidata": "https://www.wikidata.org/wiki/Q2698149",
    "wga_url": "https://www.wga.hu/html/d/david_j/1/109david.html"
   }
  },
  {
   "type": "Feature",
   "geometry": {
    "type": "Point",
    "coordinates": [
     4.8313,
     46.3063
    ]
   },
   "properties": {
    "painter": "Jacques-Louis David",
    "title": "Christ on the Cross",
    "year": "1782",
    "city": "Mâcon",
    "location": "Church of St Vincent",
    "attribution": "generally accepted",
    "medium": "oil on canvas",
    "dimensions": "276 × 188 cm",
    "image": "https://upload.wikimedia.org/wikipedia/commons/thumb/d/db/Jacques-Louis_David_-_Christ_on_the_Cross_-_WGA06049.jpg/500px-Jacques-Louis_David_-_Christ_on_the_Cross_-_WGA06049.jpg?utm_source=en.wikipedia.org&amp;utm_campaign=parser&amp;utm_content=thumbnail",
    "notable": true,
    "wikipedia_en": "https://en.wikipedia.org/wiki/Christ_on_the_Cross_(David)",
    "creation_place": "Paris",
    "creation_lat": 48.8566,
    "creation_lon": 2.3522,
    "_source": {
     "source": "Wikipedia: List of paintings by Jacques-Louis David",
     "coord": "MediaWiki coordinates API"
    },
    "museum_id": "church-of-st-vincent",
    "qid": "Q3221339",
    "wikidata": "https://www.wikidata.org/wiki/Q3221339",
    "wga_url": "https://www.wga.hu/html/d/david_j/1/112david.html"
   }
  },
  {
   "type": "Feature",
   "geometry": {
    "type": "Point",
    "coordinates": [
     -78.87563,
     42.93245
    ]
   },
   "properties": {
    "painter": "Jacques-Louis David",
    "title": "Portrait of Jacques-François Desmaisons",
    "year": "1782",
    "city": "Buffalo",
    "location": "Albright Knox Art Gallery",
    "attribution": "generally accepted",
    "medium": "oil on canvas",
    "dimensions": "91.44 x 72.39",
    "image": "https://upload.wikimedia.org/wikipedia/commons/thumb/0/05/Jacques-Louis_David_-_Portrait_of_Jacques-Fran%C3%A7ois_Desmaisons_-_1944-1_-_Albright%E2%80%93Knox_Art_Gallery.tiff/lossy-page1-250px-Jacques-Louis_David_-_Portrait_of_Jacques-Fran%C3%A7ois_Desmaisons_-_1944-1_-_Albright%E2%80%93Knox_Art_Gallery.tiff.jpg?utm_source=en.wikipedia.org&amp;utm_campaign=parser&amp;utm_content=thumbnail",
    "notable": true,
    "wikipedia_en": "https://en.wikipedia.org/wiki/Portrait_of_Jacques-Fran%C3%A7ois_Desmaisons",
    "creation_place": "Paris",
    "creation_lat": 48.8566,
    "creation_lon": 2.3522,
    "_source": {
     "source": "Wikipedia: List of paintings by Jacques-Louis David",
     "coord": "MediaWiki coordinates API"
    },
    "museum_id": "albright-knox-art-gallery",
    "qid": "Q77469175",
    "wikidata": "https://www.wikidata.org/wiki/Q77469175",
    "wga_url": "https://www.wga.hu/html/d/david_j/1/111david.html"
   }
  },
  {
   "type": "Feature",
   "geometry": {
    "type": "Point",
    "coordinates": [
     2.3358,
     48.8611
    ]
   },
   "properties": {
    "painter": "Jacques-Louis David",
    "title": "Andromache Mourning Hector",
    "year": "1783",
    "city": "Paris",
    "country": "France",
    "location": "Louvre",
    "attribution": "generally accepted",
    "medium": "oil on canvas",
    "dimensions": "275 × 203 cm",
    "image": "https://upload.wikimedia.org/wikipedia/commons/thumb/5/5a/Jacques-Louis_David-_Andromache_Mourning_Hector.JPG/500px-Jacques-Louis_David-_Andromache_Mourning_Hector.JPG?utm_source=en.wikipedia.org&amp;utm_campaign=parser&amp;utm_content=thumbnail",
    "notable": true,
    "wikipedia_en": "https://en.wikipedia.org/wiki/Andromache_Mourning_Hector",
    "creation_place": "Paris",
    "creation_lat": 48.8566,
    "creation_lon": 2.3522,
    "_source": {
     "source": "Wikipedia: List of paintings by Jacques-Louis David",
     "coord": "MediaWiki coordinates API"
    },
    "museum_id": "louvre",
    "qid": "Q3208369",
    "wikidata": "https://www.wikidata.org/wiki/Q3208369",
    "wga_url": "https://www.wga.hu/html/d/david_j/1/113david.html"
   }
  },
  {
   "type": "Feature",
   "geometry": {
    "type": "Point",
    "coordinates": [
     3.88,
     43.612
    ]
   },
   "properties": {
    "painter": "Jacques-Louis David",
    "title": "Portrait of Alphonse Leroy",
    "year": "1783",
    "city": "Montpellier",
    "location": "Fabre Museum",
    "attribution": "generally accepted",
    "medium": "oil on canvas",
    "dimensions": "72 × 91 cm",
    "image": "https://upload.wikimedia.org/wikipedia/commons/thumb/9/94/Jacques-Louis_David_-_Portrait_of_Doctor_Alphonse_Leroy_-_WGA06051.jpg/500px-Jacques-Louis_David_-_Portrait_of_Doctor_Alphonse_Leroy_-_WGA06051.jpg?utm_source=en.wikipedia.org&amp;utm_campaign=parser&amp;utm_content=thumbnail",
    "notable": true,
    "wikipedia_en": "https://en.wikipedia.org/wiki/Portrait_of_Alphonse_Leroy",
    "creation_place": "Paris",
    "creation_lat": 48.8566,
    "creation_lon": 2.3522,
    "_source": {
     "source": "Wikipedia: List of paintings by Jacques-Louis David",
     "coord": "MediaWiki coordinates API"
    },
    "museum_id": "fabre-museum",
    "qid": "Q3399505",
    "wikidata": "https://www.wikidata.org/wiki/Q3399505"
   }
  },
  {
   "type": "Feature",
   "geometry": {
    "type": "Point",
    "coordinates": [
     2.3358,
     48.8611
    ]
   },
   "properties": {
    "painter": "Jacques-Louis David",
    "title": "Portrait of Charles Pierre Pecoul",
    "year": "1784",
    "city": "Paris",
    "country": "France",
    "location": "Louvre",
    "attribution": "generally accepted",
    "medium": "oil on canvas",
    "dimensions": "91.5 × 72.5 cm",
    "image": "https://upload.wikimedia.org/wikipedia/commons/thumb/0/04/Charles-Pierre_Pecoul_par_David.jpg/500px-Charles-Pierre_Pecoul_par_David.jpg?utm_source=en.wikipedia.org&amp;utm_campaign=parser&amp;utm_content=thumbnail",
    "notable": true,
    "wikipedia_en": "https://en.wikipedia.org/wiki/Portrait_of_Charles-Pierre_P%C3%A9coul",
    "creation_place": "Paris",
    "creation_lat": 48.8566,
    "creation_lon": 2.3522,
    "_source": {
     "source": "Wikipedia: List of paintings by Jacques-Louis David",
     "coord": "MediaWiki coordinates API"
    },
    "museum_id": "louvre",
    "qid": "Q15615004",
    "wikidata": "https://www.wikidata.org/wiki/Q15615004"
   }
  },
  {
   "type": "Feature",
   "geometry": {
    "type": "Point",
    "coordinates": [
     2.3358,
     48.8611
    ]
   },
   "properties": {
    "painter": "Jacques-Louis David",
    "title": "Portrait of Geneviève Jacqueline Pecoul",
    "year": "1784",
    "city": "Paris",
    "country": "France",
    "location": "Louvre",
    "attribution": "generally accepted",
    "medium": "oil on canvas",
    "dimensions": "92 × 72 cm",
    "image": "https://upload.wikimedia.org/wikipedia/commons/thumb/f/f9/Genevi%C3%A8ve_Jacqueline_Pecoul_par_David.jpg/500px-Genevi%C3%A8ve_Jacqueline_Pecoul_par_David.jpg?utm_source=en.wikipedia.org&amp;utm_campaign=parser&amp;utm_content=thumbnail",
    "notable": true,
    "creation_place": "Paris",
    "creation_lat": 48.8566,
    "creation_lon": 2.3522,
    "_source": {
     "source": "Wikipedia: List of paintings by Jacques-Louis David",
     "coord": "MediaWiki coordinates API"
    },
    "museum_id": "louvre"
   }
  },
  {
   "type": "Feature",
   "geometry": {
    "type": "Point",
    "coordinates": [
     2.3358,
     48.8611
    ]
   },
   "properties": {
    "painter": "Jacques-Louis David",
    "title": "Belisarius Begging for Alms",
    "year": "1784",
    "city": "Paris",
    "country": "France",
    "location": "Louvre",
    "attribution": "generally accepted",
    "medium": "oil on canvas",
    "dimensions": "101 × 115 cm",
    "image": "https://upload.wikimedia.org/wikipedia/commons/thumb/c/c2/Louvre_david_belisaire_reconnu.JPG/500px-Louvre_david_belisaire_reconnu.JPG?utm_source=en.wikipedia.org&amp;utm_campaign=parser&amp;utm_content=thumbnail",
    "notable": true,
    "wikipedia_en": "https://en.wikipedia.org/wiki/Belisarius_Begging_for_Alms",
    "creation_place": "Paris",
    "creation_lat": 48.8566,
    "creation_lon": 2.3522,
    "_source": {
     "source": "Wikipedia: List of paintings by Jacques-Louis David",
     "coord": "MediaWiki coordinates API"
    },
    "museum_id": "louvre",
    "qid": "Q2698149",
    "wikidata": "https://www.wikidata.org/wiki/Q2698149",
    "wga_url": "https://www.wga.hu/html/d/david_j/1/109david.html"
   }
  },
  {
   "type": "Feature",
   "geometry": {
    "type": "Point",
    "coordinates": [
     2.3358,
     48.8611
    ]
   },
   "properties": {
    "painter": "Jacques-Louis David",
    "title": "Oath of the Horatii",
    "year": "1784–1785",
    "city": "Paris",
    "country": "France",
    "location": "Louvre",
    "attribution": "generally accepted",
    "medium": "oil on canvas",
    "dimensions": "330 × 425 cm",
    "image": "https://upload.wikimedia.org/wikipedia/commons/thumb/b/bb/David-Oath_of_the_Horatii-1784.jpg/500px-David-Oath_of_the_Horatii-1784.jpg?utm_source=en.wikipedia.org&amp;utm_campaign=parser&amp;utm_content=thumbnail",
    "notable": true,
    "wikipedia_en": "https://en.wikipedia.org/wiki/Oath_of_the_Horatii",
    "creation_place": "Paris",
    "creation_lat": 48.8566,
    "creation_lon": 2.3522,
    "_source": {
     "source": "Wikipedia: List of paintings by Jacques-Louis David",
     "coord": "MediaWiki coordinates API"
    },
    "museum_id": "louvre",
    "qid": "Q476458",
    "wikidata": "https://www.wikidata.org/wiki/Q476458",
    "wga_url": "https://www.wga.hu/html/d/david_j/2/203david.html"
   }
  },
  {
   "type": "Feature",
   "geometry": {
    "type": "Point",
    "coordinates": [
     -73.9631,
     40.7794
    ]
   },
   "properties": {
    "painter": "Jacques-Louis David",
    "title": "The Death of Socrates",
    "year": "1787",
    "city": "New York",
    "country": "United States",
    "location": "Metropolitan Museum of Art",
    "attribution": "generally accepted",
    "medium": "oil on canvas",
    "dimensions": "130 × 196 cm",
    "image": "https://upload.wikimedia.org/wikipedia/commons/thumb/8/8c/David_-_The_Death_of_Socrates.jpg/500px-David_-_The_Death_of_Socrates.jpg?utm_source=en.wikipedia.org&amp;utm_campaign=parser&amp;utm_content=thumbnail",
    "notable": true,
    "wikipedia_en": "https://en.wikipedia.org/wiki/The_Death_of_Socrates",
    "creation_place": "Paris",
    "creation_lat": 48.8566,
    "creation_lon": 2.3522,
    "_source": {
     "source": "Wikipedia: List of paintings by Jacques-Louis David",
     "coord": "MediaWiki coordinates API"
    },
    "museum_id": "metropolitan-museum-of-art",
    "qid": "Q1752990",
    "wikidata": "https://www.wikidata.org/wiki/Q1752990",
    "wga_url": "https://www.wga.hu/html/d/david_j/2/205david.html"
   }
  },
  {
   "type": "Feature",
   "geometry": {
    "type": "Point",
    "coordinates": [
     2.33372,
     48.86303
    ]
   },
   "properties": {
    "painter": "Jacques-Louis David",
    "title": "The Loves of Paris and Helen",
    "year": "1788",
    "city": "Paris",
    "country": "France",
    "location": "Musée des Arts Décoratifs",
    "attribution": "generally accepted",
    "medium": "oil on canvas",
    "dimensions": "147 × 180 cm",
    "image": "https://upload.wikimedia.org/wikipedia/commons/thumb/f/fd/Les_amours_de_P%C3%A2ris_et_d%27H%C3%A9l%C3%A8ne_-_Jacques-Louis_David_-_Mus%C3%A9e_du_Louvre_Peintures_INV_3696_%3B_MR_1439.jpg/500px-Les_amours_de_P%C3%A2ris_et_d%27H%C3%A9l%C3%A8ne_-_Jacques-Louis_David_-_Mus%C3%A9e_du_Louvre_Peintures_INV_3696_%3B_MR_1439.jpg?utm_source=en.wikipedia.org&amp;utm_campaign=parser&amp;utm_content=thumbnail",
    "notable": true,
    "wikipedia_en": "https://en.wikipedia.org/wiki/The_Loves_of_Paris_and_Helen",
    "creation_place": "Paris",
    "creation_lat": 48.8566,
    "creation_lon": 2.3522,
    "_source": {
     "source": "Wikipedia: List of paintings by Jacques-Louis David",
     "coord": "MediaWiki coordinates API"
    },
    "museum_id": "musee-des-arts-decoratifs",
    "qid": "Q2254945",
    "wikidata": "https://www.wikidata.org/wiki/Q2254945",
    "wga_url": "https://www.wga.hu/html/d/david_j/2/204david.html"
   }
  },
  {
   "type": "Feature",
   "geometry": {
    "type": "Point",
    "coordinates": [
     -73.9631,
     40.7794
    ]
   },
   "properties": {
    "painter": "Jacques-Louis David",
    "title": "Portrait of Antoine-Laurent Lavoisier and his wife",
    "year": "1788",
    "city": "New York",
    "country": "United States",
    "location": "Metropolitan Museum of Art",
    "attribution": "generally accepted",
    "medium": "oil on canvas",
    "dimensions": "260 × 195 cm",
    "image": "https://upload.wikimedia.org/wikipedia/commons/thumb/4/4e/David_-_Portrait_of_Monsieur_Lavoisier_and_His_Wife.jpg/500px-David_-_Portrait_of_Monsieur_Lavoisier_and_His_Wife.jpg?utm_source=en.wikipedia.org&amp;utm_campaign=parser&amp;utm_content=thumbnail",
    "notable": true,
    "wikipedia_en": "https://en.wikipedia.org/wiki/Portrait_of_Antoine-Laurent_Lavoisier_and_his_wife",
    "creation_place": "Paris",
    "creation_lat": 48.8566,
    "creation_lon": 2.3522,
    "_source": {
     "source": "Wikipedia: List of paintings by Jacques-Louis David",
     "coord": "MediaWiki coordinates API"
    },
    "museum_id": "metropolitan-museum-of-art",
    "qid": "Q613928",
    "wikidata": "https://www.wikidata.org/wiki/Q613928",
    "wga_url": "https://www.wga.hu/html/d/david_j/2/207david.html"
   }
  },
  {
   "type": "Feature",
   "geometry": {
    "type": "Point",
    "coordinates": [
     2.3358,
     48.8611
    ]
   },
   "properties": {
    "painter": "Jacques-Louis David",
    "title": "The Lictors Bring to Brutus the Bodies of His Sons",
    "year": "1789",
    "city": "Paris",
    "country": "France",
    "location": "Louvre",
    "attribution": "generally accepted",
    "medium": "oil on canvas",
    "dimensions": "330 × 450 cm",
    "image": "https://upload.wikimedia.org/wikipedia/commons/thumb/5/59/DavidBrutusSonsCorps.jpg/500px-DavidBrutusSonsCorps.jpg?utm_source=en.wikipedia.org&amp;utm_campaign=parser&amp;utm_content=thumbnail",
    "notable": true,
    "wikipedia_en": "https://en.wikipedia.org/wiki/The_Lictors_Bring_to_Brutus_the_Bodies_of_His_Sons",
    "creation_place": "Paris",
    "creation_lat": 48.8566,
    "creation_lon": 2.3522,
    "_source": {
     "source": "Wikipedia: List of paintings by Jacques-Louis David",
     "coord": "MediaWiki coordinates API"
    },
    "museum_id": "louvre",
    "qid": "Q2533791",
    "wikidata": "https://www.wikidata.org/wiki/Q2533791",
    "wga_url": "https://www.wga.hu/html/d/david_j/2/208david.html"
   }
  },
  {
   "type": "Feature",
   "geometry": {
    "type": "Point",
    "coordinates": [
     3.88019,
     43.61174
    ]
   },
   "properties": {
    "painter": "Jacques-Louis David",
    "title": "Portrait of Philippe-Laurent de Joubert",
    "year": "1790–92",
    "city": "Montpellier",
    "location": "Musée Fabre",
    "attribution": "generally accepted",
    "medium": "oil on canvas",
    "dimensions": "127 × 96 cm",
    "image": "https://upload.wikimedia.org/wikipedia/commons/thumb/b/b2/David-Joubert-Mus%C3%A9e-Fabre.jpg/500px-David-Joubert-Mus%C3%A9e-Fabre.jpg?utm_source=en.wikipedia.org&amp;utm_campaign=parser&amp;utm_content=thumbnail",
    "notable": true,
    "wikipedia_en": "https://en.wikipedia.org/wiki/Portrait_of_Philippe-Laurent_de_Joubert",
    "creation_place": "Paris",
    "creation_lat": 48.8566,
    "creation_lon": 2.3522,
    "_source": {
     "source": "Wikipedia: List of paintings by Jacques-Louis David",
     "coord": "MediaWiki coordinates API"
    },
    "museum_id": "musee-fabre",
    "country": "France",
    "qid": "Q13897790",
    "wikidata": "https://www.wikidata.org/wiki/Q13897790",
    "wga_url": "https://www.wga.hu/html/d/david_j/2/2041davi.html"
   }
  },
  {
   "type": "Feature",
   "geometry": {
    "type": "Point",
    "coordinates": [
     11.57111,
     48.14972
    ]
   },
   "properties": {
    "painter": "Jacques-Louis David",
    "title": "Portrait of Anne-Marie-Louise Thélusson, Countess of Sorcy",
    "year": "1790",
    "city": "Munich",
    "country": "Germany",
    "location": "Neue Pinakothek",
    "attribution": "generally accepted",
    "medium": "oil on canvas",
    "dimensions": "129 × 97 cm",
    "image": "https://upload.wikimedia.org/wikipedia/commons/thumb/a/a5/David_-_Portrait.JPG/500px-David_-_Portrait.JPG?utm_source=en.wikipedia.org&amp;utm_campaign=parser&amp;utm_content=thumbnail",
    "notable": true,
    "creation_place": "Paris",
    "creation_lat": 48.8566,
    "creation_lon": 2.3522,
    "_source": {
     "source": "Wikipedia: List of paintings by Jacques-Louis David",
     "coord": "MediaWiki coordinates API"
    },
    "museum_id": "neue-pinakothek"
   }
  },
  {
   "type": "Feature",
   "geometry": {
    "type": "Point",
    "coordinates": [
     2.3358,
     48.8611
    ]
   },
   "properties": {
    "painter": "Jacques-Louis David",
    "title": "Portrait of the Marquise d'Orvilliers",
    "year": "1790",
    "city": "Paris",
    "country": "France",
    "location": "Louvre",
    "attribution": "generally accepted",
    "medium": "oil on canvas",
    "dimensions": "131 × 98 cm",
    "image": "https://upload.wikimedia.org/wikipedia/commons/thumb/c/c6/Jacques-Louis_David_-_Portrait_of_the_Marquise_d%27Orvilliers_-_WGA6064.jpg/500px-Jacques-Louis_David_-_Portrait_of_the_Marquise_d%27Orvilliers_-_WGA6064.jpg?utm_source=en.wikipedia.org&amp;utm_campaign=parser&amp;utm_content=thumbnail",
    "notable": true,
    "wikipedia_en": "https://en.wikipedia.org/wiki/Portrait_of_the_Marquise_d%27Orvilliers",
    "creation_place": "Paris",
    "creation_lat": 48.8566,
    "creation_lon": 2.3522,
    "_source": {
     "source": "Wikipedia: List of paintings by Jacques-Louis David",
     "coord": "MediaWiki coordinates API"
    },
    "museum_id": "louvre",
    "qid": "Q3399481",
    "wikidata": "https://www.wikidata.org/wiki/Q3399481",
    "wga_url": "https://www.wga.hu/html/d/david_j/2/211david.html"
   }
  },
  {
   "type": "Feature",
   "geometry": {
    "type": "Point",
    "coordinates": [
     6.02,
     47.24
    ]
   },
   "properties": {
    "painter": "Jacques-Louis David",
    "title": "Lycurgus of Sparta",
    "year": "1791",
    "city": "Besançon",
    "location": "Musée des Beaux-Arts",
    "attribution": "generally accepted",
    "medium": "oil on canvas",
    "image": "https://upload.wikimedia.org/wikipedia/commons/thumb/7/7b/Lycurgus_of_Sparta%2C_Jean-Jacques_Le_Barbier.jpg/500px-Lycurgus_of_Sparta%2C_Jean-Jacques_Le_Barbier.jpg?utm_source=en.wikipedia.org&amp;utm_campaign=parser&amp;utm_content=thumbnail",
    "notable": true,
    "wikipedia_en": "https://en.wikipedia.org/wiki/Lycurgus_of_Sparta_(David)",
    "creation_place": "Paris",
    "creation_lat": 48.8566,
    "creation_lon": 2.3522,
    "_source": {
     "source": "Wikipedia: List of paintings by Jacques-Louis David",
     "coord": "MediaWiki coordinates API"
    },
    "museum_id": "musee-des-beaux-arts",
    "qid": "Q97516112",
    "wikidata": "https://www.wikidata.org/wiki/Q97516112",
    "country": "France"
   }
  },
  {
   "type": "Feature",
   "geometry": {
    "type": "Point",
    "coordinates": [
     11.25528,
     43.76833
    ]
   },
   "properties": {
    "painter": "Jacques-Louis David",
    "title": "Self-portrait",
    "year": "1791",
    "city": "Florence",
    "country": "Italy",
    "location": "Uffizi Gallery",
    "attribution": "generally accepted",
    "medium": "oil on canvas",
    "dimensions": "64 × 53 cm",
    "image": "https://upload.wikimedia.org/wikipedia/commons/thumb/5/5e/David_Self-Portrait_1791.jpg/500px-David_Self-Portrait_1791.jpg?utm_source=en.wikipedia.org&amp;utm_campaign=parser&amp;utm_content=thumbnail",
    "notable": true,
    "wikipedia_en": "https://en.wikipedia.org/wiki/Self-portrait_(David)",
    "creation_place": "Paris",
    "creation_lat": 48.8566,
    "creation_lon": 2.3522,
    "_source": {
     "source": "Wikipedia: List of paintings by Jacques-Louis David",
     "coord": "MediaWiki coordinates API"
    },
    "museum_id": "uffizi-gallery",
    "qid": "Q2872714",
    "wikidata": "https://www.wikidata.org/wiki/Q2872714"
   }
  },
  {
   "type": "Feature",
   "geometry": {
    "type": "Point",
    "coordinates": [
     -87.62389,
     41.87944
    ]
   },
   "properties": {
    "painter": "Jacques-Louis David",
    "title": "Portrait of Madame Pastoret",
    "year": "1791–92",
    "city": "Chicago",
    "country": "United States",
    "location": "Art Institute of Chicago",
    "attribution": "generally accepted",
    "medium": "oil on canvas",
    "dimensions": "130 × 97 cm",
    "image": "https://upload.wikimedia.org/wikipedia/commons/thumb/6/66/Jacques-Louis_David_Portrait_of_Madame_Ad%C3%A9laide_Pastoret.jpg/500px-Jacques-Louis_David_Portrait_of_Madame_Ad%C3%A9laide_Pastoret.jpg?utm_source=en.wikipedia.org&amp;utm_campaign=parser&amp;utm_content=thumbnail",
    "notable": true,
    "wikipedia_en": "https://en.wikipedia.org/wiki/Portrait_of_Madame_Pastoret",
    "creation_place": "Paris",
    "creation_lat": 48.8566,
    "creation_lon": 2.3522,
    "_source": {
     "source": "Wikipedia: List of paintings by Jacques-Louis David",
     "coord": "MediaWiki coordinates API"
    },
    "museum_id": "art-institute-of-chicago",
    "qid": "Q3399482",
    "wikidata": "https://www.wikidata.org/wiki/Q3399482",
    "wga_url": "https://www.wga.hu/html/d/david_j/2/212david.html"
   }
  },
  {
   "type": "Feature",
   "geometry": {
    "type": "Point",
    "coordinates": [
     2.3358,
     48.8611
    ]
   },
   "properties": {
    "painter": "Jacques-Louis David",
    "title": "Portrait of Madame Marie-Louise Trudaine",
    "year": "1791–1792",
    "city": "Paris",
    "country": "France",
    "location": "Louvre",
    "attribution": "generally accepted",
    "medium": "oil on canvas",
    "dimensions": "130 × 98 cm",
    "image": "https://upload.wikimedia.org/wikipedia/commons/thumb/4/41/Marie-Louise_Trudaine%2C_by_Jacques_Louis_David.jpg/500px-Marie-Louise_Trudaine%2C_by_Jacques_Louis_David.jpg?utm_source=en.wikipedia.org&amp;utm_campaign=parser&amp;utm_content=thumbnail",
    "notable": true,
    "wikipedia_en": "https://en.wikipedia.org/wiki/Portrait_of_Madame_Marie-Louise_Trudaine",
    "creation_place": "Paris",
    "creation_lat": 48.8566,
    "creation_lon": 2.3522,
    "_source": {
     "source": "Wikipedia: List of paintings by Jacques-Louis David",
     "coord": "MediaWiki coordinates API"
    },
    "museum_id": "louvre",
    "qid": "Q3399448",
    "wikidata": "https://www.wikidata.org/wiki/Q3399448",
    "wga_url": "https://www.wga.hu/html/d/david_j/2/215david.html"
   }
  },
  {
   "type": "Feature",
   "geometry": {
    "type": "Point",
    "coordinates": [
     4.35824,
     50.84168
    ]
   },
   "properties": {
    "painter": "Jacques-Louis David",
    "title": "Portrait of flautist François Devienne",
    "year": "1792",
    "city": "Brussels-Capital Region",
    "country": "Belgium",
    "location": "Royal Museums of Fine Arts of Belgium",
    "attribution": "generally accepted",
    "medium": "oil on canvas",
    "dimensions": "75 × 59.5 cm",
    "image": "https://upload.wikimedia.org/wikipedia/commons/thumb/5/50/Jacques-Louis_David_-_Portait_du_fl%C3%BBtiste_Fran%C3%A7ois_Devienne.jpg/500px-Jacques-Louis_David_-_Portait_du_fl%C3%BBtiste_Fran%C3%A7ois_Devienne.jpg?utm_source=en.wikipedia.org&amp;utm_campaign=parser&amp;utm_content=thumbnail",
    "notable": true,
    "wikipedia_en": "https://en.wikipedia.org/wiki/Portrait_of_Flutist_Fran%C3%A7ois_Devienne",
    "creation_place": "Paris",
    "creation_lat": 48.8566,
    "creation_lon": 2.3522,
    "_source": {
     "source": "Wikipedia: List of paintings by Jacques-Louis David",
     "coord": "MediaWiki coordinates API"
    },
    "museum_id": "royal-museums-of-fine-arts-of-belgium",
    "qid": "Q66839349",
    "wikidata": "https://www.wikidata.org/wiki/Q66839349"
   }
  },
  {
   "type": "Feature",
   "geometry": {
    "type": "Point",
    "coordinates": [
     4.07972,
     48.30111
    ]
   },
   "properties": {
    "painter": "Jacques-Louis David",
    "title": "Antoinette Gabrielle Charpentier Danton",
    "year": "1793",
    "city": "Troyes",
    "location": "Musée des Beaux-Arts de Troyes",
    "attribution": "generally accepted",
    "medium": "oil on canvas",
    "dimensions": "64.7 × 55.6 cm",
    "image": "https://upload.wikimedia.org/wikipedia/commons/thumb/f/f5/Antoinette_Gabrielle_Charpentier_Danton.jpg/500px-Antoinette_Gabrielle_Charpentier_Danton.jpg?utm_source=en.wikipedia.org&amp;utm_campaign=parser&amp;utm_content=thumbnail",
    "notable": true,
    "creation_place": "Paris",
    "creation_lat": 48.8566,
    "creation_lon": 2.3522,
    "_source": {
     "source": "Wikipedia: List of paintings by Jacques-Louis David",
     "coord": "MediaWiki coordinates API"
    },
    "museum_id": "musee-des-beaux-arts-de-troyes",
    "country": "France"
   }
  },
  {
   "type": "Feature",
   "geometry": {
    "type": "Point",
    "coordinates": [
     4.35824,
     50.84168
    ]
   },
   "properties": {
    "painter": "Jacques-Louis David",
    "title": "The Death of Marat",
    "year": "1793",
    "location": "Royal Museums of Fine Arts of Belgium",
    "attribution": "generally accepted",
    "medium": "oil on canvas",
    "dimensions": "162 × 125 cm",
    "image": "https://upload.wikimedia.org/wikipedia/commons/thumb/a/aa/Death_of_Marat_by_David.jpg/500px-Death_of_Marat_by_David.jpg?utm_source=en.wikipedia.org&amp;utm_campaign=parser&amp;utm_content=thumbnail",
    "notable": true,
    "wikipedia_en": "https://en.wikipedia.org/wiki/The_Death_of_Marat",
    "creation_place": "Paris",
    "creation_lat": 48.8566,
    "creation_lon": 2.3522,
    "_source": {
     "source": "Wikipedia: List of paintings by Jacques-Louis David",
     "coord": "MediaWiki coordinates API"
    },
    "museum_id": "royal-museums-of-fine-arts-of-belgium",
    "city": "Brussels-Capital Region",
    "country": "Belgium",
    "qid": "Q636537",
    "wikidata": "https://www.wikidata.org/wiki/Q636537",
    "wga_url": "https://www.wga.hu/html/d/david_j/3/302david.html"
   }
  },
  {
   "type": "Feature",
   "geometry": {
    "type": "Point",
    "coordinates": [
     2.3358,
     48.8611
    ]
   },
   "properties": {
    "painter": "Jacques-Louis David",
    "title": "Self-portrait",
    "year": "1794",
    "city": "Paris",
    "country": "France",
    "location": "Louvre",
    "attribution": "generally accepted",
    "medium": "oil on canvas",
    "dimensions": "81 × 64 cm",
    "image": "https://upload.wikimedia.org/wikipedia/commons/thumb/c/c6/David_Self_Portrait.jpg/500px-David_Self_Portrait.jpg?utm_source=en.wikipedia.org&amp;utm_campaign=parser&amp;utm_content=thumbnail",
    "notable": true,
    "creation_place": "Paris",
    "creation_lat": 48.8566,
    "creation_lon": 2.3522,
    "_source": {
     "source": "Wikipedia: List of paintings by Jacques-Louis David",
     "coord": "MediaWiki coordinates API"
    },
    "museum_id": "louvre",
    "wga_url": "https://www.wga.hu/html/d/david_j/2/209david.html"
   }
  },
  {
   "type": "Feature",
   "geometry": {
    "type": "Point",
    "coordinates": [
     4.8039,
     43.9471
    ]
   },
   "properties": {
    "painter": "Jacques-Louis David",
    "title": "The Death of Young Bara",
    "year": "1794",
    "city": "Avignon",
    "location": "Calvet Museum",
    "attribution": "generally accepted",
    "medium": "oil on canvas",
    "dimensions": "118 × 155 cm",
    "image": "https://upload.wikimedia.org/wikipedia/commons/thumb/a/a9/Mort_de_Barra_IMG_2266.JPG/500px-Mort_de_Barra_IMG_2266.JPG?utm_source=en.wikipedia.org&amp;utm_campaign=parser&amp;utm_content=thumbnail",
    "notable": true,
    "wikipedia_en": "https://en.wikipedia.org/wiki/The_Death_of_Young_Bara",
    "creation_place": "Paris",
    "creation_lat": 48.8566,
    "creation_lon": 2.3522,
    "_source": {
     "source": "Wikipedia: List of paintings by Jacques-Louis David",
     "coord": "MediaWiki coordinates API"
    },
    "museum_id": "calvet-museum",
    "qid": "Q3210859",
    "wikidata": "https://www.wikidata.org/wiki/Q3210859",
    "wga_url": "https://www.wga.hu/html/d/david_j/3/303david.html"
   }
  },
  {
   "type": "Feature",
   "geometry": {
    "type": "Point",
    "coordinates": [
     2.3358,
     48.8611
    ]
   },
   "properties": {
    "painter": "Jacques-Louis David",
    "title": "View of the Luxembourg Gardens",
    "year": "1794",
    "city": "Paris",
    "country": "France",
    "location": "Louvre",
    "attribution": "generally accepted",
    "medium": "oil on canvas",
    "dimensions": "55 × 65 cm",
    "image": "https://upload.wikimedia.org/wikipedia/commons/thumb/0/0b/Vue_des_Jardins_du_Luxembourg_%281794%29_Jacques_Louis_David.png/500px-Vue_des_Jardins_du_Luxembourg_%281794%29_Jacques_Louis_David.png?utm_source=en.wikipedia.org&amp;utm_campaign=parser&amp;utm_content=thumbnail",
    "notable": true,
    "creation_place": "Paris",
    "creation_lat": 48.8566,
    "creation_lon": 2.3522,
    "_source": {
     "source": "Wikipedia: List of paintings by Jacques-Louis David",
     "coord": "MediaWiki coordinates API"
    },
    "museum_id": "louvre"
   }
  },
  {
   "type": "Feature",
   "geometry": {
    "type": "Point",
    "coordinates": [
     2.3358,
     48.8611
    ]
   },
   "properties": {
    "painter": "Jacques-Louis David",
    "title": "Portrait of Pierre Sériziat",
    "year": "1795",
    "city": "Paris",
    "country": "France",
    "location": "Louvre",
    "attribution": "generally accepted",
    "medium": "oil on canvas",
    "dimensions": "131 × 96 cm",
    "image": "https://upload.wikimedia.org/wikipedia/commons/thumb/e/ee/Seriziat.jpg/500px-Seriziat.jpg?utm_source=en.wikipedia.org&amp;utm_campaign=parser&amp;utm_content=thumbnail",
    "notable": true,
    "wikipedia_en": "https://en.wikipedia.org/wiki/Portrait_of_Pierre_S%C3%A9riziat",
    "creation_place": "Paris",
    "creation_lat": 48.8566,
    "creation_lon": 2.3522,
    "_source": {
     "source": "Wikipedia: List of paintings by Jacques-Louis David",
     "coord": "MediaWiki coordinates API"
    },
    "museum_id": "louvre",
    "qid": "Q3399458",
    "wikidata": "https://www.wikidata.org/wiki/Q3399458",
    "wga_url": "https://www.wga.hu/html/d/david_j/3/308david.html"
   }
  },
  {
   "type": "Feature",
   "geometry": {
    "type": "Point",
    "coordinates": [
     -0.1283,
     51.5089
    ]
   },
   "properties": {
    "painter": "Jacques-Louis David",
    "title": "Portrait of Jacobus Blauw",
    "year": "1795",
    "city": "London",
    "country": "United Kingdom",
    "location": "National Gallery",
    "attribution": "generally accepted",
    "medium": "oil on canvas",
    "dimensions": "92 × 73 cm",
    "image": "https://upload.wikimedia.org/wikipedia/commons/thumb/e/ee/Jacobus_Blauw_door_Jacques-Louis_David.jpg/500px-Jacobus_Blauw_door_Jacques-Louis_David.jpg?utm_source=en.wikipedia.org&amp;utm_campaign=parser&amp;utm_content=thumbnail",
    "notable": true,
    "wikipedia_en": "https://en.wikipedia.org/wiki/Portrait_of_Jacobus_Blauw",
    "creation_place": "Paris",
    "creation_lat": 48.8566,
    "creation_lon": 2.3522,
    "_source": {
     "source": "Wikipedia: List of paintings by Jacques-Louis David",
     "coord": "MediaWiki coordinates API"
    },
    "museum_id": "national-gallery",
    "qid": "Q3399429",
    "wikidata": "https://www.wikidata.org/wiki/Q3399429",
    "wga_url": "https://www.wga.hu/html/d/david_j/3/305david.html"
   }
  },
  {
   "type": "Feature",
   "geometry": {
    "type": "Point",
    "coordinates": [
     2.3358,
     48.8611
    ]
   },
   "properties": {
    "painter": "Jacques-Louis David",
    "title": "Unfinished portrait of General Bonaparte",
    "year": "1799",
    "city": "Paris",
    "country": "France",
    "location": "Louvre",
    "attribution": "generally accepted",
    "medium": "oil on canvas",
    "dimensions": "81 × 65 cm",
    "image": "https://upload.wikimedia.org/wikipedia/commons/thumb/1/1b/Jacques-Louis_David_011.jpg/500px-Jacques-Louis_David_011.jpg?utm_source=en.wikipedia.org&amp;utm_campaign=parser&amp;utm_content=thumbnail",
    "notable": true,
    "creation_place": "Paris",
    "creation_lat": 48.8566,
    "creation_lon": 2.3522,
    "_source": {
     "source": "Wikipedia: List of paintings by Jacques-Louis David",
     "coord": "MediaWiki coordinates API"
    },
    "museum_id": "louvre"
   }
  },
  {
   "type": "Feature",
   "geometry": {
    "type": "Point",
    "coordinates": [
     2.3358,
     48.8611
    ]
   },
   "properties": {
    "painter": "Jacques-Louis David",
    "title": "The Intervention of the Sabine Women",
    "year": "1799",
    "city": "Paris",
    "country": "France",
    "location": "Louvre",
    "attribution": "generally accepted",
    "medium": "oil on canvas",
    "dimensions": "385 × 522 cm",
    "image": "https://upload.wikimedia.org/wikipedia/commons/thumb/b/b1/The_Intervention_of_the_Sabine_Women_-_David_%28Louvre_INV_3691%29.jpg/500px-The_Intervention_of_the_Sabine_Women_-_David_%28Louvre_INV_3691%29.jpg?utm_source=en.wikipedia.org&amp;utm_campaign=parser&amp;utm_content=thumbnail",
    "notable": true,
    "wikipedia_en": "https://en.wikipedia.org/wiki/The_Intervention_of_the_Sabine_Women",
    "creation_place": "Paris",
    "creation_lat": 48.8566,
    "creation_lon": 2.3522,
    "_source": {
     "source": "Wikipedia: List of paintings by Jacques-Louis David",
     "coord": "MediaWiki coordinates API"
    },
    "museum_id": "louvre",
    "qid": "Q1314013",
    "wikidata": "https://www.wikidata.org/wiki/Q1314013",
    "wga_url": "https://www.wga.hu/html/d/david_j/3/313david.html"
   }
  },
  {
   "type": "Feature",
   "geometry": {
    "type": "Point",
    "coordinates": [
     2.3358,
     48.8611
    ]
   },
   "properties": {
    "painter": "Jacques-Louis David",
    "title": "Portrait of Henriette de Verninac",
    "year": "1799",
    "city": "Paris",
    "country": "France",
    "location": "Louvre",
    "attribution": "generally accepted",
    "medium": "oil on canvas",
    "dimensions": "145.5 × 112 cm",
    "image": "https://upload.wikimedia.org/wikipedia/commons/thumb/6/6c/Jacques-Louis_David_-_Madame_Raymond_de_Verninac_-_WGA6078.jpg/500px-Jacques-Louis_David_-_Madame_Raymond_de_Verninac_-_WGA6078.jpg?utm_source=en.wikipedia.org&amp;utm_campaign=parser&amp;utm_content=thumbnail",
    "notable": true,
    "wikipedia_en": "https://en.wikipedia.org/wiki/Portrait_of_Henriette_de_Verninac",
    "creation_place": "Paris",
    "creation_lat": 48.8566,
    "creation_lon": 2.3522,
    "_source": {
     "source": "Wikipedia: List of paintings by Jacques-Louis David",
     "coord": "MediaWiki coordinates API"
    },
    "museum_id": "louvre",
    "qid": "Q3399485",
    "wikidata": "https://www.wikidata.org/wiki/Q3399485"
   }
  },
  {
   "type": "Feature",
   "geometry": {
    "type": "Point",
    "coordinates": [
     2.3358,
     48.8611
    ]
   },
   "properties": {
    "painter": "Jacques-Louis David",
    "title": "Portrait of Madame Récamier",
    "year": "1800",
    "city": "Paris",
    "country": "France",
    "location": "Louvre",
    "attribution": "generally accepted",
    "medium": "oil on canvas",
    "dimensions": "174 × 244 cm",
    "image": "https://upload.wikimedia.org/wikipedia/commons/thumb/0/03/Juliette_R%C3%A9camier%2C_n%C3%A9e_Bernard_-_Jacques-Louis_David_-_Mus%C3%A9e_duLouvre_Peintures_INV_3708.jpg/500px-Juliette_R%C3%A9camier%2C_n%C3%A9e_Bernard_-_Jacques-Louis_David_-_Mus%C3%A9e_duLouvre_Peintures_INV_3708.jpg?utm_source=en.wikipedia.org&amp;utm_campaign=parser&amp;utm_content=thumbnail",
    "notable": true,
    "wikipedia_en": "https://en.wikipedia.org/wiki/Portrait_of_Madame_R%C3%A9camier",
    "creation_place": "Paris",
    "creation_lat": 48.8566,
    "creation_lon": 2.3522,
    "_source": {
     "source": "Wikipedia: List of paintings by Jacques-Louis David",
     "coord": "MediaWiki coordinates API"
    },
    "museum_id": "louvre",
    "qid": "Q2619037",
    "wikidata": "https://www.wikidata.org/wiki/Q2619037",
    "wga_url": "https://www.wga.hu/html/d/david_j/4/401david.html"
   }
  },
  {
   "type": "Feature",
   "geometry": {
    "type": "Point",
    "coordinates": [
     -71.1147,
     42.3742
    ]
   },
   "properties": {
    "painter": "Jacques-Louis David",
    "title": "Portrait of a Young Woman",
    "year": "1800",
    "city": "Cambridge",
    "location": "Fogg Museum",
    "attribution": "generally accepted",
    "medium": "oil on canvas",
    "dimensions": "75.5 × 57.5 cm",
    "image": "https://upload.wikimedia.org/wikipedia/commons/thumb/4/45/Portrait_of_a_Young_Woman_-_Jacques-Louis_David.jpg/500px-Portrait_of_a_Young_Woman_-_Jacques-Louis_David.jpg?utm_source=en.wikipedia.org&amp;utm_campaign=parser&amp;utm_content=thumbnail",
    "notable": true,
    "creation_place": "Paris",
    "creation_lat": 48.8566,
    "creation_lon": 2.3522,
    "_source": {
     "source": "Wikipedia: List of paintings by Jacques-Louis David",
     "coord": "MediaWiki coordinates API"
    },
    "museum_id": "fogg-museum",
    "country": "United States"
   }
  },
  {
   "type": "Feature",
   "geometry": {
    "type": "Point",
    "coordinates": [
     2.16694,
     48.87083
    ]
   },
   "properties": {
    "painter": "Jacques-Louis David",
    "title": "Napoleon at the Saint-Bernard Pass",
    "year": "1801",
    "city": "Paris",
    "country": "France",
    "location": "Château de Malmaison",
    "attribution": "generally accepted",
    "medium": "oil on canvas",
    "dimensions": "261 × 220 cm",
    "image": "https://upload.wikimedia.org/wikipedia/commons/thumb/3/31/David_-_Napoleon_crossing_the_Alps_-_Malmaison1.jpg/500px-David_-_Napoleon_crossing_the_Alps_-_Malmaison1.jpg?utm_source=en.wikipedia.org&amp;utm_campaign=parser&amp;utm_content=thumbnail",
    "notable": true,
    "wikipedia_en": "https://en.wikipedia.org/wiki/Napoleon_Crossing_the_Alps",
    "creation_place": "Paris",
    "creation_lat": 48.8566,
    "creation_lon": 2.3522,
    "_source": {
     "source": "Wikipedia: List of paintings by Jacques-Louis David",
     "coord": "MediaWiki coordinates API"
    },
    "museum_id": "chateau-de-malmaison",
    "qid": "Q59201",
    "wikidata": "https://www.wikidata.org/wiki/Q59201"
   }
  },
  {
   "type": "Feature",
   "geometry": {
    "type": "Point",
    "coordinates": [
     -117.1496,
     32.7318
    ]
   },
   "properties": {
    "painter": "Jacques-Louis David",
    "title": "Portrait of Cooper Penrose",
    "year": "1802",
    "city": "San Diego",
    "location": "Timken Museum of Art",
    "attribution": "generally accepted",
    "medium": "oil on canvas",
    "dimensions": "130.5 × 97.5 cm",
    "image": "https://upload.wikimedia.org/wikipedia/commons/thumb/8/8f/San_Diego%2C_2016_-_409_%28cropped%29.jpg/500px-San_Diego%2C_2016_-_409_%28cropped%29.jpg?utm_source=en.wikipedia.org&amp;utm_campaign=parser&amp;utm_content=thumbnail",
    "notable": true,
    "wikipedia_en": "https://en.wikipedia.org/wiki/Portrait_of_Cooper_Penrose",
    "creation_place": "Paris",
    "creation_lat": 48.8566,
    "creation_lon": 2.3522,
    "_source": {
     "source": "Wikipedia: List of paintings by Jacques-Louis David",
     "coord": "MediaWiki coordinates API"
    },
    "museum_id": "timken-museum-of-art",
    "country": "United States",
    "qid": "Q3399419",
    "wikidata": "https://www.wikidata.org/wiki/Q3399419"
   }
  },
  {
   "type": "Feature",
   "geometry": {
    "type": "Point",
    "coordinates": [
     3.06291,
     50.63035
    ]
   },
   "properties": {
    "painter": "Jacques-Louis David",
    "title": "Napoleon in Imperial Costume",
    "year": "1805",
    "city": "Lille",
    "country": "France",
    "location": "Palais des Beaux-Arts de Lille",
    "attribution": "generally accepted",
    "medium": "oil on canvas",
    "dimensions": "58 × 49 cm",
    "image": "https://upload.wikimedia.org/wikipedia/commons/thumb/0/06/Jacques-Louis_David_014.jpg/500px-Jacques-Louis_David_014.jpg?utm_source=en.wikipedia.org&amp;utm_campaign=parser&amp;utm_content=thumbnail",
    "notable": true,
    "wikipedia_en": "https://en.wikipedia.org/wiki/Napoleon_in_Imperial_Costume",
    "creation_place": "Paris",
    "creation_lat": 48.8566,
    "creation_lon": 2.3522,
    "_source": {
     "source": "Wikipedia: List of paintings by Jacques-Louis David",
     "coord": "MediaWiki coordinates API"
    },
    "museum_id": "palais-des-beaux-arts-de-lille",
    "qid": "Q3399447",
    "wikidata": "https://www.wikidata.org/wiki/Q3399447"
   }
  },
  {
   "type": "Feature",
   "geometry": {
    "type": "Point",
    "coordinates": [
     -75.181,
     39.966
    ]
   },
   "properties": {
    "painter": "Jacques-Louis David",
    "title": "Pope Pius VII and Cardinal Caprara",
    "year": "1805",
    "city": "Philadelphia",
    "country": "United States",
    "location": "Philadelphia Museum of Art",
    "attribution": "generally accepted",
    "medium": "oil on canvas",
    "dimensions": "138 × 96 cm",
    "image": "https://upload.wikimedia.org/wikipedia/commons/thumb/3/3b/Jacques-Louis_David_015.jpg/500px-Jacques-Louis_David_015.jpg?utm_source=en.wikipedia.org&amp;utm_campaign=parser&amp;utm_content=thumbnail",
    "notable": true,
    "creation_place": "Paris",
    "creation_lat": 48.8566,
    "creation_lon": 2.3522,
    "_source": {
     "source": "Wikipedia: List of paintings by Jacques-Louis David",
     "coord": "MediaWiki coordinates API"
    },
    "museum_id": "philadelphia-museum-of-art"
   }
  },
  {
   "type": "Feature",
   "geometry": {
    "type": "Point",
    "coordinates": [
     2.3358,
     48.8611
    ]
   },
   "properties": {
    "painter": "Jacques-Louis David",
    "title": "Portrait of Pope Pius VII",
    "year": "1805",
    "city": "Paris",
    "country": "France",
    "location": "Louvre",
    "attribution": "generally accepted",
    "medium": "oil on wood",
    "dimensions": "86 × 71 cm",
    "image": "https://upload.wikimedia.org/wikipedia/commons/thumb/4/4f/Jacques-Louis_David_018.jpg/500px-Jacques-Louis_David_018.jpg?utm_source=en.wikipedia.org&amp;utm_campaign=parser&amp;utm_content=thumbnail",
    "notable": true,
    "wikipedia_en": "https://en.wikipedia.org/wiki/Portrait_of_Pope_Pius_VII",
    "creation_place": "Paris",
    "creation_lat": 48.8566,
    "creation_lon": 2.3522,
    "_source": {
     "source": "Wikipedia: List of paintings by Jacques-Louis David",
     "coord": "MediaWiki coordinates API"
    },
    "museum_id": "louvre",
    "qid": "Q3399514",
    "wikidata": "https://www.wikidata.org/wiki/Q3399514",
    "wga_url": "https://www.wga.hu/html/d/david_j/4/410david.html"
   }
  },
  {
   "type": "Feature",
   "geometry": {
    "type": "Point",
    "coordinates": [
     2.3358,
     48.8611
    ]
   },
   "properties": {
    "painter": "Jacques-Louis David",
    "title": "The Coronation of Napoleon",
    "year": "1806–07",
    "city": "Paris",
    "country": "France",
    "location": "Louvre",
    "attribution": "generally accepted",
    "medium": "oil on canvas",
    "dimensions": "621 × 979 cm",
    "image": "https://upload.wikimedia.org/wikipedia/commons/thumb/f/f2/Jacques-Louis_David_-_Le_Sacre_de_Napol%C3%A9on.jpg/500px-Jacques-Louis_David_-_Le_Sacre_de_Napol%C3%A9on.jpg?utm_source=en.wikipedia.org&amp;utm_campaign=parser&amp;utm_content=thumbnail",
    "notable": true,
    "wikipedia_en": "https://en.wikipedia.org/wiki/The_Coronation_of_Napoleon",
    "creation_place": "Paris",
    "creation_lat": 48.8566,
    "creation_lon": 2.3522,
    "_source": {
     "source": "Wikipedia: List of paintings by Jacques-Louis David",
     "coord": "MediaWiki coordinates API"
    },
    "museum_id": "louvre",
    "qid": "Q1231009",
    "wikidata": "https://www.wikidata.org/wiki/Q1231009",
    "wga_url": "https://www.wga.hu/html/d/david_j/4/409david.html"
   }
  },
  {
   "type": "Feature",
   "geometry": {
    "type": "Point",
    "coordinates": [
     30.3136,
     59.9406
    ]
   },
   "properties": {
    "painter": "Jacques-Louis David",
    "title": "Sappho and Phaon",
    "year": "1808",
    "city": "Saint Petersburg",
    "location": "Hermitage Museum",
    "attribution": "generally accepted",
    "medium": "oil on canvas",
    "dimensions": "225,3 × 262 cm",
    "image": "https://upload.wikimedia.org/wikipedia/commons/thumb/f/fc/Sappho-and-phaon.jpg/500px-Sappho-and-phaon.jpg?utm_source=en.wikipedia.org&amp;utm_campaign=parser&amp;utm_content=thumbnail",
    "notable": true,
    "wikipedia_en": "https://en.wikipedia.org/wiki/Sappho_and_Phaon",
    "creation_place": "Paris",
    "creation_lat": 48.8566,
    "creation_lon": 2.3522,
    "_source": {
     "source": "Wikipedia: List of paintings by Jacques-Louis David",
     "coord": "MediaWiki coordinates API"
    },
    "museum_id": "hermitage-museum",
    "country": "Russia",
    "qid": "Q3473161",
    "wikidata": "https://www.wikidata.org/wiki/Q3473161",
    "wga_url": "https://www.wga.hu/html/d/david_j/4/411david.html"
   }
  },
  {
   "type": "Feature",
   "geometry": {
    "type": "Point",
    "coordinates": [
     2.1203,
     48.8047
    ]
   },
   "properties": {
    "painter": "Jacques-Louis David",
    "title": "The Coronation of Napoleon (copy of 1806–07 painting)",
    "year": "1808–1822",
    "city": "Versailles",
    "location": "Museum of the History of France",
    "attribution": "generally accepted",
    "medium": "oil on canvas",
    "dimensions": "610 × 971 cm",
    "notable": true,
    "wikipedia_en": "https://en.wikipedia.org/wiki/The_Coronation_of_Napoleon",
    "creation_place": "Paris",
    "creation_lat": 48.8566,
    "creation_lon": 2.3522,
    "_source": {
     "source": "Wikipedia: List of paintings by Jacques-Louis David",
     "coord": "MediaWiki coordinates API"
    },
    "museum_id": "museum-of-the-history-of-france",
    "qid": "Q1231009",
    "wikidata": "https://www.wikidata.org/wiki/Q1231009",
    "wga_url": "https://www.wga.hu/html/d/david_j/4/409david.html"
   }
  },
  {
   "type": "Feature",
   "geometry": {
    "type": "Point",
    "coordinates": [
     2.1203,
     48.8047
    ]
   },
   "properties": {
    "painter": "Jacques-Louis David",
    "title": "The Distribution of the Eagle Standards",
    "year": "1810",
    "city": "France",
    "location": "Versailles",
    "attribution": "generally accepted",
    "medium": "oil on canvas",
    "dimensions": "610 × 931 cm",
    "image": "https://upload.wikimedia.org/wikipedia/commons/thumb/7/7d/Jacques_Louis_David_-_Serment_de_l%27arm%C3%A9e_fait_%C3%A0_l%27Empereur_apr%C3%A8s_la_distribution_des_aigles%2C_5_d%C3%A9cembre_1804_-_Google_Art_Project.jpg/500px-Jacques_Louis_David_-_Serment_de_l%27arm%C3%A9e_fait_%C3%A0_l%27Empereur_apr%C3%A8s_la_distribution_des_aigles%2C_5_d%C3%A9cembre_1804_-_Google_Art_Project.jpg?utm_source=en.wikipedia.org&amp;utm_campaign=parser&amp;utm_content=thumbnail",
    "notable": true,
    "wikipedia_en": "https://en.wikipedia.org/wiki/The_Distribution_of_the_Eagle_Standards",
    "creation_place": "Paris",
    "creation_lat": 48.8566,
    "creation_lon": 2.3522,
    "_source": {
     "source": "Wikipedia: List of paintings by Jacques-Louis David",
     "coord": "MediaWiki coordinates API"
    },
    "museum_id": "versailles",
    "qid": "Q3208312",
    "wikidata": "https://www.wikidata.org/wiki/Q3208312"
   }
  },
  {
   "type": "Feature",
   "geometry": {
    "type": "Point",
    "coordinates": [
     2.31051,
     48.87543
    ]
   },
   "properties": {
    "painter": "Jacques-Louis David",
    "title": "Portrait of comte Antoine Français de Nantes",
    "year": "1811",
    "city": "Paris",
    "country": "France",
    "location": "Musée Jacquemart André",
    "attribution": "generally accepted",
    "medium": "oil on panel",
    "dimensions": "114 × 75 cm",
    "image": "https://upload.wikimedia.org/wikipedia/commons/thumb/5/53/Jacques-Louis_David_-_Portrait_du_comte_Antoine_Fran%C3%A7ais_de_Nantes.jpg/500px-Jacques-Louis_David_-_Portrait_du_comte_Antoine_Fran%C3%A7ais_de_Nantes.jpg?utm_source=en.wikipedia.org&amp;utm_campaign=parser&amp;utm_content=thumbnail",
    "notable": true,
    "wikipedia_en": "https://en.wikipedia.org/wiki/Portrait_of_comte_Antoine_Fran%C3%A7ais_de_Nantes",
    "creation_place": "Paris",
    "creation_lat": 48.8566,
    "creation_lon": 2.3522,
    "_source": {
     "source": "Wikipedia: List of paintings by Jacques-Louis David",
     "coord": "MediaWiki coordinates API"
    },
    "museum_id": "musee-jacquemart-andre",
    "qid": "Q3399490",
    "wikidata": "https://www.wikidata.org/wiki/Q3399490"
   }
  },
  {
   "type": "Feature",
   "geometry": {
    "type": "Point",
    "coordinates": [
     -77.02,
     38.8914
    ]
   },
   "properties": {
    "painter": "Jacques-Louis David",
    "title": "The Emperor Napoleon in His Study at the Tuileries",
    "year": "1812",
    "city": "Washington",
    "location": "National Gallery of Art",
    "attribution": "generally accepted",
    "medium": "oil on canvas",
    "dimensions": "204 × 125 cm",
    "image": "https://upload.wikimedia.org/wikipedia/commons/thumb/5/50/Jacques-Louis_David_-_The_Emperor_Napoleon_in_His_Study_at_the_Tuileries_-_Google_Art_Project.jpg/500px-Jacques-Louis_David_-_The_Emperor_Napoleon_in_His_Study_at_the_Tuileries_-_Google_Art_Project.jpg?utm_source=en.wikipedia.org&amp;utm_campaign=parser&amp;utm_content=thumbnail",
    "notable": true,
    "wikipedia_en": "https://en.wikipedia.org/wiki/The_Emperor_Napoleon_in_His_Study_at_the_Tuileries",
    "creation_place": "Paris",
    "creation_lat": 48.8566,
    "creation_lon": 2.3522,
    "_source": {
     "source": "Wikipedia: List of paintings by Jacques-Louis David",
     "coord": "MediaWiki coordinates API"
    },
    "museum_id": "national-gallery-of-art",
    "country": "United States",
    "qid": "Q1313605",
    "wikidata": "https://www.wikidata.org/wiki/Q1313605",
    "wga_url": "https://www.wga.hu/html/d/david_j/4/412david.html"
   }
  },
  {
   "type": "Feature",
   "geometry": {
    "type": "Point",
    "coordinates": [
     2.3358,
     48.8611
    ]
   },
   "properties": {
    "painter": "Jacques-Louis David",
    "title": "The Three Women of Gand",
    "year": "1812",
    "city": "Paris",
    "country": "France",
    "location": "Louvre",
    "attribution": "generally accepted",
    "medium": "oil on canvas",
    "dimensions": "132 × 105 cm",
    "image": "https://upload.wikimedia.org/wikipedia/commons/thumb/3/38/Les_Trois_Dames_de_Gand_-_J.L._David.jpg/500px-Les_Trois_Dames_de_Gand_-_J.L._David.jpg?utm_source=en.wikipedia.org&amp;utm_campaign=parser&amp;utm_content=thumbnail",
    "notable": true,
    "wikipedia_en": "https://en.wikipedia.org/wiki/The_Three_Women_of_Gand_(Painting)",
    "creation_place": "Paris",
    "creation_lat": 48.8566,
    "creation_lon": 2.3522,
    "_source": {
     "source": "Wikipedia: List of paintings by Jacques-Louis David",
     "coord": "MediaWiki coordinates API"
    },
    "museum_id": "louvre",
    "qid": "Q29862474",
    "wikidata": "https://www.wikidata.org/wiki/Q29862474"
   }
  },
  {
   "type": "Feature",
   "geometry": {
    "type": "Point",
    "coordinates": [
     -77.02,
     38.8914
    ]
   },
   "properties": {
    "painter": "Jacques-Louis David",
    "title": "Portrait of Madame David",
    "year": "1813",
    "city": "Washington",
    "location": "National Gallery of Art",
    "attribution": "generally accepted",
    "medium": "oil on canvas",
    "dimensions": "73 × 60 cm",
    "image": "https://upload.wikimedia.org/wikipedia/commons/thumb/5/5d/Madame_David_by_Jacques-Louis_David%2C_1813%2C_oil_on_canvas_-_National_Gallery_of_Art%2C_Washington_-_DSC09988.JPG/500px-Madame_David_by_Jacques-Louis_David%2C_1813%2C_oil_on_canvas_-_National_Gallery_of_Art%2C_Washington_-_DSC09988.JPG?utm_source=en.wikipedia.org&amp;utm_campaign=parser&amp;utm_content=thumbnail",
    "notable": true,
    "creation_place": "Paris",
    "creation_lat": 48.8566,
    "creation_lon": 2.3522,
    "_source": {
     "source": "Wikipedia: List of paintings by Jacques-Louis David",
     "coord": "MediaWiki coordinates API"
    },
    "museum_id": "national-gallery-of-art",
    "country": "United States"
   }
  },
  {
   "type": "Feature",
   "geometry": {
    "type": "Point",
    "coordinates": [
     3.06291,
     50.63035
    ]
   },
   "properties": {
    "painter": "Jacques-Louis David",
    "title": "Apelles Painting Campaspe in the Presence of Alexander the Great",
    "year": "1814",
    "city": "Lille",
    "country": "France",
    "location": "Palais des Beaux-Arts de Lille",
    "attribution": "generally accepted",
    "medium": "oil on canvas",
    "dimensions": "96.5 × 136 cm",
    "image": "https://upload.wikimedia.org/wikipedia/commons/thumb/2/2a/Jacques-Louis_David_-_Apelles_Painting_Campaspe_in_the_Presence_of_Alexander_the_Great.jpg/500px-Jacques-Louis_David_-_Apelles_Painting_Campaspe_in_the_Presence_of_Alexander_the_Great.jpg?utm_source=en.wikipedia.org&amp;utm_campaign=parser&amp;utm_content=thumbnail",
    "notable": true,
    "wikipedia_en": "https://en.wikipedia.org/wiki/Apelles_Painting_Campaspe_in_the_Presence_of_Alexander_the_Great",
    "creation_place": "Paris",
    "creation_lat": 48.8566,
    "creation_lon": 2.3522,
    "_source": {
     "source": "Wikipedia: List of paintings by Jacques-Louis David",
     "coord": "MediaWiki coordinates API"
    },
    "museum_id": "palais-des-beaux-arts-de-lille",
    "qid": "Q72379091",
    "wikidata": "https://www.wikidata.org/wiki/Q72379091"
   }
  },
  {
   "type": "Feature",
   "geometry": {
    "type": "Point",
    "coordinates": [
     2.3358,
     48.8611
    ]
   },
   "properties": {
    "painter": "Jacques-Louis David",
    "title": "Leonidas at Thermopylae",
    "year": "1814",
    "city": "Paris",
    "country": "France",
    "location": "Louvre",
    "attribution": "generally accepted",
    "medium": "oil on canvas",
    "dimensions": "395 × 531 cm",
    "image": "https://upload.wikimedia.org/wikipedia/commons/thumb/a/ae/L%C3%A9onidas_aux_Thermopyles_%28Jacques-Louis_David%29.PNG/500px-L%C3%A9onidas_aux_Thermopyles_%28Jacques-Louis_David%29.PNG?utm_source=en.wikipedia.org&amp;utm_campaign=parser&amp;utm_content=thumbnail",
    "notable": true,
    "wikipedia_en": "https://en.wikipedia.org/wiki/Leonidas_at_Thermopylae",
    "creation_place": "Paris",
    "creation_lat": 48.8566,
    "creation_lon": 2.3522,
    "_source": {
     "source": "Wikipedia: List of paintings by Jacques-Louis David",
     "coord": "MediaWiki coordinates API"
    },
    "museum_id": "louvre",
    "qid": "Q972295",
    "wikidata": "https://www.wikidata.org/wiki/Q972295",
    "wga_url": "https://www.wga.hu/html/d/david_j/4/415david.html"
   }
  },
  {
   "type": "Feature",
   "geometry": {
    "type": "Point",
    "coordinates": [
     -73.9631,
     40.7794
    ]
   },
   "properties": {
    "painter": "Jacques-Louis David",
    "title": "Portrait of Étienne Maurice Gérard",
    "year": "1816",
    "city": "New York",
    "country": "United States",
    "location": "Metropolitan Museum of Art",
    "attribution": "generally accepted",
    "medium": "oil on canvas",
    "dimensions": "197 × 136 cm",
    "image": "https://upload.wikimedia.org/wikipedia/commons/thumb/8/84/David_Etienne_Maurice_Gerard.jpg/500px-David_Etienne_Maurice_Gerard.jpg?utm_source=en.wikipedia.org&amp;utm_campaign=parser&amp;utm_content=thumbnail",
    "notable": true,
    "wikipedia_en": "https://en.wikipedia.org/wiki/Portrait_of_%C3%89tienne_Maurice_G%C3%A9rard",
    "creation_place": "Brussels",
    "creation_lat": 50.8503,
    "creation_lon": 4.3517,
    "_source": {
     "source": "Wikipedia: List of paintings by Jacques-Louis David",
     "coord": "MediaWiki coordinates API"
    },
    "museum_id": "metropolitan-museum-of-art",
    "qid": "Q19911964",
    "wikidata": "https://www.wikidata.org/wiki/Q19911964"
   }
  },
  {
   "type": "Feature",
   "geometry": {
    "type": "Point",
    "coordinates": [
     -0.1283,
     51.5089
    ]
   },
   "properties": {
    "painter": "Jacques-Louis David",
    "title": "Portrait of the Countess Vilain XIIII and her Daughter Louise",
    "year": "1816",
    "city": "London",
    "country": "United Kingdom",
    "location": "National Gallery",
    "attribution": "generally accepted",
    "medium": "oil on canvas",
    "dimensions": "95 × 76 cm",
    "image": "https://upload.wikimedia.org/wikipedia/commons/thumb/f/f4/Comtesse_Vilain_XIIII_JLDavid.jpg/500px-Comtesse_Vilain_XIIII_JLDavid.jpg?utm_source=en.wikipedia.org&amp;utm_campaign=parser&amp;utm_content=thumbnail",
    "notable": true,
    "creation_place": "Brussels",
    "creation_lat": 50.8503,
    "creation_lon": 4.3517,
    "_source": {
     "source": "Wikipedia: List of paintings by Jacques-Louis David",
     "coord": "MediaWiki coordinates API"
    },
    "museum_id": "national-gallery"
   }
  },
  {
   "type": "Feature",
   "geometry": {
    "type": "Point",
    "coordinates": [
     -81.61167,
     41.50889
    ]
   },
   "properties": {
    "painter": "Jacques-Louis David",
    "title": "Cupid and Psyche",
    "year": "1817",
    "city": "Cleveland",
    "country": "United States",
    "location": "Cleveland Museum of Art",
    "attribution": "generally accepted",
    "medium": "oil on canvas",
    "dimensions": "184 × 241 cm",
    "image": "https://upload.wikimedia.org/wikipedia/commons/thumb/b/ba/Clevelandart_1962.37.jpg/500px-Clevelandart_1962.37.jpg?utm_source=en.wikipedia.org&amp;utm_campaign=parser&amp;utm_content=thumbnail",
    "notable": true,
    "wikipedia_en": "https://en.wikipedia.org/wiki/Love_and_Psyche_(David)",
    "creation_place": "Brussels",
    "creation_lat": 50.8503,
    "creation_lon": 4.3517,
    "_source": {
     "source": "Wikipedia: List of paintings by Jacques-Louis David",
     "coord": "MediaWiki coordinates API"
    },
    "museum_id": "cleveland-museum-of-art",
    "qid": "Q3201883",
    "wikidata": "https://www.wikidata.org/wiki/Q3201883"
   }
  },
  {
   "type": "Feature",
   "geometry": {
    "type": "Point",
    "coordinates": [
     -118.475,
     34.0775
    ]
   },
   "properties": {
    "painter": "Jacques-Louis David",
    "title": "The Farewell of Telemachus and Eucharis",
    "year": "1818",
    "city": "Los Angeles",
    "country": "United States",
    "location": "Getty Center",
    "attribution": "generally accepted",
    "medium": "oil on canvas",
    "dimensions": "88 × 103 cm",
    "image": "https://upload.wikimedia.org/wikipedia/commons/thumb/b/b8/Jacques-Louis_David_-_The_Farewell_of_Telemachus_and_Eucharis_-_Google_Art_Project.jpg/500px-Jacques-Louis_David_-_The_Farewell_of_Telemachus_and_Eucharis_-_Google_Art_Project.jpg?utm_source=en.wikipedia.org&amp;utm_campaign=parser&amp;utm_content=thumbnail",
    "notable": true,
    "wikipedia_en": "https://en.wikipedia.org/wiki/The_Farewell_of_Telemachus_and_Eucharis",
    "creation_place": "Brussels",
    "creation_lat": 50.8503,
    "creation_lon": 4.3517,
    "_source": {
     "source": "Wikipedia: List of paintings by Jacques-Louis David",
     "coord": "MediaWiki coordinates API"
    },
    "museum_id": "getty-center",
    "qid": "Q3230385",
    "wikidata": "https://www.wikidata.org/wiki/Q3230385",
    "wga_url": "https://www.wga.hu/html/d/david_j/5/504david.html"
   }
  },
  {
   "type": "Feature",
   "geometry": {
    "type": "Point",
    "coordinates": [
     2.3358,
     48.8611
    ]
   },
   "properties": {
    "painter": "Jacques-Louis David",
    "title": "Portrait of the Actor Wolf",
    "year": "1818–1823",
    "city": "Paris",
    "country": "France",
    "location": "Louvre",
    "attribution": "generally accepted",
    "medium": "oil on canvas",
    "dimensions": "125 × 85 cm",
    "notable": true,
    "creation_place": "Brussels",
    "creation_lat": 50.8503,
    "creation_lon": 4.3517,
    "_source": {
     "source": "Wikipedia: List of paintings by Jacques-Louis David",
     "coord": "MediaWiki coordinates API"
    },
    "museum_id": "louvre"
   }
  },
  {
   "type": "Feature",
   "geometry": {
    "type": "Point",
    "coordinates": [
     -97.365,
     32.7486
    ]
   },
   "properties": {
    "painter": "Jacques-Louis David",
    "title": "The Anger of Achilles",
    "year": "1818",
    "city": "Fort Worth",
    "country": "United States",
    "location": "Kimbell Art Museum",
    "attribution": "generally accepted",
    "medium": "oil on canvas",
    "dimensions": "105 × 145 cm",
    "image": "https://upload.wikimedia.org/wikipedia/commons/thumb/d/d7/Jacques-Louis_David_-_The_Anger_of_Achilles_-_Google_Art_Project.jpg/500px-Jacques-Louis_David_-_The_Anger_of_Achilles_-_Google_Art_Project.jpg?utm_source=en.wikipedia.org&amp;utm_campaign=parser&amp;utm_content=thumbnail",
    "notable": true,
    "wikipedia_en": "https://en.wikipedia.org/wiki/The_Anger_of_Achilles",
    "creation_place": "Brussels",
    "creation_lat": 50.8503,
    "creation_lon": 4.3517,
    "_source": {
     "source": "Wikipedia: List of paintings by Jacques-Louis David",
     "coord": "MediaWiki coordinates API"
    },
    "museum_id": "kimbell-art-museum",
    "qid": "Q3207608",
    "wikidata": "https://www.wikidata.org/wiki/Q3207608"
   }
  },
  {
   "type": "Feature",
   "geometry": {
    "type": "Point",
    "coordinates": [
     -118.475,
     34.0775
    ]
   },
   "properties": {
    "painter": "Jacques-Louis David",
    "title": "The Sisters Zénaïde and Charlotte Bonaparte",
    "year": "1821",
    "city": "Los Angeles",
    "country": "United States",
    "location": "Getty Center",
    "attribution": "generally accepted",
    "medium": "oil on canvas",
    "dimensions": "130 × 101 cm",
    "image": "https://upload.wikimedia.org/wikipedia/commons/thumb/f/f0/Jacques-Louis_David_-_Portrait_of_the_Sisters_Z%C3%A9na%C3%AFde_and_Charlotte_Bonaparte.jpg/500px-Jacques-Louis_David_-_Portrait_of_the_Sisters_Z%C3%A9na%C3%AFde_and_Charlotte_Bonaparte.jpg?utm_source=en.wikipedia.org&amp;utm_campaign=parser&amp;utm_content=thumbnail",
    "notable": true,
    "wikipedia_en": "https://en.wikipedia.org/wiki/The_Sisters_Z%C3%A9na%C3%AFde_and_Charlotte_Bonaparte",
    "creation_place": "Brussels",
    "creation_lat": 50.8503,
    "creation_lon": 4.3517,
    "_source": {
     "source": "Wikipedia: List of paintings by Jacques-Louis David",
     "coord": "MediaWiki coordinates API"
    },
    "museum_id": "getty-center",
    "qid": "Q2961038",
    "wikidata": "https://www.wikidata.org/wiki/Q2961038"
   }
  },
  {
   "type": "Feature",
   "geometry": {
    "type": "Point",
    "coordinates": [
     4.35824,
     50.84168
    ]
   },
   "properties": {
    "painter": "Jacques-Louis David",
    "title": "Mars Being Disarmed by Venus",
    "year": "1822–1825",
    "city": "Brussels-Capital Region",
    "country": "Belgium",
    "location": "Royal Museums of Fine Arts of Belgium",
    "attribution": "generally accepted",
    "medium": "oil on canvas",
    "dimensions": "308 × 265 cm",
    "image": "https://upload.wikimedia.org/wikipedia/commons/thumb/e/ed/Jacques-Louis_David_-_Mars_d%C3%A9sarm%C3%A9_par_V%C3%A9nus.jpg/500px-Jacques-Louis_David_-_Mars_d%C3%A9sarm%C3%A9_par_V%C3%A9nus.jpg?utm_source=en.wikipedia.org&amp;utm_campaign=parser&amp;utm_content=thumbnail",
    "notable": true,
    "wikipedia_en": "https://en.wikipedia.org/wiki/Mars_Being_Disarmed_by_Venus",
    "creation_place": "Brussels",
    "creation_lat": 50.8503,
    "creation_lon": 4.3517,
    "_source": {
     "source": "Wikipedia: List of paintings by Jacques-Louis David",
     "coord": "MediaWiki coordinates API"
    },
    "museum_id": "royal-museums-of-fine-arts-of-belgium",
    "qid": "Q835286",
    "wikidata": "https://www.wikidata.org/wiki/Q835286",
    "wga_url": "https://www.wga.hu/html/d/david_j/5/505david.html"
   }
  },
  {
   "type": "Feature",
   "geometry": {
    "type": "Point",
    "coordinates": [
     2.3358,
     48.8611
    ]
   },
   "properties": {
    "painter": "Jacques-Louis David",
    "title": "Portrait of Juliette de Villeneuve",
    "year": "1824",
    "city": "Paris",
    "country": "France",
    "location": "Louvre",
    "attribution": "generally accepted",
    "medium": "oil on canvas",
    "image": "https://upload.wikimedia.org/wikipedia/commons/thumb/5/5e/Jacques_Louis_David_-_Juliette_de_Villeneuve.jpg/500px-Jacques_Louis_David_-_Juliette_de_Villeneuve.jpg?utm_source=en.wikipedia.org&amp;utm_campaign=parser&amp;utm_content=thumbnail",
    "notable": true,
    "wikipedia_en": "https://en.wikipedia.org/wiki/Portrait_of_Juliette_de_Villeneuve",
    "creation_place": "Brussels",
    "creation_lat": 50.8503,
    "creation_lon": 4.3517,
    "_source": {
     "source": "Wikipedia: List of paintings by Jacques-Louis David",
     "coord": "MediaWiki coordinates API"
    },
    "museum_id": "louvre",
    "qid": "Q29643408",
    "wikidata": "https://www.wikidata.org/wiki/Q29643408"
   }
  },
  {
   "type": "Feature",
   "geometry": {
    "type": "Point",
    "coordinates": [
     -83.0647,
     42.3594
    ]
   },
   "properties": {
    "painter": "Jacques-Louis David",
    "title": "Roman Youth with Horse",
    "year": "1824",
    "city": "Detroit",
    "country": "United States",
    "location": "Detroit Institute of Arts",
    "attribution": "generally accepted",
    "medium": "oil on canvas",
    "dimensions": "92 × 74 cm",
    "image": "https://upload.wikimedia.org/wikipedia/commons/thumb/1/13/Jacques_Louis_David_-_Roman_Youth_with_Horse_-_27.245_-_Detroit_Institute_of_Arts.jpg/500px-Jacques_Louis_David_-_Roman_Youth_with_Horse_-_27.245_-_Detroit_Institute_of_Arts.jpg?utm_source=en.wikipedia.org&amp;utm_campaign=parser&amp;utm_content=thumbnail",
    "notable": true,
    "creation_place": "Brussels",
    "creation_lat": 50.8503,
    "creation_lon": 4.3517,
    "_source": {
     "source": "Wikipedia: List of paintings by Jacques-Louis David",
     "coord": "MediaWiki coordinates API"
    },
    "museum_id": "detroit-institute-of-arts"
   }
  },
  {
   "type": "Feature",
   "geometry": {
    "type": "Point",
    "coordinates": [
     -83.0647,
     42.3594
    ]
   },
   "properties": {
    "painter": "Jacques-Louis David",
    "title": "Roman Warrior",
    "year": "1824",
    "city": "Detroit",
    "country": "United States",
    "location": "Detroit Institute of Arts",
    "attribution": "generally accepted",
    "medium": "oil on canvas",
    "dimensions": "93 × 74 cm",
    "image": "https://upload.wikimedia.org/wikipedia/commons/thumb/6/62/Jacques_Louis_David_-_Roman_Warrior_-_27.244_-_Detroit_Institute_of_Arts.jpg/500px-Jacques_Louis_David_-_Roman_Warrior_-_27.244_-_Detroit_Institute_of_Arts.jpg?utm_source=en.wikipedia.org&amp;utm_campaign=parser&amp;utm_content=thumbnail",
    "notable": true,
    "creation_place": "Brussels",
    "creation_lat": 50.8503,
    "creation_lon": 4.3517,
    "_source": {
     "source": "Wikipedia: List of paintings by Jacques-Louis David",
     "coord": "MediaWiki coordinates API"
    },
    "museum_id": "detroit-institute-of-arts"
   }
  }
 ]
}