{
 "type": "FeatureCollection",
 "_note": "Generated by scripts/build.py from Wikidata. Do not edit by hand — put manual fixes in the painter's overlay (data/overlay/*.json). Each feature carries _source (scraped base or manual addition) and, when edited, _overrides.",
 "features": [
  {
   "type": "Feature",
   "geometry": {
    "type": "Point",
    "coordinates": [
     54.40001,
     24.533
    ]
   },
   "properties": {
    "painter": "Georges de La Tour",
    "title": "A Girl Blowing on a Brazier",
    "year": "1647",
    "city": "Abu Dhabi",
    "country": "United Arab Emirates",
    "location": "Louvre Abu Dhabi",
    "kind": "museum",
    "attribution": "attributed",
    "status": "present",
    "medium": "Oil on canvas",
    "dimensions": "76 × 55 cm",
    "genre": "portrait",
    "image": "https://commons.wikimedia.org/wiki/Special:FilePath/Georges%20de%20La%20Tour%20-%20A%20Girl%20Blowing%20on%20a%20Brazier%20%28La%20Fillette%20au%20braisier%29%2C%201168-11.jpg?width=420",
    "wikidata": "https://www.wikidata.org/wiki/Q104411621",
    "creation_place": "Lunéville",
    "creation_lat": 48.5936,
    "creation_lon": 6.4936,
    "_source": {
     "source": "Wikidata",
     "url": "https://www.wikidata.org/wiki/Q104411621",
     "retrieved_at": "2026-08-23"
    },
    "_overrides": {
     "creation": {
      "at": "2026-08-23",
      "source": "derived from start date + Caravaggio's documented itinerary (approximate)"
     }
    },
    "museum_id": "louvre-abu-dhabi",
    "qid": "Q104411621"
   }
  },
  {
   "type": "Feature",
   "geometry": {
    "type": "Point",
    "coordinates": [
     18.0781,
     59.3286
    ]
   },
   "properties": {
    "painter": "Georges de La Tour",
    "title": "The Penitent St Jerome",
    "year": "1620",
    "city": "Stockholm",
    "country": "Sweden",
    "location": "Nationalmuseum",
    "kind": "museum",
    "attribution": "attributed",
    "status": "present",
    "medium": "Oil on canvas",
    "dimensions": "152 × 109 cm",
    "genre": "religious art",
    "image": "https://commons.wikimedia.org/wiki/Special:FilePath/Saint%20J%C3%A9rome%20p%C3%A9nitent%20%28Georges%20de%20La%20Tour%29%20-%20Nationalmuseum%20-%2019030.tif?width=420",
    "wikidata": "https://www.wikidata.org/wiki/Q104854324",
    "creation_place": "Lunéville",
    "creation_lat": 48.5936,
    "creation_lon": 6.4936,
    "_source": {
     "source": "Wikidata",
     "url": "https://www.wikidata.org/wiki/Q104854324",
     "retrieved_at": "2026-08-23"
    },
    "_overrides": {
     "creation": {
      "at": "2026-08-23",
      "source": "derived from start date + Caravaggio's documented itinerary (approximate)"
     }
    },
    "museum_id": "nationalmuseum",
    "qid": "Q104854324",
    "wga_url": "https://www.wga.hu/html/l/la_tour/georges/1/04jerome.html"
   }
  },
  {
   "type": "Feature",
   "geometry": {
    "type": "Point",
    "coordinates": [
     5.7324,
     45.1945
    ]
   },
   "properties": {
    "painter": "Georges de La Tour",
    "title": "The Penitent St Jerome",
    "year": "1620",
    "city": "Grenoble",
    "country": "France",
    "location": "Museum of Grenoble",
    "kind": "museum",
    "attribution": "attributed",
    "status": "present",
    "medium": "Oil on canvas",
    "dimensions": "157 × 100 cm",
    "genre": "religious art",
    "image": "https://commons.wikimedia.org/wiki/Special:FilePath/%22Saint%20J%C3%A9r%C3%B4me%20p%C3%A9nitent%22%20de%20Georges%20de%20la%20Tour%20%28Mus%C3%A9e%20Jacquemard%20Andr%C3%A9%2C%20Paris%29%20%2854915173646%29.png?width=420",
    "wikidata": "https://www.wikidata.org/wiki/Q104854363",
    "creation_place": "Lunéville",
    "creation_lat": 48.5936,
    "creation_lon": 6.4936,
    "_source": {
     "source": "Wikidata",
     "url": "https://www.wikidata.org/wiki/Q104854363",
     "retrieved_at": "2026-08-23"
    },
    "_overrides": {
     "creation": {
      "at": "2026-08-23",
      "source": "derived from start date + Caravaggio's documented itinerary (approximate)"
     }
    },
    "museum_id": "museum-of-grenoble",
    "qid": "Q104854363",
    "wga_url": "https://www.wga.hu/html/l/la_tour/georges/1/04jeromf.html"
   }
  },
  {
   "type": "Feature",
   "geometry": {
    "type": "Point",
    "coordinates": [
     2.14306,
     43.92917
    ]
   },
   "properties": {
    "painter": "Georges de La Tour",
    "title": "Jacob",
    "year": "1637-1650",
    "city": "Albi",
    "country": "France",
    "location": "Musée Toulouse-Lautrec",
    "kind": "museum",
    "attribution": "attributed",
    "status": "present",
    "medium": "Oil on canvas",
    "dimensions": "65 × 54 cm",
    "genre": "religious art",
    "image": "https://commons.wikimedia.org/wiki/Special:FilePath/%28Albi%29%20Saint%20Jacques%20le%20Mineur%201620%20-%20Georges%20de%20La%20Tour%20Inv.169.jpg?width=420",
    "wikidata": "https://www.wikidata.org/wiki/Q105398451",
    "creation_place": "Lunéville",
    "creation_lat": 48.5936,
    "creation_lon": 6.4936,
    "_source": {
     "source": "Wikidata",
     "url": "https://www.wikidata.org/wiki/Q105398451",
     "retrieved_at": "2026-08-23"
    },
    "_overrides": {
     "creation": {
      "at": "2026-08-23",
      "source": "derived from start date + Caravaggio's documented itinerary (approximate)"
     }
    },
    "museum_id": "musee-toulouse-lautrec",
    "qid": "Q105398451"
   }
  },
  {
   "type": "Feature",
   "geometry": {
    "type": "Point",
    "coordinates": [
     6.53109,
     48.78194
    ]
   },
   "properties": {
    "painter": "Georges de La Tour",
    "title": "Saint John the Baptist in the Desert",
    "year": "1651",
    "city": "Vic-sur-Seille",
    "country": "France",
    "location": "Musée départemental Georges de La Tour",
    "kind": "museum",
    "attribution": "attributed",
    "status": "present",
    "medium": "Oil on canvas",
    "dimensions": "81 × 101 cm",
    "genre": "religious art",
    "image": "https://commons.wikimedia.org/wiki/Special:FilePath/LaTour-Sebastien-Vic.JPG?width=420",
    "wikidata": "https://www.wikidata.org/wiki/Q107291429",
    "creation_place": "Lunéville",
    "creation_lat": 48.5936,
    "creation_lon": 6.4936,
    "_source": {
     "source": "Wikidata",
     "url": "https://www.wikidata.org/wiki/Q107291429",
     "retrieved_at": "2026-08-23"
    },
    "_overrides": {
     "creation": {
      "at": "2026-08-23",
      "source": "derived from start date + Caravaggio's documented itinerary (approximate)"
     }
    },
    "museum_id": "musee-departemental-georges-de-la-tour",
    "qid": "Q107291429"
   }
  },
  {
   "type": "Feature",
   "geometry": {
    "type": "Point",
    "coordinates": [
     6.53109,
     48.78194
    ]
   },
   "properties": {
    "painter": "Georges de La Tour",
    "title": "Q107291430",
    "year": "1647",
    "city": "Vic-sur-Seille",
    "country": "France",
    "location": "Musée départemental Georges de La Tour",
    "kind": "museum",
    "attribution": "attributed",
    "status": "present",
    "medium": "Oil on canvas",
    "dimensions": "38.7 × 30.7 cm",
    "image": "https://commons.wikimedia.org/wiki/Special:FilePath/Georges%20de%20La%20Tour%20-%20T%C3%AAte%20de%20femme.jpg?width=420",
    "wikidata": "https://www.wikidata.org/wiki/Q107291430",
    "creation_place": "Lunéville",
    "creation_lat": 48.5936,
    "creation_lon": 6.4936,
    "_source": {
     "source": "Wikidata",
     "url": "https://www.wikidata.org/wiki/Q107291430",
     "retrieved_at": "2026-08-23"
    },
    "_overrides": {
     "creation": {
      "at": "2026-08-23",
      "source": "derived from start date + Caravaggio's documented itinerary (approximate)"
     }
    },
    "museum_id": "musee-departemental-georges-de-la-tour",
    "qid": "Q107291430",
    "_merged": [
     {
      "source": "Wikidata",
      "title": "Profil de femme",
      "qid": "Q107291430",
      "url": "https://www.wikidata.org/wiki/Q107291430"
     }
    ]
   }
  },
  {
   "type": "Feature",
   "geometry": {
    "type": "Point",
    "coordinates": [
     13.36472,
     52.50861
    ]
   },
   "properties": {
    "painter": "Georges de La Tour",
    "title": "Peasant couple eating peas",
    "year": "1623",
    "city": "Bezirk Mitte",
    "country": "Germany",
    "location": "Gemäldegalerie Berlin",
    "kind": "museum",
    "attribution": "generally accepted",
    "status": "present",
    "medium": "Oil on canvas",
    "dimensions": "76.2 × 90.8 cm",
    "genre": "double portrait, genre art",
    "image": "https://commons.wikimedia.org/wiki/Special:FilePath/%22Les%20Mangeurs%20de%20Pois%22%20de%20Georges%20de%20la%20Tour%20%28Mus%C3%A9e%20Jacquemard%20Andr%C3%A9%2C%20Paris%29%20%2854909891193%29.png?width=420",
    "wikipedia_es": "https://es.wikipedia.org/wiki/Campesinos_comiendo_guisantes",
    "wikidata": "https://www.wikidata.org/wiki/Q107445209",
    "creation_place": "Lunéville",
    "creation_lat": 48.5936,
    "creation_lon": 6.4936,
    "_source": {
     "source": "Wikidata",
     "url": "https://www.wikidata.org/wiki/Q107445209",
     "retrieved_at": "2026-08-23"
    },
    "_overrides": {
     "creation": {
      "at": "2026-08-23",
      "source": "derived from start date + Caravaggio's documented itinerary (approximate)"
     }
    },
    "museum_id": "gemaldegalerie-berlin",
    "qid": "Q107445209",
    "wga_url": "https://www.wga.hu/html/l/la_tour/georges/1/00couple.html"
   }
  },
  {
   "type": "Feature",
   "geometry": {
    "type": "Point",
    "coordinates": [
     2.14306,
     43.92917
    ]
   },
   "properties": {
    "painter": "Georges de La Tour",
    "title": "Saint Jude the Apostle",
    "year": "1650",
    "city": "Albi",
    "country": "France",
    "location": "Musée Toulouse-Lautrec",
    "kind": "museum",
    "attribution": "attributed",
    "status": "present",
    "medium": "Oil on canvas",
    "dimensions": "62 × 53 cm",
    "genre": "religious art",
    "image": "https://commons.wikimedia.org/wiki/Special:FilePath/%28Albi%29%20Saint%20Jude%20Thadd%C3%A9e%201620%20-%20Georges%20de%20La%20Tour%20Inv.166.jpg?width=420",
    "wikidata": "https://www.wikidata.org/wiki/Q107597258",
    "creation_place": "Lunéville",
    "creation_lat": 48.5936,
    "creation_lon": 6.4936,
    "_source": {
     "source": "Wikidata",
     "url": "https://www.wikidata.org/wiki/Q107597258",
     "retrieved_at": "2026-08-23"
    },
    "_overrides": {
     "creation": {
      "at": "2026-08-23",
      "source": "derived from start date + Caravaggio's documented itinerary (approximate)"
     }
    },
    "museum_id": "musee-toulouse-lautrec",
    "qid": "Q107597258"
   }
  },
  {
   "type": "Feature",
   "geometry": {
    "type": "Point",
    "coordinates": [
     6.18028,
     48.6969
    ]
   },
   "properties": {
    "painter": "Georges de La Tour",
    "title": "Woman Catching Fleas",
    "year": "1635",
    "city": "Nancy",
    "country": "France",
    "location": "Musée Lorrain",
    "kind": "museum",
    "attribution": "generally accepted",
    "status": "present",
    "medium": "Oil on canvas",
    "dimensions": "121 × 89 cm",
    "genre": "genre art",
    "image": "https://commons.wikimedia.org/wiki/Special:FilePath/Georges%20de%20La%20Tour%20038.jpg?width=420",
    "wikipedia_es": "https://es.wikipedia.org/wiki/La_mujer_quit%C3%A1ndose_pulgas",
    "wikidata": "https://www.wikidata.org/wiki/Q11740522",
    "creation_place": "Lunéville",
    "creation_lat": 48.5936,
    "creation_lon": 6.4936,
    "_source": {
     "source": "Wikidata",
     "url": "https://www.wikidata.org/wiki/Q11740522",
     "retrieved_at": "2026-08-23"
    },
    "_overrides": {
     "creation": {
      "at": "2026-08-23",
      "source": "derived from start date + Caravaggio's documented itinerary (approximate)"
     }
    },
    "museum_id": "musee-lorrain",
    "qid": "Q11740522"
   }
  },
  {
   "type": "Feature",
   "geometry": {
    "type": "Point",
    "coordinates": [
     -1.33736,
     54.53562
    ]
   },
   "properties": {
    "painter": "Georges de La Tour",
    "title": "The Dice Players",
    "year": "1650",
    "city": "Preston-on-Tees",
    "country": "United Kingdom",
    "location": "Preston Park Museum",
    "kind": "museum",
    "attribution": "generally accepted",
    "status": "present",
    "medium": "Oil on canvas",
    "dimensions": "92.5 × 130.5 cm",
    "genre": "genre art",
    "image": "https://commons.wikimedia.org/wiki/Special:FilePath/Georges%20de%20La%20Tour%20035.jpg?width=420",
    "wikipedia_es": "https://es.wikipedia.org/wiki/Gente_jugando_a_los_dados",
    "wikidata": "https://www.wikidata.org/wiki/Q118895167",
    "creation_place": "Lunéville",
    "creation_lat": 48.5936,
    "creation_lon": 6.4936,
    "_source": {
     "source": "Wikidata",
     "url": "https://www.wikidata.org/wiki/Q118895167",
     "retrieved_at": "2026-08-23"
    },
    "_overrides": {
     "creation": {
      "at": "2026-08-23",
      "source": "derived from start date + Caravaggio's documented itinerary (approximate)"
     }
    },
    "museum_id": "preston-park-museum",
    "qid": "Q118895167"
   }
  },
  {
   "type": "Feature",
   "geometry": {
    "type": "Point",
    "coordinates": [
     2.3358,
     48.8611
    ]
   },
   "properties": {
    "painter": "Georges de La Tour",
    "title": "The Cheat with the Ace of Diamonds",
    "year": "1635",
    "country": "France",
    "location": "Louvre",
    "kind": "museum",
    "attribution": "generally accepted",
    "status": "present",
    "medium": "Oil on canvas",
    "dimensions": "106 × 146 cm",
    "genre": "genre art",
    "image": "https://commons.wikimedia.org/wiki/Special:FilePath/Le%20Tricheur%20%C3%A0%20l%27as%20de%20carreau%20-%20Georges%20de%20La%20Tour%20-%20Mus%C3%A9e%20du%20Louvre%20Peintures%20RF%201972%208.jpg?width=420",
    "wikipedia_es": "https://es.wikipedia.org/wiki/El_tah%C3%BAr_(Georges_de_La_Tour)",
    "wikipedia_en": "https://en.wikipedia.org/wiki/The_Card_Sharp_with_the_Ace_of_Diamonds",
    "wikidata": "https://www.wikidata.org/wiki/Q1193312",
    "creation_place": "Lunéville",
    "creation_lat": 48.5936,
    "creation_lon": 6.4936,
    "_source": {
     "source": "Wikidata",
     "url": "https://www.wikidata.org/wiki/Q1193312",
     "retrieved_at": "2026-08-23"
    },
    "_overrides": {
     "creation": {
      "at": "2026-08-23",
      "source": "derived from start date + Caravaggio's documented itinerary (approximate)"
     }
    },
    "museum_id": "louvre",
    "city": "Paris",
    "qid": "Q1193312"
   }
  },
  {
   "type": "Feature",
   "geometry": {
    "type": "Point",
    "coordinates": [
     4.35824,
     50.84168
    ]
   },
   "properties": {
    "painter": "Georges de La Tour",
    "title": "The hurdy-gurdy player",
    "city": "Brussels-Capital Region",
    "country": "Belgium",
    "location": "Royal Museums of Fine Arts of Belgium",
    "kind": "museum",
    "attribution": "attributed",
    "status": "present",
    "dimensions": "85.5 × 58.5 cm",
    "image": "https://commons.wikimedia.org/wiki/Special:FilePath/Georges%20de%20La%20Tour%20Vielleur%20a%20mi-corps%20fragment%20Mus%C3%A9es%20royaux%20des%20beaux-arts%20de%20Belgique.jpg?width=420",
    "wikidata": "https://www.wikidata.org/wiki/Q122209653",
    "_source": {
     "source": "Wikidata",
     "url": "https://www.wikidata.org/wiki/Q122209653",
     "retrieved_at": "2026-08-23"
    },
    "museum_id": "royal-museums-of-fine-arts-of-belgium",
    "qid": "Q122209653"
   }
  },
  {
   "type": "Feature",
   "geometry": {
    "type": "Point",
    "coordinates": [
     -79.39278,
     43.65361
    ]
   },
   "properties": {
    "painter": "Georges de La Tour",
    "title": "Saint Anne with the Infant Jesus",
    "year": "1647",
    "city": "Toronto",
    "country": "Canada",
    "location": "Art Gallery of Ontario",
    "kind": "museum",
    "attribution": "attributed",
    "status": "present",
    "medium": "Oil on canvas",
    "dimensions": "66 × 55 cm",
    "image": "https://commons.wikimedia.org/wiki/Special:FilePath/Georges%20de%20La%20Tour%20Le%20Nouveau-ne%20Mus%C3%A9e%20des%20beaux-arts%20de%20l%27Ontario.jpg?width=420",
    "wikidata": "https://www.wikidata.org/wiki/Q124433778",
    "creation_place": "Lunéville",
    "creation_lat": 48.5936,
    "creation_lon": 6.4936,
    "_source": {
     "source": "Wikidata",
     "url": "https://www.wikidata.org/wiki/Q124433778",
     "retrieved_at": "2026-08-23"
    },
    "_overrides": {
     "creation": {
      "at": "2026-08-23",
      "source": "derived from start date + Caravaggio's documented itinerary (approximate)"
     }
    },
    "museum_id": "art-gallery-of-ontario",
    "qid": "Q124433778"
   }
  },
  {
   "type": "Feature",
   "geometry": {
    "type": "Point",
    "coordinates": [
     5.04267,
     47.3216
    ]
   },
   "properties": {
    "painter": "Georges de La Tour",
    "title": "Boy blowing into a lamp",
    "year": "1640",
    "city": "Dijon",
    "country": "France",
    "location": "Musée des Beaux-Arts de Dijon",
    "kind": "museum",
    "attribution": "attributed",
    "status": "present",
    "medium": "Oil on canvas",
    "dimensions": "61 × 51 cm",
    "genre": "genre art",
    "image": "https://commons.wikimedia.org/wiki/Special:FilePath/Le%20souffleur%20%C3%A0%20la%20lampe%20Georges%20de%20la%20Tour.jpg?width=420",
    "wikidata": "https://www.wikidata.org/wiki/Q125707590",
    "creation_place": "Lunéville",
    "creation_lat": 48.5936,
    "creation_lon": 6.4936,
    "_source": {
     "source": "Wikidata",
     "url": "https://www.wikidata.org/wiki/Q125707590",
     "retrieved_at": "2026-08-23"
    },
    "_overrides": {
     "creation": {
      "at": "2026-08-23",
      "source": "derived from start date + Caravaggio's documented itinerary (approximate)"
     }
    },
    "museum_id": "musee-des-beaux-arts-de-dijon",
    "qid": "Q125707590"
   }
  },
  {
   "type": "Feature",
   "geometry": {
    "type": "Point",
    "coordinates": [
     -95.38306,
     29.76278
    ]
   },
   "properties": {
    "painter": "Georges de La Tour",
    "title": "The Repentant Magdalene",
    "year": "1630-1640",
    "city": "Harris County",
    "country": "United States",
    "location": "Houston",
    "kind": "museum",
    "attribution": "attributed",
    "status": "present",
    "medium": "Oil on canvas",
    "dimensions": "78 × 110 cm",
    "genre": "religious art",
    "image": "https://commons.wikimedia.org/wiki/Special:FilePath/La%20Tour%20-%20The%20Repentant%20Magdalene%20with%20a%20Document%2C%20circa%201630-1650.jpg?width=420",
    "wikidata": "https://www.wikidata.org/wiki/Q138330748",
    "creation_place": "Lunéville",
    "creation_lat": 48.5936,
    "creation_lon": 6.4936,
    "_source": {
     "source": "Wikidata",
     "url": "https://www.wikidata.org/wiki/Q138330748",
     "retrieved_at": "2026-08-23"
    },
    "_overrides": {
     "creation": {
      "at": "2026-08-23",
      "source": "derived from start date + Caravaggio's documented itinerary (approximate)"
     }
    },
    "museum_id": "houston",
    "qid": "Q138330748"
   }
  },
  {
   "type": "Feature",
   "geometry": {
    "type": "Point",
    "coordinates": [
     6.4464,
     48.1728
    ]
   },
   "properties": {
    "painter": "Georges de La Tour",
    "title": "Job Mocked by his Wife",
    "year": "1620",
    "city": "Épinal",
    "country": "France",
    "location": "Musée départemental d'Art ancien et contemporain",
    "kind": "museum",
    "attribution": "generally accepted",
    "status": "present",
    "medium": "Oil on canvas",
    "dimensions": "145 × 97 cm",
    "genre": "religious art",
    "image": "https://commons.wikimedia.org/wiki/Special:FilePath/Georges%20de%20La%20Tour%20044.jpg?width=420",
    "wikipedia_en": "https://en.wikipedia.org/wiki/Job_Mocked_by_his_Wife",
    "wikidata": "https://www.wikidata.org/wiki/Q14940735",
    "creation_place": "Lunéville",
    "creation_lat": 48.5936,
    "creation_lon": 6.4936,
    "_source": {
     "source": "Wikidata",
     "url": "https://www.wikidata.org/wiki/Q14940735",
     "retrieved_at": "2026-08-23"
    },
    "_overrides": {
     "creation": {
      "at": "2026-08-23",
      "source": "derived from start date + Caravaggio's documented itinerary (approximate)"
     }
    },
    "museum_id": "musee-departemental-d-art-ancien-et-contemporain",
    "qid": "Q14940735",
    "wga_url": "https://www.wga.hu/html/l/la_tour/georges/2/01jobwif.html"
   }
  },
  {
   "type": "Feature",
   "geometry": {
    "type": "Point",
    "coordinates": [
     -1.54722,
     47.21944
    ]
   },
   "properties": {
    "painter": "Georges de La Tour",
    "title": "The Hurdy-gurdy Player or The Hurdy-gurdy Player With A Fly",
    "year": "1631",
    "city": "Nantes",
    "country": "France",
    "location": "Nantes Museum of Arts",
    "kind": "museum",
    "attribution": "generally accepted",
    "status": "present",
    "medium": "Oil on canvas",
    "dimensions": "162 × 105 cm",
    "genre": "genre art",
    "image": "https://commons.wikimedia.org/wiki/Special:FilePath/NantesMALaTourVielleur.jpg?width=420",
    "wikipedia_es": "https://es.wikipedia.org/wiki/Tocador_de_zanfon%C3%ADa",
    "wikipedia_en": "https://en.wikipedia.org/wiki/The_Hurdy-Gurdy_Player",
    "wikidata": "https://www.wikidata.org/wiki/Q14940736",
    "creation_place": "Lunéville",
    "creation_lat": 48.5936,
    "creation_lon": 6.4936,
    "_source": {
     "source": "Wikidata",
     "url": "https://www.wikidata.org/wiki/Q14940736",
     "retrieved_at": "2026-08-23"
    },
    "_overrides": {
     "creation": {
      "at": "2026-08-23",
      "source": "derived from start date + Caravaggio's documented itinerary (approximate)"
     }
    },
    "museum_id": "nantes-museum-of-arts",
    "qid": "Q14940736",
    "wga_url": "https://www.wga.hu/html/l/la_tour/georges/1/07hurdyg.html"
   }
  },
  {
   "type": "Feature",
   "geometry": {
    "type": "Point",
    "coordinates": [
     -118.475,
     34.0775
    ]
   },
   "properties": {
    "painter": "Georges de La Tour",
    "title": "The Musicians' Brawl",
    "year": "1620",
    "city": "Los Angeles",
    "country": "United States",
    "location": "Getty Center",
    "kind": "museum",
    "attribution": "generally accepted",
    "status": "present",
    "medium": "Oil on canvas",
    "dimensions": "857 × 1410 cm",
    "genre": "genre art",
    "image": "https://commons.wikimedia.org/wiki/Special:FilePath/Georges%20de%20la%20Tour%20-%20The%20Musicians%27%20Brawl%20%28circa%201625%29.jpg?width=420",
    "wikipedia_es": "https://es.wikipedia.org/wiki/Ri%C3%B1a_de_m%C3%BAsicos",
    "wikipedia_en": "https://en.wikipedia.org/wiki/The_Musicians%27_Brawl",
    "wikidata": "https://www.wikidata.org/wiki/Q14940737",
    "creation_place": "Lunéville",
    "creation_lat": 48.5936,
    "creation_lon": 6.4936,
    "_source": {
     "source": "Wikidata",
     "url": "https://www.wikidata.org/wiki/Q14940737",
     "retrieved_at": "2026-08-23"
    },
    "_overrides": {
     "creation": {
      "at": "2026-08-23",
      "source": "derived from start date + Caravaggio's documented itinerary (approximate)"
     }
    },
    "museum_id": "getty-center",
    "qid": "Q14940737",
    "wga_url": "https://www.wga.hu/html/l/la_tour/georges/1/02quarre.html"
   }
  },
  {
   "type": "Feature",
   "geometry": {
    "type": "Point",
    "coordinates": [
     2.3358,
     48.8611
    ]
   },
   "properties": {
    "painter": "Georges de La Tour",
    "title": "Saint Sebastian Attended by Saint Irene",
    "year": "1649",
    "country": "France",
    "location": "Louvre",
    "kind": "museum",
    "attribution": "generally accepted",
    "status": "present",
    "medium": "Oil on canvas",
    "dimensions": "167 × 131 cm",
    "genre": "religious art",
    "image": "https://commons.wikimedia.org/wiki/Special:FilePath/Georges%20de%20La%20Tour%20-%20St%20Sebastien%20Attended%20by%20St%20Irene%20-%20WGA12342.jpg?width=420",
    "wikipedia_en": "https://en.wikipedia.org/wiki/Saint_Sebastian_Tended_by_Saint_Irene_(Georges_de_La_Tour,_Louvre)",
    "wikipedia_it": "https://it.wikipedia.org/wiki/San_Sebastiano_curato_da_santa_Irene_(Georges_de_La_Tour)",
    "wikidata": "https://www.wikidata.org/wiki/Q14940739",
    "creation_place": "Lunéville",
    "creation_lat": 48.5936,
    "creation_lon": 6.4936,
    "_source": {
     "source": "Wikidata",
     "url": "https://www.wikidata.org/wiki/Q14940739",
     "retrieved_at": "2026-08-23"
    },
    "_overrides": {
     "creation": {
      "at": "2026-08-23",
      "source": "derived from start date + Caravaggio's documented itinerary (approximate)"
     }
    },
    "museum_id": "louvre",
    "city": "Paris",
    "qid": "Q14940739",
    "wga_url": "https://www.wga.hu/html/l/la_tour/georges/2/03sebast.html"
   }
  },
  {
   "type": "Feature",
   "geometry": {
    "type": "Point",
    "coordinates": [
     -1.54722,
     47.21944
    ]
   },
   "properties": {
    "painter": "Georges de La Tour",
    "title": "The Denial of Saint Peter",
    "year": "1650",
    "city": "Nantes",
    "country": "France",
    "location": "Nantes Museum of Arts",
    "kind": "museum",
    "attribution": "generally accepted",
    "status": "present",
    "medium": "Oil on canvas",
    "dimensions": "120 × 161 cm",
    "genre": "religious art",
    "image": "https://commons.wikimedia.org/wiki/Special:FilePath/Georges%20de%20La%20Tour%20061.jpg?width=420",
    "wikipedia_en": "https://en.wikipedia.org/wiki/The_Denial_of_Saint_Peter_(La_Tour)",
    "wikidata": "https://www.wikidata.org/wiki/Q17627500",
    "creation_place": "Lunéville",
    "creation_lat": 48.5936,
    "creation_lon": 6.4936,
    "_source": {
     "source": "Wikidata",
     "url": "https://www.wikidata.org/wiki/Q17627500",
     "retrieved_at": "2026-08-23"
    },
    "_overrides": {
     "creation": {
      "at": "2026-08-23",
      "source": "derived from start date + Caravaggio's documented itinerary (approximate)"
     }
    },
    "museum_id": "nantes-museum-of-arts",
    "qid": "Q17627500"
   }
  },
  {
   "type": "Feature",
   "geometry": {
    "type": "Point",
    "coordinates": [
     -118.3592,
     34.0633
    ]
   },
   "properties": {
    "painter": "Georges de La Tour",
    "title": "Magdalen with the Smoking Flame",
    "year": "1640",
    "city": "Los Angeles",
    "country": "United States",
    "location": "Los Angeles County Museum of Art",
    "kind": "museum",
    "attribution": "generally accepted",
    "status": "present",
    "medium": "Oil on canvas",
    "dimensions": "1170 × 917.7 cm",
    "genre": "religious art",
    "image": "https://commons.wikimedia.org/wiki/Special:FilePath/Georges%20de%20La%20Tour%20-%20The%20Magdalen%20with%20the%20Smoking%20Flame%20-%20Google%20Art%20Project.jpg?width=420",
    "wikipedia_es": "https://es.wikipedia.org/wiki/Magdalena_penitente_de_la_llama_humeante",
    "wikipedia_it": "https://it.wikipedia.org/wiki/Maddalena_con_la_fiamma_fumante",
    "wikidata": "https://www.wikidata.org/wiki/Q18564687",
    "creation_place": "Lunéville",
    "creation_lat": 48.5936,
    "creation_lon": 6.4936,
    "_source": {
     "source": "Wikidata",
     "url": "https://www.wikidata.org/wiki/Q18564687",
     "retrieved_at": "2026-08-23"
    },
    "_overrides": {
     "creation": {
      "at": "2026-08-23",
      "source": "derived from start date + Caravaggio's documented itinerary (approximate)"
     }
    },
    "museum_id": "los-angeles-county-museum-of-art",
    "qid": "Q18564687"
   }
  },
  {
   "type": "Feature",
   "geometry": {
    "type": "Point",
    "coordinates": [
     -73.9672,
     40.7711
    ]
   },
   "properties": {
    "painter": "Georges de La Tour",
    "title": "The Education of the Virgin",
    "year": "1650",
    "city": "New York",
    "country": "United States",
    "location": "Frick Collection",
    "kind": "museum",
    "attribution": "attributed",
    "status": "present",
    "medium": "Oil on canvas",
    "dimensions": "83.8 × 100.3 cm",
    "genre": "religious art",
    "image": "https://commons.wikimedia.org/wiki/Special:FilePath/Georges%20de%20La%20Tour%20L%27Education%20de%20la%20Vierge%20The%20Frick%20Collection.jpg?width=420",
    "wikidata": "https://www.wikidata.org/wiki/Q19857310",
    "creation_place": "Lunéville",
    "creation_lat": 48.5936,
    "creation_lon": 6.4936,
    "_source": {
     "source": "Wikidata",
     "url": "https://www.wikidata.org/wiki/Q19857310",
     "retrieved_at": "2026-08-23"
    },
    "_overrides": {
     "creation": {
      "at": "2026-08-23",
      "source": "derived from start date + Caravaggio's documented itinerary (approximate)"
     }
    },
    "museum_id": "frick-collection",
    "qid": "Q19857310"
   }
  },
  {
   "type": "Feature",
   "geometry": {
    "type": "Point",
    "coordinates": [
     -122.50084,
     37.78447
    ]
   },
   "properties": {
    "painter": "Georges de La Tour",
    "title": "Old Woman",
    "year": "1618",
    "city": "San Francisco",
    "country": "United States",
    "location": "Legion of Honor",
    "kind": "museum",
    "attribution": "attributed",
    "status": "present",
    "medium": "Oil on canvas",
    "dimensions": "91.4 × 60 cm",
    "genre": "portrait",
    "image": "https://commons.wikimedia.org/wiki/Special:FilePath/Georges%20de%20La%20Tour%20055.jpg?width=420",
    "wikidata": "https://www.wikidata.org/wiki/Q20198401",
    "creation_place": "Lunéville",
    "creation_lat": 48.5936,
    "creation_lon": 6.4936,
    "_source": {
     "source": "Wikidata",
     "url": "https://www.wikidata.org/wiki/Q20198401",
     "retrieved_at": "2026-08-23"
    },
    "_overrides": {
     "creation": {
      "at": "2026-08-23",
      "source": "derived from start date + Caravaggio's documented itinerary (approximate)"
     }
    },
    "museum_id": "legion-of-honor",
    "qid": "Q20198401"
   }
  },
  {
   "type": "Feature",
   "geometry": {
    "type": "Point",
    "coordinates": [
     -122.50084,
     37.78447
    ]
   },
   "properties": {
    "painter": "Georges de La Tour",
    "title": "Old Man",
    "year": "1618",
    "city": "San Francisco",
    "country": "United States",
    "location": "Legion of Honor",
    "kind": "museum",
    "attribution": "attributed",
    "status": "present",
    "medium": "Oil on canvas",
    "dimensions": "91.1 × 60.3 cm",
    "genre": "portrait",
    "image": "https://commons.wikimedia.org/wiki/Special:FilePath/Georges%20de%20La%20Tour.%20The%20Old%20Man.JPG?width=420",
    "wikidata": "https://www.wikidata.org/wiki/Q20198403",
    "creation_place": "Lunéville",
    "creation_lat": 48.5936,
    "creation_lon": 6.4936,
    "_source": {
     "source": "Wikidata",
     "url": "https://www.wikidata.org/wiki/Q20198403",
     "retrieved_at": "2026-08-23"
    },
    "_overrides": {
     "creation": {
      "at": "2026-08-23",
      "source": "derived from start date + Caravaggio's documented itinerary (approximate)"
     }
    },
    "museum_id": "legion-of-honor",
    "qid": "Q20198403"
   }
  },
  {
   "type": "Feature",
   "geometry": {
    "type": "Point",
    "coordinates": [
     2.43028,
     50.9692
    ]
   },
   "properties": {
    "painter": "Georges de La Tour",
    "title": "The Hurdy-Gurdy Player with a Dog",
    "year": "1622",
    "city": "Bergues",
    "country": "France",
    "location": "Musée du Mont-de-Piété de Bergues",
    "kind": "museum",
    "attribution": "generally accepted",
    "status": "present",
    "medium": "Oil paint, oilskin",
    "dimensions": "186 × 120 cm",
    "genre": "genre art",
    "image": "https://commons.wikimedia.org/wiki/Special:FilePath/Georges%20de%20La%20Tour%20042.jpg?width=420",
    "wikipedia_es": "https://es.wikipedia.org/wiki/El_m%C3%BAsico_de_zanfona_con_perro",
    "wikipedia_en": "https://en.wikipedia.org/wiki/The_Hurdy-Gurdy_Player_with_a_Dog",
    "wikidata": "https://www.wikidata.org/wiki/Q21693177",
    "creation_place": "Lunéville",
    "creation_lat": 48.5936,
    "creation_lon": 6.4936,
    "_source": {
     "source": "Wikidata",
     "url": "https://www.wikidata.org/wiki/Q21693177",
     "retrieved_at": "2026-08-23"
    },
    "_overrides": {
     "creation": {
      "at": "2026-08-23",
      "source": "derived from start date + Caravaggio's documented itinerary (approximate)"
     }
    },
    "museum_id": "musee-du-mont-de-piete-de-bergues",
    "qid": "Q21693177"
   }
  },
  {
   "type": "Feature",
   "geometry": {
    "type": "Point",
    "coordinates": [
     139.69222,
     35.68972
    ]
   },
   "properties": {
    "painter": "Georges de La Tour",
    "title": "St. Thomas",
    "year": "1650",
    "city": "Tokyo",
    "country": "Japan",
    "location": "National Museum of Western Art",
    "kind": "museum",
    "attribution": "attributed",
    "status": "present",
    "medium": "Oil on canvas",
    "dimensions": "64.6 × 53.9 cm",
    "genre": "religious art",
    "image": "https://commons.wikimedia.org/wiki/Special:FilePath/Georges%20de%20La%20Tour%20-%20St.%20Thomas%20-%20Google%20Art%20Project.jpg?width=420",
    "wikidata": "https://www.wikidata.org/wiki/Q23948730",
    "creation_place": "Lunéville",
    "creation_lat": 48.5936,
    "creation_lon": 6.4936,
    "_source": {
     "source": "Wikidata",
     "url": "https://www.wikidata.org/wiki/Q23948730",
     "retrieved_at": "2026-08-23"
    },
    "_overrides": {
     "creation": {
      "at": "2026-08-23",
      "source": "derived from start date + Caravaggio's documented itinerary (approximate)"
     }
    },
    "museum_id": "national-museum-of-western-art",
    "qid": "Q23948730"
   }
  },
  {
   "type": "Feature",
   "geometry": {
    "type": "Point",
    "coordinates": [
     -97.365,
     32.74861
    ]
   },
   "properties": {
    "painter": "Georges de La Tour",
    "title": "The Cheat with the Ace of Clubs",
    "year": "1630",
    "city": "Fort Worth",
    "country": "United States",
    "location": "Museo d'arte Kimbell",
    "kind": "museum",
    "attribution": "attributed",
    "status": "present",
    "medium": "Oil on canvas",
    "dimensions": "978 × 1562 cm",
    "genre": "genre art",
    "image": "https://commons.wikimedia.org/wiki/Special:FilePath/Georges%20de%20La%20Tour%20-%20The%20Cheat%20with%20the%20Ace%20of%20Clubs%20-%20Google%20Art%20Project.jpg?width=420",
    "wikidata": "https://www.wikidata.org/wiki/Q27180501",
    "creation_place": "Lunéville",
    "creation_lat": 48.5936,
    "creation_lon": 6.4936,
    "_source": {
     "source": "Wikidata",
     "url": "https://www.wikidata.org/wiki/Q27180501",
     "retrieved_at": "2026-08-23"
    },
    "_overrides": {
     "creation": {
      "at": "2026-08-23",
      "source": "derived from start date + Caravaggio's documented itinerary (approximate)"
     }
    },
    "museum_id": "museo-d-arte-kimbell",
    "qid": "Q27180501"
   }
  },
  {
   "type": "Feature",
   "geometry": {
    "type": "Point",
    "coordinates": [
     -3.6922,
     40.4139
    ]
   },
   "properties": {
    "painter": "Georges de La Tour",
    "title": "The Blind Hurdy-Gurdy Player",
    "year": "1620",
    "city": "Madrid",
    "country": "Spain",
    "location": "Museo del Prado",
    "kind": "museum",
    "attribution": "generally accepted",
    "status": "present",
    "medium": "Oil on canvas",
    "dimensions": "86 × 62.5 cm",
    "image": "https://commons.wikimedia.org/wiki/Special:FilePath/Ciego%20tocando%20la%20zanfon%C3%ADa%20%28Georges%20de%20La%20Tour%29.jpg?width=420",
    "wikipedia_es": "https://es.wikipedia.org/wiki/Ciego_tocando_la_zanfon%C3%ADa",
    "wikidata": "https://www.wikidata.org/wiki/Q27700014",
    "creation_place": "Lunéville",
    "creation_lat": 48.5936,
    "creation_lon": 6.4936,
    "_source": {
     "source": "Wikidata",
     "url": "https://www.wikidata.org/wiki/Q27700014",
     "retrieved_at": "2026-08-23"
    },
    "_overrides": {
     "creation": {
      "at": "2026-08-23",
      "source": "derived from start date + Caravaggio's documented itinerary (approximate)"
     }
    },
    "museum_id": "museo-del-prado",
    "qid": "Q27700014",
    "wga_url": "https://www.wga.hu/html/l/la_tour/georges/2/09blind.html"
   }
  },
  {
   "type": "Feature",
   "geometry": {
    "type": "Point",
    "coordinates": [
     -0.14241,
     51.4998
    ]
   },
   "properties": {
    "painter": "Georges de La Tour",
    "title": "Saint Jerome",
    "year": "1621",
    "city": "London",
    "country": "United Kingdom",
    "location": "King's Gallery",
    "kind": "museum",
    "attribution": "attributed",
    "status": "present",
    "medium": "Oil on canvas",
    "dimensions": "63.8 × 47.2 cm",
    "genre": "religious art",
    "image": "https://commons.wikimedia.org/wiki/Special:FilePath/Georges%20de%20la%20Tour%20%281593-1652%29%20-%20Saint%20Jerome%20-%20RCIN%20405462%20-%20Royal%20Collection.jpg?width=420",
    "wikidata": "https://www.wikidata.org/wiki/Q28026337",
    "creation_place": "Lunéville",
    "creation_lat": 48.5936,
    "creation_lon": 6.4936,
    "_source": {
     "source": "Wikidata",
     "url": "https://www.wikidata.org/wiki/Q28026337",
     "retrieved_at": "2026-08-23"
    },
    "_overrides": {
     "creation": {
      "at": "2026-08-23",
      "source": "derived from start date + Caravaggio's documented itinerary (approximate)"
     }
    },
    "museum_id": "king-s-gallery",
    "qid": "Q28026337",
    "wga_url": "https://www.wga.hu/html/l/la_tour/georges/1/01jerome.html"
   }
  },
  {
   "type": "Feature",
   "geometry": {
    "type": "Point",
    "coordinates": [
     2.3358,
     48.8611
    ]
   },
   "properties": {
    "painter": "Georges de La Tour",
    "title": "St Thomas",
    "year": "1627",
    "country": "France",
    "location": "Louvre",
    "kind": "museum",
    "attribution": "attributed",
    "status": "present",
    "medium": "Oil on canvas",
    "dimensions": "46 × 60 cm",
    "genre": "religious art",
    "image": "https://commons.wikimedia.org/wiki/Special:FilePath/Georges%20de%20La%20Tour%20-%20St%20Thomas%20-%20WGA12333.jpg?width=420",
    "wikidata": "https://www.wikidata.org/wiki/Q29644867",
    "creation_place": "Lunéville",
    "creation_lat": 48.5936,
    "creation_lon": 6.4936,
    "_source": {
     "source": "Wikidata",
     "url": "https://www.wikidata.org/wiki/Q29644867",
     "retrieved_at": "2026-08-23"
    },
    "_overrides": {
     "creation": {
      "at": "2026-08-23",
      "source": "derived from start date + Caravaggio's documented itinerary (approximate)"
     }
    },
    "museum_id": "louvre",
    "city": "Paris",
    "qid": "Q29644867",
    "wga_url": "https://www.wga.hu/html/l/la_tour/georges/1/05thomas.html"
   }
  },
  {
   "type": "Feature",
   "geometry": {
    "type": "Point",
    "coordinates": [
     -77.02,
     38.8914
    ]
   },
   "properties": {
    "painter": "Georges de La Tour",
    "title": "The Repentant Magdalen",
    "year": "1637",
    "city": "Washington",
    "country": "United States",
    "location": "National Gallery of Art",
    "kind": "museum",
    "attribution": "generally accepted",
    "status": "present",
    "medium": "Oil on canvas",
    "dimensions": "113 × 92.7 cm",
    "genre": "religious art",
    "image": "https://commons.wikimedia.org/wiki/Special:FilePath/Georges%20de%20La%20Tour%20006.jpg?width=420",
    "wikipedia_es": "https://es.wikipedia.org/wiki/Magdalena_penitente_del_espejo",
    "wikipedia_en": "https://en.wikipedia.org/wiki/Magdalene_at_a_Mirror",
    "wikipedia_it": "https://it.wikipedia.org/wiki/Maddalena_allo_specchio",
    "wikidata": "https://www.wikidata.org/wiki/Q3210250",
    "creation_place": "Lunéville",
    "creation_lat": 48.5936,
    "creation_lon": 6.4936,
    "_source": {
     "source": "Wikidata",
     "url": "https://www.wikidata.org/wiki/Q3210250",
     "retrieved_at": "2026-08-23"
    },
    "_overrides": {
     "creation": {
      "at": "2026-08-23",
      "source": "derived from start date + Caravaggio's documented itinerary (approximate)"
     }
    },
    "museum_id": "national-gallery-of-art",
    "qid": "Q3210250"
   }
  },
  {
   "type": "Feature",
   "geometry": {
    "type": "Point",
    "coordinates": [
     -73.9631,
     40.7794
    ]
   },
   "properties": {
    "painter": "Georges de La Tour",
    "title": "The Penitent Magdalen",
    "year": "1625-1640",
    "city": "New York",
    "country": "United States",
    "location": "Metropolitan Museum of Art",
    "kind": "museum",
    "attribution": "generally accepted",
    "status": "present",
    "medium": "Oil on canvas",
    "dimensions": "133.4 × 102.2 cm",
    "genre": "religious art",
    "image": "https://commons.wikimedia.org/wiki/Special:FilePath/The%20Penitent%20Magdalen%20MET%20DT7252.jpg?width=420",
    "wikipedia_es": "https://es.wikipedia.org/wiki/Magdalena_penitente_(De_la_Tour,_Nueva_York)",
    "wikipedia_en": "https://en.wikipedia.org/wiki/Magdalene_with_Two_Flames",
    "wikipedia_it": "https://it.wikipedia.org/wiki/Maddalena_dalle_due_fiamme",
    "wikidata": "https://www.wikidata.org/wiki/Q3210251",
    "creation_place": "Lunéville",
    "creation_lat": 48.5936,
    "creation_lon": 6.4936,
    "_source": {
     "source": "Wikidata",
     "url": "https://www.wikidata.org/wiki/Q3210251",
     "retrieved_at": "2026-08-23"
    },
    "_overrides": {
     "creation": {
      "at": "2026-08-23",
      "source": "derived from start date + Caravaggio's documented itinerary (approximate)"
     }
    },
    "museum_id": "metropolitan-museum-of-art",
    "qid": "Q3210251",
    "wga_url": "https://www.wga.hu/html/l/la_tour/georges/1/10penite.html"
   }
  },
  {
   "type": "Feature",
   "geometry": {
    "type": "Point",
    "coordinates": [
     2.80333,
     50.43056
    ]
   },
   "properties": {
    "painter": "Georges de La Tour",
    "title": "Magdalene with the Smoking Flame",
    "year": "1642",
    "city": "Lens",
    "country": "France",
    "location": "Louvre-Lens",
    "kind": "museum",
    "attribution": "generally accepted",
    "status": "present",
    "medium": "Oil on canvas",
    "dimensions": "128 × 94 cm",
    "genre": "religious art",
    "image": "https://commons.wikimedia.org/wiki/Special:FilePath/La%20Tour%20-%20La%20Madeleine%20%C3%A0%20la%20veilleuse%20dite%20La%20Madeleine%20Terff%2C%20vers%201642%20-%201644%2C%20RF%201949%2011.jpg?width=420",
    "wikipedia_es": "https://es.wikipedia.org/wiki/Magdalena_penitente_de_la_lamparilla",
    "wikipedia_en": "https://en.wikipedia.org/wiki/Magdalene_with_the_Smoking_Flame",
    "wikipedia_it": "https://it.wikipedia.org/wiki/Maddalena_al_lume_di_notte",
    "wikidata": "https://www.wikidata.org/wiki/Q3210253",
    "creation_place": "Lunéville",
    "creation_lat": 48.5936,
    "creation_lon": 6.4936,
    "_source": {
     "source": "Wikidata",
     "url": "https://www.wikidata.org/wiki/Q3210253",
     "retrieved_at": "2026-08-23"
    },
    "_overrides": {
     "creation": {
      "at": "2026-08-23",
      "source": "derived from start date + Caravaggio's documented itinerary (approximate)"
     }
    },
    "museum_id": "louvre-lens",
    "qid": "Q3210253"
   }
  },
  {
   "type": "Feature",
   "geometry": {
    "type": "Point",
    "coordinates": [
     -73.9631,
     40.7794
    ]
   },
   "properties": {
    "painter": "Georges de La Tour",
    "title": "The Fortune Teller",
    "year": "1630",
    "city": "New York",
    "country": "United States",
    "location": "Metropolitan Museum of Art",
    "kind": "museum",
    "attribution": "generally accepted",
    "status": "present",
    "medium": "Oil on canvas",
    "dimensions": "101.9 × 123.5 cm",
    "genre": "genre art",
    "image": "https://commons.wikimedia.org/wiki/Special:FilePath/Georges%20de%20La%20Tour%20016.jpg?width=420",
    "wikipedia_es": "https://es.wikipedia.org/wiki/La_buenaventura_(La_Tour)",
    "wikipedia_en": "https://en.wikipedia.org/wiki/The_Fortune_Teller_(La_Tour)",
    "wikipedia_it": "https://it.wikipedia.org/wiki/La_buona_ventura",
    "wikidata": "https://www.wikidata.org/wiki/Q379906",
    "creation_place": "Lunéville",
    "creation_lat": 48.5936,
    "creation_lon": 6.4936,
    "_source": {
     "source": "Wikidata",
     "url": "https://www.wikidata.org/wiki/Q379906",
     "retrieved_at": "2026-08-23"
    },
    "_overrides": {
     "creation": {
      "at": "2026-08-23",
      "source": "derived from start date + Caravaggio's documented itinerary (approximate)"
     }
    },
    "museum_id": "metropolitan-museum-of-art",
    "qid": "Q379906",
    "wga_url": "https://www.wga.hu/html/l/la_tour/georges/1/08fortun.html"
   }
  },
  {
   "type": "Feature",
   "geometry": {
    "type": "Point",
    "coordinates": [
     6.5901,
     48.0151
    ]
   },
   "properties": {
    "painter": "Georges de La Tour",
    "title": "The Hurdy-gurdy Player",
    "year": "1640",
    "city": "Remiremont",
    "country": "France",
    "location": "Musée Charles-Friry",
    "kind": "museum",
    "attribution": "attributed",
    "status": "present",
    "medium": "Oil on canvas",
    "dimensions": "160 × 97.5 cm",
    "genre": "figure painting",
    "image": "https://commons.wikimedia.org/wiki/Special:FilePath/Georges%20de%20La%20Tour-Le%20Vielleur%20%282%29.jpg?width=420",
    "wikidata": "https://www.wikidata.org/wiki/Q48252412",
    "creation_place": "Lunéville",
    "creation_lat": 48.5936,
    "creation_lon": 6.4936,
    "_source": {
     "source": "Wikidata",
     "url": "https://www.wikidata.org/wiki/Q48252412",
     "retrieved_at": "2026-08-23"
    },
    "_overrides": {
     "creation": {
      "at": "2026-08-23",
      "source": "derived from start date + Caravaggio's documented itinerary (approximate)"
     }
    },
    "museum_id": "musee-charles-friry",
    "qid": "Q48252412"
   }
  },
  {
   "type": "Feature",
   "geometry": {
    "type": "Point",
    "coordinates": [
     -81.61167,
     41.50889
    ]
   },
   "properties": {
    "painter": "Georges de La Tour",
    "title": "Saint Peter Repentant",
    "year": "1645",
    "city": "Cleveland",
    "country": "United States",
    "location": "Cleveland Museum of Art",
    "kind": "museum",
    "attribution": "attributed",
    "status": "present",
    "medium": "Oil on canvas",
    "dimensions": "114 × 95 cm",
    "genre": "religious art",
    "image": "https://commons.wikimedia.org/wiki/Special:FilePath/%22Les%20Larmes%20de%20saint%20Pierre%22%20de%20Georges%20de%20la%20Tour%20%28Mus%C3%A9e%20Jacquemard%20Andr%C3%A9%2C%20Paris%29%20%2854909104222%29.jpg?width=420",
    "wikidata": "https://www.wikidata.org/wiki/Q60515901",
    "creation_place": "Lunéville",
    "creation_lat": 48.5936,
    "creation_lon": 6.4936,
    "_source": {
     "source": "Wikidata",
     "url": "https://www.wikidata.org/wiki/Q60515901",
     "retrieved_at": "2026-08-23"
    },
    "_overrides": {
     "creation": {
      "at": "2026-08-23",
      "source": "derived from start date + Caravaggio's documented itinerary (approximate)"
     }
    },
    "museum_id": "cleveland-museum-of-art",
    "qid": "Q60515901"
   }
  },
  {
   "type": "Feature",
   "geometry": {
    "type": "Point",
    "coordinates": [
     -83.0647,
     42.3594
    ]
   },
   "properties": {
    "painter": "Georges de La Tour",
    "title": "Saint Sebastian Nursed by Saint Irene",
    "city": "Detroit",
    "country": "United States",
    "location": "Detroit Institute of Arts",
    "kind": "museum",
    "attribution": "attributed",
    "status": "present",
    "medium": "Oil on canvas",
    "genre": "religious art",
    "image": "https://commons.wikimedia.org/wiki/Special:FilePath/Georges%20de%20La%20Tour%20-%20Saint%20Sebastian%20Nursed%20by%20Saint%20Irene%20-%2048.278%20-%20Detroit%20Institute%20of%20Arts.jpg?width=420",
    "wikidata": "https://www.wikidata.org/wiki/Q64517583",
    "_source": {
     "source": "Wikidata",
     "url": "https://www.wikidata.org/wiki/Q64517583",
     "retrieved_at": "2026-08-23"
    },
    "museum_id": "detroit-institute-of-arts",
    "qid": "Q64517583"
   }
  },
  {
   "type": "Feature",
   "geometry": {
    "type": "Point",
    "coordinates": [
     -83.0647,
     42.3594
    ]
   },
   "properties": {
    "painter": "Georges de La Tour",
    "title": "Young Virgin Mary",
    "year": "1640",
    "city": "Detroit",
    "country": "United States",
    "location": "Detroit Institute of Arts",
    "kind": "museum",
    "attribution": "attributed",
    "status": "present",
    "medium": "Oil on canvas",
    "genre": "religious art",
    "image": "https://commons.wikimedia.org/wiki/Special:FilePath/Georges%20de%20La%20Tour%20-%20Young%20Virgin%20Mary%20-%2038.8%20-%20Detroit%20Institute%20of%20Arts.jpg?width=420",
    "wikidata": "https://www.wikidata.org/wiki/Q64537003",
    "creation_place": "Lunéville",
    "creation_lat": 48.5936,
    "creation_lon": 6.4936,
    "_source": {
     "source": "Wikidata",
     "url": "https://www.wikidata.org/wiki/Q64537003",
     "retrieved_at": "2026-08-23"
    },
    "_overrides": {
     "creation": {
      "at": "2026-08-23",
      "source": "derived from start date + Caravaggio's documented itinerary (approximate)"
     }
    },
    "museum_id": "detroit-institute-of-arts",
    "qid": "Q64537003"
   }
  },
  {
   "type": "Feature",
   "geometry": {
    "type": "Point",
    "coordinates": [
     -97.365,
     32.74861
    ]
   },
   "properties": {
    "painter": "Georges de La Tour",
    "title": "Saint Sebastian Tended by Irene",
    "year": "1632",
    "city": "Fort Worth",
    "country": "United States",
    "location": "Museo d'arte Kimbell",
    "kind": "museum",
    "attribution": "attributed",
    "status": "present",
    "medium": "Oil on canvas",
    "dimensions": "104.8 × 139.4 cm",
    "genre": "religious art",
    "image": "https://commons.wikimedia.org/wiki/Special:FilePath/%27Saint%20Sebastian%20Tended%20by%20Irene%27%2C%20attributed%20to%20Georges%20de%20La%20Tour%2C%20early%201630s%2C%20oil%20on%20canvas%2C%20Kimbell%20Art%20Museum.jpg?width=420",
    "wikidata": "https://www.wikidata.org/wiki/Q72753392",
    "creation_place": "Lunéville",
    "creation_lat": 48.5936,
    "creation_lon": 6.4936,
    "_source": {
     "source": "Wikidata",
     "url": "https://www.wikidata.org/wiki/Q72753392",
     "retrieved_at": "2026-08-23"
    },
    "_overrides": {
     "creation": {
      "at": "2026-08-23",
      "source": "derived from start date + Caravaggio's documented itinerary (approximate)"
     }
    },
    "museum_id": "museo-d-arte-kimbell",
    "qid": "Q72753392"
   }
  },
  {
   "type": "Feature",
   "geometry": {
    "type": "Point",
    "coordinates": [
     -76.292,
     36.857
    ]
   },
   "properties": {
    "painter": "Georges de La Tour",
    "title": "Saint Philip",
    "year": "1625",
    "city": "Norfolk",
    "country": "United States",
    "location": "Chrysler Museum of Art",
    "kind": "museum",
    "attribution": "attributed",
    "status": "present",
    "medium": "Oil on canvas",
    "dimensions": "63.5 × 53.3 cm",
    "genre": "religious art",
    "image": "https://commons.wikimedia.org/wiki/Special:FilePath/La%20Tour%20-%20Saint%20Philip%2C%20ca.%201625%2C%2077.431.jpg?width=420",
    "wikidata": "https://www.wikidata.org/wiki/Q73190680",
    "creation_place": "Lunéville",
    "creation_lat": 48.5936,
    "creation_lon": 6.4936,
    "_source": {
     "source": "Wikidata",
     "url": "https://www.wikidata.org/wiki/Q73190680",
     "retrieved_at": "2026-08-23"
    },
    "_overrides": {
     "creation": {
      "at": "2026-08-23",
      "source": "derived from start date + Caravaggio's documented itinerary (approximate)"
     }
    },
    "museum_id": "chrysler-museum-of-art",
    "qid": "Q73190680"
   }
  },
  {
   "type": "Feature",
   "geometry": {
    "type": "Point",
    "coordinates": [
     -0.29808,
     51.45209
    ]
   },
   "properties": {
    "painter": "Georges de La Tour",
    "title": "Diogenes",
    "year": "1620",
    "city": "London Borough of Richmond upon Thames",
    "country": "United Kingdom",
    "location": "Doughty House",
    "kind": "museum",
    "attribution": "attributed",
    "status": "present",
    "medium": "Oil on canvas",
    "dimensions": "99.9 × 121.4 cm",
    "genre": "genre art",
    "image": "https://commons.wikimedia.org/wiki/Special:FilePath/Georges%20de%20la%20Tour%20-%20Diogenes.jpg?width=420",
    "wikidata": "https://www.wikidata.org/wiki/Q73983236",
    "creation_place": "Lunéville",
    "creation_lat": 48.5936,
    "creation_lon": 6.4936,
    "_source": {
     "source": "Wikidata",
     "url": "https://www.wikidata.org/wiki/Q73983236",
     "retrieved_at": "2026-08-23"
    },
    "_overrides": {
     "creation": {
      "at": "2026-08-23",
      "source": "derived from start date + Caravaggio's documented itinerary (approximate)"
     }
    },
    "museum_id": "doughty-house",
    "qid": "Q73983236"
   }
  },
  {
   "type": "Feature",
   "geometry": {
    "type": "Point",
    "coordinates": [
     2.3358,
     48.8611
    ]
   },
   "properties": {
    "painter": "Georges de La Tour",
    "title": "Joseph the Carpenter",
    "year": "1642",
    "country": "France",
    "location": "Louvre",
    "kind": "museum",
    "attribution": "generally accepted",
    "status": "present",
    "medium": "Oil on canvas",
    "dimensions": "137 × 102 cm",
    "genre": "religious art",
    "image": "https://commons.wikimedia.org/wiki/Special:FilePath/Saint%20Joseph%20Charpentier.jpg?width=420",
    "wikipedia_es": "https://es.wikipedia.org/wiki/San_Jos%C3%A9_carpintero_(Georges_de_La_Tour)",
    "wikipedia_en": "https://en.wikipedia.org/wiki/Joseph_the_Carpenter",
    "wikipedia_it": "https://it.wikipedia.org/wiki/San_Giuseppe_falegname_(Georges_de_La_Tour)",
    "wikidata": "https://www.wikidata.org/wiki/Q743643",
    "creation_place": "Lunéville",
    "creation_lat": 48.5936,
    "creation_lon": 6.4936,
    "_source": {
     "source": "Wikidata",
     "url": "https://www.wikidata.org/wiki/Q743643",
     "retrieved_at": "2026-08-23"
    },
    "_overrides": {
     "creation": {
      "at": "2026-08-23",
      "source": "derived from start date + Caravaggio's documented itinerary (approximate)"
     }
    },
    "museum_id": "louvre",
    "city": "Paris",
    "qid": "Q743643",
    "wga_url": "https://www.wga.hu/html/l/la_tour/georges/2/06carpe1.html"
   }
  },
  {
   "type": "Feature",
   "geometry": {
    "type": "Point",
    "coordinates": [
     -122.33813,
     47.60731
    ]
   },
   "properties": {
    "painter": "Georges de La Tour",
    "title": "Saint Sebastian Tended by Saint Irene",
    "year": "1638",
    "city": "Seattle",
    "country": "United States",
    "location": "Seattle Art Museum",
    "kind": "museum",
    "attribution": "attributed",
    "status": "present",
    "medium": "Oil on canvas",
    "genre": "religious art",
    "wikidata": "https://www.wikidata.org/wiki/Q77925286",
    "creation_place": "Lunéville",
    "creation_lat": 48.5936,
    "creation_lon": 6.4936,
    "_source": {
     "source": "Wikidata",
     "url": "https://www.wikidata.org/wiki/Q77925286",
     "retrieved_at": "2026-08-23"
    },
    "_overrides": {
     "creation": {
      "at": "2026-08-23",
      "source": "derived from start date + Caravaggio's documented itinerary (approximate)"
     }
    },
    "museum_id": "seattle-art-museum",
    "qid": "Q77925286"
   }
  },
  {
   "type": "Feature",
   "geometry": {
    "type": "Point",
    "coordinates": [
     -6.25255,
     53.34091
    ]
   },
   "properties": {
    "painter": "Georges de La Tour",
    "title": "The Image of Saint Alexis",
    "city": "Dublin",
    "country": "Ireland",
    "location": "National Gallery of Ireland",
    "kind": "museum",
    "attribution": "attributed",
    "status": "present",
    "medium": "Oil on canvas",
    "dimensions": "143.5 × 117 cm",
    "image": "https://commons.wikimedia.org/wiki/Special:FilePath/The%20Image%20of%20Saint%20Alexis%20P604.jpg?width=420",
    "wikidata": "https://www.wikidata.org/wiki/Q77934304",
    "_source": {
     "source": "Wikidata",
     "url": "https://www.wikidata.org/wiki/Q77934304",
     "retrieved_at": "2026-08-23"
    },
    "museum_id": "national-gallery-of-ireland",
    "qid": "Q77934304"
   }
  },
  {
   "type": "Feature",
   "geometry": {
    "type": "Point",
    "coordinates": [
     139.32949,
     35.68646
    ]
   },
   "properties": {
    "painter": "Georges de La Tour",
    "title": "Smoker",
    "year": "1646",
    "city": "Yanomachi",
    "country": "Japan",
    "location": "Tokyo Fuji Art Museum",
    "kind": "museum",
    "attribution": "attributed",
    "status": "present",
    "medium": "Oil on canvas",
    "dimensions": "70.8 × 61.5 cm",
    "genre": "portrait",
    "image": "https://commons.wikimedia.org/wiki/Special:FilePath/Georges%20de%20La%20Tour%20-%20Smoker.jpg?width=420",
    "wikidata": "https://www.wikidata.org/wiki/Q80113878",
    "creation_place": "Lunéville",
    "creation_lat": 48.5936,
    "creation_lon": 6.4936,
    "_source": {
     "source": "Wikidata",
     "url": "https://www.wikidata.org/wiki/Q80113878",
     "retrieved_at": "2026-08-23"
    },
    "_overrides": {
     "creation": {
      "at": "2026-08-23",
      "source": "derived from start date + Caravaggio's documented itinerary (approximate)"
     }
    },
    "museum_id": "tokyo-fuji-art-museum",
    "qid": "Q80113878"
   }
  },
  {
   "type": "Feature",
   "geometry": {
    "type": "Point",
    "coordinates": [
     -3.6922,
     40.4139
    ]
   },
   "properties": {
    "painter": "Georges de La Tour",
    "title": "Saint Jerome reading a letter",
    "year": "1627",
    "city": "Madrid",
    "country": "Spain",
    "location": "Museo del Prado",
    "kind": "museum",
    "attribution": "attributed",
    "status": "present",
    "medium": "Canvas",
    "genre": "religious art",
    "image": "https://commons.wikimedia.org/wiki/Special:FilePath/San%20Jer%C3%B3nimo%20leyendo%20una%20carta.jpg?width=420",
    "wikidata": "https://www.wikidata.org/wiki/Q87188157",
    "creation_place": "Lunéville",
    "creation_lat": 48.5936,
    "creation_lon": 6.4936,
    "_source": {
     "source": "Wikidata",
     "url": "https://www.wikidata.org/wiki/Q87188157",
     "retrieved_at": "2026-08-23"
    },
    "_overrides": {
     "creation": {
      "at": "2026-08-23",
      "source": "derived from start date + Caravaggio's documented itinerary (approximate)"
     }
    },
    "museum_id": "museo-del-prado",
    "qid": "Q87188157"
   }
  },
  {
   "type": "Feature",
   "geometry": {
    "type": "Point",
    "coordinates": [
     -1.675,
     48.10944
    ]
   },
   "properties": {
    "painter": "Georges de La Tour",
    "title": "The Newborn",
    "year": "1645",
    "city": "Rennes",
    "country": "France",
    "location": "Musée des Beaux-Arts de Rennes",
    "kind": "museum",
    "attribution": "generally accepted",
    "status": "present",
    "medium": "Oil on canvas",
    "dimensions": "76 × 91 cm",
    "genre": "religious art",
    "image": "https://commons.wikimedia.org/wiki/Special:FilePath/Georges%20de%20La%20Tour%20-%20Newlyborn%20infant%20-%20Mus%C3%A9e%20des%20Beaux-Arts%20de%20Rennes.jpg?width=420",
    "wikipedia_es": "https://es.wikipedia.org/wiki/El_reci%C3%A9n_nacido",
    "wikipedia_en": "https://en.wikipedia.org/wiki/The_Newborn_Child",
    "wikidata": "https://www.wikidata.org/wiki/Q8774031",
    "creation_place": "Lunéville",
    "creation_lat": 48.5936,
    "creation_lon": 6.4936,
    "_source": {
     "source": "Wikidata",
     "url": "https://www.wikidata.org/wiki/Q8774031",
     "retrieved_at": "2026-08-23"
    },
    "_overrides": {
     "creation": {
      "at": "2026-08-23",
      "source": "derived from start date + Caravaggio's documented itinerary (approximate)"
     }
    },
    "museum_id": "musee-des-beaux-arts-de-rennes",
    "qid": "Q8774031",
    "wga_url": "https://www.wga.hu/html/l/la_tour/georges/2/08newbo.html"
   }
  },
  {
   "type": "Feature",
   "geometry": {
    "type": "Point",
    "coordinates": [
     -1.54722,
     47.21944
    ]
   },
   "properties": {
    "painter": "Georges de La Tour",
    "title": "The Dream of Saint Joseph",
    "year": "1700",
    "city": "Nantes",
    "country": "France",
    "location": "Nantes Museum of Arts",
    "kind": "museum",
    "attribution": "generally accepted",
    "status": "present",
    "medium": "Oil on canvas",
    "dimensions": "93 × 82.2 cm",
    "genre": "religious art",
    "image": "https://commons.wikimedia.org/wiki/Special:FilePath/Georges%20de%20La%20Tour%20022.jpg?width=420",
    "wikipedia_es": "https://es.wikipedia.org/wiki/La_aparici%C3%B3n_del_%C3%A1ngel_a_san_Jos%C3%A9",
    "wikipedia_en": "https://en.wikipedia.org/wiki/The_Dream_of_Saint_Joseph_(La_Tour)",
    "wikidata": "https://www.wikidata.org/wiki/Q9335245",
    "_source": {
     "source": "Wikidata",
     "url": "https://www.wikidata.org/wiki/Q9335245",
     "retrieved_at": "2026-08-23"
    },
    "museum_id": "nantes-museum-of-arts",
    "qid": "Q9335245",
    "wga_url": "https://www.wga.hu/html/l/la_tour/georges/2/05dream.html"
   }
  },
  {
   "type": "Feature",
   "geometry": {
    "type": "Point",
    "coordinates": [
     2.3358,
     48.8611
    ]
   },
   "properties": {
    "painter": "Georges de La Tour",
    "title": "The Adoration of the Shepherds",
    "year": "1645",
    "country": "France",
    "location": "Louvre",
    "kind": "museum",
    "attribution": "generally accepted",
    "status": "present",
    "medium": "Oil on canvas",
    "dimensions": "107 × 131 cm",
    "genre": "religious art",
    "image": "https://commons.wikimedia.org/wiki/Special:FilePath/L%27adoration%20des%20bergers.jpg?width=420",
    "wikipedia_es": "https://es.wikipedia.org/wiki/La_adoraci%C3%B3n_de_los_pastores_(La_Tour)",
    "wikipedia_en": "https://en.wikipedia.org/wiki/Adoration_of_the_Shepherds_(La_Tour)",
    "wikipedia_it": "https://it.wikipedia.org/wiki/Adorazione_dei_pastori_(Georges_de_La_Tour)",
    "wikidata": "https://www.wikidata.org/wiki/Q9402747",
    "creation_place": "Lunéville",
    "creation_lat": 48.5936,
    "creation_lon": 6.4936,
    "_source": {
     "source": "Wikidata",
     "url": "https://www.wikidata.org/wiki/Q9402747",
     "retrieved_at": "2026-08-23"
    },
    "_overrides": {
     "creation": {
      "at": "2026-08-23",
      "source": "derived from start date + Caravaggio's documented itinerary (approximate)"
     }
    },
    "museum_id": "louvre",
    "city": "Paris",
    "qid": "Q9402747",
    "wga_url": "https://www.wga.hu/html/l/la_tour/georges/2/07shephe.html"
   }
  },
  {
   "type": "Feature",
   "geometry": {
    "type": "Point",
    "coordinates": [
     24.02694,
     49.83806
    ]
   },
   "properties": {
    "painter": "Georges de La Tour",
    "title": "The money paid",
    "year": "1627",
    "city": "Lviv",
    "country": "Ukraine",
    "location": "Potocki Palace",
    "kind": "museum",
    "attribution": "attributed",
    "status": "present",
    "medium": "Oil on canvas",
    "dimensions": "99 × 152 cm",
    "genre": "genre art",
    "image": "https://commons.wikimedia.org/wiki/Special:FilePath/%22L%27argent%20vers%C3%A9%22%20de%20Georges%20de%20la%20Tour%20%28Mus%C3%A9e%20Jacquemard%20Andr%C3%A9%2C%20Paris%29%20%2854915172896%29.png?width=420",
    "wikidata": "https://www.wikidata.org/wiki/Q95582247",
    "creation_place": "Lunéville",
    "creation_lat": 48.5936,
    "creation_lon": 6.4936,
    "_source": {
     "source": "Wikidata",
     "url": "https://www.wikidata.org/wiki/Q95582247",
     "retrieved_at": "2026-08-23"
    },
    "_overrides": {
     "creation": {
      "at": "2026-08-23",
      "source": "derived from start date + Caravaggio's documented itinerary (approximate)"
     }
    },
    "museum_id": "potocki-palace",
    "qid": "Q95582247"
   }
  },
  {
   "type": "Feature",
   "geometry": {
    "type": "Point",
    "coordinates": [
     -1.1278,
     52.6292
    ]
   },
   "properties": {
    "painter": "Georges de La Tour",
    "title": "The Young Singer",
    "year": "1645",
    "city": "Leicester",
    "country": "United Kingdom",
    "location": "Leicester Museum & Art Gallery",
    "kind": "museum",
    "attribution": "attributed",
    "status": "present",
    "medium": "Oil on canvas",
    "dimensions": "66.5 × 50 cm",
    "image": "https://commons.wikimedia.org/wiki/Special:FilePath/Georges%20de%20La%20Tour%20Le%20Jeune%20chanteur%20New%20Walk%20Museum%20and%20Art%20Gallery.jpg?width=420",
    "wikidata": "https://www.wikidata.org/wiki/Q96585417",
    "creation_place": "Lunéville",
    "creation_lat": 48.5936,
    "creation_lon": 6.4936,
    "_source": {
     "source": "Wikidata",
     "url": "https://www.wikidata.org/wiki/Q96585417",
     "retrieved_at": "2026-08-23"
    },
    "_overrides": {
     "creation": {
      "at": "2026-08-23",
      "source": "derived from start date + Caravaggio's documented itinerary (approximate)"
     }
    },
    "museum_id": "leicester-museum-art-gallery",
    "qid": "Q96585417"
   }
  }
 ]
}