{
 "type": "FeatureCollection",
 "_note": "Generated by scripts/build.py from Wikidata. Do not edit by hand — put manual fixes in the painter's overlay (data/overlay/*.json). Each feature carries _source (scraped base or manual addition) and, when edited, _overrides.",
 "features": [
  {
   "type": "Feature",
   "geometry": {
    "type": "Point",
    "coordinates": [
     12.49214,
     41.91421
    ]
   },
   "properties": {
    "painter": "Andrea del Sarto",
    "title": "Madonna and Child with The Infant Saint John the Baptist",
    "year": "1513",
    "city": "Rome",
    "country": "Italy",
    "location": "Galleria Borghese",
    "kind": "museum",
    "attribution": "generally accepted",
    "status": "present",
    "medium": "Oil on panel",
    "dimensions": "80 × 60 cm",
    "genre": "religious art",
    "image": "https://commons.wikimedia.org/wiki/Special:FilePath/Andrea%20del%20Sarto%20-%20Madonna%20col%20Bambino%20e%20san%20Giovannino%20%28cropped%29.jpg?width=420",
    "wikipedia_it": "https://it.wikipedia.org/wiki/Madonna_col_Bambino_e_san_Giovannino_(Andrea_del_Sarto_e_bottega)",
    "wikidata": "https://www.wikidata.org/wiki/Q106522105",
    "creation_place": "Florence",
    "creation_lat": 43.7696,
    "creation_lon": 11.2558,
    "_source": {
     "source": "Wikidata",
     "url": "https://www.wikidata.org/wiki/Q106522105",
     "retrieved_at": "2026-08-20"
    },
    "_overrides": {
     "creation": {
      "at": "2026-08-20",
      "source": "derived from start date + Caravaggio's documented itinerary (approximate)"
     }
    },
    "museum_id": "galleria-borghese",
    "qid": "Q106522105"
   }
  },
  {
   "type": "Feature",
   "geometry": {
    "type": "Point",
    "coordinates": [
     10.395502,
     43.723293
    ]
   },
   "properties": {
    "painter": "Andrea del Sarto",
    "title": "Polyptich of Saint Agnes",
    "city": "Pisa",
    "country": "Italy",
    "location": "Pisa Cathedral",
    "kind": "church",
    "attribution": "generally accepted",
    "status": "present",
    "image": "https://commons.wikimedia.org/wiki/Special:FilePath/Andreadelsarto%20retablesteagnes-pise.jpg?width=420",
    "wikipedia_it": "https://it.wikipedia.org/wiki/Polittico_di_Sant%27Agnese",
    "wikidata": "https://www.wikidata.org/wiki/Q106575251",
    "_source": {
     "source": "Wikidata",
     "url": "https://www.wikidata.org/wiki/Q106575251",
     "retrieved_at": "2026-08-20"
    },
    "museum_id": "pisa-cathedral",
    "qid": "Q106575251"
   }
  },
  {
   "type": "Feature",
   "geometry": {
    "type": "Point",
    "coordinates": [
     12.49214,
     41.91421
    ]
   },
   "properties": {
    "painter": "Andrea del Sarto",
    "title": "Predella of Lamentation with Four Saints",
    "year": "1550",
    "city": "Rome",
    "country": "Italy",
    "location": "Galleria Borghese",
    "kind": "museum",
    "attribution": "generally accepted",
    "status": "present",
    "genre": "religious art",
    "image": "https://commons.wikimedia.org/wiki/Special:FilePath/Andrea%20del%20sarto%2C%20predella%20con%20la%20piet%C3%A0%20e%20santi%2C%201507-09%20ca.%2001.jpg?width=420",
    "wikipedia_it": "https://it.wikipedia.org/wiki/Piet%C3%A0_e_quattro_santi",
    "wikidata": "https://www.wikidata.org/wiki/Q106575258",
    "_source": {
     "source": "Wikidata",
     "url": "https://www.wikidata.org/wiki/Q106575258",
     "retrieved_at": "2026-08-20"
    },
    "museum_id": "galleria-borghese",
    "qid": "Q106575258"
   }
  },
  {
   "type": "Feature",
   "geometry": {
    "type": "Point",
    "coordinates": [
     11.25286,
     43.7702
    ]
   },
   "properties": {
    "painter": "Andrea del Sarto",
    "title": "Icaro",
    "city": "Florence",
    "country": "Italy",
    "location": "Palazzo Davanzati",
    "kind": "museum",
    "attribution": "generally accepted",
    "status": "present",
    "image": "https://commons.wikimedia.org/wiki/Special:FilePath/Andrea%20del%20sarto%20%28attr.%29%2C%20praparazione%20di%20icaro%2C%201506-1508%20ca.%2C%2001.JPG?width=420",
    "wikipedia_it": "https://it.wikipedia.org/wiki/Icaro_(Palazzo_Davanzati)",
    "wikidata": "https://www.wikidata.org/wiki/Q106611055",
    "_source": {
     "source": "Wikidata",
     "url": "https://www.wikidata.org/wiki/Q106611055",
     "retrieved_at": "2026-08-20"
    },
    "museum_id": "palazzo-davanzati",
    "qid": "Q106611055"
   }
  },
  {
   "type": "Feature",
   "geometry": {
    "type": "Point",
    "coordinates": [
     11.25528,
     43.76833
    ]
   },
   "properties": {
    "painter": "Andrea del Sarto",
    "title": "Madonna of the Harpies",
    "year": "1517",
    "city": "Florence",
    "country": "Italy",
    "location": "Uffizi Gallery",
    "kind": "museum",
    "attribution": "generally accepted",
    "status": "present",
    "medium": "Oil on panel",
    "dimensions": "207 × 178 cm",
    "genre": "religious art",
    "image": "https://commons.wikimedia.org/wiki/Special:FilePath/Andrea%20del%20Sarto%20-%20Virgin%20and%20Child%20between%20St%20Francis%20of%20Assisi%20and%20St%20John%20the%20Evangelist%20%28%27Madonna%20of%20the%20Harpies%27%29%2C%201517%2C%201890%20no.1577.jpg?width=420",
    "wikipedia_es": "https://es.wikipedia.org/wiki/Virgen_de_las_arp%C3%ADas",
    "wikipedia_en": "https://en.wikipedia.org/wiki/Madonna_of_the_Harpies",
    "wikipedia_it": "https://it.wikipedia.org/wiki/Madonna_delle_Arpie",
    "wikidata": "https://www.wikidata.org/wiki/Q1235695",
    "creation_place": "Florence",
    "creation_lat": 43.7696,
    "creation_lon": 11.2558,
    "_source": {
     "source": "Wikidata",
     "url": "https://www.wikidata.org/wiki/Q1235695",
     "retrieved_at": "2026-08-20"
    },
    "_overrides": {
     "creation": {
      "at": "2026-08-20",
      "source": "derived from start date + Caravaggio's documented itinerary (approximate)"
     }
    },
    "museum_id": "uffizi-gallery",
    "qid": "Q1235695",
    "wga_url": "https://www.wga.hu/html/a/andrea/sarto/1/harpies1.html"
   }
  },
  {
   "type": "Feature",
   "geometry": {
    "type": "Point",
    "coordinates": [
     11.25,
     43.7652
    ]
   },
   "properties": {
    "painter": "Andrea del Sarto",
    "title": "San Gallo Annunciation",
    "year": "1510",
    "city": "Florence",
    "country": "Italy",
    "location": "Galleria Palatina",
    "kind": "museum",
    "attribution": "generally accepted",
    "status": "present",
    "medium": "Oil on panel",
    "dimensions": "183 × 184 cm",
    "genre": "religious art",
    "image": "https://commons.wikimedia.org/wiki/Special:FilePath/Andrea%20del%20Sarto%20-%20The%20Annunciation%20-%20WGA00359.jpg?width=420",
    "wikipedia_en": "https://en.wikipedia.org/wiki/San_Gallo_Annunciation",
    "wikipedia_it": "https://it.wikipedia.org/wiki/Annunciazione_di_San_Gallo",
    "wikidata": "https://www.wikidata.org/wiki/Q1241129",
    "creation_place": "Florence",
    "creation_lat": 43.7696,
    "creation_lon": 11.2558,
    "_source": {
     "source": "Wikidata",
     "url": "https://www.wikidata.org/wiki/Q1241129",
     "retrieved_at": "2026-08-20"
    },
    "_overrides": {
     "creation": {
      "at": "2026-08-20",
      "source": "derived from start date + Caravaggio's documented itinerary (approximate)"
     }
    },
    "museum_id": "galleria-palatina",
    "qid": "Q1241129",
    "wga_url": "https://www.wga.hu/html/a/andrea/sarto/1/annuncia.html"
   }
  },
  {
   "type": "Feature",
   "geometry": {
    "type": "Point",
    "coordinates": [
     11.28602,
     43.77163
    ]
   },
   "properties": {
    "painter": "Andrea del Sarto",
    "title": "Annunciation from an aedicula in Florence",
    "city": "Florence",
    "country": "Italy",
    "location": "Museum of the Last Supper of Andrea del Sarto",
    "kind": "museum",
    "attribution": "attributed",
    "status": "present",
    "medium": "Fresco painting",
    "wikidata": "https://www.wikidata.org/wiki/Q131450116",
    "_source": {
     "source": "Wikidata",
     "url": "https://www.wikidata.org/wiki/Q131450116",
     "retrieved_at": "2026-08-20"
    },
    "museum_id": "museum-of-the-last-supper-of-andrea-del-sarto",
    "qid": "Q131450116"
   }
  },
  {
   "type": "Feature",
   "geometry": {
    "type": "Point",
    "coordinates": [
     2.3358,
     48.8611
    ]
   },
   "properties": {
    "painter": "Andrea del Sarto",
    "title": "Madonna and Child with St. Elisabeth and the Infant St. John",
    "year": "1512",
    "country": "France",
    "location": "Louvre",
    "kind": "museum",
    "attribution": "attributed",
    "status": "present",
    "medium": "Oil on canvas",
    "dimensions": "106 × 87 cm",
    "genre": "religious art",
    "image": "https://commons.wikimedia.org/wiki/Special:FilePath/Del%20Sarto%20-%20Vierge%20%C3%A0%20l%27enfant%2C%20INV%20714.png?width=420",
    "wikidata": "https://www.wikidata.org/wiki/Q18565899",
    "creation_place": "Florence",
    "creation_lat": 43.7696,
    "creation_lon": 11.2558,
    "_source": {
     "source": "Wikidata",
     "url": "https://www.wikidata.org/wiki/Q18565899",
     "retrieved_at": "2026-08-20"
    },
    "_overrides": {
     "creation": {
      "at": "2026-08-20",
      "source": "derived from start date + Caravaggio's documented itinerary (approximate)"
     }
    },
    "museum_id": "louvre",
    "city": "Paris",
    "qid": "Q18565899"
   }
  },
  {
   "type": "Feature",
   "geometry": {
    "type": "Point",
    "coordinates": [
     11.25,
     43.7652
    ]
   },
   "properties": {
    "painter": "Andrea del Sarto",
    "title": "Annunciation with the saints Michael the Archangel and Godenzo",
    "year": "1515",
    "city": "Florence",
    "country": "Italy",
    "location": "Galleria Palatina",
    "kind": "museum",
    "attribution": "generally accepted",
    "status": "present",
    "medium": "Oil on panel",
    "dimensions": "184 × 175 cm",
    "genre": "religious art",
    "image": "https://commons.wikimedia.org/wiki/Special:FilePath/Andrea%20del%20Sarto%20-%20Annunciazione%20con%20San%20Michele%20Arcangelo%20e%20San%20Godenzo%2C%2000228537.jpg?width=420",
    "wikipedia_it": "https://it.wikipedia.org/wiki/Annunciazione_coi_santi_Michele_Arcangelo_e_Godenzo",
    "wikidata": "https://www.wikidata.org/wiki/Q18613323",
    "creation_place": "Florence",
    "creation_lat": 43.7696,
    "creation_lon": 11.2558,
    "_source": {
     "source": "Wikidata",
     "url": "https://www.wikidata.org/wiki/Q18613323",
     "retrieved_at": "2026-08-20"
    },
    "_overrides": {
     "creation": {
      "at": "2026-08-20",
      "source": "derived from start date + Caravaggio's documented itinerary (approximate)"
     }
    },
    "museum_id": "galleria-palatina",
    "qid": "Q18613323"
   }
  },
  {
   "type": "Feature",
   "geometry": {
    "type": "Point",
    "coordinates": [
     -73.9631,
     40.7794
    ]
   },
   "properties": {
    "painter": "Andrea del Sarto",
    "title": "Portrait of a Man",
    "year": "1550",
    "city": "New York",
    "country": "United States",
    "location": "Metropolitan Museum of Art",
    "kind": "museum",
    "attribution": "generally accepted",
    "status": "present",
    "medium": "Oil on canvas",
    "dimensions": "66.7 × 50.5 cm",
    "genre": "portrait",
    "image": "https://commons.wikimedia.org/wiki/Special:FilePath/Andrea%20del%20Sarto%20-%20Ritratto%20di%20un%20uomo%20%28MET%20Museum%20of%20Art%2C%20NYC%29.jpg?width=420",
    "wikipedia_it": "https://it.wikipedia.org/wiki/Ritratto_d%27uomo_(Andrea_del_Sarto)",
    "wikidata": "https://www.wikidata.org/wiki/Q19912405",
    "_source": {
     "source": "Wikidata",
     "url": "https://www.wikidata.org/wiki/Q19912405",
     "retrieved_at": "2026-08-20"
    },
    "museum_id": "metropolitan-museum-of-art",
    "qid": "Q19912405"
   }
  },
  {
   "type": "Feature",
   "geometry": {
    "type": "Point",
    "coordinates": [
     -77.02,
     38.8914
    ]
   },
   "properties": {
    "painter": "Andrea del Sarto",
    "title": "Charity",
    "year": "1515",
    "city": "Washington",
    "country": "United States",
    "location": "National Gallery of Art",
    "kind": "museum",
    "attribution": "attributed",
    "status": "present",
    "medium": "Oil on panel",
    "dimensions": "119.5 × 92.5 cm",
    "image": "https://commons.wikimedia.org/wiki/Special:FilePath/Andrea%20del%20Sarto%20-%20Carit%C3%A0%20%28NGA%29.jpg?width=420",
    "wikidata": "https://www.wikidata.org/wiki/Q20175980",
    "creation_place": "Florence",
    "creation_lat": 43.7696,
    "creation_lon": 11.2558,
    "_source": {
     "source": "Wikidata",
     "url": "https://www.wikidata.org/wiki/Q20175980",
     "retrieved_at": "2026-08-20"
    },
    "_overrides": {
     "creation": {
      "at": "2026-08-20",
      "source": "derived from start date + Caravaggio's documented itinerary (approximate)"
     }
    },
    "museum_id": "national-gallery-of-art",
    "qid": "Q20175980"
   }
  },
  {
   "type": "Feature",
   "geometry": {
    "type": "Point",
    "coordinates": [
     -0.1283,
     51.5089
    ]
   },
   "properties": {
    "painter": "Andrea del Sarto",
    "title": "The Madonna and Child, Saint Elizabeth and the Baptist",
    "year": "1513",
    "city": "London",
    "country": "United Kingdom",
    "location": "National Gallery",
    "kind": "museum",
    "attribution": "generally accepted",
    "status": "present",
    "medium": "Oil on panel",
    "dimensions": "106 × 81.3 cm",
    "genre": "religious art",
    "image": "https://commons.wikimedia.org/wiki/Special:FilePath/Andrea%20del%20Sarto%2C%20The%20Madonna%20and%20Child%2C%20Saint%20Elizabeth%20and%20the%20Baptist.jpg?width=420",
    "wikipedia_it": "https://it.wikipedia.org/wiki/Madonna_col_Bambino,_sant%27Elisabetta_e_il_Battista",
    "wikidata": "https://www.wikidata.org/wiki/Q21121918",
    "creation_place": "Florence",
    "creation_lat": 43.7696,
    "creation_lon": 11.2558,
    "_source": {
     "source": "Wikidata",
     "url": "https://www.wikidata.org/wiki/Q21121918",
     "retrieved_at": "2026-08-20"
    },
    "_overrides": {
     "creation": {
      "at": "2026-08-20",
      "source": "derived from start date + Caravaggio's documented itinerary (approximate)"
     }
    },
    "museum_id": "national-gallery",
    "qid": "Q21121918"
   }
  },
  {
   "type": "Feature",
   "geometry": {
    "type": "Point",
    "coordinates": [
     -0.1283,
     51.5089
    ]
   },
   "properties": {
    "painter": "Andrea del Sarto",
    "title": "Portrait of a Young Man",
    "year": "1517",
    "city": "London",
    "country": "United Kingdom",
    "location": "National Gallery",
    "kind": "museum",
    "attribution": "generally accepted",
    "status": "present",
    "medium": "Oil on canvas",
    "dimensions": "72 × 57 cm",
    "genre": "portrait",
    "image": "https://commons.wikimedia.org/wiki/Special:FilePath/Portrait%20of%20a%20Young%20Man%2C%20Andrea%20del%20Sarto.jpg?width=420",
    "wikipedia_es": "https://es.wikipedia.org/wiki/Retrato_de_hombre_joven_(Andrea_del_Sarto)",
    "wikipedia_it": "https://it.wikipedia.org/wiki/Ritratto_di_giovane_(del_Sarto)",
    "wikidata": "https://www.wikidata.org/wiki/Q21121948",
    "creation_place": "Florence",
    "creation_lat": 43.7696,
    "creation_lon": 11.2558,
    "_source": {
     "source": "Wikidata",
     "url": "https://www.wikidata.org/wiki/Q21121948",
     "retrieved_at": "2026-08-20"
    },
    "_overrides": {
     "creation": {
      "at": "2026-08-20",
      "source": "derived from start date + Caravaggio's documented itinerary (approximate)"
     }
    },
    "museum_id": "national-gallery",
    "qid": "Q21121948",
    "wga_url": "https://www.wga.hu/html/a/andrea/sarto/1/youngman.html"
   }
  },
  {
   "type": "Feature",
   "geometry": {
    "type": "Point",
    "coordinates": [
     30.3136,
     59.9406
    ]
   },
   "properties": {
    "painter": "Andrea del Sarto",
    "title": "Holy Family with St John the Baptist",
    "year": "1529",
    "city": "Saint Petersburg",
    "country": "Russia",
    "location": "Hermitage Museum",
    "kind": "museum",
    "attribution": "attributed",
    "status": "present",
    "medium": "Oil on panel",
    "dimensions": "129 × 100 cm",
    "genre": "religious art",
    "image": "https://commons.wikimedia.org/wiki/Special:FilePath/Andrea%20del%20sarto%2C%20sacra%20famiglia%20con%20san%20giovannino%2001.JPG?width=420",
    "wikidata": "https://www.wikidata.org/wiki/Q21727761",
    "creation_place": "Florence",
    "creation_lat": 43.7696,
    "creation_lon": 11.2558,
    "_source": {
     "source": "Wikidata",
     "url": "https://www.wikidata.org/wiki/Q21727761",
     "retrieved_at": "2026-08-20"
    },
    "_overrides": {
     "creation": {
      "at": "2026-08-20",
      "source": "derived from start date + Caravaggio's documented itinerary (approximate)"
     }
    },
    "museum_id": "hermitage-museum",
    "qid": "Q21727761"
   }
  },
  {
   "type": "Feature",
   "geometry": {
    "type": "Point",
    "coordinates": [
     -3.6922,
     40.4139
    ]
   },
   "properties": {
    "painter": "Andrea del Sarto",
    "title": "The Sacrifice of Isaac",
    "year": "1528",
    "city": "Madrid",
    "country": "Spain",
    "location": "Museo del Prado",
    "kind": "museum",
    "attribution": "attributed",
    "status": "present",
    "medium": "Oil on panel",
    "dimensions": "98 × 69 cm",
    "genre": "religious art",
    "image": "https://commons.wikimedia.org/wiki/Special:FilePath/Andrea%20del%20Sarto%20-%20Il%20sacrificio%20di%20Isacco%20%28Prado%29.jpg?width=420",
    "wikidata": "https://www.wikidata.org/wiki/Q27697635",
    "creation_place": "Florence",
    "creation_lat": 43.7696,
    "creation_lon": 11.2558,
    "_source": {
     "source": "Wikidata",
     "url": "https://www.wikidata.org/wiki/Q27697635",
     "retrieved_at": "2026-08-20"
    },
    "_overrides": {
     "creation": {
      "at": "2026-08-20",
      "source": "derived from start date + Caravaggio's documented itinerary (approximate)"
     }
    },
    "museum_id": "museo-del-prado",
    "qid": "Q27697635"
   }
  },
  {
   "type": "Feature",
   "geometry": {
    "type": "Point",
    "coordinates": [
     -3.19556,
     55.95083
    ]
   },
   "properties": {
    "painter": "Andrea del Sarto",
    "title": "Domenico di Jacopo di Matteo, called 'Becuccio Bicchieraio'",
    "year": "1529",
    "city": "Edinburgh",
    "country": "United Kingdom",
    "location": "Scottish National Gallery",
    "kind": "museum",
    "attribution": "generally accepted",
    "status": "present",
    "medium": "Oil on panel",
    "genre": "portrait",
    "image": "https://commons.wikimedia.org/wiki/Special:FilePath/Andrea%20del%20Sarto%20-%20Domenico%20di%20Jacopo%20di%20Matteo%2C%20called%20%27Becuccio%20Bicchieraio%27%20-%20NG%202297%20-%20National%20Galleries%20of%20Scotland.jpg?width=420",
    "wikipedia_es": "https://es.wikipedia.org/wiki/Retrato_de_Becuccio_Bicchieraio_(Andrea_del_Sarto,_Edimburgo)",
    "wikipedia_it": "https://it.wikipedia.org/wiki/Ritratto_di_Becuccio_Bicchieraio_(Andrea_del_Sarto_Edimburgo)",
    "wikidata": "https://www.wikidata.org/wiki/Q27974811",
    "creation_place": "Florence",
    "creation_lat": 43.7696,
    "creation_lon": 11.2558,
    "_source": {
     "source": "Wikidata",
     "url": "https://www.wikidata.org/wiki/Q27974811",
     "retrieved_at": "2026-08-20"
    },
    "_overrides": {
     "creation": {
      "at": "2026-08-20",
      "source": "derived from start date + Caravaggio's documented itinerary (approximate)"
     }
    },
    "museum_id": "scottish-national-gallery",
    "qid": "Q27974811"
   }
  },
  {
   "type": "Feature",
   "geometry": {
    "type": "Point",
    "coordinates": [
     11.25528,
     43.76833
    ]
   },
   "properties": {
    "painter": "Andrea del Sarto",
    "title": "Archangel Raphael with Tobias, St. Laurentius and the donor Leonardo di Lorenzo Morelli",
    "year": "1512",
    "city": "Florence",
    "country": "Italy",
    "location": "Uffizi Gallery",
    "kind": "museum",
    "attribution": "generally accepted",
    "status": "present",
    "medium": "Oil on panel",
    "dimensions": "1780 × 1530 cm",
    "genre": "religious art",
    "image": "https://commons.wikimedia.org/wiki/Special:FilePath/Andrea%20del%20Sarto%20-%20The%20Archangel%20Raphael%20with%20Tobias%2C%20St.%20Leonard%20and%20the%20Donor%2C%20Leonardo%20di%20Lorenzo%20Morelli%20-%20Google%20Art%20Project.jpg?width=420",
    "wikipedia_it": "https://it.wikipedia.org/wiki/Arcangelo_Raffaele_con_Tobia,_san_Leonardo_e_il_donatore_Leonardo_di_Lorenzo_Morelli",
    "wikidata": "https://www.wikidata.org/wiki/Q27978347",
    "creation_place": "Florence",
    "creation_lat": 43.7696,
    "creation_lon": 11.2558,
    "_source": {
     "source": "Wikidata",
     "url": "https://www.wikidata.org/wiki/Q27978347",
     "retrieved_at": "2026-08-20"
    },
    "_overrides": {
     "creation": {
      "at": "2026-08-20",
      "source": "derived from start date + Caravaggio's documented itinerary (approximate)"
     }
    },
    "museum_id": "uffizi-gallery",
    "qid": "Q27978347",
    "wga_url": "https://www.wga.hu/html/a/andrea/sarto/1/tobias.html"
   }
  },
  {
   "type": "Feature",
   "geometry": {
    "type": "Point",
    "coordinates": [
     16.3616,
     48.20388
    ]
   },
   "properties": {
    "painter": "Andrea del Sarto",
    "title": "Lamentation of Christ",
    "year": "1519",
    "city": "Vienna",
    "country": "Austria",
    "location": "Kunsthistorisches Museum",
    "kind": "museum",
    "attribution": "generally accepted",
    "status": "present",
    "dimensions": "99 × 120 cm",
    "genre": "religious art",
    "image": "https://commons.wikimedia.org/wiki/Special:FilePath/Andrea%20del%20Sarto%20-%20Beweinung%20Christi%2C%20um%201519-1520.jpg?width=420",
    "wikipedia_it": "https://it.wikipedia.org/wiki/Compianto_sul_Cristo_morto_(Andrea_del_Sarto)",
    "wikidata": "https://www.wikidata.org/wiki/Q27978350",
    "creation_place": "Florence",
    "creation_lat": 43.7696,
    "creation_lon": 11.2558,
    "_source": {
     "source": "Wikidata",
     "url": "https://www.wikidata.org/wiki/Q27978350",
     "retrieved_at": "2026-08-20"
    },
    "_overrides": {
     "creation": {
      "at": "2026-08-20",
      "source": "derived from start date + Caravaggio's documented itinerary (approximate)"
     }
    },
    "museum_id": "kunsthistorisches-museum",
    "qid": "Q27978350",
    "wga_url": "https://www.wga.hu/html/a/andrea/sarto/2/lamentat.html"
   }
  },
  {
   "type": "Feature",
   "geometry": {
    "type": "Point",
    "coordinates": [
     -0.60444,
     51.48389
    ]
   },
   "properties": {
    "painter": "Andrea del Sarto",
    "title": "The Virgin and Child",
    "year": "1529",
    "city": "Windsor and Maidenhead",
    "country": "United Kingdom",
    "location": "Windsor Castle",
    "kind": "museum",
    "attribution": "generally accepted",
    "status": "present",
    "dimensions": "56.4 × 42.7 cm",
    "genre": "religious art",
    "image": "https://commons.wikimedia.org/wiki/Special:FilePath/Andrea%20del%20Sarto%20%28Florence%201486-Florence%201530%29%20-%20The%20Virgin%20and%20Child%20-%20RCIN%20405769%20-%20Royal%20Collection.jpg?width=420",
    "wikipedia_it": "https://it.wikipedia.org/wiki/Madonna_col_Bambino_(Andrea_del_Sarto)",
    "wikidata": "https://www.wikidata.org/wiki/Q28028756",
    "creation_place": "Florence",
    "creation_lat": 43.7696,
    "creation_lon": 11.2558,
    "_source": {
     "source": "Wikidata",
     "url": "https://www.wikidata.org/wiki/Q28028756",
     "retrieved_at": "2026-08-20"
    },
    "_overrides": {
     "creation": {
      "at": "2026-08-20",
      "source": "derived from start date + Caravaggio's documented itinerary (approximate)"
     }
    },
    "museum_id": "windsor-castle",
    "qid": "Q28028756"
   }
  },
  {
   "type": "Feature",
   "geometry": {
    "type": "Point",
    "coordinates": [
     -0.142,
     51.501
    ]
   },
   "properties": {
    "painter": "Andrea del Sarto",
    "title": "Portrait of a woman in yellow",
    "year": "1529",
    "city": "London",
    "country": "United Kingdom",
    "location": "Buckingham Palace",
    "kind": "museum",
    "attribution": "generally accepted",
    "status": "present",
    "medium": "Oil on canvas",
    "dimensions": "64.3 × 50.1 cm",
    "genre": "portrait",
    "image": "https://commons.wikimedia.org/wiki/Special:FilePath/Andrea%20del%20Sarto%20%28Florence%201486-Florence%201530%29%20-%20Portrait%20of%20a%20Woman%20in%20Yellow%20-%20RCIN%20404427%20-%20Royal%20Collection.jpg?width=420",
    "wikipedia_es": "https://es.wikipedia.org/wiki/Retrato_de_mujer_de_amarillo",
    "wikipedia_it": "https://it.wikipedia.org/wiki/Ritratto_di_donna_in_giallo",
    "wikidata": "https://www.wikidata.org/wiki/Q28035523",
    "creation_place": "Florence",
    "creation_lat": 43.7696,
    "creation_lon": 11.2558,
    "_source": {
     "source": "Wikidata",
     "url": "https://www.wikidata.org/wiki/Q28035523",
     "retrieved_at": "2026-08-20"
    },
    "_overrides": {
     "creation": {
      "at": "2026-08-20",
      "source": "derived from start date + Caravaggio's documented itinerary (approximate)"
     }
    },
    "museum_id": "buckingham-palace",
    "qid": "Q28035523"
   }
  },
  {
   "type": "Feature",
   "geometry": {
    "type": "Point",
    "coordinates": [
     11.25,
     43.7652
    ]
   },
   "properties": {
    "painter": "Andrea del Sarto",
    "title": "Della Scala Annunciation",
    "year": "1528",
    "city": "Florence",
    "country": "Italy",
    "location": "Galleria Palatina",
    "kind": "museum",
    "attribution": "generally accepted",
    "status": "present",
    "medium": "Oil on panel",
    "dimensions": "96 × 189 cm",
    "genre": "religious art",
    "image": "https://commons.wikimedia.org/wiki/Special:FilePath/Annunciation%20-%20Sarto.jpg?width=420",
    "wikipedia_es": "https://es.wikipedia.org/wiki/Anunciaci%C3%B3n_Della_Scala",
    "wikipedia_it": "https://it.wikipedia.org/wiki/Annunciazione_Della_Scala",
    "wikidata": "https://www.wikidata.org/wiki/Q3618188",
    "creation_place": "Florence",
    "creation_lat": 43.7696,
    "creation_lon": 11.2558,
    "_source": {
     "source": "Wikidata",
     "url": "https://www.wikidata.org/wiki/Q3618188",
     "retrieved_at": "2026-08-20"
    },
    "_overrides": {
     "creation": {
      "at": "2026-08-20",
      "source": "derived from start date + Caravaggio's documented itinerary (approximate)"
     }
    },
    "museum_id": "galleria-palatina",
    "qid": "Q3618188",
    "wga_url": "https://www.wga.hu/html/a/andrea/sarto/3/the_annx.html"
   }
  },
  {
   "type": "Feature",
   "geometry": {
    "type": "Point",
    "coordinates": [
     11.25,
     43.7652
    ]
   },
   "properties": {
    "painter": "Andrea del Sarto",
    "title": "Panciatichi Assumption",
    "year": "1523",
    "city": "Florence",
    "country": "Italy",
    "location": "Galleria Palatina",
    "kind": "museum",
    "attribution": "generally accepted",
    "status": "present",
    "medium": "Fiberboard, oil paint",
    "dimensions": "362 × 209 cm",
    "genre": "religious art",
    "image": "https://commons.wikimedia.org/wiki/Special:FilePath/Andrea%20del%20Sarto%20-%20Assumption%20of%20the%20Virgin%20-%20WGA0402.jpg?width=420",
    "wikipedia_es": "https://es.wikipedia.org/wiki/La_asunci%C3%B3n_de_la_Virgen_(Panciatichi,_Andrea_del_Sarto)",
    "wikipedia_en": "https://en.wikipedia.org/wiki/Panciatichi_Assumption",
    "wikipedia_it": "https://it.wikipedia.org/wiki/Assunta_Panciatichi",
    "wikidata": "https://www.wikidata.org/wiki/Q3627381",
    "creation_place": "Florence",
    "creation_lat": 43.7696,
    "creation_lon": 11.2558,
    "_source": {
     "source": "Wikidata",
     "url": "https://www.wikidata.org/wiki/Q3627381",
     "retrieved_at": "2026-08-20"
    },
    "_overrides": {
     "creation": {
      "at": "2026-08-20",
      "source": "derived from start date + Caravaggio's documented itinerary (approximate)"
     }
    },
    "museum_id": "galleria-palatina",
    "qid": "Q3627381",
    "wga_url": "https://www.wga.hu/html/a/andrea/sarto/3/assumpti.html"
   }
  },
  {
   "type": "Feature",
   "geometry": {
    "type": "Point",
    "coordinates": [
     11.25528,
     43.76833
    ]
   },
   "properties": {
    "painter": "Andrea del Sarto",
    "title": "Self-portrait",
    "year": "1528",
    "city": "Florence",
    "country": "Italy",
    "location": "Uffizi Gallery",
    "kind": "museum",
    "attribution": "generally accepted",
    "status": "present",
    "medium": "Fresco, terracotta",
    "dimensions": "51.5 × 37.5 cm",
    "genre": "self-portrait",
    "image": "https://commons.wikimedia.org/wiki/Special:FilePath/Sarto%2C%20Andrea%20del%20-%20Self-portrait%20-%20Uffizi.jpg?width=420",
    "wikipedia_es": "https://es.wikipedia.org/wiki/Autorretrato_(Andrea_del_Sarto)",
    "wikipedia_it": "https://it.wikipedia.org/wiki/Autoritratto_(Andrea_del_Sarto)",
    "wikidata": "https://www.wikidata.org/wiki/Q3630715",
    "creation_place": "Florence",
    "creation_lat": 43.7696,
    "creation_lon": 11.2558,
    "_source": {
     "source": "Wikidata",
     "url": "https://www.wikidata.org/wiki/Q3630715",
     "retrieved_at": "2026-08-20"
    },
    "_overrides": {
     "creation": {
      "at": "2026-08-20",
      "source": "derived from start date + Caravaggio's documented itinerary (approximate)"
     }
    },
    "museum_id": "uffizi-gallery",
    "qid": "Q3630715",
    "wga_url": "https://www.wga.hu/html/a/andrea/sarto/3/selfport.html"
   }
  },
  {
   "type": "Feature",
   "geometry": {
    "type": "Point",
    "coordinates": [
     2.3358,
     48.8611
    ]
   },
   "properties": {
    "painter": "Andrea del Sarto",
    "title": "Charity",
    "year": "1518",
    "country": "France",
    "location": "Louvre",
    "kind": "museum",
    "attribution": "generally accepted",
    "status": "present",
    "medium": "Oil on panel",
    "dimensions": "185 × 137 cm",
    "genre": "allegory",
    "image": "https://commons.wikimedia.org/wiki/Special:FilePath/La%20Charit%C3%A9%20-%20Andrea%20del%20Sarto%20-%20Mus%C3%A9e%20du%20Louvre%20Peintures%20INV%20712.jpg?width=420",
    "wikipedia_it": "https://it.wikipedia.org/wiki/Carit%C3%A0_(Andrea_del_Sarto)",
    "wikidata": "https://www.wikidata.org/wiki/Q3658719",
    "creation_place": "Florence",
    "creation_lat": 43.7696,
    "creation_lon": 11.2558,
    "_source": {
     "source": "Wikidata",
     "url": "https://www.wikidata.org/wiki/Q3658719",
     "retrieved_at": "2026-08-20"
    },
    "_overrides": {
     "creation": {
      "at": "2026-08-20",
      "source": "derived from start date + Caravaggio's documented itinerary (approximate)"
     }
    },
    "museum_id": "louvre",
    "city": "Paris",
    "qid": "Q3658719",
    "wga_url": "https://www.wga.hu/html/a/andrea/sarto/1/charity.html"
   }
  },
  {
   "type": "Feature",
   "geometry": {
    "type": "Point",
    "coordinates": [
     11.25528,
     43.76833
    ]
   },
   "properties": {
    "painter": "Andrea del Sarto",
    "title": "Lady with a book of Petrarch's rhyme",
    "year": "1528",
    "city": "Florence",
    "country": "Italy",
    "location": "Uffizi Gallery",
    "kind": "museum",
    "attribution": "generally accepted",
    "status": "present",
    "medium": "Oil on panel",
    "dimensions": "87 × 69 cm",
    "genre": "portrait",
    "image": "https://commons.wikimedia.org/wiki/Special:FilePath/Andrea%20del%20Sarto%20-%20Dama%20col%20-%20Google%20Art%20Project.jpg?width=420",
    "wikipedia_es": "https://es.wikipedia.org/wiki/Dama_con_petrarquino",
    "wikipedia_it": "https://it.wikipedia.org/wiki/Dama_col_Petrarchino",
    "wikidata": "https://www.wikidata.org/wiki/Q3701197",
    "creation_place": "Florence",
    "creation_lat": 43.7696,
    "creation_lon": 11.2558,
    "_source": {
     "source": "Wikidata",
     "url": "https://www.wikidata.org/wiki/Q3701197",
     "retrieved_at": "2026-08-20"
    },
    "_overrides": {
     "creation": {
      "at": "2026-08-20",
      "source": "derived from start date + Caravaggio's documented itinerary (approximate)"
     }
    },
    "museum_id": "uffizi-gallery",
    "qid": "Q3701197",
    "wga_url": "https://www.wga.hu/html/a/andrea/sarto/1/port_lad.html"
   }
  },
  {
   "type": "Feature",
   "geometry": {
    "type": "Point",
    "coordinates": [
     11.25528,
     43.76833
    ]
   },
   "properties": {
    "painter": "Andrea del Sarto",
    "title": "Portrait of a Woman with a Basket of Spindles",
    "year": "1514",
    "city": "Florence",
    "country": "Italy",
    "location": "Uffizi Gallery",
    "kind": "museum",
    "attribution": "generally accepted",
    "status": "present",
    "medium": "Oil on panel",
    "dimensions": "76 × 54 cm",
    "genre": "portrait",
    "image": "https://commons.wikimedia.org/wiki/Special:FilePath/Andrea%20del%20Sarto%20-%20Portrait%20of%20a%20Woman%20with%20a%20Basket%20of%20Spindles%20-%20WGA0377.jpg?width=420",
    "wikipedia_en": "https://en.wikipedia.org/wiki/Woman_with_a_Basket_of_Spindles",
    "wikipedia_it": "https://it.wikipedia.org/wiki/Dama_col_cestello_di_fusi",
    "wikidata": "https://www.wikidata.org/wiki/Q3701199",
    "creation_place": "Florence",
    "creation_lat": 43.7696,
    "creation_lon": 11.2558,
    "_source": {
     "source": "Wikidata",
     "url": "https://www.wikidata.org/wiki/Q3701199",
     "retrieved_at": "2026-08-20"
    },
    "_overrides": {
     "creation": {
      "at": "2026-08-20",
      "source": "derived from start date + Caravaggio's documented itinerary (approximate)"
     }
    },
    "museum_id": "uffizi-gallery",
    "qid": "Q3701199",
    "wga_url": "https://www.wga.hu/html/a/andrea/sarto/1/port_wom.html"
   }
  },
  {
   "type": "Feature",
   "geometry": {
    "type": "Point",
    "coordinates": [
     11.2611,
     43.7768
    ]
   },
   "properties": {
    "painter": "Andrea del Sarto",
    "title": "Miraculous Cure by Relics of Filippo Benizzi",
    "year": "1510",
    "country": "Italy",
    "location": "chiostrino dei Voti",
    "kind": "museum",
    "attribution": "generally accepted",
    "status": "present",
    "medium": "Fresco",
    "dimensions": "386 × 380 cm",
    "genre": "religious art",
    "image": "https://commons.wikimedia.org/wiki/Special:FilePath/Andrea%20del%20Sarto%20-%20Miraculous%20Cure%20by%20Relics%20of%20Filippo%20Benizzi2%20-%20WGA00362.jpg?width=420",
    "wikipedia_it": "https://it.wikipedia.org/wiki/Devozione_dei_fiorentini_alle_reliquie_di_san_Filippo",
    "wikidata": "https://www.wikidata.org/wiki/Q3706331",
    "creation_place": "Florence",
    "creation_lat": 43.7696,
    "creation_lon": 11.2558,
    "_source": {
     "source": "Wikidata",
     "url": "https://www.wikidata.org/wiki/Q3706331",
     "retrieved_at": "2026-08-20"
    },
    "_overrides": {
     "creation": {
      "at": "2026-08-20",
      "source": "derived from start date + Caravaggio's documented itinerary (approximate)"
     }
    },
    "museum_id": "chiostrino-dei-voti",
    "qid": "Q3706331",
    "wga_url": "https://www.wga.hu/html/a/andrea/sarto/1/b_miracu.html"
   }
  },
  {
   "type": "Feature",
   "geometry": {
    "type": "Point",
    "coordinates": [
     11.25,
     43.7652
    ]
   },
   "properties": {
    "painter": "Andrea del Sarto",
    "title": "The Disputation on the Trinity",
    "year": "1517",
    "city": "Florence",
    "country": "Italy",
    "location": "Galleria Palatina",
    "kind": "museum",
    "attribution": "generally accepted",
    "status": "present",
    "medium": "Oil on panel",
    "dimensions": "232 × 193 cm",
    "genre": "religious art",
    "image": "https://commons.wikimedia.org/wiki/Special:FilePath/Andrea%20del%20Sarto%20002.jpg?width=420",
    "wikipedia_es": "https://es.wikipedia.org/wiki/Disputa_sobre_la_Trinidad",
    "wikipedia_en": "https://en.wikipedia.org/wiki/The_Disputation_on_the_Trinity",
    "wikipedia_it": "https://it.wikipedia.org/wiki/Disputa_sulla_Trinit%C3%A0",
    "wikidata": "https://www.wikidata.org/wiki/Q3710280",
    "creation_place": "Florence",
    "creation_lat": 43.7696,
    "creation_lon": 11.2558,
    "_source": {
     "source": "Wikidata",
     "url": "https://www.wikidata.org/wiki/Q3710280",
     "retrieved_at": "2026-08-20"
    },
    "_overrides": {
     "creation": {
      "at": "2026-08-20",
      "source": "derived from start date + Caravaggio's documented itinerary (approximate)"
     }
    },
    "museum_id": "galleria-palatina",
    "qid": "Q3710280",
    "wga_url": "https://www.wga.hu/html/a/andrea/sarto/2/trinity.html"
   }
  },
  {
   "type": "Feature",
   "geometry": {
    "type": "Point",
    "coordinates": [
     11.25528,
     43.76833
    ]
   },
   "properties": {
    "painter": "Andrea del Sarto",
    "title": "Vallombrosa Altarpiece",
    "year": "1528",
    "city": "Florence",
    "country": "Italy",
    "location": "Uffizi Gallery",
    "kind": "museum",
    "attribution": "generally accepted",
    "status": "present",
    "medium": "Fresco painting",
    "genre": "religious art",
    "image": "https://commons.wikimedia.org/wiki/Special:FilePath/Andrea%20del%20sarto%2C%20dossale%20dei%20quattro%20santi%20o%20pala%20di%20vallombrosa.jpg?width=420",
    "wikipedia_it": "https://it.wikipedia.org/wiki/Dossale_dei_quattro_santi",
    "wikidata": "https://www.wikidata.org/wiki/Q3714445",
    "creation_place": "Florence",
    "creation_lat": 43.7696,
    "creation_lon": 11.2558,
    "_source": {
     "source": "Wikidata",
     "url": "https://www.wikidata.org/wiki/Q3714445",
     "retrieved_at": "2026-08-20"
    },
    "_overrides": {
     "creation": {
      "at": "2026-08-20",
      "source": "derived from start date + Caravaggio's documented itinerary (approximate)"
     }
    },
    "museum_id": "uffizi-gallery",
    "qid": "Q3714445",
    "wga_url": "https://www.wga.hu/html/a/andrea/sarto/3/vallomb2.html"
   }
  },
  {
   "type": "Feature",
   "geometry": {
    "type": "Point",
    "coordinates": [
     11.25528,
     43.76833
    ]
   },
   "properties": {
    "painter": "Andrea del Sarto",
    "title": "Joseph interpreting Pharaoh's dresm",
    "year": "1515",
    "city": "Florence",
    "country": "Italy",
    "location": "Uffizi Gallery",
    "kind": "museum",
    "attribution": "generally accepted",
    "status": "present",
    "medium": "Oil on panel",
    "dimensions": "98 × 135 cm",
    "genre": "religious art",
    "image": "https://commons.wikimedia.org/wiki/Special:FilePath/Andrea%20del%20Sarto%20-%20Stories%20of%20Joseph%20-%20WGA00387.jpg?width=420",
    "wikipedia_it": "https://it.wikipedia.org/wiki/Giuseppe_interpreta_i_sogni_del_faraone",
    "wikidata": "https://www.wikidata.org/wiki/Q3771677",
    "creation_place": "Florence",
    "creation_lat": 43.7696,
    "creation_lon": 11.2558,
    "_source": {
     "source": "Wikidata",
     "url": "https://www.wikidata.org/wiki/Q3771677",
     "retrieved_at": "2026-08-20"
    },
    "_overrides": {
     "creation": {
      "at": "2026-08-20",
      "source": "derived from start date + Caravaggio's documented itinerary (approximate)"
     }
    },
    "museum_id": "uffizi-gallery",
    "qid": "Q3771677",
    "wga_url": "https://www.wga.hu/html/a/andrea/sarto/2/joseph_2.html"
   }
  },
  {
   "type": "Feature",
   "geometry": {
    "type": "Point",
    "coordinates": [
     11.2611,
     43.7768
    ]
   },
   "properties": {
    "painter": "Andrea del Sarto",
    "title": "Liberation of the Woman possessed by the Devil",
    "year": "1509",
    "country": "Italy",
    "location": "chiostrino dei Voti",
    "kind": "museum",
    "attribution": "generally accepted",
    "status": "present",
    "medium": "Fresco",
    "dimensions": "364 × 300 cm",
    "genre": "religious art",
    "image": "https://commons.wikimedia.org/wiki/Special:FilePath/Andrea%20del%20Sarto%2C%20liberazione%20di%20un%27indemoniata%2C%201509-1510%2C%2001.jpg?width=420",
    "wikipedia_it": "https://it.wikipedia.org/wiki/Liberazione_di_un%27indemoniata",
    "wikidata": "https://www.wikidata.org/wiki/Q3831651",
    "creation_place": "Florence",
    "creation_lat": 43.7696,
    "creation_lon": 11.2558,
    "_source": {
     "source": "Wikidata",
     "url": "https://www.wikidata.org/wiki/Q3831651",
     "retrieved_at": "2026-08-20"
    },
    "_overrides": {
     "creation": {
      "at": "2026-08-20",
      "source": "derived from start date + Caravaggio's documented itinerary (approximate)"
     }
    },
    "museum_id": "chiostrino-dei-voti",
    "qid": "Q3831651"
   }
  },
  {
   "type": "Feature",
   "geometry": {
    "type": "Point",
    "coordinates": [
     2.3358,
     48.8611
    ]
   },
   "properties": {
    "painter": "Andrea del Sarto",
    "title": "Madonna and Child with St Elisabeth, the Infant St John, and Two Angels",
    "year": "1515",
    "country": "France",
    "location": "Louvre",
    "kind": "museum",
    "attribution": "generally accepted",
    "status": "present",
    "medium": "Oil on panel",
    "dimensions": "141.2 × 108 cm",
    "genre": "religious art",
    "image": "https://commons.wikimedia.org/wiki/Special:FilePath/La%20Sainte%20Famille%20aux%20Anges%20-%20Andrea%20del%20Sarto%20-%20Mus%C3%A9e%20du%20Louvre%20Peintures%20INV%20713.jpg?width=420",
    "wikipedia_it": "https://it.wikipedia.org/wiki/Madonna_degli_Angeli",
    "wikidata": "https://www.wikidata.org/wiki/Q3842600",
    "creation_place": "Florence",
    "creation_lat": 43.7696,
    "creation_lon": 11.2558,
    "_source": {
     "source": "Wikidata",
     "url": "https://www.wikidata.org/wiki/Q3842600",
     "retrieved_at": "2026-08-20"
    },
    "_overrides": {
     "creation": {
      "at": "2026-08-20",
      "source": "derived from start date + Caravaggio's documented itinerary (approximate)"
     }
    },
    "museum_id": "louvre",
    "city": "Paris",
    "qid": "Q3842600",
    "wga_url": "https://www.wga.hu/html/a/andrea/sarto/1/mad_chil.html"
   }
  },
  {
   "type": "Feature",
   "geometry": {
    "type": "Point",
    "coordinates": [
     -3.6922,
     40.4139
    ]
   },
   "properties": {
    "painter": "Andrea del Sarto",
    "title": "Virgin of the Stairs",
    "year": "1522",
    "city": "Madrid",
    "country": "Spain",
    "location": "Museo del Prado",
    "kind": "museum",
    "attribution": "generally accepted",
    "status": "present",
    "medium": "Oil on panel",
    "dimensions": "177 × 135 cm",
    "genre": "religious art",
    "image": "https://commons.wikimedia.org/wiki/Special:FilePath/Madonna%20della%20Scala%20%28Andrea%20del%20Sarto%29.jpg?width=420",
    "wikipedia_es": "https://es.wikipedia.org/wiki/Virgen_de_la_escalera_(Andrea_del_Sarto)",
    "wikipedia_it": "https://it.wikipedia.org/wiki/Madonna_della_Scala_(Andrea_del_Sarto)",
    "wikidata": "https://www.wikidata.org/wiki/Q3842686",
    "creation_place": "Florence",
    "creation_lat": 43.7696,
    "creation_lon": 11.2558,
    "_source": {
     "source": "Wikidata",
     "url": "https://www.wikidata.org/wiki/Q3842686",
     "retrieved_at": "2026-08-20"
    },
    "_overrides": {
     "creation": {
      "at": "2026-08-20",
      "source": "derived from start date + Caravaggio's documented itinerary (approximate)"
     }
    },
    "museum_id": "museo-del-prado",
    "qid": "Q3842686",
    "wga_url": "https://www.wga.hu/html/a/andrea/sarto/2/virgin_s.html"
   }
  },
  {
   "type": "Feature",
   "geometry": {
    "type": "Point",
    "coordinates": [
     11.25,
     43.7652
    ]
   },
   "properties": {
    "painter": "Andrea del Sarto",
    "title": "Assumption of the Virgin",
    "year": "1530",
    "city": "Florence",
    "country": "Italy",
    "location": "Galleria Palatina",
    "kind": "museum",
    "attribution": "generally accepted",
    "status": "present",
    "medium": "Oil on panel",
    "dimensions": "309 × 205 cm",
    "genre": "religious art",
    "image": "https://commons.wikimedia.org/wiki/Special:FilePath/Andrea%20del%20Sarto%20-%20Assumption%20of%20the%20Virgin%20%28Poppi%20Altarpiece%29%20-%20WGA0416.jpg?width=420",
    "wikipedia_es": "https://es.wikipedia.org/wiki/Madonna_en_la_Gloria_con_cuatro_santos",
    "wikipedia_it": "https://it.wikipedia.org/wiki/Madonna_in_gloria_con_quattro_santi",
    "wikidata": "https://www.wikidata.org/wiki/Q3842749",
    "creation_place": "Florence",
    "creation_lat": 43.7696,
    "creation_lon": 11.2558,
    "_source": {
     "source": "Wikidata",
     "url": "https://www.wikidata.org/wiki/Q3842749",
     "retrieved_at": "2026-08-20"
    },
    "_overrides": {
     "creation": {
      "at": "2026-08-20",
      "source": "derived from start date + Caravaggio's documented itinerary (approximate)"
     }
    },
    "museum_id": "galleria-palatina",
    "qid": "Q3842749",
    "wga_url": "https://www.wga.hu/html/a/andrea/sarto/3/virgin.html"
   }
  },
  {
   "type": "Feature",
   "geometry": {
    "type": "Point",
    "coordinates": [
     11.2611,
     43.7768
    ]
   },
   "properties": {
    "painter": "Andrea del Sarto",
    "title": "Death of Saint Philip Benizi and Resurrection of a Child",
    "year": "1510",
    "country": "Italy",
    "location": "chiostrino dei Voti",
    "kind": "museum",
    "attribution": "generally accepted",
    "status": "present",
    "medium": "Fresco",
    "dimensions": "362 × 306 cm",
    "genre": "religious art",
    "image": "https://commons.wikimedia.org/wiki/Special:FilePath/Andrea%20del%20sarto%2C%20Morte%20di%20san%20Filippo%20Benizi%20e%20resurrezione%20di%20un%20fanciullo%2C%201510%2C%2001.jpg?width=420",
    "wikipedia_it": "https://it.wikipedia.org/wiki/Morte_di_san_Filippo_Benizi_e_resurrezione_di_un_fanciullo",
    "wikidata": "https://www.wikidata.org/wiki/Q3863247",
    "creation_place": "Florence",
    "creation_lat": 43.7696,
    "creation_lon": 11.2558,
    "_source": {
     "source": "Wikidata",
     "url": "https://www.wikidata.org/wiki/Q3863247",
     "retrieved_at": "2026-08-20"
    },
    "_overrides": {
     "creation": {
      "at": "2026-08-20",
      "source": "derived from start date + Caravaggio's documented itinerary (approximate)"
     }
    },
    "museum_id": "chiostrino-dei-voti",
    "qid": "Q3863247"
   }
  },
  {
   "type": "Feature",
   "geometry": {
    "type": "Point",
    "coordinates": [
     11.2611,
     43.7768
    ]
   },
   "properties": {
    "painter": "Andrea del Sarto",
    "title": "Birth of the Virgin",
    "year": "1513-1514",
    "country": "Italy",
    "location": "chiostrino dei Voti",
    "kind": "museum",
    "attribution": "generally accepted",
    "status": "present",
    "medium": "Fresco",
    "dimensions": "410 × 340 cm",
    "genre": "religious art",
    "image": "https://commons.wikimedia.org/wiki/Special:FilePath/Chiostro%20dei%20voti%2C%20andrea%20del%20sarto%2C%20nascita%20della%20vergine.jpg?width=420",
    "wikipedia_en": "https://en.wikipedia.org/wiki/Nativity_of_the_Virgin_(del_Sarto)",
    "wikipedia_it": "https://it.wikipedia.org/wiki/Nativit%C3%A0_della_Vergine_(Andrea_del_Sarto)",
    "wikidata": "https://www.wikidata.org/wiki/Q3873243",
    "creation_place": "Florence",
    "creation_lat": 43.7696,
    "creation_lon": 11.2558,
    "_source": {
     "source": "Wikidata",
     "url": "https://www.wikidata.org/wiki/Q3873243",
     "retrieved_at": "2026-08-20"
    },
    "_overrides": {
     "creation": {
      "at": "2026-08-20",
      "source": "derived from start date + Caravaggio's documented itinerary (approximate)"
     }
    },
    "museum_id": "chiostrino-dei-voti",
    "qid": "Q3873243",
    "wga_url": "https://www.wga.hu/html/a/andrea/sarto/1/b_virgin.html"
   }
  },
  {
   "type": "Feature",
   "geometry": {
    "type": "Point",
    "coordinates": [
     11.28602,
     43.77163
    ]
   },
   "properties": {
    "painter": "Andrea del Sarto",
    "title": "Noli me tangere",
    "year": "1510",
    "city": "Florence",
    "country": "Italy",
    "location": "Museum of the Last Supper of Andrea del Sarto",
    "kind": "museum",
    "attribution": "generally accepted",
    "status": "present",
    "medium": "Oil on panel",
    "dimensions": "176 × 155 cm",
    "genre": "religious art",
    "image": "https://commons.wikimedia.org/wiki/Special:FilePath/Sarto%2C%20Andrea%20del%20-%20Noli%20me%20tangere%20-%20c.%201510.jpg?width=420",
    "wikipedia_en": "https://en.wikipedia.org/wiki/Noli_me_tangere_(Andrea_del_Sarto)",
    "wikipedia_it": "https://it.wikipedia.org/wiki/Noli_me_tangere_(Andrea_del_Sarto)",
    "wikidata": "https://www.wikidata.org/wiki/Q3877890",
    "creation_place": "Florence",
    "creation_lat": 43.7696,
    "creation_lon": 11.2558,
    "_source": {
     "source": "Wikidata",
     "url": "https://www.wikidata.org/wiki/Q3877890",
     "retrieved_at": "2026-08-20"
    },
    "_overrides": {
     "creation": {
      "at": "2026-08-20",
      "source": "derived from start date + Caravaggio's documented itinerary (approximate)"
     }
    },
    "museum_id": "museum-of-the-last-supper-of-andrea-del-sarto",
    "qid": "Q3877890"
   }
  },
  {
   "type": "Feature",
   "geometry": {
    "type": "Point",
    "coordinates": [
     11.25,
     43.7652
    ]
   },
   "properties": {
    "painter": "Andrea del Sarto",
    "title": "Gambassi Altarpiece",
    "year": "1528",
    "city": "Florence",
    "country": "Italy",
    "location": "Galleria Palatina",
    "kind": "museum",
    "attribution": "generally accepted",
    "status": "present",
    "medium": "Oil on panel",
    "dimensions": "209 × 176 cm",
    "genre": "religious art",
    "image": "https://commons.wikimedia.org/wiki/Special:FilePath/Andrea%20del%20Sarto%20-%20Virgin%20and%20Child%20in%20Glory%20with%20Six%20Saints%20-%20WGA0406.jpg?width=420",
    "wikipedia_es": "https://es.wikipedia.org/wiki/Retablo_de_Gambassi",
    "wikipedia_it": "https://it.wikipedia.org/wiki/Pala_di_Gambassi",
    "wikidata": "https://www.wikidata.org/wiki/Q3889243",
    "creation_place": "Florence",
    "creation_lat": 43.7696,
    "creation_lon": 11.2558,
    "_source": {
     "source": "Wikidata",
     "url": "https://www.wikidata.org/wiki/Q3889243",
     "retrieved_at": "2026-08-20"
    },
    "_overrides": {
     "creation": {
      "at": "2026-08-20",
      "source": "derived from start date + Caravaggio's documented itinerary (approximate)"
     }
    },
    "museum_id": "galleria-palatina",
    "qid": "Q3889243",
    "wga_url": "https://www.wga.hu/html/a/andrea/sarto/3/madglory.html"
   }
  },
  {
   "type": "Feature",
   "geometry": {
    "type": "Point",
    "coordinates": [
     11.25,
     43.7652
    ]
   },
   "properties": {
    "painter": "Andrea del Sarto",
    "title": "Pietà with Saints",
    "year": "1523",
    "city": "Florence",
    "country": "Italy",
    "location": "Galleria Palatina",
    "kind": "museum",
    "attribution": "generally accepted",
    "status": "present",
    "medium": "Oil on panel",
    "dimensions": "239 × 199 cm",
    "genre": "religious art",
    "image": "https://commons.wikimedia.org/wiki/Special:FilePath/Andrea%20del%20Sarto%20-%20Piet%C3%A0%20with%20Saints%20-%20WGA0395.jpg?width=420",
    "wikipedia_it": "https://it.wikipedia.org/wiki/Piet%C3%A0_di_Luco",
    "wikidata": "https://www.wikidata.org/wiki/Q3904409",
    "creation_place": "Florence",
    "creation_lat": 43.7696,
    "creation_lon": 11.2558,
    "_source": {
     "source": "Wikidata",
     "url": "https://www.wikidata.org/wiki/Q3904409",
     "retrieved_at": "2026-08-20"
    },
    "_overrides": {
     "creation": {
      "at": "2026-08-20",
      "source": "derived from start date + Caravaggio's documented itinerary (approximate)"
     }
    },
    "museum_id": "galleria-palatina",
    "qid": "Q3904409",
    "wga_url": "https://www.wga.hu/html/a/andrea/sarto/2/pieta.html"
   }
  },
  {
   "type": "Feature",
   "geometry": {
    "type": "Point",
    "coordinates": [
     11.2611,
     43.7768
    ]
   },
   "properties": {
    "painter": "Andrea del Sarto",
    "title": "Punishment of the Gamblers",
    "year": "1510",
    "country": "Italy",
    "location": "chiostrino dei Voti",
    "kind": "museum",
    "attribution": "generally accepted",
    "status": "present",
    "medium": "Fresco",
    "dimensions": "360 × 300 cm",
    "image": "https://commons.wikimedia.org/wiki/Special:FilePath/Andrea%20del%20Sarto%20-%20Punishment%20of%20the%20Gamblers%20-%20WGA00360.jpg?width=420",
    "wikipedia_it": "https://it.wikipedia.org/wiki/Punizione_dei_bestemmiatori",
    "wikidata": "https://www.wikidata.org/wiki/Q3925592",
    "creation_place": "Florence",
    "creation_lat": 43.7696,
    "creation_lon": 11.2558,
    "_source": {
     "source": "Wikidata",
     "url": "https://www.wikidata.org/wiki/Q3925592",
     "retrieved_at": "2026-08-20"
    },
    "_overrides": {
     "creation": {
      "at": "2026-08-20",
      "source": "derived from start date + Caravaggio's documented itinerary (approximate)"
     }
    },
    "museum_id": "chiostrino-dei-voti",
    "qid": "Q3925592",
    "wga_url": "https://www.wga.hu/html/a/andrea/sarto/1/b_gamble.html"
   }
  },
  {
   "type": "Feature",
   "geometry": {
    "type": "Point",
    "coordinates": [
     12.48953,
     41.90278
    ]
   },
   "properties": {
    "painter": "Andrea del Sarto",
    "title": "The Holy Family",
    "year": "1528",
    "city": "Rome",
    "country": "Italy",
    "location": "Galleria Nazionale d'Arte Antica",
    "kind": "museum",
    "attribution": "generally accepted",
    "status": "present",
    "medium": "Oil on panel",
    "dimensions": "140 × 104 cm",
    "genre": "religious art",
    "image": "https://commons.wikimedia.org/wiki/Special:FilePath/Andrea%20del%20Sarto%20-%20Holy%20Family%20%28Barberini%29%20-%20WGA00405.jpg?width=420",
    "wikipedia_en": "https://en.wikipedia.org/wiki/Holy_Family_(Andrea_del_Sarto)",
    "wikipedia_it": "https://it.wikipedia.org/wiki/Sacra_Famiglia_Barberini",
    "wikidata": "https://www.wikidata.org/wiki/Q3944457",
    "creation_place": "Florence",
    "creation_lat": 43.7696,
    "creation_lon": 11.2558,
    "_source": {
     "source": "Wikidata",
     "url": "https://www.wikidata.org/wiki/Q3944457",
     "retrieved_at": "2026-08-20"
    },
    "_overrides": {
     "creation": {
      "at": "2026-08-20",
      "source": "derived from start date + Caravaggio's documented itinerary (approximate)"
     }
    },
    "museum_id": "galleria-nazionale-d-arte-antica",
    "qid": "Q3944457",
    "wga_url": "https://www.wga.hu/html/a/andrea/sarto/3/holyfamy.html"
   }
  },
  {
   "type": "Feature",
   "geometry": {
    "type": "Point",
    "coordinates": [
     -73.9631,
     40.7794
    ]
   },
   "properties": {
    "painter": "Andrea del Sarto",
    "title": "The Holy Family with the Young Saint John the Baptist",
    "year": "1529",
    "city": "New York",
    "country": "United States",
    "location": "Metropolitan Museum of Art",
    "kind": "museum",
    "attribution": "generally accepted",
    "status": "present",
    "medium": "Oil on panel",
    "dimensions": "135.9 × 100.6 cm",
    "genre": "religious art",
    "image": "https://commons.wikimedia.org/wiki/Special:FilePath/The%20Holy%20Family%20with%20the%20Young%20Saint%20John%20the%20Baptist%2C%20by%20Andrea%20del%20Sarto%2C%20MET%20DP295025%2C%20edited.jpg?width=420",
    "wikipedia_it": "https://it.wikipedia.org/wiki/Sacra_Famiglia_Borgherini",
    "wikidata": "https://www.wikidata.org/wiki/Q3944459",
    "creation_place": "Florence",
    "creation_lat": 43.7696,
    "creation_lon": 11.2558,
    "_source": {
     "source": "Wikidata",
     "url": "https://www.wikidata.org/wiki/Q3944459",
     "retrieved_at": "2026-08-20"
    },
    "_overrides": {
     "creation": {
      "at": "2026-08-20",
      "source": "derived from start date + Caravaggio's documented itinerary (approximate)"
     }
    },
    "museum_id": "metropolitan-museum-of-art",
    "qid": "Q3944459",
    "wga_url": "https://www.wga.hu/html/a/andrea/sarto/3/holyfami.html"
   }
  },
  {
   "type": "Feature",
   "geometry": {
    "type": "Point",
    "coordinates": [
     11.25,
     43.7652
    ]
   },
   "properties": {
    "painter": "Andrea del Sarto",
    "title": "Bracci Holy Family",
    "year": "1523",
    "city": "Florence",
    "country": "Italy",
    "location": "Galleria Palatina",
    "kind": "museum",
    "attribution": "generally accepted",
    "status": "present",
    "medium": "Oil on panel",
    "dimensions": "129 × 105 cm",
    "genre": "religious art",
    "image": "https://commons.wikimedia.org/wiki/Special:FilePath/Andrea%20del%20Sarto%20-%20Holy%20Family%20-%20WGA0385.jpg?width=420",
    "wikipedia_it": "https://it.wikipedia.org/wiki/Sacra_Famiglia_Bracci",
    "wikidata": "https://www.wikidata.org/wiki/Q3944461",
    "creation_place": "Florence",
    "creation_lat": 43.7696,
    "creation_lon": 11.2558,
    "_source": {
     "source": "Wikidata",
     "url": "https://www.wikidata.org/wiki/Q3944461",
     "retrieved_at": "2026-08-20"
    },
    "_overrides": {
     "creation": {
      "at": "2026-08-20",
      "source": "derived from start date + Caravaggio's documented itinerary (approximate)"
     }
    },
    "museum_id": "galleria-palatina",
    "qid": "Q3944461",
    "wga_url": "https://www.wga.hu/html/a/andrea/sarto/2/holy_fam.html"
   }
  },
  {
   "type": "Feature",
   "geometry": {
    "type": "Point",
    "coordinates": [
     11.25,
     43.7652
    ]
   },
   "properties": {
    "painter": "Andrea del Sarto",
    "title": "Madonna with child, Saint Elizabeth, and Saint John",
    "year": "1529",
    "city": "Florence",
    "country": "Italy",
    "location": "Galleria Palatina",
    "kind": "museum",
    "attribution": "generally accepted",
    "status": "present",
    "medium": "Oil on panel",
    "dimensions": "140 × 104 cm",
    "genre": "religious art",
    "image": "https://commons.wikimedia.org/wiki/Special:FilePath/Sarto%2C%20Andrea%20del%20-%20Madonna%20col%20Bambino%2C%20Santa%20Elisabetta%20e%20San%20Giovannino%20-%201529.jpg?width=420",
    "wikipedia_it": "https://it.wikipedia.org/wiki/Sacra_Famiglia_Medici",
    "wikidata": "https://www.wikidata.org/wiki/Q3944463",
    "creation_place": "Florence",
    "creation_lat": 43.7696,
    "creation_lon": 11.2558,
    "_source": {
     "source": "Wikidata",
     "url": "https://www.wikidata.org/wiki/Q3944463",
     "retrieved_at": "2026-08-20"
    },
    "_overrides": {
     "creation": {
      "at": "2026-08-20",
      "source": "derived from start date + Caravaggio's documented itinerary (approximate)"
     }
    },
    "museum_id": "galleria-palatina",
    "qid": "Q3944463"
   }
  },
  {
   "type": "Feature",
   "geometry": {
    "type": "Point",
    "coordinates": [
     13.73466,
     51.05338
    ]
   },
   "properties": {
    "painter": "Andrea del Sarto",
    "title": "The Sacrifice of Isaac",
    "year": "1527",
    "city": "Dresden",
    "country": "Germany",
    "location": "Gemäldegalerie Alte Meister",
    "kind": "museum",
    "attribution": "generally accepted",
    "status": "present",
    "medium": "Oil on panel",
    "dimensions": "213 × 159 cm",
    "genre": "religious art",
    "image": "https://commons.wikimedia.org/wiki/Special:FilePath/Andrea%20del%20Sarto%20-%20Il%20sacrificio%20di%20Isacco%20%28Dresden%29%20-%20WGA00396.jpg?width=420",
    "wikipedia_es": "https://es.wikipedia.org/wiki/El_sacrificio_de_Isaac_(Andrea_del_Sarto)",
    "wikipedia_en": "https://en.wikipedia.org/wiki/Sacrifice_of_Isaac_(Andrea_del_Sarto)",
    "wikipedia_it": "https://it.wikipedia.org/wiki/Sacrificio_di_Isacco_(Andrea_del_Sarto)",
    "wikidata": "https://www.wikidata.org/wiki/Q3944647",
    "creation_place": "Florence",
    "creation_lat": 43.7696,
    "creation_lon": 11.2558,
    "_source": {
     "source": "Wikidata",
     "url": "https://www.wikidata.org/wiki/Q3944647",
     "retrieved_at": "2026-08-20"
    },
    "_overrides": {
     "creation": {
      "at": "2026-08-20",
      "source": "derived from start date + Caravaggio's documented itinerary (approximate)"
     }
    },
    "museum_id": "gemaldegalerie-alte-meister",
    "qid": "Q3944647",
    "wga_url": "https://www.wga.hu/html/a/andrea/sarto/2/sacrific.html"
   }
  },
  {
   "type": "Feature",
   "geometry": {
    "type": "Point",
    "coordinates": [
     11.26128,
     43.7769
    ]
   },
   "properties": {
    "painter": "Andrea del Sarto",
    "title": "Christ the Redeemer",
    "year": "1525",
    "city": "Florence",
    "country": "Italy",
    "location": "Santissima Annunziata",
    "kind": "church",
    "attribution": "generally accepted",
    "status": "present",
    "medium": "Wood",
    "dimensions": "47 × 27 cm",
    "genre": "religious art",
    "image": "https://commons.wikimedia.org/wiki/Special:FilePath/Andrea%20del%20Sarto%20-%20Christ%20the%20Redeemer%20-%20WGA00379.jpg?width=420",
    "wikipedia_it": "https://it.wikipedia.org/wiki/Salvatore_(Andrea_del_Sarto)",
    "wikidata": "https://www.wikidata.org/wiki/Q3945930",
    "creation_place": "Florence",
    "creation_lat": 43.7696,
    "creation_lon": 11.2558,
    "_source": {
     "source": "Wikidata",
     "url": "https://www.wikidata.org/wiki/Q3945930",
     "retrieved_at": "2026-08-20"
    },
    "_overrides": {
     "creation": {
      "at": "2026-08-20",
      "source": "derived from start date + Caravaggio's documented itinerary (approximate)"
     }
    },
    "museum_id": "santissima-annunziata",
    "qid": "Q3945930",
    "wga_url": "https://www.wga.hu/html/a/andrea/sarto/1/redeemer.html"
   }
  },
  {
   "type": "Feature",
   "geometry": {
    "type": "Point",
    "coordinates": [
     11.2611,
     43.7768
    ]
   },
   "properties": {
    "painter": "Andrea del Sarto",
    "title": "Saint Philip heals a leper",
    "year": "1509",
    "country": "Italy",
    "location": "chiostrino dei Voti",
    "kind": "museum",
    "attribution": "generally accepted",
    "status": "present",
    "dimensions": "380 × 321 cm",
    "genre": "religious art",
    "image": "https://commons.wikimedia.org/wiki/Special:FilePath/Andrea%20del%20Sarto%2C%20San%20Filippo%20risana%20un%20lebbroso%2C%201509-10%2C%2001.jpg?width=420",
    "wikipedia_it": "https://it.wikipedia.org/wiki/San_Filippo_risana_un_lebbroso",
    "wikidata": "https://www.wikidata.org/wiki/Q3947064",
    "creation_place": "Florence",
    "creation_lat": 43.7696,
    "creation_lon": 11.2558,
    "_source": {
     "source": "Wikidata",
     "url": "https://www.wikidata.org/wiki/Q3947064",
     "retrieved_at": "2026-08-20"
    },
    "_overrides": {
     "creation": {
      "at": "2026-08-20",
      "source": "derived from start date + Caravaggio's documented itinerary (approximate)"
     }
    },
    "museum_id": "chiostrino-dei-voti",
    "qid": "Q3947064"
   }
  },
  {
   "type": "Feature",
   "geometry": {
    "type": "Point",
    "coordinates": [
     11.25,
     43.7652
    ]
   },
   "properties": {
    "painter": "Andrea del Sarto",
    "title": "Saint John the Baptist as a Boy",
    "year": "1523",
    "city": "Florence",
    "country": "Italy",
    "location": "Galleria Palatina",
    "kind": "museum",
    "attribution": "generally accepted",
    "status": "present",
    "medium": "Oil on canvas",
    "dimensions": "94 × 68 cm",
    "genre": "religious art",
    "image": "https://commons.wikimedia.org/wiki/Special:FilePath/Andrea%20del%20Sarto%20-%20St.%20John%20the%20Baptist%2C%20c.%201523%2C%20Palatina%2C%20n%C2%B0%20272.jpg?width=420",
    "wikipedia_es": "https://es.wikipedia.org/wiki/San_Juan_Bautista_(Andrea_del_Sarto)",
    "wikipedia_en": "https://en.wikipedia.org/wiki/Saint_John_the_Baptist_as_a_Boy_(Andrea_del_Sarto)",
    "wikipedia_it": "https://it.wikipedia.org/wiki/San_Giovannino_(Andrea_del_Sarto)",
    "wikidata": "https://www.wikidata.org/wiki/Q3947281",
    "creation_place": "Florence",
    "creation_lat": 43.7696,
    "creation_lon": 11.2558,
    "_source": {
     "source": "Wikidata",
     "url": "https://www.wikidata.org/wiki/Q3947281",
     "retrieved_at": "2026-08-20"
    },
    "_overrides": {
     "creation": {
      "at": "2026-08-20",
      "source": "derived from start date + Caravaggio's documented itinerary (approximate)"
     }
    },
    "museum_id": "galleria-palatina",
    "qid": "Q3947281",
    "wga_url": "https://www.wga.hu/html/a/andrea/sarto/3/baptist.html"
   }
  },
  {
   "type": "Feature",
   "geometry": {
    "type": "Point",
    "coordinates": [
     11.25528,
     43.76833
    ]
   },
   "properties": {
    "painter": "Andrea del Sarto",
    "title": "Saint James",
    "year": "1528",
    "city": "Florence",
    "country": "Italy",
    "location": "Uffizi Gallery",
    "kind": "museum",
    "attribution": "generally accepted",
    "status": "present",
    "medium": "Oil on canvas",
    "dimensions": "159 × 86 cm",
    "genre": "religious art",
    "image": "https://commons.wikimedia.org/wiki/Special:FilePath/Andrea%20del%20Sarto%2C%20Standard%20for%20the%20San%20Jacopo%20del%20Nicchio%20Fraternity%2C%201528%2C%20Uffizi.jpg?width=420",
    "wikipedia_it": "https://it.wikipedia.org/wiki/San_Jacopo_con_due_fanciulli",
    "wikidata": "https://www.wikidata.org/wiki/Q3947375",
    "creation_place": "Florence",
    "creation_lat": 43.7696,
    "creation_lon": 11.2558,
    "_source": {
     "source": "Wikidata",
     "url": "https://www.wikidata.org/wiki/Q3947375",
     "retrieved_at": "2026-08-20"
    },
    "_overrides": {
     "creation": {
      "at": "2026-08-20",
      "source": "derived from start date + Caravaggio's documented itinerary (approximate)"
     }
    },
    "museum_id": "uffizi-gallery",
    "qid": "Q3947375",
    "wga_url": "https://www.wga.hu/html/a/andrea/sarto/3/s_james.html"
   }
  },
  {
   "type": "Feature",
   "geometry": {
    "type": "Point",
    "coordinates": [
     11.25528,
     43.76833
    ]
   },
   "properties": {
    "painter": "Andrea del Sarto",
    "title": "Stories of Joseph",
    "year": "1515",
    "city": "Florence",
    "country": "Italy",
    "location": "Uffizi Gallery",
    "kind": "museum",
    "attribution": "generally accepted",
    "status": "present",
    "medium": "Oil on panel",
    "dimensions": "98 × 135 cm",
    "genre": "religious art",
    "image": "https://commons.wikimedia.org/wiki/Special:FilePath/Andrea%20del%20Sarto%20-%20Stories%20of%20Joseph%20-%20WGA00386.jpg?width=420",
    "wikipedia_it": "https://it.wikipedia.org/wiki/Storie_dell%27infanzia_di_Giuseppe",
    "wikidata": "https://www.wikidata.org/wiki/Q3974456",
    "creation_place": "Florence",
    "creation_lat": 43.7696,
    "creation_lon": 11.2558,
    "_source": {
     "source": "Wikidata",
     "url": "https://www.wikidata.org/wiki/Q3974456",
     "retrieved_at": "2026-08-20"
    },
    "_overrides": {
     "creation": {
      "at": "2026-08-20",
      "source": "derived from start date + Caravaggio's documented itinerary (approximate)"
     }
    },
    "museum_id": "uffizi-gallery",
    "qid": "Q3974456",
    "wga_url": "https://www.wga.hu/html/a/andrea/sarto/2/joseph_1.html"
   }
  },
  {
   "type": "Feature",
   "geometry": {
    "type": "Point",
    "coordinates": [
     11.2611,
     43.7768
    ]
   },
   "properties": {
    "painter": "Andrea del Sarto",
    "title": "Journey of the Magi",
    "year": "1511",
    "country": "Italy",
    "location": "chiostrino dei Voti",
    "kind": "museum",
    "attribution": "generally accepted",
    "status": "present",
    "medium": "Fresco",
    "dimensions": "407 × 321 cm",
    "genre": "religious art",
    "image": "https://commons.wikimedia.org/wiki/Special:FilePath/Andrea%20del%20sarto%2C%20viaggio%20dei%20magi%2C%201511%2C%2001.jpg?width=420",
    "wikipedia_it": "https://it.wikipedia.org/wiki/Viaggio_dei_Magi",
    "wikidata": "https://www.wikidata.org/wiki/Q4010941",
    "creation_place": "Florence",
    "creation_lat": 43.7696,
    "creation_lon": 11.2558,
    "_source": {
     "source": "Wikidata",
     "url": "https://www.wikidata.org/wiki/Q4010941",
     "retrieved_at": "2026-08-20"
    },
    "_overrides": {
     "creation": {
      "at": "2026-08-20",
      "source": "derived from start date + Caravaggio's documented itinerary (approximate)"
     }
    },
    "museum_id": "chiostrino-dei-voti",
    "qid": "Q4010941",
    "wga_url": "https://www.wga.hu/html/a/andrea/sarto/1/b_journe.html"
   }
  },
  {
   "type": "Feature",
   "geometry": {
    "type": "Point",
    "coordinates": [
     -87.62389,
     41.87944
    ]
   },
   "properties": {
    "painter": "Andrea del Sarto",
    "title": "Lucrezia di Lippo di Iacopo Guidi, wife of Becuccio Bicchieraio",
    "year": "1527",
    "city": "Chicago",
    "country": "United States",
    "location": "Art Institute of Chicago",
    "kind": "museum",
    "attribution": "generally accepted",
    "status": "present",
    "genre": "portrait",
    "image": "https://commons.wikimedia.org/wiki/Special:FilePath/Sarto%2C%20Andrea%20del%20-%20The%20Wife%20of%20Domenico%20da%20Gambassi.jpg?width=420",
    "wikipedia_es": "https://es.wikipedia.org/wiki/Retrato_de_la_esposa_de_Becuccio_Bicchieraio",
    "wikipedia_it": "https://it.wikipedia.org/wiki/Ritratto_della_moglie_di_Becuccio_Bicchieraio",
    "wikidata": "https://www.wikidata.org/wiki/Q58023083",
    "creation_place": "Florence",
    "creation_lat": 43.7696,
    "creation_lon": 11.2558,
    "_source": {
     "source": "Wikidata",
     "url": "https://www.wikidata.org/wiki/Q58023083",
     "retrieved_at": "2026-08-20"
    },
    "_overrides": {
     "creation": {
      "at": "2026-08-20",
      "source": "derived from start date + Caravaggio's documented itinerary (approximate)"
     }
    },
    "museum_id": "art-institute-of-chicago",
    "qid": "Q58023083"
   }
  },
  {
   "type": "Feature",
   "geometry": {
    "type": "Point",
    "coordinates": [
     -87.62389,
     41.87944
    ]
   },
   "properties": {
    "painter": "Andrea del Sarto",
    "title": "Domenico da Gambassi",
    "year": "1527",
    "city": "Chicago",
    "country": "United States",
    "location": "Art Institute of Chicago",
    "kind": "museum",
    "attribution": "generally accepted",
    "status": "present",
    "medium": "Oil on canvas",
    "genre": "portrait",
    "image": "https://commons.wikimedia.org/wiki/Special:FilePath/Andrea%20del%20Sarto%20-%20Domenico%20da%20Gambassi%20-%201964.1097a%20-%20Art%20Institute%20of%20Chicago.jpg?width=420",
    "wikipedia_es": "https://es.wikipedia.org/wiki/Retrato_de_Becuccio_Bicchieraio_(Andrea_del_Sarto,_Chicago)",
    "wikipedia_it": "https://it.wikipedia.org/wiki/Ritratto_di_Becuccio_Bicchieraio_(Andrea_del_Sarto_Chicago)",
    "wikidata": "https://www.wikidata.org/wiki/Q58023326",
    "creation_place": "Florence",
    "creation_lat": 43.7696,
    "creation_lon": 11.2558,
    "_source": {
     "source": "Wikidata",
     "url": "https://www.wikidata.org/wiki/Q58023326",
     "retrieved_at": "2026-08-20"
    },
    "_overrides": {
     "creation": {
      "at": "2026-08-20",
      "source": "derived from start date + Caravaggio's documented itinerary (approximate)"
     }
    },
    "museum_id": "art-institute-of-chicago",
    "qid": "Q58023326"
   }
  },
  {
   "type": "Feature",
   "geometry": {
    "type": "Point",
    "coordinates": [
     -81.61167,
     41.50889
    ]
   },
   "properties": {
    "painter": "Andrea del Sarto",
    "title": "The Sacrifice of Isaac",
    "year": "1527",
    "city": "Cleveland",
    "country": "United States",
    "location": "Cleveland Museum of Art",
    "kind": "museum",
    "attribution": "attributed",
    "status": "present",
    "medium": "Oil on panel",
    "dimensions": "178 × 138 cm",
    "genre": "religious art",
    "image": "https://commons.wikimedia.org/wiki/Special:FilePath/Andrea%20del%20Sarto%20-%20Il%20sacrificio%20di%20Isacco%20%28Cleveland%29.jpg?width=420",
    "wikidata": "https://www.wikidata.org/wiki/Q59115342",
    "creation_place": "Florence",
    "creation_lat": 43.7696,
    "creation_lon": 11.2558,
    "_source": {
     "source": "Wikidata",
     "url": "https://www.wikidata.org/wiki/Q59115342",
     "retrieved_at": "2026-08-20"
    },
    "_overrides": {
     "creation": {
      "at": "2026-08-20",
      "source": "derived from start date + Caravaggio's documented itinerary (approximate)"
     }
    },
    "museum_id": "cleveland-museum-of-art",
    "qid": "Q59115342"
   }
  }
 ]
}