{
 "type": "FeatureCollection",
 "_note": "Generated by scripts/build.py from Wikidata. Do not edit by hand — put manual fixes in the painter's overlay (data/overlay/*.json). Each feature carries _source (scraped base or manual addition) and, when edited, _overrides.",
 "features": [
  {
   "type": "Feature",
   "geometry": {
    "type": "Point",
    "coordinates": [
     -71.1147,
     42.3742
    ]
   },
   "properties": {
    "painter": "Duccio",
    "title": "Virgin and Child, with Scenes from the Lives of Christ and Saint Francis",
    "year": "1280",
    "city": "Cambridge",
    "country": "United States",
    "location": "Fogg Museum",
    "kind": "museum",
    "attribution": "attributed",
    "status": "present",
    "medium": "Panel",
    "genre": "religious art",
    "image": "https://commons.wikimedia.org/wiki/Special:FilePath/Duccio%20-%20Virgin%20and%20Child%2C%20with%20Scenes%20from%20the%20Lives%20of%20Christ%20and%20Saint%20Francis%2C%20c.%201280.jpg?width=420",
    "wikidata": "https://www.wikidata.org/wiki/Q106863938",
    "creation_place": "Siena",
    "creation_lat": 43.3188,
    "creation_lon": 11.3308,
    "_source": {
     "source": "Wikidata",
     "url": "https://www.wikidata.org/wiki/Q106863938",
     "retrieved_at": "2026-08-23"
    },
    "_overrides": {
     "creation": {
      "at": "2026-08-23",
      "source": "derived from start date + Caravaggio's documented itinerary (approximate)"
     }
    },
    "museum_id": "fogg-museum",
    "qid": "Q106863938"
   }
  },
  {
   "type": "Feature",
   "geometry": {
    "type": "Point",
    "coordinates": [
     11.39932,
     43.34748
    ]
   },
   "properties": {
    "painter": "Duccio",
    "title": "Prophet Hosea",
    "year": "1309",
    "city": "Siena",
    "country": "Italy",
    "location": "Museo dell'Opera Metropolitana del Duomo",
    "kind": "museum",
    "attribution": "attributed",
    "status": "present",
    "genre": "religious art",
    "image": "https://commons.wikimedia.org/wiki/Special:FilePath/Duccio%20di%20Buoninsegna%20063.jpg?width=420",
    "wikidata": "https://www.wikidata.org/wiki/Q110561958",
    "creation_place": "Siena",
    "creation_lat": 43.3188,
    "creation_lon": 11.3308,
    "_source": {
     "source": "Wikidata",
     "url": "https://www.wikidata.org/wiki/Q110561958",
     "retrieved_at": "2026-08-23"
    },
    "_overrides": {
     "creation": {
      "at": "2026-08-23",
      "source": "derived from start date + Caravaggio's documented itinerary (approximate)"
     }
    },
    "museum_id": "museo-dell-opera-metropolitana-del-duomo",
    "qid": "Q110561958"
   }
  },
  {
   "type": "Feature",
   "geometry": {
    "type": "Point",
    "coordinates": [
     11.25582,
     43.7727
    ]
   },
   "properties": {
    "painter": "Duccio",
    "title": "Apostles James the Younger and Bartholomew",
    "year": "1309",
    "city": "Florence",
    "country": "Italy",
    "location": "Museo dell'Opera del Duomo",
    "kind": "museum",
    "attribution": "attributed",
    "status": "present",
    "genre": "religious art",
    "image": "https://commons.wikimedia.org/wiki/Special:FilePath/Duccio%20di%20Buoninsegna%20051.jpg?width=420",
    "wikidata": "https://www.wikidata.org/wiki/Q111821633",
    "creation_place": "Siena",
    "creation_lat": 43.3188,
    "creation_lon": 11.3308,
    "_source": {
     "source": "Wikidata",
     "url": "https://www.wikidata.org/wiki/Q111821633",
     "retrieved_at": "2026-08-23"
    },
    "_overrides": {
     "creation": {
      "at": "2026-08-23",
      "source": "derived from start date + Caravaggio's documented itinerary (approximate)"
     }
    },
    "museum_id": "museo-dell-opera-del-duomo",
    "qid": "Q111821633"
   }
  },
  {
   "type": "Feature",
   "geometry": {
    "type": "Point",
    "coordinates": [
     11.25582,
     43.7727
    ]
   },
   "properties": {
    "painter": "Duccio",
    "title": "Apostles Philip and James the Elder",
    "year": "1309",
    "city": "Florence",
    "country": "Italy",
    "location": "Museo dell'Opera del Duomo",
    "kind": "museum",
    "attribution": "attributed",
    "status": "present",
    "genre": "religious art",
    "image": "https://commons.wikimedia.org/wiki/Special:FilePath/Duccio%20di%20Buoninsegna%20052.jpg?width=420",
    "wikidata": "https://www.wikidata.org/wiki/Q111821635",
    "creation_place": "Siena",
    "creation_lat": 43.3188,
    "creation_lon": 11.3308,
    "_source": {
     "source": "Wikidata",
     "url": "https://www.wikidata.org/wiki/Q111821635",
     "retrieved_at": "2026-08-23"
    },
    "_overrides": {
     "creation": {
      "at": "2026-08-23",
      "source": "derived from start date + Caravaggio's documented itinerary (approximate)"
     }
    },
    "museum_id": "museo-dell-opera-del-duomo",
    "qid": "Q111821635"
   }
  },
  {
   "type": "Feature",
   "geometry": {
    "type": "Point",
    "coordinates": [
     11.39932,
     43.34748
    ]
   },
   "properties": {
    "painter": "Duccio",
    "title": "Arrest of Jesus (top); Agony in the Garden (bottom)",
    "year": "1309",
    "city": "Siena",
    "country": "Italy",
    "location": "Museo dell'Opera Metropolitana del Duomo",
    "kind": "museum",
    "attribution": "attributed",
    "status": "present",
    "medium": "Panel",
    "dimensions": "99.5 × 76 cm",
    "genre": "religious art",
    "image": "https://commons.wikimedia.org/wiki/Special:FilePath/Duccio%20di%20Buoninsegna%20032.jpg?width=420",
    "wikidata": "https://www.wikidata.org/wiki/Q111821645",
    "creation_place": "Siena",
    "creation_lat": 43.3188,
    "creation_lon": 11.3308,
    "_source": {
     "source": "Wikidata",
     "url": "https://www.wikidata.org/wiki/Q111821645",
     "retrieved_at": "2026-08-23"
    },
    "_overrides": {
     "creation": {
      "at": "2026-08-23",
      "source": "derived from start date + Caravaggio's documented itinerary (approximate)"
     }
    },
    "museum_id": "museo-dell-opera-metropolitana-del-duomo",
    "qid": "Q111821645"
   }
  },
  {
   "type": "Feature",
   "geometry": {
    "type": "Point",
    "coordinates": [
     11.25582,
     43.7727
    ]
   },
   "properties": {
    "painter": "Duccio",
    "title": "Bethlehem Mourns Children Killed by Herod",
    "year": "1309",
    "city": "Florence",
    "country": "Italy",
    "location": "Museo dell'Opera del Duomo",
    "kind": "museum",
    "attribution": "attributed",
    "status": "present",
    "genre": "religious art",
    "image": "https://commons.wikimedia.org/wiki/Special:FilePath/Duccio%20di%20Buoninsegna%20057.jpg?width=420",
    "wikidata": "https://www.wikidata.org/wiki/Q111821667",
    "creation_place": "Siena",
    "creation_lat": 43.3188,
    "creation_lon": 11.3308,
    "_source": {
     "source": "Wikidata",
     "url": "https://www.wikidata.org/wiki/Q111821667",
     "retrieved_at": "2026-08-23"
    },
    "_overrides": {
     "creation": {
      "at": "2026-08-23",
      "source": "derived from start date + Caravaggio's documented itinerary (approximate)"
     }
    },
    "museum_id": "museo-dell-opera-del-duomo",
    "qid": "Q111821667"
   }
  },
  {
   "type": "Feature",
   "geometry": {
    "type": "Point",
    "coordinates": [
     11.25582,
     43.7727
    ]
   },
   "properties": {
    "painter": "Duccio",
    "title": "Burial of Christ (top); Descent from the Cross (bottom)",
    "year": "1309",
    "city": "Florence",
    "country": "Italy",
    "location": "Museo dell'Opera del Duomo",
    "kind": "museum",
    "attribution": "attributed",
    "status": "present",
    "dimensions": "101 × 53.5 cm",
    "genre": "religious art",
    "image": "https://commons.wikimedia.org/wiki/Special:FilePath/Duccio%20di%20Buoninsegna%20031.jpg?width=420",
    "wikidata": "https://www.wikidata.org/wiki/Q111821686",
    "creation_place": "Siena",
    "creation_lat": 43.3188,
    "creation_lon": 11.3308,
    "_source": {
     "source": "Wikidata",
     "url": "https://www.wikidata.org/wiki/Q111821686",
     "retrieved_at": "2026-08-23"
    },
    "_overrides": {
     "creation": {
      "at": "2026-08-23",
      "source": "derived from start date + Caravaggio's documented itinerary (approximate)"
     }
    },
    "museum_id": "museo-dell-opera-del-duomo",
    "qid": "Q111821686"
   }
  },
  {
   "type": "Feature",
   "geometry": {
    "type": "Point",
    "coordinates": [
     11.25582,
     43.7727
    ]
   },
   "properties": {
    "painter": "Duccio",
    "title": "Children of Bethlehem killed by Herod's orders (Massacre of the Innocents)",
    "year": "1309",
    "city": "Florence",
    "country": "Italy",
    "location": "Museo dell'Opera del Duomo",
    "kind": "museum",
    "attribution": "attributed",
    "status": "present",
    "genre": "religious art",
    "image": "https://commons.wikimedia.org/wiki/Special:FilePath/Duccio%20di%20Buoninsegna%20056.jpg?width=420",
    "wikidata": "https://www.wikidata.org/wiki/Q111821699",
    "creation_place": "Siena",
    "creation_lat": 43.3188,
    "creation_lon": 11.3308,
    "_source": {
     "source": "Wikidata",
     "url": "https://www.wikidata.org/wiki/Q111821699",
     "retrieved_at": "2026-08-23"
    },
    "_overrides": {
     "creation": {
      "at": "2026-08-23",
      "source": "derived from start date + Caravaggio's documented itinerary (approximate)"
     }
    },
    "museum_id": "museo-dell-opera-del-duomo",
    "qid": "Q111821699"
   }
  },
  {
   "type": "Feature",
   "geometry": {
    "type": "Point",
    "coordinates": [
     11.25582,
     43.7727
    ]
   },
   "properties": {
    "painter": "Duccio",
    "title": "Christ Accused by the Pharisees (top); Pilate's First Interrogation of Christ (bottom)",
    "year": "1309",
    "city": "Florence",
    "country": "Italy",
    "location": "Museo dell'Opera del Duomo",
    "kind": "museum",
    "attribution": "attributed",
    "status": "present",
    "genre": "religious art",
    "image": "https://commons.wikimedia.org/wiki/Special:FilePath/Duccio%20di%20Buoninsegna%20024.jpg?width=420",
    "wikidata": "https://www.wikidata.org/wiki/Q111821706",
    "creation_place": "Siena",
    "creation_lat": 43.3188,
    "creation_lon": 11.3308,
    "_source": {
     "source": "Wikidata",
     "url": "https://www.wikidata.org/wiki/Q111821706",
     "retrieved_at": "2026-08-23"
    },
    "_overrides": {
     "creation": {
      "at": "2026-08-23",
      "source": "derived from start date + Caravaggio's documented itinerary (approximate)"
     }
    },
    "museum_id": "museo-dell-opera-del-duomo",
    "qid": "Q111821706"
   }
  },
  {
   "type": "Feature",
   "geometry": {
    "type": "Point",
    "coordinates": [
     11.25582,
     43.7727
    ]
   },
   "properties": {
    "painter": "Duccio",
    "title": "Christ Appears to the Disciples on the Mountain in Galilee",
    "year": "1309",
    "city": "Florence",
    "country": "Italy",
    "location": "Museo dell'Opera del Duomo",
    "kind": "museum",
    "attribution": "attributed",
    "status": "present",
    "dimensions": "36.5 × 47.5 cm",
    "genre": "religious art",
    "image": "https://commons.wikimedia.org/wiki/Special:FilePath/Duccio%20di%20Buoninsegna%20016.jpg?width=420",
    "wikidata": "https://www.wikidata.org/wiki/Q111821727",
    "creation_place": "Siena",
    "creation_lat": 43.3188,
    "creation_lon": 11.3308,
    "_source": {
     "source": "Wikidata",
     "url": "https://www.wikidata.org/wiki/Q111821727",
     "retrieved_at": "2026-08-23"
    },
    "_overrides": {
     "creation": {
      "at": "2026-08-23",
      "source": "derived from start date + Caravaggio's documented itinerary (approximate)"
     }
    },
    "museum_id": "museo-dell-opera-del-duomo",
    "qid": "Q111821727"
   }
  },
  {
   "type": "Feature",
   "geometry": {
    "type": "Point",
    "coordinates": [
     11.25582,
     43.7727
    ]
   },
   "properties": {
    "painter": "Duccio",
    "title": "Christ Before Annas (top); Peter Denying Jesus (bottom)",
    "year": "1309",
    "city": "Florence",
    "country": "Italy",
    "location": "Museo dell'Opera del Duomo",
    "kind": "museum",
    "attribution": "attributed",
    "status": "present",
    "genre": "religious art",
    "image": "https://commons.wikimedia.org/wiki/Special:FilePath/Duccio%20di%20Buoninsegna%20026.jpg?width=420",
    "wikidata": "https://www.wikidata.org/wiki/Q111821732",
    "creation_place": "Siena",
    "creation_lat": 43.3188,
    "creation_lon": 11.3308,
    "_source": {
     "source": "Wikidata",
     "url": "https://www.wikidata.org/wiki/Q111821732",
     "retrieved_at": "2026-08-23"
    },
    "_overrides": {
     "creation": {
      "at": "2026-08-23",
      "source": "derived from start date + Caravaggio's documented itinerary (approximate)"
     }
    },
    "museum_id": "museo-dell-opera-del-duomo",
    "qid": "Q111821732"
   }
  },
  {
   "type": "Feature",
   "geometry": {
    "type": "Point",
    "coordinates": [
     11.25582,
     43.7727
    ]
   },
   "properties": {
    "painter": "Duccio",
    "title": "Christ before Pilate Again (top); Christ Before Herod (bottom)",
    "year": "1309",
    "city": "Florence",
    "country": "Italy",
    "location": "Museo dell'Opera del Duomo",
    "kind": "museum",
    "attribution": "attributed",
    "status": "present",
    "dimensions": "100 × 57 cm",
    "genre": "religious art",
    "image": "https://commons.wikimedia.org/wiki/Special:FilePath/Duccio%20di%20Buoninsegna%20027.jpg?width=420",
    "wikidata": "https://www.wikidata.org/wiki/Q111821733",
    "creation_place": "Siena",
    "creation_lat": 43.3188,
    "creation_lon": 11.3308,
    "_source": {
     "source": "Wikidata",
     "url": "https://www.wikidata.org/wiki/Q111821733",
     "retrieved_at": "2026-08-23"
    },
    "_overrides": {
     "creation": {
      "at": "2026-08-23",
      "source": "derived from start date + Caravaggio's documented itinerary (approximate)"
     }
    },
    "museum_id": "museo-dell-opera-del-duomo",
    "qid": "Q111821733"
   }
  },
  {
   "type": "Feature",
   "geometry": {
    "type": "Point",
    "coordinates": [
     11.25582,
     43.7727
    ]
   },
   "properties": {
    "painter": "Duccio",
    "title": "Christ Mocked (top); Christ Before Caiaphas (bottom)",
    "year": "1309",
    "city": "Florence",
    "country": "Italy",
    "location": "Museo dell'Opera del Duomo",
    "kind": "museum",
    "attribution": "attributed",
    "status": "present",
    "dimensions": "98.5 × 53.5 cm",
    "genre": "religious art",
    "image": "https://commons.wikimedia.org/wiki/Special:FilePath/Duccio%20di%20Buoninsegna%20035.jpg?width=420",
    "wikidata": "https://www.wikidata.org/wiki/Q111821745",
    "creation_place": "Siena",
    "creation_lat": 43.3188,
    "creation_lon": 11.3308,
    "_source": {
     "source": "Wikidata",
     "url": "https://www.wikidata.org/wiki/Q111821745",
     "retrieved_at": "2026-08-23"
    },
    "_overrides": {
     "creation": {
      "at": "2026-08-23",
      "source": "derived from start date + Caravaggio's documented itinerary (approximate)"
     }
    },
    "museum_id": "museo-dell-opera-del-duomo",
    "qid": "Q111821745"
   }
  },
  {
   "type": "Feature",
   "geometry": {
    "type": "Point",
    "coordinates": [
     11.25582,
     43.7727
    ]
   },
   "properties": {
    "painter": "Duccio",
    "title": "Christ Washes the Apostles' Feet (top); Last Supper (bottom)",
    "year": "1309",
    "city": "Florence",
    "country": "Italy",
    "location": "Museo dell'Opera del Duomo",
    "kind": "museum",
    "attribution": "attributed",
    "status": "present",
    "genre": "religious art",
    "image": "https://commons.wikimedia.org/wiki/Special:FilePath/Duccio%20di%20Buoninsegna%20029.jpg?width=420",
    "wikidata": "https://www.wikidata.org/wiki/Q111821761",
    "creation_place": "Siena",
    "creation_lat": 43.3188,
    "creation_lon": 11.3308,
    "_source": {
     "source": "Wikidata",
     "url": "https://www.wikidata.org/wiki/Q111821761",
     "retrieved_at": "2026-08-23"
    },
    "_overrides": {
     "creation": {
      "at": "2026-08-23",
      "source": "derived from start date + Caravaggio's documented itinerary (approximate)"
     }
    },
    "museum_id": "museo-dell-opera-del-duomo",
    "qid": "Q111821761"
   }
  },
  {
   "type": "Feature",
   "geometry": {
    "type": "Point",
    "coordinates": [
     11.25582,
     43.7727
    ]
   },
   "properties": {
    "painter": "Duccio",
    "title": "Jesus Appears on Lake Tiberias",
    "year": "1309",
    "city": "Florence",
    "country": "Italy",
    "location": "Museo dell'Opera del Duomo",
    "kind": "museum",
    "attribution": "attributed",
    "status": "present",
    "dimensions": "36.5 × 47.5 cm",
    "genre": "religious art",
    "image": "https://commons.wikimedia.org/wiki/Special:FilePath/Duccio%20di%20Buoninsegna%20015.jpg?width=420",
    "wikidata": "https://www.wikidata.org/wiki/Q111821911",
    "creation_place": "Siena",
    "creation_lat": 43.3188,
    "creation_lon": 11.3308,
    "_source": {
     "source": "Wikidata",
     "url": "https://www.wikidata.org/wiki/Q111821911",
     "retrieved_at": "2026-08-23"
    },
    "_overrides": {
     "creation": {
      "at": "2026-08-23",
      "source": "derived from start date + Caravaggio's documented itinerary (approximate)"
     }
    },
    "museum_id": "museo-dell-opera-del-duomo",
    "qid": "Q111821911"
   }
  },
  {
   "type": "Feature",
   "geometry": {
    "type": "Point",
    "coordinates": [
     11.25582,
     43.7727
    ]
   },
   "properties": {
    "painter": "Duccio",
    "title": "Pact of Judas (top); Christ Taking Leave of the Apostles (bottom)",
    "year": "1309",
    "city": "Florence",
    "country": "Italy",
    "location": "Museo dell'Opera del Duomo",
    "kind": "museum",
    "attribution": "attributed",
    "status": "present",
    "genre": "religious art",
    "image": "https://commons.wikimedia.org/wiki/Special:FilePath/Duccio%20di%20Buoninsegna%20034.jpg?width=420",
    "wikidata": "https://www.wikidata.org/wiki/Q111822044",
    "creation_place": "Siena",
    "creation_lat": 43.3188,
    "creation_lon": 11.3308,
    "_source": {
     "source": "Wikidata",
     "url": "https://www.wikidata.org/wiki/Q111822044",
     "retrieved_at": "2026-08-23"
    },
    "_overrides": {
     "creation": {
      "at": "2026-08-23",
      "source": "derived from start date + Caravaggio's documented itinerary (approximate)"
     }
    },
    "museum_id": "museo-dell-opera-del-duomo",
    "qid": "Q111822044"
   }
  },
  {
   "type": "Feature",
   "geometry": {
    "type": "Point",
    "coordinates": [
     11.25582,
     43.7727
    ]
   },
   "properties": {
    "painter": "Duccio",
    "title": "Pentecost",
    "year": "1309",
    "city": "Florence",
    "country": "Italy",
    "location": "Museo dell'Opera del Duomo",
    "kind": "museum",
    "attribution": "attributed",
    "status": "present",
    "genre": "religious art",
    "image": "https://commons.wikimedia.org/wiki/Special:FilePath/Duccio%20di%20Buoninsegna%20018.jpg?width=420",
    "wikidata": "https://www.wikidata.org/wiki/Q111822061",
    "creation_place": "Siena",
    "creation_lat": 43.3188,
    "creation_lon": 11.3308,
    "_source": {
     "source": "Wikidata",
     "url": "https://www.wikidata.org/wiki/Q111822061",
     "retrieved_at": "2026-08-23"
    },
    "_overrides": {
     "creation": {
      "at": "2026-08-23",
      "source": "derived from start date + Caravaggio's documented itinerary (approximate)"
     }
    },
    "museum_id": "museo-dell-opera-del-duomo",
    "qid": "Q111822061"
   }
  },
  {
   "type": "Feature",
   "geometry": {
    "type": "Point",
    "coordinates": [
     11.25582,
     43.7727
    ]
   },
   "properties": {
    "painter": "Duccio",
    "title": "Road to Calvalry (top); Pilate Washes His Hands (bottom)",
    "year": "1309",
    "city": "Florence",
    "country": "Italy",
    "location": "Museo dell'Opera del Duomo",
    "kind": "museum",
    "attribution": "attributed",
    "status": "present",
    "genre": "religious art",
    "image": "https://commons.wikimedia.org/wiki/Special:FilePath/Duccio%20di%20Buoninsegna%20023.jpg?width=420",
    "wikidata": "https://www.wikidata.org/wiki/Q111822109",
    "creation_place": "Siena",
    "creation_lat": 43.3188,
    "creation_lon": 11.3308,
    "_source": {
     "source": "Wikidata",
     "url": "https://www.wikidata.org/wiki/Q111822109",
     "retrieved_at": "2026-08-23"
    },
    "_overrides": {
     "creation": {
      "at": "2026-08-23",
      "source": "derived from start date + Caravaggio's documented itinerary (approximate)"
     }
    },
    "museum_id": "museo-dell-opera-del-duomo",
    "qid": "Q111822109"
   }
  },
  {
   "type": "Feature",
   "geometry": {
    "type": "Point",
    "coordinates": [
     11.25582,
     43.7727
    ]
   },
   "properties": {
    "painter": "Duccio",
    "title": "Road to Emmaus (top); Noli me tangere (bottom)",
    "year": "1309",
    "city": "Florence",
    "country": "Italy",
    "location": "Museo dell'Opera del Duomo",
    "kind": "museum",
    "attribution": "attributed",
    "status": "present",
    "genre": "religious art",
    "image": "https://commons.wikimedia.org/wiki/Special:FilePath/Duccio%20di%20Buoninsegna%20025.jpg?width=420",
    "wikidata": "https://www.wikidata.org/wiki/Q111822111",
    "creation_place": "Siena",
    "creation_lat": 43.3188,
    "creation_lon": 11.3308,
    "_source": {
     "source": "Wikidata",
     "url": "https://www.wikidata.org/wiki/Q111822111",
     "retrieved_at": "2026-08-23"
    },
    "_overrides": {
     "creation": {
      "at": "2026-08-23",
      "source": "derived from start date + Caravaggio's documented itinerary (approximate)"
     }
    },
    "museum_id": "museo-dell-opera-del-duomo",
    "qid": "Q111822111"
   }
  },
  {
   "type": "Feature",
   "geometry": {
    "type": "Point",
    "coordinates": [
     11.25582,
     43.7727
    ]
   },
   "properties": {
    "painter": "Duccio",
    "title": "Three Marys at the Tomb (top); Descent into Hell (bottom)",
    "year": "1309",
    "city": "Florence",
    "country": "Italy",
    "location": "Museo dell'Opera del Duomo",
    "kind": "museum",
    "attribution": "attributed",
    "status": "present",
    "genre": "religious art",
    "image": "https://commons.wikimedia.org/wiki/Special:FilePath/Duccio%20di%20Buoninsegna%20028.jpg?width=420",
    "wikidata": "https://www.wikidata.org/wiki/Q111822211",
    "creation_place": "Siena",
    "creation_lat": 43.3188,
    "creation_lon": 11.3308,
    "_source": {
     "source": "Wikidata",
     "url": "https://www.wikidata.org/wiki/Q111822211",
     "retrieved_at": "2026-08-23"
    },
    "_overrides": {
     "creation": {
      "at": "2026-08-23",
      "source": "derived from start date + Caravaggio's documented itinerary (approximate)"
     }
    },
    "museum_id": "museo-dell-opera-del-duomo",
    "qid": "Q111822211"
   }
  },
  {
   "type": "Feature",
   "geometry": {
    "type": "Point",
    "coordinates": [
     11.39932,
     43.34748
    ]
   },
   "properties": {
    "painter": "Duccio",
    "title": "Disputation with the Doctors",
    "year": "1309",
    "city": "Siena",
    "country": "Italy",
    "location": "Museo dell'Opera Metropolitana del Duomo",
    "kind": "museum",
    "attribution": "attributed",
    "status": "present",
    "medium": "Panel",
    "dimensions": "42.5 × 43 cm",
    "genre": "religious art",
    "image": "https://commons.wikimedia.org/wiki/Special:FilePath/Duccio%20di%20Buoninsegna%20-%20Disputation%20with%20the%20Doctors%20-%20WGA06768.jpg?width=420",
    "wikidata": "https://www.wikidata.org/wiki/Q112181499",
    "creation_place": "Siena",
    "creation_lat": 43.3188,
    "creation_lon": 11.3308,
    "_source": {
     "source": "Wikidata",
     "url": "https://www.wikidata.org/wiki/Q112181499",
     "retrieved_at": "2026-08-23"
    },
    "_overrides": {
     "creation": {
      "at": "2026-08-23",
      "source": "derived from start date + Caravaggio's documented itinerary (approximate)"
     }
    },
    "museum_id": "museo-dell-opera-metropolitana-del-duomo",
    "qid": "Q112181499",
    "wga_url": "https://www.wga.hu/html/d/duccio/maesta/predel_f/pre_f_n.html"
   }
  },
  {
   "type": "Feature",
   "geometry": {
    "type": "Point",
    "coordinates": [
     6.24112,
     51.87431
    ]
   },
   "properties": {
    "painter": "Duccio",
    "title": "Angel",
    "year": "1309",
    "city": "Montferland",
    "country": "Netherlands",
    "location": "Castle Huis Bergh",
    "kind": "museum",
    "attribution": "attributed",
    "status": "present",
    "medium": "Oil on panel",
    "dimensions": "30 × 18.3 cm",
    "genre": "religious art",
    "image": "https://commons.wikimedia.org/wiki/Special:FilePath/Duccio%20di%20Buoninsegna%20-%20Paneelschildering%20%22Engel%22%20tempera%20op%20hout%20door%20Duccio%20di%20Buoninsegna%2C%20circa%201308-1311%2C%20Siena%20-%200010%20-%20Huis%20Bergh.jpg?width=420",
    "wikidata": "https://www.wikidata.org/wiki/Q112965960",
    "creation_place": "Siena",
    "creation_lat": 43.3188,
    "creation_lon": 11.3308,
    "_source": {
     "source": "Wikidata",
     "url": "https://www.wikidata.org/wiki/Q112965960",
     "retrieved_at": "2026-08-23"
    },
    "_overrides": {
     "creation": {
      "at": "2026-08-23",
      "source": "derived from start date + Caravaggio's documented itinerary (approximate)"
     }
    },
    "museum_id": "castle-huis-bergh",
    "qid": "Q112965960"
   }
  },
  {
   "type": "Feature",
   "geometry": {
    "type": "Point",
    "coordinates": [
     11.39932,
     43.34748
    ]
   },
   "properties": {
    "painter": "Duccio",
    "title": "Cathedral",
    "city": "Siena",
    "country": "Italy",
    "location": "Museo dell'Opera Metropolitana del Duomo",
    "kind": "museum",
    "attribution": "attributed",
    "status": "present",
    "medium": "Panel",
    "dimensions": "41.5 × 54 cm",
    "image": "https://commons.wikimedia.org/wiki/Special:FilePath/Duccio%20di%20Buoninsegna%20048.jpg?width=420",
    "wikidata": "https://www.wikidata.org/wiki/Q115596739",
    "_source": {
     "source": "Wikidata",
     "url": "https://www.wikidata.org/wiki/Q115596739",
     "retrieved_at": "2026-08-23"
    },
    "museum_id": "museo-dell-opera-metropolitana-del-duomo",
    "qid": "Q115596739"
   }
  },
  {
   "type": "Feature",
   "geometry": {
    "type": "Point",
    "coordinates": [
     11.39932,
     43.34748
    ]
   },
   "properties": {
    "painter": "Duccio",
    "title": "Cathedral",
    "city": "Siena",
    "country": "Italy",
    "location": "Museo dell'Opera Metropolitana del Duomo",
    "kind": "museum",
    "attribution": "attributed",
    "status": "present",
    "dimensions": "41.5 × 54 cm",
    "image": "https://commons.wikimedia.org/wiki/Special:FilePath/Duccio%20di%20Buoninsegna%20047.jpg?width=420",
    "wikidata": "https://www.wikidata.org/wiki/Q115597692",
    "_source": {
     "source": "Wikidata",
     "url": "https://www.wikidata.org/wiki/Q115597692",
     "retrieved_at": "2026-08-23"
    },
    "museum_id": "museo-dell-opera-metropolitana-del-duomo",
    "qid": "Q115597692"
   }
  },
  {
   "type": "Feature",
   "geometry": {
    "type": "Point",
    "coordinates": [
     11.39932,
     43.34748
    ]
   },
   "properties": {
    "painter": "Duccio",
    "title": "Q117864570",
    "city": "Siena",
    "country": "Italy",
    "location": "Museo dell'Opera Metropolitana del Duomo",
    "kind": "museum",
    "attribution": "attributed",
    "status": "present",
    "dimensions": "41.5 × 54 cm",
    "genre": "religious art",
    "image": "https://commons.wikimedia.org/wiki/Special:FilePath/Duccio%20di%20Buoninsegna%20043.jpg?width=420",
    "wikidata": "https://www.wikidata.org/wiki/Q117864570",
    "_source": {
     "source": "Wikidata",
     "url": "https://www.wikidata.org/wiki/Q117864570",
     "retrieved_at": "2026-08-23"
    },
    "museum_id": "museo-dell-opera-metropolitana-del-duomo",
    "qid": "Q117864570",
    "_merged": [
     {
      "source": "Wikidata",
      "title": "Abschied Mariä von den Aposteln",
      "qid": "Q117864570",
      "url": "https://www.wikidata.org/wiki/Q117864570"
     }
    ]
   }
  },
  {
   "type": "Feature",
   "geometry": {
    "type": "Point",
    "coordinates": [
     -2.24139,
     53.47861
    ]
   },
   "properties": {
    "painter": "Duccio",
    "title": "The Crucifixion",
    "year": "1322",
    "city": "Manchester",
    "country": "United Kingdom",
    "location": "Manchester Art Gallery",
    "kind": "museum",
    "attribution": "attributed",
    "status": "present",
    "medium": "Panel",
    "dimensions": "59.7 × 38 cm",
    "genre": "religious art",
    "image": "https://commons.wikimedia.org/wiki/Special:FilePath/Master%20of%20Citt%C3%A0%20di%20Castello%20%28active%20c.1290-c.1325%29%20-%20The%20Crucifixion%20%28previously%20attributed%20to%20school%20of%20Duccio%2C%20c.1255%E2%80%93before%201319%29%20-%201984.53%20-%20Manchester%20Art%20Gallery.jpg?width=420",
    "wikidata": "https://www.wikidata.org/wiki/Q118591311",
    "_source": {
     "source": "Wikidata",
     "url": "https://www.wikidata.org/wiki/Q118591311",
     "retrieved_at": "2026-08-23"
    },
    "museum_id": "manchester-art-gallery",
    "qid": "Q118591311"
   }
  },
  {
   "type": "Feature",
   "geometry": {
    "type": "Point",
    "coordinates": [
     11.39932,
     43.34748
    ]
   },
   "properties": {
    "painter": "Duccio",
    "title": "The Wedding at Cana",
    "year": "1308",
    "city": "Siena",
    "country": "Italy",
    "location": "Museo dell'Opera Metropolitana del Duomo",
    "kind": "museum",
    "attribution": "generally accepted",
    "status": "present",
    "medium": "Panel",
    "dimensions": "43.5 × 46.5 cm",
    "genre": "religious art",
    "image": "https://commons.wikimedia.org/wiki/Special:FilePath/Duccio%20di%20Buoninsegna%20038.jpg?width=420",
    "wikipedia_it": "https://it.wikipedia.org/wiki/Nozze_di_Cana_(Duccio)",
    "wikidata": "https://www.wikidata.org/wiki/Q11931777",
    "creation_place": "Siena",
    "creation_lat": 43.3188,
    "creation_lon": 11.3308,
    "_source": {
     "source": "Wikidata",
     "url": "https://www.wikidata.org/wiki/Q11931777",
     "retrieved_at": "2026-08-23"
    },
    "_overrides": {
     "creation": {
      "at": "2026-08-23",
      "source": "derived from start date + Caravaggio's documented itinerary (approximate)"
     }
    },
    "museum_id": "museo-dell-opera-metropolitana-del-duomo",
    "qid": "Q11931777",
    "wga_url": "https://www.wga.hu/html/d/duccio/maesta/predel_v/pre_v_e1.html"
   }
  },
  {
   "type": "Feature",
   "geometry": {
    "type": "Point",
    "coordinates": [
     -0.11747,
     51.51175
    ]
   },
   "properties": {
    "painter": "Duccio",
    "title": "Virgin and Child",
    "year": "1900",
    "city": "London",
    "country": "United Kingdom",
    "location": "Courtauld Gallery",
    "kind": "museum",
    "attribution": "attributed",
    "status": "present",
    "medium": "Oil on panel",
    "dimensions": "36.5 × 19.9 cm",
    "genre": "religious art",
    "image": "https://commons.wikimedia.org/wiki/Special:FilePath/Duccio%20%28c.1255-before%201319%29%20%28forgery%20of%29%20-%20Virgin%20and%20Child%20-%20P.1948.XX.98%20-%20Courtauld%20Gallery.jpg?width=420",
    "wikidata": "https://www.wikidata.org/wiki/Q119527494",
    "_source": {
     "source": "Wikidata",
     "url": "https://www.wikidata.org/wiki/Q119527494",
     "retrieved_at": "2026-08-23"
    },
    "museum_id": "courtauld-gallery",
    "qid": "Q119527494"
   }
  },
  {
   "type": "Feature",
   "geometry": {
    "type": "Point",
    "coordinates": [
     11.39932,
     43.34748
    ]
   },
   "properties": {
    "painter": "Duccio",
    "title": "Dormition of the Virgin",
    "city": "Siena",
    "country": "Italy",
    "location": "Museo dell'Opera Metropolitana del Duomo",
    "kind": "museum",
    "attribution": "attributed",
    "status": "present",
    "genre": "religious art",
    "image": "https://commons.wikimedia.org/wiki/Special:FilePath/Duccio%20Maesta%20detail%20cro%20f%20f1.jpg?width=420",
    "wikidata": "https://www.wikidata.org/wiki/Q130551686",
    "_source": {
     "source": "Wikidata",
     "url": "https://www.wikidata.org/wiki/Q130551686",
     "retrieved_at": "2026-08-23"
    },
    "museum_id": "museo-dell-opera-metropolitana-del-duomo",
    "qid": "Q130551686"
   }
  },
  {
   "type": "Feature",
   "geometry": {
    "type": "Point",
    "coordinates": [
     11.328694,
     43.317583
    ]
   },
   "properties": {
    "painter": "Duccio",
    "title": "Christ Accused by the Pharisees",
    "city": "Siena",
    "country": "Italy",
    "location": "Siena Cathedral",
    "kind": "church",
    "attribution": "attributed",
    "status": "present",
    "wikidata": "https://www.wikidata.org/wiki/Q131564617",
    "_source": {
     "source": "Wikidata",
     "url": "https://www.wikidata.org/wiki/Q131564617",
     "retrieved_at": "2026-08-23"
    },
    "museum_id": "siena-cathedral",
    "qid": "Q131564617"
   }
  },
  {
   "type": "Feature",
   "geometry": {
    "type": "Point",
    "coordinates": [
     11.328694,
     43.317583
    ]
   },
   "properties": {
    "painter": "Duccio",
    "title": "Christ appearing at the Apostles' table",
    "city": "Siena",
    "country": "Italy",
    "location": "Siena Cathedral",
    "kind": "church",
    "attribution": "attributed",
    "status": "present",
    "wikidata": "https://www.wikidata.org/wiki/Q131564871",
    "_source": {
     "source": "Wikidata",
     "url": "https://www.wikidata.org/wiki/Q131564871",
     "retrieved_at": "2026-08-23"
    },
    "museum_id": "siena-cathedral",
    "qid": "Q131564871"
   }
  },
  {
   "type": "Feature",
   "geometry": {
    "type": "Point",
    "coordinates": [
     11.33194,
     43.31801
    ]
   },
   "properties": {
    "painter": "Duccio",
    "title": "Capture of Castle",
    "year": "1314",
    "city": "Siena",
    "country": "Italy",
    "location": "Palazzo Pubblico",
    "kind": "museum",
    "attribution": "attributed",
    "status": "present",
    "medium": "Fresco painting",
    "wikidata": "https://www.wikidata.org/wiki/Q131613832",
    "creation_place": "Siena",
    "creation_lat": 43.3188,
    "creation_lon": 11.3308,
    "_source": {
     "source": "Wikidata",
     "url": "https://www.wikidata.org/wiki/Q131613832",
     "retrieved_at": "2026-08-23"
    },
    "_overrides": {
     "creation": {
      "at": "2026-08-23",
      "source": "derived from start date + Caravaggio's documented itinerary (approximate)"
     }
    },
    "museum_id": "palazzo-pubblico",
    "qid": "Q131613832"
   }
  },
  {
   "type": "Feature",
   "geometry": {
    "type": "Point",
    "coordinates": [
     10.887944,
     43.049694
    ]
   },
   "properties": {
    "painter": "Duccio",
    "title": "Massa Marittima Maestà",
    "city": "Massa Marittima",
    "country": "Italy",
    "location": "Massa Marittima Cathedral",
    "kind": "church",
    "attribution": "attributed",
    "status": "present",
    "wikidata": "https://www.wikidata.org/wiki/Q132148011",
    "_source": {
     "source": "Wikidata",
     "url": "https://www.wikidata.org/wiki/Q132148011",
     "retrieved_at": "2026-08-23"
    },
    "museum_id": "massa-marittima-cathedral",
    "qid": "Q132148011"
   }
  },
  {
   "type": "Feature",
   "geometry": {
    "type": "Point",
    "coordinates": [
     -72.5727,
     42.2568
    ]
   },
   "properties": {
    "painter": "Duccio",
    "title": "Angel",
    "year": "1400",
    "city": "South Hadley",
    "country": "United States",
    "location": "Mount Holyoke College Art Museum",
    "kind": "museum",
    "attribution": "attributed",
    "status": "present",
    "medium": "Panel",
    "dimensions": "18.4 × 17.8 cm",
    "genre": "religious art",
    "image": "https://commons.wikimedia.org/wiki/Special:FilePath/Duccio%20Di%20Buoninsegna%20-%20Maesta%20backside%20Angel.jpg?width=420",
    "wikidata": "https://www.wikidata.org/wiki/Q136752203",
    "_source": {
     "source": "Wikidata",
     "url": "https://www.wikidata.org/wiki/Q136752203",
     "retrieved_at": "2026-08-23"
    },
    "museum_id": "mount-holyoke-college-art-museum",
    "qid": "Q136752203"
   }
  },
  {
   "type": "Feature",
   "geometry": {
    "type": "Point",
    "coordinates": [
     4.41625,
     50.83514
    ]
   },
   "properties": {
    "painter": "Duccio",
    "title": "Angel",
    "year": "1400",
    "city": "Woluwe-Saint-Pierre",
    "country": "Belgium",
    "location": "Stoclet Palace",
    "kind": "museum",
    "attribution": "attributed",
    "status": "present",
    "dimensions": "22.2 × 18.5 cm",
    "genre": "religious art",
    "image": "https://commons.wikimedia.org/wiki/Special:FilePath/Duccio%20-%20Angelo%2C%20Collezione%20A.%20Stoclet.jpg?width=420",
    "wikidata": "https://www.wikidata.org/wiki/Q136753238",
    "_source": {
     "source": "Wikidata",
     "url": "https://www.wikidata.org/wiki/Q136753238",
     "retrieved_at": "2026-08-23"
    },
    "museum_id": "stoclet-palace",
    "qid": "Q136753238"
   }
  },
  {
   "type": "Feature",
   "geometry": {
    "type": "Point",
    "coordinates": [
     4.8853,
     52.36
    ]
   },
   "properties": {
    "painter": "Duccio",
    "title": "Maria met kind",
    "year": "1305",
    "city": "Amsterdam",
    "country": "Netherlands",
    "location": "Rijksmuseum",
    "kind": "museum",
    "attribution": "attributed",
    "status": "present",
    "genre": "religious art",
    "image": "https://commons.wikimedia.org/wiki/Special:FilePath/Duccio%20di%20Buoninsigna%20-%20Maria%20met%20kind%20-%20SK-A-3996%20-%20Rijksmuseum.jpg?width=420",
    "wikidata": "https://www.wikidata.org/wiki/Q18579294",
    "creation_place": "Siena",
    "creation_lat": 43.3188,
    "creation_lon": 11.3308,
    "_source": {
     "source": "Wikidata",
     "url": "https://www.wikidata.org/wiki/Q18579294",
     "retrieved_at": "2026-08-23"
    },
    "_overrides": {
     "creation": {
      "at": "2026-08-23",
      "source": "derived from start date + Caravaggio's documented itinerary (approximate)"
     }
    },
    "museum_id": "rijksmuseum",
    "qid": "Q18579294"
   }
  },
  {
   "type": "Feature",
   "geometry": {
    "type": "Point",
    "coordinates": [
     -3.69493,
     40.41604
    ]
   },
   "properties": {
    "painter": "Duccio",
    "title": "Christ and the Samaritan Woman",
    "year": "1310",
    "city": "Madrid",
    "country": "Spain",
    "location": "Thyssen-Bornemisza Museum",
    "kind": "museum",
    "attribution": "generally accepted",
    "status": "present",
    "medium": "Panel",
    "dimensions": "43.5 × 46 cm",
    "genre": "religious art",
    "image": "https://commons.wikimedia.org/wiki/Special:FilePath/Duccio%20di%20Buoninsegna%20-%20Christ%20and%20the%20Samaritan%20Woman%20-%20Google%20Art%20Project.jpg?width=420",
    "wikipedia_es": "https://es.wikipedia.org/wiki/Cristo_y_la_samaritana_(Duccio)",
    "wikidata": "https://www.wikidata.org/wiki/Q18684720",
    "creation_place": "Siena",
    "creation_lat": 43.3188,
    "creation_lon": 11.3308,
    "_source": {
     "source": "Wikidata",
     "url": "https://www.wikidata.org/wiki/Q18684720",
     "retrieved_at": "2026-08-23"
    },
    "_overrides": {
     "creation": {
      "at": "2026-08-23",
      "source": "derived from start date + Caravaggio's documented itinerary (approximate)"
     }
    },
    "museum_id": "thyssen-bornemisza-museum",
    "qid": "Q18684720",
    "wga_url": "https://www.wga.hu/html/d/duccio/maesta/predel_v/pre_v_f1.html"
   }
  },
  {
   "type": "Feature",
   "geometry": {
    "type": "Point",
    "coordinates": [
     -73.9672,
     40.7711
    ]
   },
   "properties": {
    "painter": "Duccio",
    "title": "The Temptation of Christ on the Mountain",
    "year": "1309",
    "city": "New York",
    "country": "United States",
    "location": "Frick Collection",
    "kind": "museum",
    "attribution": "attributed",
    "status": "present",
    "medium": "Panel",
    "dimensions": "43 × 46 cm",
    "genre": "religious art",
    "image": "https://commons.wikimedia.org/wiki/Special:FilePath/Duccio%20-%20The%20Temptation%20on%20the%20Mount.jpg?width=420",
    "wikidata": "https://www.wikidata.org/wiki/Q19857218",
    "creation_place": "Siena",
    "creation_lat": 43.3188,
    "creation_lon": 11.3308,
    "_source": {
     "source": "Wikidata",
     "url": "https://www.wikidata.org/wiki/Q19857218",
     "retrieved_at": "2026-08-23"
    },
    "_overrides": {
     "creation": {
      "at": "2026-08-23",
      "source": "derived from start date + Caravaggio's documented itinerary (approximate)"
     }
    },
    "museum_id": "frick-collection",
    "qid": "Q19857218",
    "wga_url": "https://www.wga.hu/html/d/duccio/maesta/predel_v/pre_v_3.html"
   }
  },
  {
   "type": "Feature",
   "geometry": {
    "type": "Point",
    "coordinates": [
     -71.09417,
     42.33944
    ]
   },
   "properties": {
    "painter": "Duccio",
    "title": "Triptych: the Crucifixion; the Redeemer with Angels; Saint Nicholas; Saint Gregory",
    "year": "1305",
    "city": "Boston",
    "country": "United States",
    "location": "Museum of Fine Arts Boston",
    "kind": "museum",
    "attribution": "attributed",
    "status": "present",
    "medium": "Panel",
    "dimensions": "61 × 78.8 cm",
    "genre": "religious art",
    "image": "https://commons.wikimedia.org/wiki/Special:FilePath/Duccio%20di%20Buoninsegna%20003.jpg?width=420",
    "wikidata": "https://www.wikidata.org/wiki/Q20539148",
    "creation_place": "Siena",
    "creation_lat": 43.3188,
    "creation_lon": 11.3308,
    "_source": {
     "source": "Wikidata",
     "url": "https://www.wikidata.org/wiki/Q20539148",
     "retrieved_at": "2026-08-23"
    },
    "_overrides": {
     "creation": {
      "at": "2026-08-23",
      "source": "derived from start date + Caravaggio's documented itinerary (approximate)"
     }
    },
    "museum_id": "museum-of-fine-arts-boston",
    "qid": "Q20539148"
   }
  },
  {
   "type": "Feature",
   "geometry": {
    "type": "Point",
    "coordinates": [
     -0.1283,
     51.5089
    ]
   },
   "properties": {
    "painter": "Duccio",
    "title": "The Healing of the Man Born Blind",
    "year": "1300",
    "city": "London",
    "country": "United Kingdom",
    "location": "National Gallery",
    "kind": "museum",
    "attribution": "attributed",
    "status": "present",
    "medium": "Panel",
    "dimensions": "43 × 45 cm",
    "genre": "religious art",
    "image": "https://commons.wikimedia.org/wiki/Special:FilePath/Duccio%20di%20Buoninsegna%20037.jpg?width=420",
    "wikidata": "https://www.wikidata.org/wiki/Q26678230",
    "creation_place": "Siena",
    "creation_lat": 43.3188,
    "creation_lon": 11.3308,
    "_source": {
     "source": "Wikidata",
     "url": "https://www.wikidata.org/wiki/Q26678230",
     "retrieved_at": "2026-08-23"
    },
    "_overrides": {
     "creation": {
      "at": "2026-08-23",
      "source": "derived from start date + Caravaggio's documented itinerary (approximate)"
     }
    },
    "museum_id": "national-gallery",
    "qid": "Q26678230",
    "wga_url": "https://www.wga.hu/html/d/duccio/maesta/predel_v/pre_v_g.html"
   }
  },
  {
   "type": "Feature",
   "geometry": {
    "type": "Point",
    "coordinates": [
     -0.1283,
     51.5089
    ]
   },
   "properties": {
    "painter": "Duccio",
    "title": "The Virgin and Child with Saints Dominic and Aurea",
    "year": "1313",
    "city": "London",
    "country": "United Kingdom",
    "location": "National Gallery",
    "kind": "museum",
    "attribution": "attributed",
    "status": "present",
    "medium": "Panel",
    "dimensions": "61.5 × 78 cm",
    "genre": "religious art",
    "image": "https://commons.wikimedia.org/wiki/Special:FilePath/Duccio%20di%20buoninsegna%2C%20madonna%20col%20bambino%20tra%20i%20ss.%20domenico%20e%20aurea%2C%201315%20ca.%2001.jpg?width=420",
    "wikidata": "https://www.wikidata.org/wiki/Q26692914",
    "creation_place": "Siena",
    "creation_lat": 43.3188,
    "creation_lon": 11.3308,
    "_source": {
     "source": "Wikidata",
     "url": "https://www.wikidata.org/wiki/Q26692914",
     "retrieved_at": "2026-08-23"
    },
    "_overrides": {
     "creation": {
      "at": "2026-08-23",
      "source": "derived from start date + Caravaggio's documented itinerary (approximate)"
     }
    },
    "museum_id": "national-gallery",
    "qid": "Q26692914",
    "wga_url": "https://www.wga.hu/html/d/duccio/8london.html"
   }
  },
  {
   "type": "Feature",
   "geometry": {
    "type": "Point",
    "coordinates": [
     -0.1283,
     51.5089
    ]
   },
   "properties": {
    "painter": "Duccio",
    "title": "The Annunciation",
    "year": "1300",
    "city": "London",
    "country": "United Kingdom",
    "location": "National Gallery",
    "kind": "museum",
    "attribution": "attributed",
    "status": "present",
    "medium": "Panel",
    "dimensions": "43 × 44 cm",
    "genre": "religious art",
    "image": "https://commons.wikimedia.org/wiki/Special:FilePath/Duccio%20di%20Buoninsegna%20068.jpg?width=420",
    "wikidata": "https://www.wikidata.org/wiki/Q26706454",
    "creation_place": "Siena",
    "creation_lat": 43.3188,
    "creation_lon": 11.3308,
    "_source": {
     "source": "Wikidata",
     "url": "https://www.wikidata.org/wiki/Q26706454",
     "retrieved_at": "2026-08-23"
    },
    "_overrides": {
     "creation": {
      "at": "2026-08-23",
      "source": "derived from start date + Caravaggio's documented itinerary (approximate)"
     }
    },
    "museum_id": "national-gallery",
    "qid": "Q26706454",
    "wga_url": "https://www.wga.hu/html/d/duccio/maesta/predel_f/pre_f_a2.html"
   }
  },
  {
   "type": "Feature",
   "geometry": {
    "type": "Point",
    "coordinates": [
     -0.1283,
     51.5089
    ]
   },
   "properties": {
    "painter": "Duccio",
    "title": "The Transfiguration",
    "year": "1300",
    "city": "London",
    "country": "United Kingdom",
    "location": "National Gallery",
    "kind": "museum",
    "attribution": "attributed",
    "status": "present",
    "medium": "Panel",
    "dimensions": "48 × 50.5 cm",
    "genre": "religious art",
    "image": "https://commons.wikimedia.org/wiki/Special:FilePath/Duccio%20di%20Buoninsegna%20039.jpg?width=420",
    "wikidata": "https://www.wikidata.org/wiki/Q26707719",
    "creation_place": "Siena",
    "creation_lat": 43.3188,
    "creation_lon": 11.3308,
    "_source": {
     "source": "Wikidata",
     "url": "https://www.wikidata.org/wiki/Q26707719",
     "retrieved_at": "2026-08-23"
    },
    "_overrides": {
     "creation": {
      "at": "2026-08-23",
      "source": "derived from start date + Caravaggio's documented itinerary (approximate)"
     }
    },
    "museum_id": "national-gallery",
    "qid": "Q26707719",
    "wga_url": "https://www.wga.hu/html/d/duccio/maesta/predel_v/pre_v_h.html"
   }
  },
  {
   "type": "Feature",
   "geometry": {
    "type": "Point",
    "coordinates": [
     -0.3375,
     51.4034
    ]
   },
   "properties": {
    "painter": "Duccio",
    "title": "Triptych: Crucifixion and other Scenes",
    "year": "1302",
    "city": "London Borough of Richmond upon Thames",
    "country": "United Kingdom",
    "location": "Hampton Court Palace",
    "kind": "museum",
    "attribution": "attributed",
    "status": "present",
    "medium": "Panel",
    "dimensions": "44.9 × 31.4 cm",
    "genre": "religious art",
    "image": "https://commons.wikimedia.org/wiki/Special:FilePath/Duccio%20di%20Buoninsegna%20%28active%201278%20-%20before%201319%29%20-%20Triptych%2C%20Crucifixion%20and%20other%20Scenes%20-%20RCIN%20400095%20-%20Royal%20Collection.jpg?width=420",
    "wikidata": "https://www.wikidata.org/wiki/Q28016108",
    "creation_place": "Siena",
    "creation_lat": 43.3188,
    "creation_lon": 11.3308,
    "_source": {
     "source": "Wikidata",
     "url": "https://www.wikidata.org/wiki/Q28016108",
     "retrieved_at": "2026-08-23"
    },
    "_overrides": {
     "creation": {
      "at": "2026-08-23",
      "source": "derived from start date + Caravaggio's documented itinerary (approximate)"
     }
    },
    "museum_id": "hampton-court-palace",
    "qid": "Q28016108"
   }
  },
  {
   "type": "Feature",
   "geometry": {
    "type": "Point",
    "coordinates": [
     11.39932,
     43.34748
    ]
   },
   "properties": {
    "painter": "Duccio",
    "title": "Three Marys at the Tomb",
    "year": "1310",
    "city": "Siena",
    "country": "Italy",
    "location": "Museo dell'Opera Metropolitana del Duomo",
    "kind": "museum",
    "attribution": "attributed",
    "status": "present",
    "medium": "Panel",
    "dimensions": "51 × 53.5 cm",
    "genre": "religious art",
    "image": "https://commons.wikimedia.org/wiki/Special:FilePath/Duccio%20di%20Buoninsegna%20-%20The%20Three%20Marys%20at%20the%20Tomb%20-%20WGA06817.jpg?width=420",
    "wikidata": "https://www.wikidata.org/wiki/Q35560084",
    "creation_place": "Siena",
    "creation_lat": 43.3188,
    "creation_lon": 11.3308,
    "_source": {
     "source": "Wikidata",
     "url": "https://www.wikidata.org/wiki/Q35560084",
     "retrieved_at": "2026-08-23"
    },
    "_overrides": {
     "creation": {
      "at": "2026-08-23",
      "source": "derived from start date + Caravaggio's documented itinerary (approximate)"
     }
    },
    "museum_id": "museo-dell-opera-metropolitana-del-duomo",
    "qid": "Q35560084",
    "wga_url": "https://www.wga.hu/html/d/duccio/maesta/verso_3/verso23.html"
   }
  },
  {
   "type": "Feature",
   "geometry": {
    "type": "Point",
    "coordinates": [
     11.39932,
     43.34748
    ]
   },
   "properties": {
    "painter": "Duccio",
    "title": "Madonna di Crevole",
    "year": "1283",
    "city": "Siena",
    "country": "Italy",
    "location": "Museo dell'Opera Metropolitana del Duomo",
    "kind": "museum",
    "attribution": "generally accepted",
    "status": "present",
    "medium": "Panel",
    "dimensions": "89 × 60 cm",
    "genre": "religious art",
    "image": "https://commons.wikimedia.org/wiki/Special:FilePath/Duccio%20%E2%80%94%20Crevole%20Madonna.jpg?width=420",
    "wikipedia_en": "https://en.wikipedia.org/wiki/Crevole_Madonna",
    "wikipedia_it": "https://it.wikipedia.org/wiki/Madonna_di_Crevole",
    "wikidata": "https://www.wikidata.org/wiki/Q3842715",
    "creation_place": "Siena",
    "creation_lat": 43.3188,
    "creation_lon": 11.3308,
    "_source": {
     "source": "Wikidata",
     "url": "https://www.wikidata.org/wiki/Q3842715",
     "retrieved_at": "2026-08-23"
    },
    "_overrides": {
     "creation": {
      "at": "2026-08-23",
      "source": "derived from start date + Caravaggio's documented itinerary (approximate)"
     }
    },
    "museum_id": "museo-dell-opera-metropolitana-del-duomo",
    "qid": "Q3842715",
    "wga_url": "https://www.wga.hu/html/d/duccio/various/2crevola.html"
   }
  },
  {
   "type": "Feature",
   "geometry": {
    "type": "Point",
    "coordinates": [
     -77.02,
     38.8914
    ]
   },
   "properties": {
    "painter": "Duccio",
    "title": "The Nativity with the Prophets Isaiah and Ezekiel",
    "year": "1308",
    "city": "Washington",
    "country": "United States",
    "location": "National Gallery of Art",
    "kind": "museum",
    "attribution": "generally accepted",
    "status": "present",
    "medium": "Panel",
    "dimensions": "48 × 87 cm",
    "genre": "religious art",
    "image": "https://commons.wikimedia.org/wiki/Special:FilePath/Duccio%20di%20Buoninsegna%20-%20The%20Nativity%20with%20the%20Prophets%20Isaiah%20and%20Ezekiel%20-%20Google%20Art%20Project.jpg?width=420",
    "wikipedia_it": "https://it.wikipedia.org/wiki/Nativit%C3%A0_tra_i_profeti_Isaia_ed_Ezechiele",
    "wikidata": "https://www.wikidata.org/wiki/Q3873252",
    "creation_place": "Siena",
    "creation_lat": 43.3188,
    "creation_lon": 11.3308,
    "_source": {
     "source": "Wikidata",
     "url": "https://www.wikidata.org/wiki/Q3873252",
     "retrieved_at": "2026-08-23"
    },
    "_overrides": {
     "creation": {
      "at": "2026-08-23",
      "source": "derived from start date + Caravaggio's documented itinerary (approximate)"
     }
    },
    "museum_id": "national-gallery-of-art",
    "qid": "Q3873252",
    "wga_url": "https://www.wga.hu/html/d/duccio/maesta/predel_f/pre_f_b.html"
   }
  },
  {
   "type": "Feature",
   "geometry": {
    "type": "Point",
    "coordinates": [
     11.33043,
     43.31566
    ]
   },
   "properties": {
    "painter": "Duccio",
    "title": "Madonna and Child with Saints",
    "year": "1300",
    "city": "Siena",
    "country": "Italy",
    "location": "Pinacoteca Nazionale, Siena",
    "kind": "museum",
    "attribution": "generally accepted",
    "status": "present",
    "medium": "Panel",
    "dimensions": "128 × 234 cm",
    "genre": "religious art",
    "image": "https://commons.wikimedia.org/wiki/Special:FilePath/Duccio%20The-Madonna-and-Child-with-Saints-138.jpg?width=420",
    "wikipedia_it": "https://it.wikipedia.org/wiki/Polittico_n._28",
    "wikidata": "https://www.wikidata.org/wiki/Q3907537",
    "creation_place": "Siena",
    "creation_lat": 43.3188,
    "creation_lon": 11.3308,
    "_source": {
     "source": "Wikidata",
     "url": "https://www.wikidata.org/wiki/Q3907537",
     "retrieved_at": "2026-08-23"
    },
    "_overrides": {
     "creation": {
      "at": "2026-08-23",
      "source": "derived from start date + Caravaggio's documented itinerary (approximate)"
     }
    },
    "museum_id": "pinacoteca-nazionale-siena",
    "qid": "Q3907537"
   }
  },
  {
   "type": "Feature",
   "geometry": {
    "type": "Point",
    "coordinates": [
     11.39932,
     43.34748
    ]
   },
   "properties": {
    "painter": "Duccio",
    "title": "Original rose window",
    "year": "1287",
    "city": "Siena",
    "country": "Italy",
    "location": "Museo dell'Opera Metropolitana del Duomo",
    "kind": "museum",
    "attribution": "generally accepted",
    "status": "present",
    "dimensions": "560 × 560 cm",
    "genre": "religious art",
    "image": "https://commons.wikimedia.org/wiki/Special:FilePath/Original%20rose%20window%20of%20the%20Duomo%20by%20Duccio%20-%20Museo%20dell%27Opera%20del%20Duomo%20-%20Siena%202016%20%282%29.jpg?width=420",
    "wikipedia_it": "https://it.wikipedia.org/wiki/Vetrata_del_Duomo_di_Siena",
    "wikidata": "https://www.wikidata.org/wiki/Q4010476",
    "creation_place": "Siena",
    "creation_lat": 43.3188,
    "creation_lon": 11.3308,
    "_source": {
     "source": "Wikidata",
     "url": "https://www.wikidata.org/wiki/Q4010476",
     "retrieved_at": "2026-08-23"
    },
    "_overrides": {
     "creation": {
      "at": "2026-08-23",
      "source": "derived from start date + Caravaggio's documented itinerary (approximate)"
     }
    },
    "museum_id": "museo-dell-opera-metropolitana-del-duomo",
    "qid": "Q4010476"
   }
  },
  {
   "type": "Feature",
   "geometry": {
    "type": "Point",
    "coordinates": [
     -77.02,
     38.8914
    ]
   },
   "properties": {
    "painter": "Duccio",
    "title": "The Calling of the Apostles Peter and Andrew",
    "year": "1308",
    "city": "Washington",
    "country": "United States",
    "location": "National Gallery of Art",
    "kind": "museum",
    "attribution": "generally accepted",
    "status": "present",
    "medium": "Oil paint",
    "dimensions": "43.5 × 46 cm",
    "genre": "religious art",
    "image": "https://commons.wikimedia.org/wiki/Special:FilePath/Duccio%20di%20Buoninsegna%20036.jpg?width=420",
    "wikipedia_it": "https://it.wikipedia.org/wiki/Vocazione_di_Pietro_e_Andrea",
    "wikidata": "https://www.wikidata.org/wiki/Q4015930",
    "creation_place": "Siena",
    "creation_lat": 43.3188,
    "creation_lon": 11.3308,
    "_source": {
     "source": "Wikidata",
     "url": "https://www.wikidata.org/wiki/Q4015930",
     "retrieved_at": "2026-08-23"
    },
    "_overrides": {
     "creation": {
      "at": "2026-08-23",
      "source": "derived from start date + Caravaggio's documented itinerary (approximate)"
     }
    },
    "museum_id": "national-gallery-of-art",
    "qid": "Q4015930",
    "wga_url": "https://www.wga.hu/html/d/duccio/maesta/predel_v/pre_v_d.html"
   }
  },
  {
   "type": "Feature",
   "geometry": {
    "type": "Point",
    "coordinates": [
     11.4819,
     43.13869
    ]
   },
   "properties": {
    "painter": "Duccio",
    "title": "Madonna di Buonconvento",
    "year": "1300",
    "city": "Buonconvento",
    "country": "Italy",
    "location": "Sacred Art Museum of the Arbia Valley",
    "kind": "museum",
    "attribution": "attributed",
    "status": "present",
    "medium": "Panel",
    "dimensions": "68 × 49 cm",
    "genre": "religious art",
    "image": "https://commons.wikimedia.org/wiki/Special:FilePath/Duccio%20di%20Buoninsegna%20-%20Madonna%20with%20Child%20-%20Google%20Art%20Project.jpg?width=420",
    "wikidata": "https://www.wikidata.org/wiki/Q55466081",
    "creation_place": "Siena",
    "creation_lat": 43.3188,
    "creation_lon": 11.3308,
    "_source": {
     "source": "Wikidata",
     "url": "https://www.wikidata.org/wiki/Q55466081",
     "retrieved_at": "2026-08-23"
    },
    "_overrides": {
     "creation": {
      "at": "2026-08-23",
      "source": "derived from start date + Caravaggio's documented itinerary (approximate)"
     }
    },
    "museum_id": "sacred-art-museum-of-the-arbia-valley",
    "qid": "Q55466081",
    "wga_url": "https://www.wga.hu/html/d/duccio/various/1buoncon.html"
   }
  },
  {
   "type": "Feature",
   "geometry": {
    "type": "Point",
    "coordinates": [
     7.68618,
     45.07412
    ]
   },
   "properties": {
    "painter": "Duccio",
    "title": "Gualino Madonna",
    "year": "1280",
    "city": "Turin",
    "country": "Italy",
    "location": "Galleria Sabauda",
    "kind": "museum",
    "attribution": "generally accepted",
    "status": "present",
    "medium": "Panel",
    "dimensions": "157 × 86 cm",
    "genre": "religious art",
    "image": "https://commons.wikimedia.org/wiki/Special:FilePath/Madone%20Gualino.jpg?width=420",
    "wikipedia_es": "https://es.wikipedia.org/wiki/Madonna_Gualino",
    "wikipedia_en": "https://en.wikipedia.org/wiki/Gualino_Madonna",
    "wikipedia_it": "https://it.wikipedia.org/wiki/Madonna_Gualino",
    "wikidata": "https://www.wikidata.org/wiki/Q644734",
    "creation_place": "Siena",
    "creation_lat": 43.3188,
    "creation_lon": 11.3308,
    "_source": {
     "source": "Wikidata",
     "url": "https://www.wikidata.org/wiki/Q644734",
     "retrieved_at": "2026-08-23"
    },
    "_overrides": {
     "creation": {
      "at": "2026-08-23",
      "source": "derived from start date + Caravaggio's documented itinerary (approximate)"
     }
    },
    "museum_id": "galleria-sabauda",
    "qid": "Q644734",
    "wga_url": "https://www.wga.hu/html/d/duccio/22gualin.html"
   }
  },
  {
   "type": "Feature",
   "geometry": {
    "type": "Point",
    "coordinates": [
     -73.9631,
     40.7794
    ]
   },
   "properties": {
    "painter": "Duccio",
    "title": "Madonna and Child",
    "year": "2000",
    "city": "New York",
    "country": "United States",
    "location": "Metropolitan Museum of Art",
    "kind": "museum",
    "attribution": "generally accepted",
    "status": "present",
    "dimensions": "23.8 × 16.5 cm",
    "genre": "religious art",
    "image": "https://commons.wikimedia.org/wiki/Special:FilePath/Duccio%20Di%20Buoninsegna%20-%20Madonna%20col%20Bambino.jpg?width=420",
    "wikipedia_en": "https://en.wikipedia.org/wiki/Madonna_and_Child_(Duccio,_Metropolitan)",
    "wikipedia_it": "https://it.wikipedia.org/wiki/Madonna_Stroganoff",
    "wikidata": "https://www.wikidata.org/wiki/Q6728394",
    "_source": {
     "source": "Wikidata",
     "url": "https://www.wikidata.org/wiki/Q6728394",
     "retrieved_at": "2026-08-23"
    },
    "museum_id": "metropolitan-museum-of-art",
    "qid": "Q6728394"
   }
  },
  {
   "type": "Feature",
   "geometry": {
    "type": "Point",
    "coordinates": [
     11.33043,
     43.31566
    ]
   },
   "properties": {
    "painter": "Duccio",
    "title": "Madonna and Child with Saints Polyptych",
    "year": "1311",
    "city": "Siena",
    "country": "Italy",
    "location": "Pinacoteca Nazionale, Siena",
    "kind": "museum",
    "attribution": "generally accepted",
    "status": "present",
    "medium": "Panel",
    "dimensions": "80 × 60 cm",
    "genre": "religious art",
    "image": "https://commons.wikimedia.org/wiki/Special:FilePath/Duccio.The-Madonna-and-Child-with-Saints-149.jpg?width=420",
    "wikipedia_en": "https://en.wikipedia.org/wiki/Madonna_and_Child_with_Saints_Polyptych",
    "wikidata": "https://www.wikidata.org/wiki/Q6728400",
    "creation_place": "Siena",
    "creation_lat": 43.3188,
    "creation_lon": 11.3308,
    "_source": {
     "source": "Wikidata",
     "url": "https://www.wikidata.org/wiki/Q6728400",
     "retrieved_at": "2026-08-23"
    },
    "_overrides": {
     "creation": {
      "at": "2026-08-23",
      "source": "derived from start date + Caravaggio's documented itinerary (approximate)"
     }
    },
    "museum_id": "pinacoteca-nazionale-siena",
    "qid": "Q6728400",
    "wga_url": "https://www.wga.hu/html/d/duccio/zpoly_47.html"
   }
  },
  {
   "type": "Feature",
   "geometry": {
    "type": "Point",
    "coordinates": [
     12.38845,
     43.11156
    ]
   },
   "properties": {
    "painter": "Duccio",
    "title": "Madonna with Child and six Angels",
    "year": "1300",
    "city": "Perugia",
    "country": "Italy",
    "location": "National Gallery of Umbria",
    "kind": "museum",
    "attribution": "generally accepted",
    "status": "present",
    "medium": "Panel",
    "dimensions": "97 × 63 cm",
    "genre": "religious art",
    "image": "https://commons.wikimedia.org/wiki/Special:FilePath/Duccio%20di%20Buoninsegna%20008.jpg?width=420",
    "wikipedia_en": "https://en.wikipedia.org/wiki/Madonna_with_Child_and_Six_Angels",
    "wikipedia_it": "https://it.wikipedia.org/wiki/Madonna_col_Bambino_e_sei_angeli_(Duccio)",
    "wikidata": "https://www.wikidata.org/wiki/Q6728425",
    "creation_place": "Siena",
    "creation_lat": 43.3188,
    "creation_lon": 11.3308,
    "_source": {
     "source": "Wikidata",
     "url": "https://www.wikidata.org/wiki/Q6728425",
     "retrieved_at": "2026-08-23"
    },
    "_overrides": {
     "creation": {
      "at": "2026-08-23",
      "source": "derived from start date + Caravaggio's documented itinerary (approximate)"
     }
    },
    "museum_id": "national-gallery-of-umbria",
    "qid": "Q6728425",
    "wga_url": "https://www.wga.hu/html/d/duccio/6perugia.html"
   }
  },
  {
   "type": "Feature",
   "geometry": {
    "type": "Point",
    "coordinates": [
     11.33043,
     43.31566
    ]
   },
   "properties": {
    "painter": "Duccio",
    "title": "The Madonna of the Franciscans",
    "year": "1280",
    "city": "Siena",
    "country": "Italy",
    "location": "Pinacoteca Nazionale, Siena",
    "kind": "museum",
    "attribution": "attributed",
    "status": "present",
    "medium": "Panel",
    "dimensions": "23.5 × 16 cm",
    "genre": "religious art",
    "image": "https://commons.wikimedia.org/wiki/Special:FilePath/Duccio%20franciscan-madonna-421.jpg?width=420",
    "wikidata": "https://www.wikidata.org/wiki/Q78149429",
    "creation_place": "Siena",
    "creation_lat": 43.3188,
    "creation_lon": 11.3308,
    "_source": {
     "source": "Wikidata",
     "url": "https://www.wikidata.org/wiki/Q78149429",
     "retrieved_at": "2026-08-23"
    },
    "_overrides": {
     "creation": {
      "at": "2026-08-23",
      "source": "derived from start date + Caravaggio's documented itinerary (approximate)"
     }
    },
    "museum_id": "pinacoteca-nazionale-siena",
    "qid": "Q78149429",
    "wga_url": "https://www.wga.hu/html/d/duccio/various/51franci.html"
   }
  },
  {
   "type": "Feature",
   "geometry": {
    "type": "Point",
    "coordinates": [
     -97.365,
     32.74861
    ]
   },
   "properties": {
    "painter": "Duccio",
    "title": "The Raising of Lazarus",
    "year": "1310",
    "city": "Fort Worth",
    "country": "United States",
    "location": "Museo d'arte Kimbell",
    "kind": "museum",
    "attribution": "generally accepted",
    "status": "present",
    "medium": "Panel",
    "dimensions": "46 × 43 cm",
    "genre": "religious art",
    "image": "https://commons.wikimedia.org/wiki/Special:FilePath/%27The%20Raising%20of%20Lazarus%27%2C%20tempera%20and%20gold%20on%20panel%20by%20Duccio%20di%20Buoninsegna%2C%201310%E2%80%9311%2C%20Kimbell%20Art%20Museum.jpg?width=420",
    "wikipedia_es": "https://es.wikipedia.org/wiki/Resurrecci%C3%B3n_de_L%C3%A1zaro_(Duccio)",
    "wikipedia_it": "https://it.wikipedia.org/wiki/Resurrezione_di_Lazzaro_(Duccio)",
    "wikidata": "https://www.wikidata.org/wiki/Q9068317",
    "creation_place": "Siena",
    "creation_lat": 43.3188,
    "creation_lon": 11.3308,
    "_source": {
     "source": "Wikidata",
     "url": "https://www.wikidata.org/wiki/Q9068317",
     "retrieved_at": "2026-08-23"
    },
    "_overrides": {
     "creation": {
      "at": "2026-08-23",
      "source": "derived from start date + Caravaggio's documented itinerary (approximate)"
     }
    },
    "museum_id": "museo-d-arte-kimbell",
    "qid": "Q9068317",
    "wga_url": "https://www.wga.hu/html/d/duccio/maesta/predel_v/pre_v_i.html"
   }
  },
  {
   "type": "Feature",
   "geometry": {
    "type": "Point",
    "coordinates": [
     11.25528,
     43.76833
    ]
   },
   "properties": {
    "painter": "Duccio",
    "title": "Rucellai Madonna",
    "year": "1285",
    "city": "Florence",
    "country": "Italy",
    "location": "Uffizi Gallery",
    "kind": "museum",
    "attribution": "generally accepted",
    "status": "present",
    "medium": "Panel",
    "dimensions": "450 × 290 cm",
    "genre": "religious art",
    "image": "https://commons.wikimedia.org/wiki/Special:FilePath/Duccio%20-%20Maest%C3%A0%20-%20Google%20Art%20Project.jpg?width=420",
    "wikipedia_es": "https://es.wikipedia.org/wiki/Madonna_Rucellai",
    "wikipedia_en": "https://en.wikipedia.org/wiki/Rucellai_Madonna",
    "wikipedia_it": "https://it.wikipedia.org/wiki/Madonna_Rucellai",
    "wikidata": "https://www.wikidata.org/wiki/Q948745",
    "creation_place": "Siena",
    "creation_lat": 43.3188,
    "creation_lon": 11.3308,
    "_source": {
     "source": "Wikidata",
     "url": "https://www.wikidata.org/wiki/Q948745",
     "retrieved_at": "2026-08-23"
    },
    "_overrides": {
     "creation": {
      "at": "2026-08-23",
      "source": "derived from start date + Caravaggio's documented itinerary (approximate)"
     }
    },
    "museum_id": "uffizi-gallery",
    "qid": "Q948745",
    "wga_url": "https://www.wga.hu/html/d/duccio/ruccelai/3ruccela.html"
   }
  }
 ]
}