{
 "type": "FeatureCollection",
 "_note": "Canon from List of paintings by Albrecht Dürer (Wikipedia). Coords via MediaWiki API.",
 "features": [
  {
   "type": "Feature",
   "geometry": {
    "type": "Point",
    "coordinates": [
     11.25528,
     43.76833
    ]
   },
   "properties": {
    "painter": "Albrecht Dürer",
    "title": "Portrait of Dürer's Father diptych, right wing back side: Combined Coat of Arms of the Dürer and Holper Families",
    "year": "1490",
    "city": "Florence",
    "country": "Italy",
    "location": "Uffizi Gallery",
    "attribution": "generally accepted",
    "medium": "Oil on panel",
    "dimensions": "47.5 × 39.5 47 × 39 cm",
    "image": "https://upload.wikimedia.org/wikipedia/commons/thumb/3/3a/Albrecht_D%C3%BCrer_-_Ritratto_del_padre_-_Google_Art_Project.jpg/500px-Albrecht_D%C3%BCrer_-_Ritratto_del_padre_-_Google_Art_Project.jpg?utm_source=en.wikipedia.org&amp;utm_campaign=parser&amp;utm_content=thumbnail",
    "notable": true,
    "creation_place": "Nuremberg",
    "creation_lat": 49.4521,
    "creation_lon": 11.0767,
    "_source": {
     "source": "Wikipedia: List of paintings by Albrecht Dürer",
     "coord": "MediaWiki coordinates API"
    },
    "museum_id": "uffizi-gallery"
   }
  },
  {
   "type": "Feature",
   "geometry": {
    "type": "Point",
    "coordinates": [
     11.07556,
     49.44833
    ]
   },
   "properties": {
    "painter": "Albrecht Dürer",
    "title": "Portrait of Barbara Dürer diptych, left wing back side: \"Rocky Landscape with Dragon\", or \"Hell resp. Purgatory scene\"",
    "year": "1490",
    "city": "Nuremberg",
    "location": "Germanisches Nationalmuseum",
    "attribution": "generally accepted",
    "medium": "Oil on panel",
    "dimensions": "47.2 × 35.7 cm",
    "image": "https://upload.wikimedia.org/wikipedia/commons/thumb/b/b4/Albrecht_D%C3%BCrer_072.jpg/500px-Albrecht_D%C3%BCrer_072.jpg?utm_source=en.wikipedia.org&amp;utm_campaign=parser&amp;utm_content=thumbnail",
    "notable": true,
    "creation_place": "Nuremberg",
    "creation_lat": 49.4521,
    "creation_lon": 11.0767,
    "_source": {
     "source": "Wikipedia: List of paintings by Albrecht Dürer",
     "coord": "MediaWiki coordinates API"
    },
    "museum_id": "germanisches-nationalmuseum",
    "country": "Germany"
   }
  },
  {
   "type": "Feature",
   "geometry": {
    "type": "Point",
    "coordinates": [
     8.4,
     49.0119
    ]
   },
   "properties": {
    "painter": "Albrecht Dürer",
    "title": "Christ as the Man of Sorrows back side: \"Agate cut or Lightvision\"",
    "year": "c. 1493",
    "city": "Karlsruhe",
    "country": "Germany",
    "location": "Staatliche Kunsthalle",
    "attribution": "generally accepted",
    "medium": "Oil, tempera and gilding on panel (pinewood)",
    "dimensions": "30 × 19 cm",
    "image": "https://upload.wikimedia.org/wikipedia/commons/thumb/5/50/D%C3%BCrer%2C_Christus_als_Schmerzensmann%2C_c1493._Kunsthalle_Karlsruhe_%282183%29.jpg/500px-D%C3%BCrer%2C_Christus_als_Schmerzensmann%2C_c1493._Kunsthalle_Karlsruhe_%282183%29.jpg?utm_source=en.wikipedia.org&amp;utm_campaign=parser&amp;utm_content=thumbnail",
    "notable": true,
    "creation_place": "Nuremberg",
    "creation_lat": 49.4521,
    "creation_lon": 11.0767,
    "_source": {
     "source": "Wikipedia: List of paintings by Albrecht Dürer",
     "coord": "MediaWiki coordinates API"
    },
    "museum_id": "staatliche-kunsthalle"
   }
  },
  {
   "type": "Feature",
   "geometry": {
    "type": "Point",
    "coordinates": [
     2.3358,
     48.8611
    ]
   },
   "properties": {
    "painter": "Albrecht Dürer",
    "title": "Self-Portrait ( Portrait of the Artist Holding a Thistle )",
    "year": "1493",
    "city": "Paris",
    "country": "France",
    "location": "Louvre",
    "attribution": "generally accepted",
    "medium": "Oil on parchment transferred to canvas",
    "dimensions": "56.5 × 44.5 cm",
    "image": "https://upload.wikimedia.org/wikipedia/commons/thumb/d/da/Albrecht-self.jpg/500px-Albrecht-self.jpg?utm_source=en.wikipedia.org&amp;utm_campaign=parser&amp;utm_content=thumbnail",
    "notable": true,
    "creation_place": "Nuremberg",
    "creation_lat": 49.4521,
    "creation_lon": 11.0767,
    "_source": {
     "source": "Wikipedia: List of paintings by Albrecht Dürer",
     "coord": "MediaWiki coordinates API"
    },
    "museum_id": "louvre"
   }
  },
  {
   "type": "Feature",
   "geometry": {
    "type": "Point",
    "coordinates": [
     16.36833,
     48.20472
    ]
   },
   "properties": {
    "painter": "Albrecht Dürer",
    "title": "Jesus Child as Redeemer",
    "year": "1493",
    "city": "Vienna",
    "country": "Austria",
    "location": "Albertina",
    "attribution": "generally accepted",
    "medium": "Bodycolor and gold on parchment",
    "dimensions": "11.8 × 9.3 cm",
    "image": "https://upload.wikimedia.org/wikipedia/commons/thumb/5/5b/D%C3%BCrer_-_Der_Jesusknabe_als_Erl%C3%B6ser%2C_Albertina_3059.jpg/500px-D%C3%BCrer_-_Der_Jesusknabe_als_Erl%C3%B6ser%2C_Albertina_3059.jpg?utm_source=en.wikipedia.org&amp;utm_campaign=parser&amp;utm_content=thumbnail",
    "notable": true,
    "creation_place": "Nuremberg",
    "creation_lat": 49.4521,
    "creation_lon": 11.0767,
    "_source": {
     "source": "Wikipedia: List of paintings by Albrecht Dürer",
     "coord": "MediaWiki coordinates API"
    },
    "museum_id": "albertina"
   }
  },
  {
   "type": "Feature",
   "geometry": {
    "type": "Point",
    "coordinates": [
     10,
     53.55
    ]
   },
   "properties": {
    "painter": "Albrecht Dürer",
    "title": "Lion",
    "year": "1494",
    "city": "Hamburg",
    "country": "Germany",
    "location": "Kunsthalle",
    "attribution": "generally accepted",
    "medium": "Bodycolor, watercolor on parchment",
    "dimensions": "12.6 × 17.2 cm",
    "image": "https://upload.wikimedia.org/wikipedia/commons/thumb/3/33/Albrecht_D%C3%BCrer_055.jpg/500px-Albrecht_D%C3%BCrer_055.jpg?utm_source=en.wikipedia.org&amp;utm_campaign=parser&amp;utm_content=thumbnail",
    "notable": true,
    "creation_place": "Venice",
    "creation_lat": 45.4408,
    "creation_lon": 12.3155,
    "_source": {
     "source": "Wikipedia: List of paintings by Albrecht Dürer",
     "coord": "MediaWiki coordinates API"
    },
    "museum_id": "kunsthalle"
   }
  },
  {
   "type": "Feature",
   "geometry": {
    "type": "Point",
    "coordinates": [
     10.23333,
     50.05
    ]
   },
   "properties": {
    "painter": "Albrecht Dürer",
    "title": "Virgin and Child Before a Landscape",
    "year": "c. 1494",
    "city": "Schweinfurt",
    "location": "private collection Georg Schäfer",
    "attribution": "generally accepted",
    "medium": "Oil on panel",
    "dimensions": "89 × 74 cm",
    "image": "https://upload.wikimedia.org/wikipedia/commons/thumb/3/3d/Albrecht_D%C3%BCrer_063.jpg/500px-Albrecht_D%C3%BCrer_063.jpg?utm_source=en.wikipedia.org&amp;utm_campaign=parser&amp;utm_content=thumbnail",
    "notable": true,
    "creation_place": "Venice",
    "creation_lat": 45.4408,
    "creation_lon": 12.3155,
    "_source": {
     "source": "Wikipedia: List of paintings by Albrecht Dürer",
     "coord": "MediaWiki coordinates API"
    },
    "museum_id": "private-collection-georg-schafer"
   }
  },
  {
   "type": "Feature",
   "geometry": {
    "type": "Point",
    "coordinates": [
     13.73466,
     51.05338
    ]
   },
   "properties": {
    "painter": "Albrecht Dürer",
    "title": "Seven Sorrows Polyptych",
    "year": "c. 1495",
    "city": "Dresden",
    "country": "Germany",
    "location": "Gemäldegalerie Alte Meister",
    "attribution": "generally accepted",
    "medium": "Oil on panel (pinewood)",
    "dimensions": "63 × 44.5–46.5 each side panel 110 × 43.6 central panel",
    "image": "https://upload.wikimedia.org/wikipedia/commons/thumb/6/64/Durer%2C_polittico_dei_sette_dolori%2C_ricostruzione.jpg/500px-Durer%2C_polittico_dei_sette_dolori%2C_ricostruzione.jpg?utm_source=en.wikipedia.org&amp;utm_campaign=parser&amp;utm_content=thumbnail",
    "notable": true,
    "creation_place": "Venice",
    "creation_lat": 45.4408,
    "creation_lon": 12.3155,
    "_source": {
     "source": "Wikipedia: List of paintings by Albrecht Dürer",
     "coord": "MediaWiki coordinates API"
    },
    "museum_id": "gemaldegalerie-alte-meister"
   }
  },
  {
   "type": "Feature",
   "geometry": {
    "type": "Point",
    "coordinates": [
     -0.1283,
     51.5089
    ]
   },
   "properties": {
    "painter": "Albrecht Dürer",
    "title": "Saint Jerome in the Wilderness back side: Heavenly Scene",
    "year": "c. 1496",
    "city": "London",
    "country": "United Kingdom",
    "location": "National Gallery",
    "attribution": "generally accepted",
    "medium": "Oil on panel (pearwood)",
    "dimensions": "23.1 × 17.4 cm",
    "image": "https://upload.wikimedia.org/wikipedia/commons/thumb/f/ff/Albrecht_D%C3%BCrer_012.jpg/500px-Albrecht_D%C3%BCrer_012.jpg?utm_source=en.wikipedia.org&amp;utm_campaign=parser&amp;utm_content=thumbnail",
    "notable": true,
    "creation_place": "Nuremberg",
    "creation_lat": 49.4521,
    "creation_lon": 11.0767,
    "_source": {
     "source": "Wikipedia: List of paintings by Albrecht Dürer",
     "coord": "MediaWiki coordinates API"
    },
    "museum_id": "national-gallery"
   }
  },
  {
   "type": "Feature",
   "geometry": {
    "type": "Point",
    "coordinates": [
     13.3647,
     52.5086
    ]
   },
   "properties": {
    "painter": "Albrecht Dürer",
    "title": "Portrait of Elector Frederick the Wise of Saxony",
    "year": "1496",
    "city": "Berlin",
    "country": "Germany",
    "location": "Gemäldegalerie",
    "attribution": "generally accepted",
    "medium": "Tempera on canvas",
    "dimensions": "76 × 57 cm",
    "image": "https://upload.wikimedia.org/wikipedia/commons/thumb/3/34/Albrecht_d%C3%BCrer%2C_ritratto_di_federico_III_il_saggio%2C_1500_ca._02.JPG/500px-Albrecht_d%C3%BCrer%2C_ritratto_di_federico_III_il_saggio%2C_1500_ca._02.JPG?utm_source=en.wikipedia.org&amp;utm_campaign=parser&amp;utm_content=thumbnail",
    "notable": true,
    "creation_place": "Nuremberg",
    "creation_lat": 49.4521,
    "creation_lon": 11.0767,
    "_source": {
     "source": "Wikipedia: List of paintings by Albrecht Dürer",
     "coord": "MediaWiki coordinates API"
    },
    "museum_id": "gemaldegalerie"
   }
  },
  {
   "type": "Feature",
   "geometry": {
    "type": "Point",
    "coordinates": [
     13.73466,
     51.05338
    ]
   },
   "properties": {
    "painter": "Albrecht Dürer",
    "title": "Dresden Altarpiece",
    "year": "1496",
    "city": "Dresden",
    "country": "Germany",
    "location": "Gemäldegalerie Alte Meister",
    "attribution": "generally accepted",
    "medium": "Tempera on canvas",
    "dimensions": "114 × 45 each wing 114 × 96.5 central panel",
    "image": "https://upload.wikimedia.org/wikipedia/commons/thumb/8/8d/Albrecht_D%C3%BCrer_065.jpg/500px-Albrecht_D%C3%BCrer_065.jpg?utm_source=en.wikipedia.org&amp;utm_campaign=parser&amp;utm_content=thumbnail",
    "notable": true,
    "creation_place": "Nuremberg",
    "creation_lat": 49.4521,
    "creation_lon": 11.0767,
    "_source": {
     "source": "Wikipedia: List of paintings by Albrecht Dürer",
     "coord": "MediaWiki coordinates API"
    },
    "museum_id": "gemaldegalerie-alte-meister"
   }
  },
  {
   "type": "Feature",
   "geometry": {
    "type": "Point",
    "coordinates": [
     -77.02,
     38.8914
    ]
   },
   "properties": {
    "painter": "Albrecht Dürer",
    "title": "Haller Madonna back side: Lot and His Daughters",
    "year": "c. 1496",
    "city": "Washington",
    "country": "United States",
    "location": "National Gallery of Art",
    "attribution": "generally accepted",
    "medium": "Oil on panel",
    "dimensions": "52.4 × 42.2 cm",
    "image": "https://upload.wikimedia.org/wikipedia/commons/thumb/0/07/Albrecht_D%C3%BCrer_-_Madonna_and_Child_%28obverse%29_-_Google_Art_Project.jpg/500px-Albrecht_D%C3%BCrer_-_Madonna_and_Child_%28obverse%29_-_Google_Art_Project.jpg?utm_source=en.wikipedia.org&amp;utm_campaign=parser&amp;utm_content=thumbnail",
    "notable": true,
    "creation_place": "Nuremberg",
    "creation_lat": 49.4521,
    "creation_lon": 11.0767,
    "_source": {
     "source": "Wikipedia: List of paintings by Albrecht Dürer",
     "coord": "MediaWiki coordinates API"
    },
    "museum_id": "national-gallery-of-art"
   }
  },
  {
   "type": "Feature",
   "geometry": {
    "type": "Point",
    "coordinates": [
     8.68222,
     50.11056
    ]
   },
   "properties": {
    "painter": "Albrecht Dürer",
    "title": "Portrait of a Young Woman with Her Hair Down (formerly believed to be a Fürleger)",
    "year": "1497",
    "city": "Städel",
    "location": "Frankfurt",
    "attribution": "generally accepted",
    "medium": "Watercolor on canvas ( Tüchlein )",
    "dimensions": "56.3 × 43.2 cm",
    "image": "https://upload.wikimedia.org/wikipedia/commons/thumb/7/7f/Portrait_of_a_Young_Woman_with_Her_Hair_Down_%28SM_937%29.png/500px-Portrait_of_a_Young_Woman_with_Her_Hair_Down_%28SM_937%29.png?utm_source=en.wikipedia.org&amp;utm_campaign=parser&amp;utm_content=thumbnail",
    "notable": true,
    "creation_place": "Nuremberg",
    "creation_lat": 49.4521,
    "creation_lon": 11.0767,
    "_source": {
     "source": "Wikipedia: List of paintings by Albrecht Dürer",
     "coord": "MediaWiki coordinates API"
    },
    "museum_id": "frankfurt"
   }
  },
  {
   "type": "Feature",
   "geometry": {
    "type": "Point",
    "coordinates": [
     13.3647,
     52.5086
    ]
   },
   "properties": {
    "painter": "Albrecht Dürer",
    "title": "Portrait of a Young Woman with Her Hair Done Up (formerly believed to be a Fürleger)",
    "year": "1497",
    "city": "Berlin",
    "country": "Germany",
    "location": "Gemäldegalerie",
    "attribution": "generally accepted",
    "medium": "Watercolor on canvas ( Tüchlein )",
    "dimensions": "56.5 × 43.1 cm",
    "image": "https://upload.wikimedia.org/wikipedia/commons/thumb/5/51/D%C3%BCrer_-_Bildnis_einer_jungen_Frau_mit_geflochtenem_Haar%2C_1497%2C_Gem%C3%A4ldegalerie_Berlin.jpg/500px-D%C3%BCrer_-_Bildnis_einer_jungen_Frau_mit_geflochtenem_Haar%2C_1497%2C_Gem%C3%A4ldegalerie_Berlin.jpg?utm_source=en.wikipedia.org&amp;utm_campaign=parser&amp;utm_content=thumbnail",
    "notable": true,
    "creation_place": "Nuremberg",
    "creation_lat": 49.4521,
    "creation_lon": 11.0767,
    "_source": {
     "source": "Wikipedia: List of paintings by Albrecht Dürer",
     "coord": "MediaWiki coordinates API"
    },
    "museum_id": "gemaldegalerie"
   }
  },
  {
   "type": "Feature",
   "geometry": {
    "type": "Point",
    "coordinates": [
     -0.1283,
     51.5089
    ]
   },
   "properties": {
    "painter": "Albrecht Dürer",
    "title": "Portrait of Dürer's Father at 70 copy",
    "year": "1497",
    "city": "London",
    "country": "United Kingdom",
    "location": "National Gallery",
    "attribution": "generally accepted",
    "medium": "Oil on panel (limewood)",
    "dimensions": "51 × 40.3 cm",
    "image": "https://upload.wikimedia.org/wikipedia/commons/thumb/2/20/Albrecht_D%C3%BCrer_-_Portrait_of_D%C3%BCrer%27s_Father_at_70.jpg/500px-Albrecht_D%C3%BCrer_-_Portrait_of_D%C3%BCrer%27s_Father_at_70.jpg?utm_source=en.wikipedia.org&amp;utm_campaign=parser&amp;utm_content=thumbnail",
    "notable": true,
    "creation_place": "Nuremberg",
    "creation_lat": 49.4521,
    "creation_lon": 11.0767,
    "_source": {
     "source": "Wikipedia: List of paintings by Albrecht Dürer",
     "coord": "MediaWiki coordinates API"
    },
    "museum_id": "national-gallery"
   }
  },
  {
   "type": "Feature",
   "geometry": {
    "type": "Point",
    "coordinates": [
     -3.6922,
     40.4139
    ]
   },
   "properties": {
    "painter": "Albrecht Dürer",
    "title": "Self-Portrait at 26",
    "year": "1498",
    "city": "Madrid",
    "country": "Spain",
    "location": "Museo del Prado",
    "attribution": "generally accepted",
    "medium": "Oil on panel",
    "dimensions": "52 × 41 cm",
    "image": "https://upload.wikimedia.org/wikipedia/commons/thumb/1/11/Selbstportr%C3%A4t%2C_by_Albrecht_D%C3%BCrer%2C_from_Prado_in_Google_Earth.jpg/500px-Selbstportr%C3%A4t%2C_by_Albrecht_D%C3%BCrer%2C_from_Prado_in_Google_Earth.jpg?utm_source=en.wikipedia.org&amp;utm_campaign=parser&amp;utm_content=thumbnail",
    "notable": true,
    "creation_place": "Nuremberg",
    "creation_lat": 49.4521,
    "creation_lon": 11.0767,
    "_source": {
     "source": "Wikipedia: List of paintings by Albrecht Dürer",
     "coord": "MediaWiki coordinates API"
    },
    "museum_id": "museo-del-prado"
   }
  },
  {
   "type": "Feature",
   "geometry": {
    "type": "Point",
    "coordinates": [
     11.07556,
     49.44833
    ]
   },
   "properties": {
    "painter": "Albrecht Dürer",
    "title": "Lamentation (Holzschuher Lamentation)",
    "year": "1499",
    "city": "Nuremberg",
    "location": "Germanisches Nationalmuseum",
    "attribution": "generally accepted",
    "medium": "Color on panel",
    "dimensions": "150 × 120.6 cm",
    "image": "https://upload.wikimedia.org/wikipedia/commons/thumb/e/e4/Albrecht_D%C3%BCrer_011.jpg/500px-Albrecht_D%C3%BCrer_011.jpg?utm_source=en.wikipedia.org&amp;utm_campaign=parser&amp;utm_content=thumbnail",
    "notable": true,
    "creation_place": "Nuremberg",
    "creation_lat": 49.4521,
    "creation_lon": 11.0767,
    "_source": {
     "source": "Wikipedia: List of paintings by Albrecht Dürer",
     "coord": "MediaWiki coordinates API"
    },
    "museum_id": "germanisches-nationalmuseum",
    "country": "Germany"
   }
  },
  {
   "type": "Feature",
   "geometry": {
    "type": "Point",
    "coordinates": [
     11.57,
     48.14833
    ]
   },
   "properties": {
    "painter": "Albrecht Dürer",
    "title": "Portrait of Oswolt Krell",
    "year": "1499",
    "city": "Munich",
    "country": "Germany",
    "location": "Alte Pinakothek",
    "attribution": "generally accepted",
    "medium": "Color on panel (limewood)",
    "dimensions": "49.7 × 38.9 central panel 49.4 × 15.7 (l) 49.8 × 15.6 (r)",
    "image": "https://upload.wikimedia.org/wikipedia/commons/thumb/4/4c/Albrecht_D%C3%BCrer_-_Portrait_of_Oswolt_Krel_-_WGA6933.jpg/500px-Albrecht_D%C3%BCrer_-_Portrait_of_Oswolt_Krel_-_WGA6933.jpg?utm_source=en.wikipedia.org&amp;utm_campaign=parser&amp;utm_content=thumbnail",
    "notable": true,
    "creation_place": "Nuremberg",
    "creation_lat": 49.4521,
    "creation_lon": 11.0767,
    "_source": {
     "source": "Wikipedia: List of paintings by Albrecht Dürer",
     "coord": "MediaWiki coordinates API"
    },
    "museum_id": "alte-pinakothek"
   }
  },
  {
   "type": "Feature",
   "geometry": {
    "type": "Point",
    "coordinates": [
     9.6758,
     45.7042
    ]
   },
   "properties": {
    "painter": "Albrecht Dürer",
    "title": "Portrait of an Unknown Man in a Red Gown (\"St Sebastian\")",
    "year": "c. 1499",
    "city": "Bergamo",
    "location": "Accademia Carrara",
    "attribution": "generally accepted",
    "medium": "Oil on panel",
    "dimensions": "52 × 40 cm",
    "image": "https://upload.wikimedia.org/wikipedia/commons/thumb/e/e9/Albrecht_D%C3%BCrer_098.jpg/500px-Albrecht_D%C3%BCrer_098.jpg?utm_source=en.wikipedia.org&amp;utm_campaign=parser&amp;utm_content=thumbnail",
    "notable": true,
    "creation_place": "Nuremberg",
    "creation_lat": 49.4521,
    "creation_lon": 11.0767,
    "_source": {
     "source": "Wikipedia: List of paintings by Albrecht Dürer",
     "coord": "MediaWiki coordinates API"
    },
    "museum_id": "accademia-carrara",
    "country": "Italy"
   }
  },
  {
   "type": "Feature",
   "geometry": {
    "type": "Point",
    "coordinates": [
     11.32944,
     50.98111
    ]
   },
   "properties": {
    "painter": "Albrecht Dürer",
    "title": "Portrait of Hans Tucher diptych, left wing back side: Combined Coat-of-Arms of the Tucher and Rieter Families",
    "year": "1499",
    "city": "Weimar",
    "location": "Schlossmuseum",
    "attribution": "generally accepted",
    "medium": "Oil on panel",
    "dimensions": "28 × 24 cm",
    "image": "https://upload.wikimedia.org/wikipedia/commons/thumb/3/3b/Albrecht_D%C3%BCrer_077.jpg/500px-Albrecht_D%C3%BCrer_077.jpg?utm_source=en.wikipedia.org&amp;utm_campaign=parser&amp;utm_content=thumbnail",
    "notable": true,
    "creation_place": "Nuremberg",
    "creation_lat": 49.4521,
    "creation_lon": 11.0767,
    "_source": {
     "source": "Wikipedia: List of paintings by Albrecht Dürer",
     "coord": "MediaWiki coordinates API"
    },
    "museum_id": "schlossmuseum"
   }
  },
  {
   "type": "Feature",
   "geometry": {
    "type": "Point",
    "coordinates": [
     11.32944,
     50.98111
    ]
   },
   "properties": {
    "painter": "Albrecht Dürer",
    "title": "Portrait of Felicitas Tucher (née Rieter) diptych, right wing",
    "year": "1499",
    "city": "Weimar",
    "location": "Schlossmuseum",
    "attribution": "generally accepted",
    "medium": "Oil on panel",
    "dimensions": "28 × 24 cm",
    "image": "https://upload.wikimedia.org/wikipedia/commons/thumb/8/8b/Albrecht_D%C3%BCrer_074.jpg/500px-Albrecht_D%C3%BCrer_074.jpg?utm_source=en.wikipedia.org&amp;utm_campaign=parser&amp;utm_content=thumbnail",
    "notable": true,
    "creation_place": "Nuremberg",
    "creation_lat": 49.4521,
    "creation_lon": 11.0767,
    "_source": {
     "source": "Wikipedia: List of paintings by Albrecht Dürer",
     "coord": "MediaWiki coordinates API"
    },
    "museum_id": "schlossmuseum"
   }
  },
  {
   "type": "Feature",
   "geometry": {
    "type": "Point",
    "coordinates": [
     13.73466,
     51.05338
    ]
   },
   "properties": {
    "painter": "Albrecht Dürer",
    "title": "Portrait of Elsbeth Tucher (née Pusch) diptych, left wing with the Portrait of Nikolaus Tucher lost",
    "year": "1499",
    "city": "Dresden",
    "country": "Germany",
    "location": "Gemäldegalerie Alte Meister",
    "attribution": "generally accepted",
    "medium": "Color on panel (limewood)",
    "dimensions": "29.1 × 23.3 cm",
    "image": "https://upload.wikimedia.org/wikipedia/commons/thumb/6/61/Albrecht_D%C3%BCrer_073.jpg/500px-Albrecht_D%C3%BCrer_073.jpg?utm_source=en.wikipedia.org&amp;utm_campaign=parser&amp;utm_content=thumbnail",
    "notable": true,
    "creation_place": "Nuremberg",
    "creation_lat": 49.4521,
    "creation_lon": 11.0767,
    "_source": {
     "source": "Wikipedia: List of paintings by Albrecht Dürer",
     "coord": "MediaWiki coordinates API"
    },
    "museum_id": "gemaldegalerie-alte-meister"
   }
  },
  {
   "type": "Feature",
   "geometry": {
    "type": "Point",
    "coordinates": [
     11.57,
     48.14833
    ]
   },
   "properties": {
    "painter": "Albrecht Dürer",
    "title": "Self-Portrait with Fur-Trimmed Robe",
    "year": "1500",
    "city": "Munich",
    "country": "Germany",
    "location": "Alte Pinakothek",
    "attribution": "generally accepted",
    "medium": "Color on panel (limewood)",
    "dimensions": "67.1 × 48.9 cm",
    "image": "https://upload.wikimedia.org/wikipedia/commons/thumb/d/dc/Albrecht_D%C3%BCrer_-_1500_self-portrait_%28High_resolution_and_detail%29.jpg/500px-Albrecht_D%C3%BCrer_-_1500_self-portrait_%28High_resolution_and_detail%29.jpg?utm_source=en.wikipedia.org&amp;utm_campaign=parser&amp;utm_content=thumbnail",
    "notable": true,
    "creation_place": "Nuremberg",
    "creation_lat": 49.4521,
    "creation_lon": 11.0767,
    "_source": {
     "source": "Wikipedia: List of paintings by Albrecht Dürer",
     "coord": "MediaWiki coordinates API"
    },
    "museum_id": "alte-pinakothek"
   }
  },
  {
   "type": "Feature",
   "geometry": {
    "type": "Point",
    "coordinates": [
     11.07556,
     49.44833
    ]
   },
   "properties": {
    "painter": "Albrecht Dürer",
    "title": "Hercules Killing the Stymphalian Birds",
    "year": "1500",
    "city": "Nuremberg",
    "location": "Germanisches Nationalmuseum",
    "attribution": "generally accepted",
    "medium": "Watercolor on canvas",
    "dimensions": "84.5 × 107.5 cropped",
    "image": "https://upload.wikimedia.org/wikipedia/commons/thumb/d/db/D%C3%BCrer%2C_Herkules_im_Kampf_gegen_die_stymphalischen_V%C3%B6gel%2C_1500._Gm166.jpg/500px-D%C3%BCrer%2C_Herkules_im_Kampf_gegen_die_stymphalischen_V%C3%B6gel%2C_1500._Gm166.jpg?utm_source=en.wikipedia.org&amp;utm_campaign=parser&amp;utm_content=thumbnail",
    "notable": true,
    "creation_place": "Nuremberg",
    "creation_lat": 49.4521,
    "creation_lon": 11.0767,
    "_source": {
     "source": "Wikipedia: List of paintings by Albrecht Dürer",
     "coord": "MediaWiki coordinates API"
    },
    "museum_id": "germanisches-nationalmuseum",
    "country": "Germany"
   }
  },
  {
   "type": "Feature",
   "geometry": {
    "type": "Point",
    "coordinates": [
     11.57,
     48.14833
    ]
   },
   "properties": {
    "painter": "Albrecht Dürer",
    "title": "Paumgartner Altarpiece Nativity Georg Paumgartner as St George (inner left wing) Lukas Paumgartner as St Eustacius (inner right wing)",
    "year": "c. 1500",
    "city": "Munich",
    "country": "Germany",
    "location": "Alte Pinakothek",
    "attribution": "generally accepted",
    "medium": "Oil on panel (firwood)",
    "dimensions": "155 × 126.1 central panel , 157 × 60.4 each wing",
    "image": "https://upload.wikimedia.org/wikipedia/commons/thumb/3/3f/Albrecht_D%C3%BCrer%2C_Paumgartner_Altarpiece%2C_c1500%2C_Alte_Pinakothek%2C_Munich_%28702%29.jpg/500px-Albrecht_D%C3%BCrer%2C_Paumgartner_Altarpiece%2C_c1500%2C_Alte_Pinakothek%2C_Munich_%28702%29.jpg?utm_source=en.wikipedia.org&amp;utm_campaign=parser&amp;utm_content=thumbnail",
    "notable": true,
    "creation_place": "Nuremberg",
    "creation_lat": 49.4521,
    "creation_lon": 11.0767,
    "_source": {
     "source": "Wikipedia: List of paintings by Albrecht Dürer",
     "coord": "MediaWiki coordinates API"
    },
    "museum_id": "alte-pinakothek"
   }
  },
  {
   "type": "Feature",
   "geometry": {
    "type": "Point",
    "coordinates": [
     11.57,
     48.14833
    ]
   },
   "properties": {
    "painter": "Albrecht Dürer",
    "title": "Lamentation of Christ (Glim Lamentation)",
    "year": "1500",
    "city": "Munich",
    "country": "Germany",
    "location": "Alte Pinakothek",
    "attribution": "generally accepted",
    "medium": "Color on panel (spruce)",
    "dimensions": "151.9 × 121.6 cm",
    "image": "https://upload.wikimedia.org/wikipedia/commons/thumb/e/e2/ALBRECHT-DUERER_BEWEINUNG-CHRISTI-GLIMSCHE-BEWEINUNG_BSTGS_704.jpg/500px-ALBRECHT-DUERER_BEWEINUNG-CHRISTI-GLIMSCHE-BEWEINUNG_BSTGS_704.jpg?utm_source=en.wikipedia.org&amp;utm_campaign=parser&amp;utm_content=thumbnail",
    "notable": true,
    "creation_place": "Nuremberg",
    "creation_lat": 49.4521,
    "creation_lon": 11.0767,
    "_source": {
     "source": "Wikipedia: List of paintings by Albrecht Dürer",
     "coord": "MediaWiki coordinates API"
    },
    "museum_id": "alte-pinakothek"
   }
  },
  {
   "type": "Feature",
   "geometry": {
    "type": "Point",
    "coordinates": [
     16.3616,
     48.20388
    ]
   },
   "properties": {
    "painter": "Albrecht Dürer",
    "title": "Madonna and Child at the Breast ( Madonna lactans )",
    "year": "1503",
    "city": "Vienna",
    "country": "Austria",
    "location": "Kunsthistorisches Museum",
    "attribution": "generally accepted",
    "medium": "Oil on panel (limewood)",
    "dimensions": "24.1 × 18.3 cm",
    "image": "https://upload.wikimedia.org/wikipedia/commons/thumb/0/04/Albrecht_D%C3%BCrer%2C_Kunsthistorisches_Museum_Wien%2C_Gem%C3%A4ldegalerie_-_Maria_mit_Kind_an_der_Brust_-_GG_846_-_Kunsthistorisches_Museum.jpg/500px-Albrecht_D%C3%BCrer%2C_Kunsthistorisches_Museum_Wien%2C_Gem%C3%A4ldegalerie_-_Maria_mit_Kind_an_der_Brust_-_GG_846_-_Kunsthistorisches_Museum.jpg?utm_source=en.wikipedia.org&amp;utm_campaign=parser&amp;utm_content=thumbnail",
    "notable": true,
    "creation_place": "Nuremberg",
    "creation_lat": 49.4521,
    "creation_lon": 11.0767,
    "_source": {
     "source": "Wikipedia: List of paintings by Albrecht Dürer",
     "coord": "MediaWiki coordinates API"
    },
    "museum_id": "kunsthistorisches-museum"
   }
  },
  {
   "type": "Feature",
   "geometry": {
    "type": "Point",
    "coordinates": [
     8.68222,
     50.11056
    ]
   },
   "properties": {
    "painter": "Albrecht Dürer",
    "title": "Jabach Altarpiece outer panels: Job on the Dungheap or Job Taunted by His Wife Piper and Drummer",
    "year": "c. 1503",
    "city": "Städel",
    "location": "Frankfurt",
    "attribution": "generally accepted",
    "medium": "Oil on panel (limewood)",
    "dimensions": "94 × 51 (l) 94 x 57 (r) both truncated at top",
    "image": "https://upload.wikimedia.org/wikipedia/commons/thumb/d/dc/Jarbach_Altarpiece_01.jpg/500px-Jarbach_Altarpiece_01.jpg?utm_source=en.wikipedia.org&amp;utm_campaign=parser&amp;utm_content=thumbnail",
    "notable": true,
    "creation_place": "Nuremberg",
    "creation_lat": 49.4521,
    "creation_lon": 11.0767,
    "_source": {
     "source": "Wikipedia: List of paintings by Albrecht Dürer",
     "coord": "MediaWiki coordinates API"
    },
    "museum_id": "frankfurt"
   }
  },
  {
   "type": "Feature",
   "geometry": {
    "type": "Point",
    "coordinates": [
     11.57,
     48.14833
    ]
   },
   "properties": {
    "painter": "Albrecht Dürer",
    "title": "Jabach Altarpiece triptych wings (central panel lost) Saints Joseph and Joachim (l) Saints Simeon and Lazarus (r)",
    "year": "c. 1503",
    "city": "Munich",
    "country": "Germany",
    "location": "Alte Pinakothek",
    "attribution": "generally accepted",
    "medium": "Color on panel",
    "dimensions": "96.6 × 54.5 (l) 97 × 55.1 (r) both truncated at top",
    "image": "https://upload.wikimedia.org/wikipedia/commons/thumb/a/a3/Albrecht_D%C3%BCrer%2C_Jabach_Altarpiece%2C_Sts_Joseph_and_Joachim%2C_c1503-5%2C_Alte_Pinakothek_M%C3%BCnchen_%28WAF228%29.jpg/500px-Albrecht_D%C3%BCrer%2C_Jabach_Altarpiece%2C_Sts_Joseph_and_Joachim%2C_c1503-5%2C_Alte_Pinakothek_M%C3%BCnchen_%28WAF228%29.jpg?utm_source=en.wikipedia.org&amp;utm_campaign=parser&amp;utm_content=thumbnail",
    "notable": true,
    "creation_place": "Nuremberg",
    "creation_lat": 49.4521,
    "creation_lon": 11.0767,
    "_source": {
     "source": "Wikipedia: List of paintings by Albrecht Dürer",
     "coord": "MediaWiki coordinates API"
    },
    "museum_id": "alte-pinakothek"
   }
  },
  {
   "type": "Feature",
   "geometry": {
    "type": "Point",
    "coordinates": [
     2.37583,
     48.83361
    ]
   },
   "properties": {
    "painter": "Albrecht Dürer",
    "title": "Studies of a Boy's Head Inclined to the Right Boy's Head Inclined to the Left",
    "year": "1506",
    "city": "Paris",
    "country": "France",
    "location": "Bibliothèque nationale de France",
    "attribution": "generally accepted",
    "medium": "Distemper over ink or charcoal on cloth doubled by paper",
    "dimensions": "22.5 × 19.2 23.1 × 17.9 cm",
    "image": "https://upload.wikimedia.org/wikipedia/commons/thumb/9/94/Albrecht_D%C3%BCrer%2C_T%C3%AAte_de_jeune_gar%C3%A7on_pench%C3%A9e_vers_la_droite%2C_1506._Paris%2C_BnF_%28B13r%C3%A9s%29.jpg/500px-Albrecht_D%C3%BCrer%2C_T%C3%AAte_de_jeune_gar%C3%A7on_pench%C3%A9e_vers_la_droite%2C_1506._Paris%2C_BnF_%28B13r%C3%A9s%29.jpg?utm_source=en.wikipedia.org&amp;utm_campaign=parser&amp;utm_content=thumbnail",
    "notable": true,
    "creation_place": "Venice",
    "creation_lat": 45.4408,
    "creation_lon": 12.3155,
    "_source": {
     "source": "Wikipedia: List of paintings by Albrecht Dürer",
     "coord": "MediaWiki coordinates API"
    },
    "museum_id": "bibliotheque-nationale-de-france"
   }
  },
  {
   "type": "Feature",
   "geometry": {
    "type": "Point",
    "coordinates": [
     11.25528,
     43.76833
    ]
   },
   "properties": {
    "painter": "Albrecht Dürer",
    "title": "Adoration of the Magi",
    "year": "1504",
    "city": "Florence",
    "country": "Italy",
    "location": "Uffizi Gallery",
    "attribution": "generally accepted",
    "medium": "Oil on panel",
    "dimensions": "99 × 113.5 cm",
    "image": "https://upload.wikimedia.org/wikipedia/commons/thumb/5/53/Albrecht_D%C3%BCrer_-_Adorazione_dei_Magi_-_Google_Art_Project.jpg/500px-Albrecht_D%C3%BCrer_-_Adorazione_dei_Magi_-_Google_Art_Project.jpg?utm_source=en.wikipedia.org&amp;utm_campaign=parser&amp;utm_content=thumbnail",
    "notable": true,
    "creation_place": "Nuremberg",
    "creation_lat": 49.4521,
    "creation_lon": 11.0767,
    "_source": {
     "source": "Wikipedia: List of paintings by Albrecht Dürer",
     "coord": "MediaWiki coordinates API"
    },
    "museum_id": "uffizi-gallery"
   }
  },
  {
   "type": "Feature",
   "geometry": {
    "type": "Point",
    "coordinates": [
     19.05139,
     47.4925
    ]
   },
   "properties": {
    "painter": "Albrecht Dürer",
    "title": "Portrait of a Man (Endres Dürer)",
    "year": "c. 1504",
    "city": "Budapest",
    "country": "Hungary",
    "location": "Museum of Fine Arts",
    "attribution": "generally accepted",
    "medium": "Oil on panel",
    "dimensions": "43 × 29 cm",
    "image": "https://upload.wikimedia.org/wikipedia/commons/thumb/0/05/Portrait_of_a_Young_Man_9fdcb0.jpg/500px-Portrait_of_a_Young_Man_9fdcb0.jpg?utm_source=en.wikipedia.org&amp;utm_campaign=parser&amp;utm_content=thumbnail",
    "notable": true,
    "creation_place": "Nuremberg",
    "creation_lat": 49.4521,
    "creation_lon": 11.0767,
    "_source": {
     "source": "Wikipedia: List of paintings by Albrecht Dürer",
     "coord": "MediaWiki coordinates API"
    },
    "museum_id": "museum-of-fine-arts"
   }
  },
  {
   "type": "Feature",
   "geometry": {
    "type": "Point",
    "coordinates": [
     16.3616,
     48.20388
    ]
   },
   "properties": {
    "painter": "Albrecht Dürer",
    "title": "Portrait of a Venetian Woman",
    "year": "1505",
    "city": "Vienna",
    "country": "Austria",
    "location": "Kunsthistorisches Museum",
    "attribution": "generally accepted",
    "medium": "Oil on panel (spruce)",
    "dimensions": "33 × 24.5 cm",
    "image": "https://upload.wikimedia.org/wikipedia/commons/thumb/b/b2/Albrecht_D%C3%BCrer_-_Brustbild_einer_jungen_Venezianerin_-_GG_6440_-_Kunsthistorisches_Museum.jpg/500px-Albrecht_D%C3%BCrer_-_Brustbild_einer_jungen_Venezianerin_-_GG_6440_-_Kunsthistorisches_Museum.jpg?utm_source=en.wikipedia.org&amp;utm_campaign=parser&amp;utm_content=thumbnail",
    "notable": true,
    "creation_place": "Venice",
    "creation_lat": 45.4408,
    "creation_lon": 12.3155,
    "_source": {
     "source": "Wikipedia: List of paintings by Albrecht Dürer",
     "coord": "MediaWiki coordinates API"
    },
    "museum_id": "kunsthistorisches-museum"
   }
  },
  {
   "type": "Feature",
   "geometry": {
    "type": "Point",
    "coordinates": [
     -73.9631,
     40.7794
    ]
   },
   "properties": {
    "painter": "Albrecht Dürer",
    "title": "Salvator Mundi unfinished",
    "year": "1505",
    "city": "New York",
    "country": "United States",
    "location": "Metropolitan Museum of Art",
    "attribution": "generally accepted",
    "medium": "Oil on panel",
    "dimensions": "58.1 × 47 cm",
    "image": "https://upload.wikimedia.org/wikipedia/commons/thumb/6/64/Salvator_Mundi%2C_by_Albrecht_D%C3%BCrer%2C_MET.jpg/500px-Salvator_Mundi%2C_by_Albrecht_D%C3%BCrer%2C_MET.jpg?utm_source=en.wikipedia.org&amp;utm_campaign=parser&amp;utm_content=thumbnail",
    "notable": true,
    "creation_place": "Venice",
    "creation_lat": 45.4408,
    "creation_lon": 12.3155,
    "_source": {
     "source": "Wikipedia: List of paintings by Albrecht Dürer",
     "coord": "MediaWiki coordinates API"
    },
    "museum_id": "metropolitan-museum-of-art"
   }
  },
  {
   "type": "Feature",
   "geometry": {
    "type": "Point",
    "coordinates": [
     14.42139,
     50.0875
    ]
   },
   "properties": {
    "painter": "Albrecht Dürer",
    "title": "Feast of the Rosary",
    "year": "1506",
    "city": "Prague",
    "country": "Czech Republic",
    "location": "Národní galerie",
    "attribution": "generally accepted",
    "medium": "Oil on panel",
    "dimensions": "162 × 192 cm",
    "image": "https://upload.wikimedia.org/wikipedia/commons/thumb/f/f9/Albrecht_D%C3%BCrer_-_Feast_of_Rose_Garlands_-_Google_Art_Project.jpg/500px-Albrecht_D%C3%BCrer_-_Feast_of_Rose_Garlands_-_Google_Art_Project.jpg?utm_source=en.wikipedia.org&amp;utm_campaign=parser&amp;utm_content=thumbnail",
    "notable": true,
    "creation_place": "Venice",
    "creation_lat": 45.4408,
    "creation_lon": 12.3155,
    "_source": {
     "source": "Wikipedia: List of paintings by Albrecht Dürer",
     "coord": "MediaWiki coordinates API"
    },
    "museum_id": "narodni-galerie"
   }
  },
  {
   "type": "Feature",
   "geometry": {
    "type": "Point",
    "coordinates": [
     13.3647,
     52.5086
    ]
   },
   "properties": {
    "painter": "Albrecht Dürer",
    "title": "Madonna with the Siskin",
    "year": "1506",
    "city": "Berlin",
    "country": "Germany",
    "location": "Gemäldegalerie",
    "attribution": "generally accepted",
    "medium": "Oil on panel (poplar)",
    "dimensions": "93.5 × 78.9 cm",
    "image": "https://upload.wikimedia.org/wikipedia/commons/thumb/d/d2/Madonna_with_the_Siskin_by_Albrecht_D%C3%BCrer_-_Gem%C3%A4ldegalerie_-_Berlin_-_Germany_2017.jpg/500px-Madonna_with_the_Siskin_by_Albrecht_D%C3%BCrer_-_Gem%C3%A4ldegalerie_-_Berlin_-_Germany_2017.jpg?utm_source=en.wikipedia.org&amp;utm_campaign=parser&amp;utm_content=thumbnail",
    "notable": true,
    "creation_place": "Venice",
    "creation_lat": 45.4408,
    "creation_lon": 12.3155,
    "_source": {
     "source": "Wikipedia: List of paintings by Albrecht Dürer",
     "coord": "MediaWiki coordinates API"
    },
    "museum_id": "gemaldegalerie"
   }
  },
  {
   "type": "Feature",
   "geometry": {
    "type": "Point",
    "coordinates": [
     13.3647,
     52.5086
    ]
   },
   "properties": {
    "painter": "Albrecht Dürer",
    "title": "Portrait of a Young Venetian Woman",
    "year": "1506",
    "city": "Berlin",
    "country": "Germany",
    "location": "Gemäldegalerie",
    "attribution": "generally accepted",
    "medium": "Oil on panel (poplar)",
    "dimensions": "28.5 × 21.5 cm",
    "image": "https://upload.wikimedia.org/wikipedia/commons/thumb/4/46/D%C3%BCrer_-_Bildnis_einer_jungen_Venezianerin%2C_um_1506%2C_557G.jpg/500px-D%C3%BCrer_-_Bildnis_einer_jungen_Venezianerin%2C_um_1506%2C_557G.jpg?utm_source=en.wikipedia.org&amp;utm_campaign=parser&amp;utm_content=thumbnail",
    "notable": true,
    "creation_place": "Venice",
    "creation_lat": 45.4408,
    "creation_lon": 12.3155,
    "_source": {
     "source": "Wikipedia: List of paintings by Albrecht Dürer",
     "coord": "MediaWiki coordinates API"
    },
    "museum_id": "gemaldegalerie"
   }
  },
  {
   "type": "Feature",
   "geometry": {
    "type": "Point",
    "coordinates": [
     8.93225,
     44.41119
    ]
   },
   "properties": {
    "painter": "Albrecht Dürer",
    "title": "Portrait of a Young Man",
    "year": "1506",
    "city": "Genoa",
    "country": "Italy",
    "location": "Palazzo Rosso",
    "attribution": "generally accepted",
    "medium": "Oil on panel",
    "dimensions": "46 × 35 cm",
    "image": "https://upload.wikimedia.org/wikipedia/commons/thumb/e/e5/Albrecht_D%C3%BCrer_-_Portrait_of_a_Young_Man_-_Palazzo_Rosso_Genoa.jpg/500px-Albrecht_D%C3%BCrer_-_Portrait_of_a_Young_Man_-_Palazzo_Rosso_Genoa.jpg?utm_source=en.wikipedia.org&amp;utm_campaign=parser&amp;utm_content=thumbnail",
    "notable": true,
    "creation_place": "Venice",
    "creation_lat": 45.4408,
    "creation_lon": 12.3155,
    "_source": {
     "source": "Wikipedia: List of paintings by Albrecht Dürer",
     "coord": "MediaWiki coordinates API"
    },
    "museum_id": "palazzo-rosso"
   }
  },
  {
   "type": "Feature",
   "geometry": {
    "type": "Point",
    "coordinates": [
     -1,
     51.42
    ]
   },
   "properties": {
    "painter": "Albrecht Dürer",
    "title": "Portrait of Burkard von Speyer",
    "year": "1506",
    "city": "Windsor Castle",
    "location": "Berkshire",
    "attribution": "generally accepted",
    "medium": "Oil on panel",
    "dimensions": "31.7 × 26 cm",
    "image": "https://upload.wikimedia.org/wikipedia/commons/thumb/8/8a/Albrecht_D%C3%BCrer_-_Burkhard_von_Speyer_-_Google_Art_Project.jpg/500px-Albrecht_D%C3%BCrer_-_Burkhard_von_Speyer_-_Google_Art_Project.jpg?utm_source=en.wikipedia.org&amp;utm_campaign=parser&amp;utm_content=thumbnail",
    "notable": true,
    "creation_place": "Venice",
    "creation_lat": 45.4408,
    "creation_lon": 12.3155,
    "_source": {
     "source": "Wikipedia: List of paintings by Albrecht Dürer",
     "coord": "MediaWiki coordinates API"
    },
    "museum_id": "berkshire"
   }
  },
  {
   "type": "Feature",
   "geometry": {
    "type": "Point",
    "coordinates": [
     -3.7033,
     40.4169
    ]
   },
   "properties": {
    "painter": "Albrecht Dürer",
    "title": "Christ Among the Doctors",
    "year": "1506",
    "city": "Madrid",
    "country": "Spain",
    "location": "Museo Nacional Thyssen-Bornemisza",
    "attribution": "generally accepted",
    "medium": "Oil on panel (poplar)",
    "dimensions": "64.3 × 80.3 cm",
    "image": "https://upload.wikimedia.org/wikipedia/commons/thumb/6/64/Albrecht_D%C3%BCrer_-_Jesus_among_the_Doctors_-_Google_Art_Project.jpg/500px-Albrecht_D%C3%BCrer_-_Jesus_among_the_Doctors_-_Google_Art_Project.jpg?utm_source=en.wikipedia.org&amp;utm_campaign=parser&amp;utm_content=thumbnail",
    "notable": true,
    "creation_place": "Venice",
    "creation_lat": 45.4408,
    "creation_lon": 12.3155,
    "_source": {
     "source": "Wikipedia: List of paintings by Albrecht Dürer",
     "coord": "MediaWiki coordinates API"
    },
    "museum_id": "museo-nacional-thyssen-bornemisza"
   }
  },
  {
   "type": "Feature",
   "geometry": {
    "type": "Point",
    "coordinates": [
     16.3616,
     48.20388
    ]
   },
   "properties": {
    "painter": "Albrecht Dürer",
    "title": "Portrait of a Young Man back side: Allegory of Avarice",
    "year": "1507",
    "city": "Vienna",
    "country": "Austria",
    "location": "Kunsthistorisches Museum",
    "attribution": "generally accepted",
    "medium": "Oil on panel (limewood)",
    "dimensions": "35 × 29 cm",
    "image": "https://upload.wikimedia.org/wikipedia/commons/thumb/e/ed/D%C3%BCrer_-_Brustbild_eines_jungen_Mannes%2C_1507%2C_Gem%C3%A4ldegalerie%2C_849.jpg/500px-D%C3%BCrer_-_Brustbild_eines_jungen_Mannes%2C_1507%2C_Gem%C3%A4ldegalerie%2C_849.jpg?utm_source=en.wikipedia.org&amp;utm_campaign=parser&amp;utm_content=thumbnail",
    "notable": true,
    "creation_place": "Venice",
    "creation_lat": 45.4408,
    "creation_lon": 12.3155,
    "_source": {
     "source": "Wikipedia: List of paintings by Albrecht Dürer",
     "coord": "MediaWiki coordinates API"
    },
    "museum_id": "kunsthistorisches-museum"
   }
  },
  {
   "type": "Feature",
   "geometry": {
    "type": "Point",
    "coordinates": [
     13.3647,
     52.5086
    ]
   },
   "properties": {
    "painter": "Albrecht Dürer",
    "title": "Portrait of a Young Girl (with a Red Beret)",
    "year": "1507",
    "city": "Berlin",
    "country": "Germany",
    "location": "Gemäldegalerie",
    "attribution": "generally accepted",
    "medium": "Color on parchment transferred to panel",
    "dimensions": "32.5 × 22.3 cm",
    "image": "https://upload.wikimedia.org/wikipedia/commons/thumb/0/03/D%C3%BCrer_-_Bildnis_eines_M%C3%A4dchens_mit_rotem_Barett%2C_1507%2C_557I.jpg/500px-D%C3%BCrer_-_Bildnis_eines_M%C3%A4dchens_mit_rotem_Barett%2C_1507%2C_557I.jpg?utm_source=en.wikipedia.org&amp;utm_campaign=parser&amp;utm_content=thumbnail",
    "notable": true,
    "creation_place": "Venice",
    "creation_lat": 45.4408,
    "creation_lon": 12.3155,
    "_source": {
     "source": "Wikipedia: List of paintings by Albrecht Dürer",
     "coord": "MediaWiki coordinates API"
    },
    "museum_id": "gemaldegalerie"
   }
  },
  {
   "type": "Feature",
   "geometry": {
    "type": "Point",
    "coordinates": [
     -3.6922,
     40.4139
    ]
   },
   "properties": {
    "painter": "Albrecht Dürer",
    "title": "Adam and Eve",
    "year": "1507 m dmi",
    "city": "Madrid",
    "country": "Spain",
    "location": "Museo del Prado",
    "attribution": "generally accepted",
    "medium": "Oil on panel (pinewood)",
    "dimensions": "209 × 81 209 × 80 cm",
    "image": "https://upload.wikimedia.org/wikipedia/commons/thumb/a/a2/Albrecht_D%C3%BCrer_-_Adam_and_Eve_%28Prado%29_2.jpg/500px-Albrecht_D%C3%BCrer_-_Adam_and_Eve_%28Prado%29_2.jpg?utm_source=en.wikipedia.org&amp;utm_campaign=parser&amp;utm_content=thumbnail",
    "notable": true,
    "creation_place": "Venice",
    "creation_lat": 45.4408,
    "creation_lon": 12.3155,
    "_source": {
     "source": "Wikipedia: List of paintings by Albrecht Dürer",
     "coord": "MediaWiki coordinates API"
    },
    "museum_id": "museo-del-prado"
   }
  },
  {
   "type": "Feature",
   "geometry": {
    "type": "Point",
    "coordinates": [
     16.3616,
     48.20388
    ]
   },
   "properties": {
    "painter": "Albrecht Dürer",
    "title": "Martyrdom of the Ten Thousand",
    "year": "1508",
    "city": "Vienna",
    "country": "Austria",
    "location": "Kunsthistorisches Museum",
    "attribution": "generally accepted",
    "medium": "Oil on panel transferred to canvas",
    "dimensions": "99 × 87.5 cm",
    "image": "https://upload.wikimedia.org/wikipedia/commons/thumb/2/2a/Albrecht_D%C3%BCrer%2C_Kunsthistorisches_Museum_Wien%2C_Gem%C3%A4ldegalerie_-_Marter_der_zehntausend_Christen_-_GG_835_-_Kunsthistorisches_Museum.jpg/500px-Albrecht_D%C3%BCrer%2C_Kunsthistorisches_Museum_Wien%2C_Gem%C3%A4ldegalerie_-_Marter_der_zehntausend_Christen_-_GG_835_-_Kunsthistorisches_Museum.jpg?utm_source=en.wikipedia.org&amp;utm_campaign=parser&amp;utm_content=thumbnail",
    "notable": true,
    "creation_place": "Nuremberg",
    "creation_lat": 49.4521,
    "creation_lon": 11.0767,
    "_source": {
     "source": "Wikipedia: List of paintings by Albrecht Dürer",
     "coord": "MediaWiki coordinates API"
    },
    "museum_id": "kunsthistorisches-museum"
   }
  },
  {
   "type": "Feature",
   "geometry": {
    "type": "Point",
    "coordinates": [
     8.68222,
     50.11056
    ]
   },
   "properties": {
    "painter": "Albrecht Dürer",
    "title": "Heller Altarpiece copy",
    "year": "1508",
    "city": "Frankfurt",
    "country": "Germany",
    "location": "Historical Museum",
    "attribution": "generally accepted",
    "medium": "Oil and tempera on panel",
    "dimensions": "189 × 138 central element",
    "image": "https://upload.wikimedia.org/wikipedia/commons/thumb/4/4f/D%C3%BCrer%2C_Gr%C3%BCnewald%2C_Harrich_-_Heller-Altar_HMF_DSC6312.jpg/500px-D%C3%BCrer%2C_Gr%C3%BCnewald%2C_Harrich_-_Heller-Altar_HMF_DSC6312.jpg?utm_source=en.wikipedia.org&amp;utm_campaign=parser&amp;utm_content=thumbnail",
    "notable": true,
    "creation_place": "Nuremberg",
    "creation_lat": 49.4521,
    "creation_lon": 11.0767,
    "_source": {
     "source": "Wikipedia: List of paintings by Albrecht Dürer",
     "coord": "MediaWiki coordinates API"
    },
    "museum_id": "historical-museum"
   }
  },
  {
   "type": "Feature",
   "geometry": {
    "type": "Point",
    "coordinates": [
     4.47334,
     51.91421
    ]
   },
   "properties": {
    "painter": "Albrecht Dürer",
    "title": "Holy Family",
    "year": "1509",
    "city": "Rotterdam",
    "country": "Netherlands",
    "location": "Museum Boijmans Van Beuningen",
    "attribution": "generally accepted",
    "medium": "Oil on panel",
    "dimensions": "30.9 × 38.6 cm",
    "image": "https://upload.wikimedia.org/wikipedia/commons/thumb/a/a2/Albrecht_D%C3%BCrer_-_De_heilige_familie_-_2447_%28OK%29_-_Museum_Boijmans_Van_Beuningen.jpg/500px-Albrecht_D%C3%BCrer_-_De_heilige_familie_-_2447_%28OK%29_-_Museum_Boijmans_Van_Beuningen.jpg?utm_source=en.wikipedia.org&amp;utm_campaign=parser&amp;utm_content=thumbnail",
    "notable": true,
    "creation_place": "Nuremberg",
    "creation_lat": 49.4521,
    "creation_lon": 11.0767,
    "_source": {
     "source": "Wikipedia: List of paintings by Albrecht Dürer",
     "coord": "MediaWiki coordinates API"
    },
    "museum_id": "museum-boijmans-van-beuningen"
   }
  },
  {
   "type": "Feature",
   "geometry": {
    "type": "Point",
    "coordinates": [
     16.3616,
     48.20388
    ]
   },
   "properties": {
    "painter": "Albrecht Dürer",
    "title": "Adoration of the Trinity (Landauer Altar) with frame designed by Dürer",
    "year": "1511",
    "city": "Vienna",
    "country": "Austria",
    "location": "Kunsthistorisches Museum",
    "attribution": "generally accepted",
    "medium": "Oil on panel (limewood)",
    "dimensions": "135 × 123.4 (limewood) 147,7 × 135.4 (frame)",
    "image": "https://upload.wikimedia.org/wikipedia/commons/thumb/6/61/Albrecht_D%C3%BCrer_-_Adoration_of_the_Trinity_%28Landauer_Altar%29_-_Google_Art_Project.jpg/500px-Albrecht_D%C3%BCrer_-_Adoration_of_the_Trinity_%28Landauer_Altar%29_-_Google_Art_Project.jpg?utm_source=en.wikipedia.org&amp;utm_campaign=parser&amp;utm_content=thumbnail",
    "notable": true,
    "creation_place": "Nuremberg",
    "creation_lat": 49.4521,
    "creation_lon": 11.0767,
    "_source": {
     "source": "Wikipedia: List of paintings by Albrecht Dürer",
     "coord": "MediaWiki coordinates API"
    },
    "museum_id": "kunsthistorisches-museum"
   }
  },
  {
   "type": "Feature",
   "geometry": {
    "type": "Point",
    "coordinates": [
     16.3616,
     48.20388
    ]
   },
   "properties": {
    "painter": "Albrecht Dürer",
    "title": "Madonna of the Pear",
    "year": "1512",
    "city": "Vienna",
    "country": "Austria",
    "location": "Kunsthistorisches Museum",
    "attribution": "generally accepted",
    "medium": "Oil on panel (limewood)",
    "dimensions": "49.3 × 37.4 cm",
    "image": "https://upload.wikimedia.org/wikipedia/commons/thumb/c/cc/Albrecht_D%C3%BCrer_-_Virgin_and_child_with_a_pear_-_Google_Art_Project.jpg/500px-Albrecht_D%C3%BCrer_-_Virgin_and_child_with_a_pear_-_Google_Art_Project.jpg?utm_source=en.wikipedia.org&amp;utm_campaign=parser&amp;utm_content=thumbnail",
    "notable": true,
    "creation_place": "Nuremberg",
    "creation_lat": 49.4521,
    "creation_lon": 11.0767,
    "_source": {
     "source": "Wikipedia: List of paintings by Albrecht Dürer",
     "coord": "MediaWiki coordinates API"
    },
    "museum_id": "kunsthistorisches-museum"
   }
  },
  {
   "type": "Feature",
   "geometry": {
    "type": "Point",
    "coordinates": [
     11.07556,
     49.44833
    ]
   },
   "properties": {
    "painter": "Albrecht Dürer",
    "title": "Emperor Charlemagne and Emperor Sigismund",
    "year": "c. 1512",
    "city": "Nuremberg",
    "location": "Germanisches Nationalmuseum",
    "attribution": "generally accepted",
    "medium": "Oil and tempera on panel",
    "dimensions": "215 × 115 each, including frame",
    "image": "https://upload.wikimedia.org/wikipedia/commons/thumb/9/96/Albrecht_D%C3%BCrer_-_Emperor_Charlemagne_and_Emperor_Sigismund_-_WGA06997.jpg/500px-Albrecht_D%C3%BCrer_-_Emperor_Charlemagne_and_Emperor_Sigismund_-_WGA06997.jpg?utm_source=en.wikipedia.org&amp;utm_campaign=parser&amp;utm_content=thumbnail",
    "notable": true,
    "creation_place": "Nuremberg",
    "creation_lat": 49.4521,
    "creation_lon": 11.0767,
    "_source": {
     "source": "Wikipedia: List of paintings by Albrecht Dürer",
     "coord": "MediaWiki coordinates API"
    },
    "museum_id": "germanisches-nationalmuseum",
    "country": "Germany"
   }
  },
  {
   "type": "Feature",
   "geometry": {
    "type": "Point",
    "coordinates": [
     -73.9631,
     40.7794
    ]
   },
   "properties": {
    "painter": "Albrecht Dürer",
    "title": "Virgin and Child",
    "year": "1516",
    "city": "New York",
    "country": "United States",
    "location": "Metropolitan Museum of Art",
    "attribution": "generally accepted",
    "medium": "Oil on panel (spruce)",
    "dimensions": "27.9 × 18.7 (w/border 22.2)",
    "image": "https://upload.wikimedia.org/wikipedia/commons/thumb/0/0c/Virgin_and_Child_MET_DP164788.jpg/500px-Virgin_and_Child_MET_DP164788.jpg?utm_source=en.wikipedia.org&amp;utm_campaign=parser&amp;utm_content=thumbnail",
    "notable": true,
    "creation_place": "Nuremberg",
    "creation_lat": 49.4521,
    "creation_lon": 11.0767,
    "_source": {
     "source": "Wikipedia: List of paintings by Albrecht Dürer",
     "coord": "MediaWiki coordinates API"
    },
    "museum_id": "metropolitan-museum-of-art"
   }
  },
  {
   "type": "Feature",
   "geometry": {
    "type": "Point",
    "coordinates": [
     11.57,
     48.14833
    ]
   },
   "properties": {
    "painter": "Albrecht Dürer",
    "title": "Madonna of the Carnation",
    "year": "1516",
    "city": "Munich",
    "country": "Germany",
    "location": "Alte Pinakothek",
    "attribution": "generally accepted",
    "medium": "Color on parchment mounted on pine wood (doubled with spruce)",
    "dimensions": "39.7 × 29.3 cm",
    "image": "https://upload.wikimedia.org/wikipedia/commons/thumb/3/3b/Albrecht_D%C3%BCrer_060.jpg/500px-Albrecht_D%C3%BCrer_060.jpg?utm_source=en.wikipedia.org&amp;utm_campaign=parser&amp;utm_content=thumbnail",
    "notable": true,
    "creation_place": "Nuremberg",
    "creation_lat": 49.4521,
    "creation_lon": 11.0767,
    "_source": {
     "source": "Wikipedia: List of paintings by Albrecht Dürer",
     "coord": "MediaWiki coordinates API"
    },
    "museum_id": "alte-pinakothek"
   }
  },
  {
   "type": "Feature",
   "geometry": {
    "type": "Point",
    "coordinates": [
     11.07556,
     49.44833
    ]
   },
   "properties": {
    "painter": "Albrecht Dürer",
    "title": "Portrait of Michael Wolgemut",
    "year": "1516",
    "city": "Nuremberg",
    "location": "Germanisches Nationalmuseum",
    "attribution": "generally accepted",
    "medium": "Oil and tempera on panel (limewood)",
    "dimensions": "29.8 × 28.1 cm",
    "image": "https://upload.wikimedia.org/wikipedia/commons/thumb/7/7b/Albrecht_D%C3%BCrer_085.jpg/500px-Albrecht_D%C3%BCrer_085.jpg?utm_source=en.wikipedia.org&amp;utm_campaign=parser&amp;utm_content=thumbnail",
    "notable": true,
    "creation_place": "Nuremberg",
    "creation_lat": 49.4521,
    "creation_lon": 11.0767,
    "_source": {
     "source": "Wikipedia: List of paintings by Albrecht Dürer",
     "coord": "MediaWiki coordinates API"
    },
    "museum_id": "germanisches-nationalmuseum",
    "country": "Germany"
   }
  },
  {
   "type": "Feature",
   "geometry": {
    "type": "Point",
    "coordinates": [
     -77.02,
     38.8914
    ]
   },
   "properties": {
    "painter": "Albrecht Dürer",
    "title": "Portrait of a Clergyman (Johann Dorsch?)",
    "year": "1516",
    "city": "Washington",
    "country": "United States",
    "location": "National Gallery of Art",
    "attribution": "generally accepted",
    "medium": "Oil on parchment transferred to fabric",
    "dimensions": "41.7 × 32.7 cm",
    "image": "https://upload.wikimedia.org/wikipedia/commons/thumb/0/07/Albrecht_D%C3%BCrer_-_Bildnis_eines_Geistlichen_%28National_Gallery_of_Art%29.jpg/500px-Albrecht_D%C3%BCrer_-_Bildnis_eines_Geistlichen_%28National_Gallery_of_Art%29.jpg?utm_source=en.wikipedia.org&amp;utm_campaign=parser&amp;utm_content=thumbnail",
    "notable": true,
    "creation_place": "Nuremberg",
    "creation_lat": 49.4521,
    "creation_lon": 11.0767,
    "_source": {
     "source": "Wikipedia: List of paintings by Albrecht Dürer",
     "coord": "MediaWiki coordinates API"
    },
    "museum_id": "national-gallery-of-art"
   }
  },
  {
   "type": "Feature",
   "geometry": {
    "type": "Point",
    "coordinates": [
     11.25528,
     43.76833
    ]
   },
   "properties": {
    "painter": "Albrecht Dürer",
    "title": "Apostles Philip and James",
    "year": "1516",
    "city": "Florence",
    "country": "Italy",
    "location": "Uffizi Gallery",
    "attribution": "generally accepted",
    "medium": "Tempera on panel",
    "dimensions": "45 × 38 46 × 37 cm",
    "image": "https://upload.wikimedia.org/wikipedia/commons/thumb/4/42/Albrecht_D%C3%BCrer_009.jpg/500px-Albrecht_D%C3%BCrer_009.jpg?utm_source=en.wikipedia.org&amp;utm_campaign=parser&amp;utm_content=thumbnail",
    "notable": true,
    "creation_place": "Nuremberg",
    "creation_lat": 49.4521,
    "creation_lon": 11.0767,
    "_source": {
     "source": "Wikipedia: List of paintings by Albrecht Dürer",
     "coord": "MediaWiki coordinates API"
    },
    "museum_id": "uffizi-gallery"
   }
  },
  {
   "type": "Feature",
   "geometry": {
    "type": "Point",
    "coordinates": [
     11.57,
     48.14833
    ]
   },
   "properties": {
    "painter": "Albrecht Dürer",
    "title": "Lucretia (The Suicide of Lucretia)",
    "year": "1518",
    "city": "Munich",
    "country": "Germany",
    "location": "Alte Pinakothek",
    "attribution": "generally accepted",
    "medium": "Color on panel (limewood)",
    "dimensions": "168 × 74 cm",
    "image": "https://upload.wikimedia.org/wikipedia/commons/thumb/f/f2/Albrecht_D%C3%BCrer%2C_Selbstmord_der_Lucretia%2C_1518._M%C3%BCnchen%2C_Alte_Pinakothek_%28705%29.jpg/500px-Albrecht_D%C3%BCrer%2C_Selbstmord_der_Lucretia%2C_1518._M%C3%BCnchen%2C_Alte_Pinakothek_%28705%29.jpg?utm_source=en.wikipedia.org&amp;utm_campaign=parser&amp;utm_content=thumbnail",
    "notable": true,
    "creation_place": "Nuremberg",
    "creation_lat": 49.4521,
    "creation_lon": 11.0767,
    "_source": {
     "source": "Wikipedia: List of paintings by Albrecht Dürer",
     "coord": "MediaWiki coordinates API"
    },
    "museum_id": "alte-pinakothek"
   }
  },
  {
   "type": "Feature",
   "geometry": {
    "type": "Point",
    "coordinates": [
     13.3647,
     52.5086
    ]
   },
   "properties": {
    "painter": "Albrecht Dürer",
    "title": "Virgin Mary in Prayer",
    "year": "1518",
    "city": "Berlin",
    "country": "Germany",
    "location": "Gemäldegalerie",
    "attribution": "generally accepted",
    "medium": "Oil on panel (limewood)",
    "dimensions": "54.9 × 45.3 cm",
    "image": "https://upload.wikimedia.org/wikipedia/commons/thumb/8/8a/Betende_Maria_-_Gem%C3%A4ldegalerie_Berlin_-_5184312.jpg/500px-Betende_Maria_-_Gem%C3%A4ldegalerie_Berlin_-_5184312.jpg?utm_source=en.wikipedia.org&amp;utm_campaign=parser&amp;utm_content=thumbnail",
    "notable": true,
    "creation_place": "Nuremberg",
    "creation_lat": 49.4521,
    "creation_lon": 11.0767,
    "_source": {
     "source": "Wikipedia: List of paintings by Albrecht Dürer",
     "coord": "MediaWiki coordinates API"
    },
    "museum_id": "gemaldegalerie"
   }
  },
  {
   "type": "Feature",
   "geometry": {
    "type": "Point",
    "coordinates": [
     -73.9631,
     40.7794
    ]
   },
   "properties": {
    "painter": "Albrecht Dürer",
    "title": "Virgin and Child with St Anne",
    "year": "1519",
    "city": "New York",
    "country": "United States",
    "location": "Metropolitan Museum of Art",
    "attribution": "generally accepted",
    "medium": "Oil on panel (limewood)",
    "dimensions": "60 × 49.8 cm",
    "image": "https://upload.wikimedia.org/wikipedia/commons/thumb/c/c6/Virgin_and_Child_with_Saint_Anne_MET_DP280846.jpg/500px-Virgin_and_Child_with_Saint_Anne_MET_DP280846.jpg?utm_source=en.wikipedia.org&amp;utm_campaign=parser&amp;utm_content=thumbnail",
    "notable": true,
    "creation_place": "Nuremberg",
    "creation_lat": 49.4521,
    "creation_lon": 11.0767,
    "_source": {
     "source": "Wikipedia: List of paintings by Albrecht Dürer",
     "coord": "MediaWiki coordinates API"
    },
    "museum_id": "metropolitan-museum-of-art"
   }
  },
  {
   "type": "Feature",
   "geometry": {
    "type": "Point",
    "coordinates": [
     10.89778,
     48.36889
    ]
   },
   "properties": {
    "painter": "Albrecht Dürer",
    "title": "Portrait of Jakob Fugger the Wealthy",
    "year": "c. 1520",
    "city": "Augsburg",
    "location": "Staatsgalerie Altdeutsche Meister",
    "attribution": "generally accepted",
    "medium": "Tempera on canvas ( Tüchlein )",
    "dimensions": "69.4 × 53 cm",
    "image": "https://upload.wikimedia.org/wikipedia/commons/thumb/5/50/Albrecht_D%C3%BCrer%2C_Bildnis_Jakob_Fugger_der_Reiche%2C_c1520._BSTGS_717.jpg/500px-Albrecht_D%C3%BCrer%2C_Bildnis_Jakob_Fugger_der_Reiche%2C_c1520._BSTGS_717.jpg?utm_source=en.wikipedia.org&amp;utm_campaign=parser&amp;utm_content=thumbnail",
    "notable": true,
    "creation_place": "Nuremberg",
    "creation_lat": 49.4521,
    "creation_lon": 11.0767,
    "_source": {
     "source": "Wikipedia: List of paintings by Albrecht Dürer",
     "coord": "MediaWiki coordinates API"
    },
    "museum_id": "staatsgalerie-altdeutsche-meister"
   }
  },
  {
   "type": "Feature",
   "geometry": {
    "type": "Point",
    "coordinates": [
     11.07556,
     49.44833
    ]
   },
   "properties": {
    "painter": "Albrecht Dürer",
    "title": "Portrait of Emperor Maximilian I of Habsburg",
    "year": "1519",
    "city": "Nuremberg",
    "location": "Germanisches Nationalmuseum",
    "attribution": "generally accepted",
    "medium": "Tempera on canvas",
    "dimensions": "83 × 65 cm",
    "image": "https://upload.wikimedia.org/wikipedia/commons/thumb/2/2f/Albrecht_D%C3%BCrer_083.jpg/500px-Albrecht_D%C3%BCrer_083.jpg?utm_source=en.wikipedia.org&amp;utm_campaign=parser&amp;utm_content=thumbnail",
    "notable": true,
    "creation_place": "Nuremberg",
    "creation_lat": 49.4521,
    "creation_lon": 11.0767,
    "_source": {
     "source": "Wikipedia: List of paintings by Albrecht Dürer",
     "coord": "MediaWiki coordinates API"
    },
    "museum_id": "germanisches-nationalmuseum",
    "country": "Germany"
   }
  },
  {
   "type": "Feature",
   "geometry": {
    "type": "Point",
    "coordinates": [
     16.3616,
     48.20388
    ]
   },
   "properties": {
    "painter": "Albrecht Dürer",
    "title": "Portrait of Emperor Maximilian I",
    "year": "1519",
    "city": "Vienna",
    "country": "Austria",
    "location": "Kunsthistorisches Museum",
    "attribution": "generally accepted",
    "medium": "Oil on panel (limewood)",
    "dimensions": "74 × 62 cm",
    "image": "https://upload.wikimedia.org/wikipedia/commons/thumb/3/35/Albrecht_D%C3%BCrer_-_Portrait_of_Maximilian_I_-_Google_Art_Project.jpg/500px-Albrecht_D%C3%BCrer_-_Portrait_of_Maximilian_I_-_Google_Art_Project.jpg?utm_source=en.wikipedia.org&amp;utm_campaign=parser&amp;utm_content=thumbnail",
    "notable": true,
    "creation_place": "Nuremberg",
    "creation_lat": 49.4521,
    "creation_lon": 11.0767,
    "_source": {
     "source": "Wikipedia: List of paintings by Albrecht Dürer",
     "coord": "MediaWiki coordinates API"
    },
    "museum_id": "kunsthistorisches-museum"
   }
  },
  {
   "type": "Feature",
   "geometry": {
    "type": "Point",
    "coordinates": [
     2.3358,
     48.8611
    ]
   },
   "properties": {
    "painter": "Albrecht Dürer",
    "title": "Portrait of a Man",
    "year": "1520",
    "city": "Paris",
    "country": "France",
    "location": "Louvre",
    "attribution": "generally accepted",
    "medium": "Distemper on canvas mounted on paper",
    "dimensions": "40 × 30.3 cm",
    "image": "https://upload.wikimedia.org/wikipedia/commons/thumb/1/1b/Albrecht_D%C3%BCrer_-_Portrait_of_a_Man_-_WGA07018.jpg/500px-Albrecht_D%C3%BCrer_-_Portrait_of_a_Man_-_WGA07018.jpg?utm_source=en.wikipedia.org&amp;utm_campaign=parser&amp;utm_content=thumbnail",
    "notable": true,
    "creation_place": "Nuremberg",
    "creation_lat": 49.4521,
    "creation_lon": 11.0767,
    "_source": {
     "source": "Wikipedia: List of paintings by Albrecht Dürer",
     "coord": "MediaWiki coordinates API"
    },
    "museum_id": "louvre"
   }
  },
  {
   "type": "Feature",
   "geometry": {
    "type": "Point",
    "coordinates": [
     2.3522,
     48.8567
    ]
   },
   "properties": {
    "painter": "Albrecht Dürer",
    "title": "Study for a Virgin Mary",
    "year": "c. 1520",
    "city": "Paris",
    "country": "France",
    "location": "Bibliothèque nationale de France ( B-13 rés",
    "attribution": "generally accepted",
    "medium": "Tempera on canvas",
    "dimensions": "25.5 × 21.5 cm",
    "image": "https://upload.wikimedia.org/wikipedia/commons/thumb/3/3a/Albrecht_D%C3%BCrer%2C_%C3%89tude_pour_une_Sainte_Vierge%2C_1503._Paris%2C_BnF_%28B-13_r%C3%A9s.%29.tif/lossless-page1-250px-Albrecht_D%C3%BCrer%2C_%C3%89tude_pour_une_Sainte_Vierge%2C_1503._Paris%2C_BnF_%28B-13_r%C3%A9s.%29.tif.png?utm_source=en.wikipedia.org&amp;utm_campaign=parser&amp;utm_content=thumbnail",
    "notable": true,
    "creation_place": "Nuremberg",
    "creation_lat": 49.4521,
    "creation_lon": 11.0767,
    "_source": {
     "source": "Wikipedia: List of paintings by Albrecht Dürer",
     "coord": "MediaWiki coordinates API"
    },
    "museum_id": "bibliotheque-nationale-de-france-b-13-res"
   }
  },
  {
   "type": "Feature",
   "geometry": {
    "type": "Point",
    "coordinates": [
     13.73466,
     51.05338
    ]
   },
   "properties": {
    "painter": "Albrecht Dürer",
    "title": "Portrait of Bernhart von Reesen",
    "year": "1521",
    "city": "Dresden",
    "country": "Germany",
    "location": "Gemäldegalerie Alte Meister",
    "attribution": "generally accepted",
    "medium": "Oil on panel (oak wood)",
    "dimensions": "45.5 × 31.5 cm",
    "image": "https://upload.wikimedia.org/wikipedia/commons/thumb/a/a9/Albrecht_D%C3%BCrer_-_Portrait_of_Bernhard_von_Reesen_-_Google_Art_Project.jpg/500px-Albrecht_D%C3%BCrer_-_Portrait_of_Bernhard_von_Reesen_-_Google_Art_Project.jpg?utm_source=en.wikipedia.org&amp;utm_campaign=parser&amp;utm_content=thumbnail",
    "notable": true,
    "creation_place": "Nuremberg",
    "creation_lat": 49.4521,
    "creation_lon": 11.0767,
    "_source": {
     "source": "Wikipedia: List of paintings by Albrecht Dürer",
     "coord": "MediaWiki coordinates API"
    },
    "museum_id": "gemaldegalerie-alte-meister"
   }
  },
  {
   "type": "Feature",
   "geometry": {
    "type": "Point",
    "coordinates": [
     -71.05778,
     42.36028
    ]
   },
   "properties": {
    "painter": "Albrecht Dürer",
    "title": "Portrait of a Man in a Fur Coat (Rodrigo de Almada?)",
    "year": "1521",
    "city": "Boston",
    "country": "United States",
    "location": "Isabella Stewart Gardner Museum",
    "attribution": "generally accepted",
    "medium": "Oil on panel",
    "dimensions": "50.6 × 32.9 cm",
    "image": "https://upload.wikimedia.org/wikipedia/commons/thumb/c/ca/Albrecht_D%C3%BCrer_-_A_Man_in_a_Fur_Coat_-_P21n10_-_Isabella_Stewart_Gardner_Museum.jpg/500px-Albrecht_D%C3%BCrer_-_A_Man_in_a_Fur_Coat_-_P21n10_-_Isabella_Stewart_Gardner_Museum.jpg?utm_source=en.wikipedia.org&amp;utm_campaign=parser&amp;utm_content=thumbnail",
    "notable": true,
    "creation_place": "Nuremberg",
    "creation_lat": 49.4521,
    "creation_lon": 11.0767,
    "_source": {
     "source": "Wikipedia: List of paintings by Albrecht Dürer",
     "coord": "MediaWiki coordinates API"
    },
    "museum_id": "isabella-stewart-gardner-museum"
   }
  },
  {
   "type": "Feature",
   "geometry": {
    "type": "Point",
    "coordinates": [
     -9.15,
     38.72528
    ]
   },
   "properties": {
    "painter": "Albrecht Dürer",
    "title": "St. Jerome in His Study",
    "year": "1521",
    "city": "Lisbon",
    "country": "Portugal",
    "location": "Museum Nacional de Arte Antiga",
    "attribution": "generally accepted",
    "medium": "Oil on panel (oak wood)",
    "dimensions": "59.5 × 48.5 cm",
    "image": "https://upload.wikimedia.org/wikipedia/commons/thumb/0/02/Albrecht_D%C3%BCrer_035.jpg/500px-Albrecht_D%C3%BCrer_035.jpg?utm_source=en.wikipedia.org&amp;utm_campaign=parser&amp;utm_content=thumbnail",
    "notable": true,
    "creation_place": "Nuremberg",
    "creation_lat": 49.4521,
    "creation_lon": 11.0767,
    "_source": {
     "source": "Wikipedia: List of paintings by Albrecht Dürer",
     "coord": "MediaWiki coordinates API"
    },
    "museum_id": "museum-nacional-de-arte-antiga"
   }
  },
  {
   "type": "Feature",
   "geometry": {
    "type": "Point",
    "coordinates": [
     -3.6922,
     40.4139
    ]
   },
   "properties": {
    "painter": "Albrecht Dürer",
    "title": "Portrait of a Man with Beret and Scroll",
    "year": "1521",
    "city": "Madrid",
    "country": "Spain",
    "location": "Museo del Prado",
    "attribution": "generally accepted",
    "medium": "Oil on panel (oakwood)",
    "dimensions": "50 × 36 cm",
    "image": "https://upload.wikimedia.org/wikipedia/commons/thumb/d/db/Albrecht_D%C3%BCrer_-_Bildnis_eines_unbekannten_Mannes.jpg/500px-Albrecht_D%C3%BCrer_-_Bildnis_eines_unbekannten_Mannes.jpg?utm_source=en.wikipedia.org&amp;utm_campaign=parser&amp;utm_content=thumbnail",
    "notable": true,
    "creation_place": "Nuremberg",
    "creation_lat": 49.4521,
    "creation_lon": 11.0767,
    "_source": {
     "source": "Wikipedia: List of paintings by Albrecht Dürer",
     "coord": "MediaWiki coordinates API"
    },
    "museum_id": "museo-del-prado"
   }
  },
  {
   "type": "Feature",
   "geometry": {
    "type": "Point",
    "coordinates": [
     21.01111,
     52.23
    ]
   },
   "properties": {
    "painter": "Albrecht Dürer",
    "title": "Virgin and Child with Saint Anne",
    "year": "1523",
    "city": "Warsaw",
    "location": "Muzeum Kolekcji im",
    "attribution": "generally accepted",
    "medium": "Oil on panel",
    "dimensions": "75 x 64.5",
    "image": "https://upload.wikimedia.org/wikipedia/commons/thumb/9/98/D%C3%BCrer_Virgin_and_Child.jpg/500px-D%C3%BCrer_Virgin_and_Child.jpg?utm_source=en.wikipedia.org&amp;utm_campaign=parser&amp;utm_content=thumbnail",
    "notable": true,
    "creation_place": "Nuremberg",
    "creation_lat": 49.4521,
    "creation_lon": 11.0767,
    "_source": {
     "source": "Wikipedia: List of paintings by Albrecht Dürer",
     "coord": "MediaWiki coordinates API"
    },
    "museum_id": "muzeum-kolekcji-im"
   }
  },
  {
   "type": "Feature",
   "geometry": {
    "type": "Point",
    "coordinates": [
     11.25528,
     43.76833
    ]
   },
   "properties": {
    "painter": "Albrecht Dürer",
    "title": "Madonna and Child with the Pear",
    "year": "1526",
    "city": "Florence",
    "country": "Italy",
    "location": "Uffizi Gallery",
    "attribution": "generally accepted",
    "medium": "Oil on panel",
    "dimensions": "43 × 31 cm",
    "image": "https://upload.wikimedia.org/wikipedia/commons/thumb/3/34/Albrecht_D%C3%BCrer_061.jpg/500px-Albrecht_D%C3%BCrer_061.jpg?utm_source=en.wikipedia.org&amp;utm_campaign=parser&amp;utm_content=thumbnail",
    "notable": true,
    "creation_place": "Nuremberg",
    "creation_lat": 49.4521,
    "creation_lon": 11.0767,
    "_source": {
     "source": "Wikipedia: List of paintings by Albrecht Dürer",
     "coord": "MediaWiki coordinates API"
    },
    "museum_id": "uffizi-gallery"
   }
  },
  {
   "type": "Feature",
   "geometry": {
    "type": "Point",
    "coordinates": [
     13.3647,
     52.5086
    ]
   },
   "properties": {
    "painter": "Albrecht Dürer",
    "title": "Portrait of Jakob Muffel",
    "year": "1526",
    "city": "Berlin",
    "country": "Germany",
    "location": "Gemäldegalerie",
    "attribution": "generally accepted",
    "medium": "Oil on panel transferred to canvas",
    "dimensions": "49.7 × 37.2 cm",
    "image": "https://upload.wikimedia.org/wikipedia/commons/thumb/2/24/D%C3%BCrer_-_Jakob_Muffel_%281471-1526%29%2C_1526%2C_557D.jpg/500px-D%C3%BCrer_-_Jakob_Muffel_%281471-1526%29%2C_1526%2C_557D.jpg?utm_source=en.wikipedia.org&amp;utm_campaign=parser&amp;utm_content=thumbnail",
    "notable": true,
    "creation_place": "Nuremberg",
    "creation_lat": 49.4521,
    "creation_lon": 11.0767,
    "_source": {
     "source": "Wikipedia: List of paintings by Albrecht Dürer",
     "coord": "MediaWiki coordinates API"
    },
    "museum_id": "gemaldegalerie"
   }
  },
  {
   "type": "Feature",
   "geometry": {
    "type": "Point",
    "coordinates": [
     13.3647,
     52.5086
    ]
   },
   "properties": {
    "painter": "Albrecht Dürer",
    "title": "Portrait of Hieronymus Holzschuher with cover",
    "year": "1526",
    "city": "Berlin",
    "country": "Germany",
    "location": "Gemäldegalerie",
    "attribution": "generally accepted",
    "medium": "Oil on panel (limewood)",
    "dimensions": "51 × 37.1 cm",
    "image": "https://upload.wikimedia.org/wikipedia/commons/thumb/a/a9/D%C3%BCrer_-_Hieronymus_Holzschuher_%281469-1529%29_mit_Deckel%2C_1526%2C_557E.jpg/500px-D%C3%BCrer_-_Hieronymus_Holzschuher_%281469-1529%29_mit_Deckel%2C_1526%2C_557E.jpg?utm_source=en.wikipedia.org&amp;utm_campaign=parser&amp;utm_content=thumbnail",
    "notable": true,
    "creation_place": "Nuremberg",
    "creation_lat": 49.4521,
    "creation_lon": 11.0767,
    "_source": {
     "source": "Wikipedia: List of paintings by Albrecht Dürer",
     "coord": "MediaWiki coordinates API"
    },
    "museum_id": "gemaldegalerie"
   }
  },
  {
   "type": "Feature",
   "geometry": {
    "type": "Point",
    "coordinates": [
     16.3616,
     48.20388
    ]
   },
   "properties": {
    "painter": "Albrecht Dürer",
    "title": "Portrait of Johann Kleberger",
    "year": "1526",
    "city": "Vienna",
    "country": "Austria",
    "location": "Kunsthistorisches Museum",
    "attribution": "generally accepted",
    "medium": "Oil on panel (limewood)",
    "dimensions": "36.5 × 36.5 cm",
    "image": "https://upload.wikimedia.org/wikipedia/commons/thumb/e/e6/Albrecht_D%C3%BCrer_-_Johannes_Kleberger_-_Google_Art_Project.jpg/500px-Albrecht_D%C3%BCrer_-_Johannes_Kleberger_-_Google_Art_Project.jpg?utm_source=en.wikipedia.org&amp;utm_campaign=parser&amp;utm_content=thumbnail",
    "notable": true,
    "creation_place": "Nuremberg",
    "creation_lat": 49.4521,
    "creation_lon": 11.0767,
    "_source": {
     "source": "Wikipedia: List of paintings by Albrecht Dürer",
     "coord": "MediaWiki coordinates API"
    },
    "museum_id": "kunsthistorisches-museum"
   }
  },
  {
   "type": "Feature",
   "geometry": {
    "type": "Point",
    "coordinates": [
     11.57,
     48.14833
    ]
   },
   "properties": {
    "painter": "Albrecht Dürer",
    "title": "The Four Apostles Saints John and Peter Saints Mark and Paul",
    "year": "1526",
    "city": "Munich",
    "country": "Germany",
    "location": "Alte Pinakothek",
    "attribution": "generally accepted",
    "medium": "Color on panel",
    "dimensions": "212.8 × 76.2 (l) 212.4 × 76.3 (r)",
    "image": "https://upload.wikimedia.org/wikipedia/commons/thumb/0/0e/Vier_Apostel_%28Albrecht_Duerer%29.jpg/500px-Vier_Apostel_%28Albrecht_Duerer%29.jpg?utm_source=en.wikipedia.org&amp;utm_campaign=parser&amp;utm_content=thumbnail",
    "notable": true,
    "creation_place": "Nuremberg",
    "creation_lat": 49.4521,
    "creation_lon": 11.0767,
    "_source": {
     "source": "Wikipedia: List of paintings by Albrecht Dürer",
     "coord": "MediaWiki coordinates API"
    },
    "museum_id": "alte-pinakothek"
   }
  },
  {
   "type": "Feature",
   "geometry": {
    "type": "Point",
    "coordinates": [
     9.6758,
     45.7042
    ]
   },
   "properties": {
    "painter": "Albrecht Dürer",
    "title": "Way to Calvary",
    "year": "1527",
    "city": "Bergamo",
    "location": "Accademia Carrara",
    "attribution": "generally accepted",
    "medium": "Oil on panel",
    "dimensions": "32 × 47 cm",
    "image": "https://upload.wikimedia.org/wikipedia/commons/thumb/4/46/Albrecht_D%C3%BCrer_-_Way_to_Calvary_-_WGA07030.jpg/500px-Albrecht_D%C3%BCrer_-_Way_to_Calvary_-_WGA07030.jpg?utm_source=en.wikipedia.org&amp;utm_campaign=parser&amp;utm_content=thumbnail",
    "notable": true,
    "creation_place": "Nuremberg",
    "creation_lat": 49.4521,
    "creation_lon": 11.0767,
    "_source": {
     "source": "Wikipedia: List of paintings by Albrecht Dürer",
     "coord": "MediaWiki coordinates API"
    },
    "museum_id": "accademia-carrara",
    "country": "Italy"
   }
  }
 ]
}