{
 "type": "FeatureCollection",
 "_note": "Generated by scripts/build.py from Wikidata. Do not edit by hand — put manual fixes in the painter's overlay (data/overlay/*.json). Each feature carries _source (scraped base or manual addition) and, when edited, _overrides.",
 "features": [
  {
   "type": "Feature",
   "geometry": {
    "type": "Point",
    "coordinates": [
     -71.05778,
     42.36028
    ]
   },
   "properties": {
    "painter": "Fra Angelico",
    "title": "Dormition and Assumption of the Virgin",
    "year": "1429",
    "city": "Boston",
    "country": "United States",
    "location": "Isabella Stewart Gardner Museum",
    "kind": "museum",
    "attribution": "attributed",
    "status": "present",
    "dimensions": "61.8 × 38.3 cm",
    "genre": "religious art",
    "image": "https://commons.wikimedia.org/wiki/Special:FilePath/Fra%20Angelico%20-%20The%20Dormition%20and%20Assumption%20of%20the%20Virgin%20-%20P15w34%20-%20Isabella%20Stewart%20Gardner%20Museum.jpg?width=420",
    "wikidata": "https://www.wikidata.org/wiki/Q103838693",
    "creation_place": "Florence",
    "creation_lat": 43.7696,
    "creation_lon": 11.2558,
    "_source": {
     "source": "Wikidata",
     "url": "https://www.wikidata.org/wiki/Q103838693",
     "retrieved_at": "2026-08-19"
    },
    "_overrides": {
     "creation": {
      "at": "2026-08-19",
      "source": "derived from start date + Caravaggio's documented itinerary (approximate)"
     }
    },
    "museum_id": "isabella-stewart-gardner-museum"
   }
  },
  {
   "type": "Feature",
   "geometry": {
    "type": "Point",
    "coordinates": [
     -117.15043,
     32.73216
    ]
   },
   "properties": {
    "painter": "Fra Angelico",
    "title": "Madonna and Child with Saints",
    "year": "1410",
    "city": "San Diego",
    "country": "United States",
    "location": "San Diego Museum of Art",
    "kind": "museum",
    "attribution": "attributed",
    "status": "present",
    "medium": "Panel",
    "genre": "religious art",
    "image": "https://commons.wikimedia.org/wiki/Special:FilePath/Madonna%20and%20Child%20with%20Saints%20Fra%20Angelico%20SDMA.jpg?width=420",
    "wikidata": "https://www.wikidata.org/wiki/Q104386310",
    "creation_place": "Florence",
    "creation_lat": 43.7696,
    "creation_lon": 11.2558,
    "_source": {
     "source": "Wikidata",
     "url": "https://www.wikidata.org/wiki/Q104386310",
     "retrieved_at": "2026-08-19"
    },
    "_overrides": {
     "creation": {
      "at": "2026-08-19",
      "source": "derived from start date + Caravaggio's documented itinerary (approximate)"
     }
    },
    "museum_id": "san-diego-museum-of-art"
   }
  },
  {
   "type": "Feature",
   "geometry": {
    "type": "Point",
    "coordinates": [
     13.36472,
     52.50861
    ]
   },
   "properties": {
    "painter": "Fra Angelico",
    "title": "Meeting of St Francis and St Dominic",
    "year": "1429",
    "city": "Bezirk Mitte",
    "country": "Germany",
    "location": "Gemäldegalerie Berlin",
    "kind": "museum",
    "attribution": "attributed",
    "status": "present",
    "medium": "Paint, poplar panel",
    "genre": "religious art",
    "image": "https://commons.wikimedia.org/wiki/Special:FilePath/Fra%20Angelico%20-%20Teil%20einer%20Predella%20Die%20Begegnung%20der%20Heiligen%20Dominikus%20und%20Franziskus%2C%201429%2C%2061.jpg?width=420",
    "wikidata": "https://www.wikidata.org/wiki/Q107436024",
    "creation_place": "Florence",
    "creation_lat": 43.7696,
    "creation_lon": 11.2558,
    "_source": {
     "source": "Wikidata",
     "url": "https://www.wikidata.org/wiki/Q107436024",
     "retrieved_at": "2026-08-19"
    },
    "_overrides": {
     "creation": {
      "at": "2026-08-19",
      "source": "derived from start date + Caravaggio's documented itinerary (approximate)"
     }
    },
    "museum_id": "gemaldegalerie-berlin"
   }
  },
  {
   "type": "Feature",
   "geometry": {
    "type": "Point",
    "coordinates": [
     13.36472,
     52.50861
    ]
   },
   "properties": {
    "painter": "Fra Angelico",
    "title": "The Lamentation over St Francis",
    "year": "1429",
    "city": "Bezirk Mitte",
    "country": "Germany",
    "location": "Gemäldegalerie Berlin",
    "kind": "museum",
    "attribution": "attributed",
    "status": "present",
    "medium": "Paint, poplar panel",
    "dimensions": "29 × 70 cm",
    "genre": "religious art",
    "image": "https://commons.wikimedia.org/wiki/Special:FilePath/Fra%20Angelico%20%28um%201395-1400%20-%201455%29%20-%20Part%20of%20a%20Predella%2C%20the%20funeral%20mass%20for%20Saint%20Francis%20-%2061A%20-%20Gem%C3%A4ldegalerie.jpg?width=420",
    "wikidata": "https://www.wikidata.org/wiki/Q107436027",
    "creation_place": "Florence",
    "creation_lat": 43.7696,
    "creation_lon": 11.2558,
    "_source": {
     "source": "Wikidata",
     "url": "https://www.wikidata.org/wiki/Q107436027",
     "retrieved_at": "2026-08-19"
    },
    "_overrides": {
     "creation": {
      "at": "2026-08-19",
      "source": "derived from start date + Caravaggio's documented itinerary (approximate)"
     }
    },
    "museum_id": "gemaldegalerie-berlin"
   }
  },
  {
   "type": "Feature",
   "geometry": {
    "type": "Point",
    "coordinates": [
     13.36472,
     52.50861
    ]
   },
   "properties": {
    "painter": "Fra Angelico",
    "title": "Apparition of Saint Francis in Arles",
    "year": "1429",
    "city": "Bezirk Mitte",
    "country": "Germany",
    "location": "Gemäldegalerie Berlin",
    "kind": "museum",
    "attribution": "attributed",
    "status": "present",
    "medium": "Paint, poplar panel",
    "dimensions": "26 × 31 cm",
    "genre": "religious art",
    "image": "https://commons.wikimedia.org/wiki/Special:FilePath/Fra%20Angelico%20-%20Apparition%20of%20St%20Francis%20at%20Arles%20-%20WGA0625.jpg?width=420",
    "wikidata": "https://www.wikidata.org/wiki/Q107436031",
    "creation_place": "Florence",
    "creation_lat": 43.7696,
    "creation_lon": 11.2558,
    "_source": {
     "source": "Wikidata",
     "url": "https://www.wikidata.org/wiki/Q107436031",
     "retrieved_at": "2026-08-19"
    },
    "_overrides": {
     "creation": {
      "at": "2026-08-19",
      "source": "derived from start date + Caravaggio's documented itinerary (approximate)"
     }
    },
    "museum_id": "gemaldegalerie-berlin"
   }
  },
  {
   "type": "Feature",
   "geometry": {
    "type": "Point",
    "coordinates": [
     11.25933,
     43.7782
    ]
   },
   "properties": {
    "painter": "Fra Angelico",
    "title": "Piercing of Christ's Side",
    "year": "1450",
    "city": "Florence",
    "country": "Italy",
    "location": "Museum of San Marco",
    "kind": "museum",
    "attribution": "attributed",
    "status": "present",
    "medium": "Fresco",
    "genre": "religious art",
    "image": "https://commons.wikimedia.org/wiki/Special:FilePath/Beato%20Angelico%20-%20Cristo%20crocifisso%20ferito%20dalla%20lancia%20di%20Longino%2C%20Santi%2C%201175588.jpg?width=420",
    "wikidata": "https://www.wikidata.org/wiki/Q110561951",
    "creation_place": "Rome",
    "creation_lat": 41.9028,
    "creation_lon": 12.4964,
    "_source": {
     "source": "Wikidata",
     "url": "https://www.wikidata.org/wiki/Q110561951",
     "retrieved_at": "2026-08-19"
    },
    "_overrides": {
     "creation": {
      "at": "2026-08-19",
      "source": "derived from start date + Caravaggio's documented itinerary (approximate)"
     }
    },
    "museum_id": "museum-of-san-marco"
   }
  },
  {
   "type": "Feature",
   "geometry": {
    "type": "Point",
    "coordinates": [
     11.25933,
     43.7782
    ]
   },
   "properties": {
    "painter": "Fra Angelico",
    "title": "Christ in Garden of Gethsemane",
    "year": "1450",
    "city": "Florence",
    "country": "Italy",
    "location": "Museum of San Marco",
    "kind": "museum",
    "attribution": "attributed",
    "status": "present",
    "medium": "Fresco",
    "genre": "religious art",
    "image": "https://commons.wikimedia.org/wiki/Special:FilePath/Fra%20Angelico%20016.jpg?width=420",
    "wikidata": "https://www.wikidata.org/wiki/Q111821739",
    "creation_place": "Rome",
    "creation_lat": 41.9028,
    "creation_lon": 12.4964,
    "_source": {
     "source": "Wikidata",
     "url": "https://www.wikidata.org/wiki/Q111821739",
     "retrieved_at": "2026-08-19"
    },
    "_overrides": {
     "creation": {
      "at": "2026-08-19",
      "source": "derived from start date + Caravaggio's documented itinerary (approximate)"
     }
    },
    "museum_id": "museum-of-san-marco"
   }
  },
  {
   "type": "Feature",
   "geometry": {
    "type": "Point",
    "coordinates": [
     13.36472,
     52.50861
    ]
   },
   "properties": {
    "painter": "Fra Angelico",
    "title": "Stories of Saint Francis",
    "city": "Bezirk Mitte",
    "country": "Germany",
    "location": "Gemäldegalerie Berlin",
    "kind": "museum",
    "attribution": "attributed",
    "status": "present",
    "wikidata": "https://www.wikidata.org/wiki/Q116194295",
    "_source": {
     "source": "Wikidata",
     "url": "https://www.wikidata.org/wiki/Q116194295",
     "retrieved_at": "2026-08-19"
    },
    "museum_id": "gemaldegalerie-berlin"
   }
  },
  {
   "type": "Feature",
   "geometry": {
    "type": "Point",
    "coordinates": [
     11.25941,
     43.77822
    ]
   },
   "properties": {
    "painter": "Fra Angelico",
    "title": "Madonna and Child with Augustine and Thomas",
    "location": "Cloister East Aisle of Basilica San Marco",
    "kind": "museum",
    "attribution": "attributed",
    "status": "present",
    "medium": "Fresco, plaster, tempera",
    "dimensions": "187 × 165.5 cm",
    "genre": "religious art",
    "image": "https://commons.wikimedia.org/wiki/Special:FilePath/Angelico%20-%20Madonna%20and%20Child%2C%20a%20bishop%20Saint%20and%20Saint%20Dominic%20-%20cell%2011.jpeg?width=420",
    "wikidata": "https://www.wikidata.org/wiki/Q116235804",
    "_source": {
     "source": "Wikidata",
     "url": "https://www.wikidata.org/wiki/Q116235804",
     "retrieved_at": "2026-08-19"
    },
    "museum_id": "cloister-east-aisle-of-basilica-san-marco"
   }
  },
  {
   "type": "Feature",
   "geometry": {
    "type": "Point",
    "coordinates": [
     11.2617,
     43.7707
    ]
   },
   "properties": {
    "painter": "Fra Angelico",
    "title": "Christ on the cross with saints Nicholas and Francis",
    "year": "1430",
    "city": "Florence",
    "country": "Italy",
    "location": "Oratorio di San Niccolò del Ceppo",
    "kind": "church",
    "attribution": "attributed",
    "status": "present",
    "image": "https://commons.wikimedia.org/wiki/Special:FilePath/Beato%20angelico%2C%20cristo%20crocifisso%20tra%20i%20ss.%20niccol%C3%B2%20e%20francesco%2C%201430%20ca.%20%28compagnia%20del%20ceppo%29%2002.jpg?width=420",
    "wikidata": "https://www.wikidata.org/wiki/Q116648625",
    "creation_place": "Florence",
    "creation_lat": 43.7696,
    "creation_lon": 11.2558,
    "_source": {
     "source": "Wikidata",
     "url": "https://www.wikidata.org/wiki/Q116648625",
     "retrieved_at": "2026-08-19"
    },
    "_overrides": {
     "creation": {
      "at": "2026-08-19",
      "source": "derived from start date + Caravaggio's documented itinerary (approximate)"
     }
    },
    "museum_id": "oratorio-di-san-niccolo-del-ceppo"
   }
  },
  {
   "type": "Feature",
   "geometry": {
    "type": "Point",
    "coordinates": [
     11.25933,
     43.7782
    ]
   },
   "properties": {
    "painter": "Fra Angelico",
    "title": "Marriage of the Virgin",
    "year": "1434",
    "city": "Florence",
    "country": "Italy",
    "location": "Museum of San Marco",
    "kind": "museum",
    "attribution": "attributed",
    "status": "present",
    "medium": "Panel",
    "dimensions": "19 × 51.5 cm",
    "genre": "religious art",
    "image": "https://commons.wikimedia.org/wiki/Special:FilePath/Fra%20angelico.jpg?width=420",
    "wikidata": "https://www.wikidata.org/wiki/Q116671278",
    "creation_place": "Florence",
    "creation_lat": 43.7696,
    "creation_lon": 11.2558,
    "_source": {
     "source": "Wikidata",
     "url": "https://www.wikidata.org/wiki/Q116671278",
     "retrieved_at": "2026-08-19"
    },
    "_overrides": {
     "creation": {
      "at": "2026-08-19",
      "source": "derived from start date + Caravaggio's documented itinerary (approximate)"
     }
    },
    "museum_id": "museum-of-san-marco"
   }
  },
  {
   "type": "Feature",
   "geometry": {
    "type": "Point",
    "coordinates": [
     12.4449,
     50.9919
    ]
   },
   "properties": {
    "painter": "Fra Angelico",
    "title": "Francis of Assisi before the Sultan Al-Kamil Muhammad al-Malik",
    "year": "1429",
    "city": "Altenburg",
    "country": "Germany",
    "location": "Lindenau museum",
    "kind": "museum",
    "attribution": "attributed",
    "status": "present",
    "medium": "Poplar panel, tempera",
    "dimensions": "27.8 × 31.4 cm",
    "genre": "religious art",
    "image": "https://commons.wikimedia.org/wiki/Special:FilePath/Angelico%20-%20Feuerprobe%20-%20Lindenau-Museum.jpg?width=420",
    "wikidata": "https://www.wikidata.org/wiki/Q116868957",
    "creation_place": "Florence",
    "creation_lat": 43.7696,
    "creation_lon": 11.2558,
    "_source": {
     "source": "Wikidata",
     "url": "https://www.wikidata.org/wiki/Q116868957",
     "retrieved_at": "2026-08-19"
    },
    "_overrides": {
     "creation": {
      "at": "2026-08-19",
      "source": "derived from start date + Caravaggio's documented itinerary (approximate)"
     }
    },
    "museum_id": "lindenau-museum"
   }
  },
  {
   "type": "Feature",
   "geometry": {
    "type": "Point",
    "coordinates": [
     10.34847,
     44.66765
    ]
   },
   "properties": {
    "painter": "Fra Angelico",
    "title": "St Thomas Aquinas",
    "year": "1438-1439",
    "city": "Traversetolo",
    "country": "Italy",
    "location": "Fondazione Magnani-Rocca",
    "kind": "museum",
    "attribution": "attributed",
    "status": "present",
    "medium": "Panel",
    "dimensions": "39 × 14 cm",
    "genre": "religious art",
    "image": "https://commons.wikimedia.org/wiki/Special:FilePath/Angelico%2C%20san%20tommaso%20d%27aquino%20alla%20fondazione%20cini.jpg?width=420",
    "wikidata": "https://www.wikidata.org/wiki/Q116938047",
    "creation_place": "Florence",
    "creation_lat": 43.7696,
    "creation_lon": 11.2558,
    "_source": {
     "source": "Wikidata",
     "url": "https://www.wikidata.org/wiki/Q116938047",
     "retrieved_at": "2026-08-19"
    },
    "_overrides": {
     "creation": {
      "at": "2026-08-19",
      "source": "derived from start date + Caravaggio's documented itinerary (approximate)"
     }
    },
    "museum_id": "fondazione-magnani-rocca"
   }
  },
  {
   "type": "Feature",
   "geometry": {
    "type": "Point",
    "coordinates": [
     2.3358,
     48.8611
    ]
   },
   "properties": {
    "painter": "Fra Angelico",
    "title": "Coronation of the Virgin",
    "year": "1500",
    "city": "Paris",
    "country": "France",
    "location": "Louvre",
    "kind": "museum",
    "attribution": "generally accepted",
    "status": "present",
    "medium": "Panel",
    "dimensions": "213 × 211 cm",
    "genre": "religious art",
    "image": "https://commons.wikimedia.org/wiki/Special:FilePath/Le%20Couronnement%20de%20la%20Vierge%20-%20Fra%20Angelico%20-%20Mus%C3%A9e%20du%20Louvre%20Peintures%20INV%20314%20%3B%20MR%20220.jpg?width=420",
    "wikipedia_es": "https://es.wikipedia.org/wiki/Coronaci%C3%B3n_de_la_Virgen_(Fra_Angelico,_Louvre)",
    "wikipedia_en": "https://en.wikipedia.org/wiki/Coronation_of_the_Virgin_(Fra_Angelico,_Louvre)",
    "wikipedia_it": "https://it.wikipedia.org/wiki/Incoronazione_della_Vergine_(Angelico_Louvre)",
    "wikidata": "https://www.wikidata.org/wiki/Q1215717",
    "_source": {
     "source": "Wikidata",
     "url": "https://www.wikidata.org/wiki/Q1215717",
     "retrieved_at": "2026-08-19"
    },
    "museum_id": "louvre"
   }
  },
  {
   "type": "Feature",
   "geometry": {
    "type": "Point",
    "coordinates": [
     11.25933,
     43.7782
    ]
   },
   "properties": {
    "painter": "Fra Angelico",
    "title": "San Marco Altarpiece",
    "year": "1500",
    "city": "Florence",
    "country": "Italy",
    "location": "Museum of San Marco",
    "kind": "museum",
    "attribution": "generally accepted",
    "status": "present",
    "medium": "Panel",
    "dimensions": "220 × 227 cm",
    "genre": "religious art",
    "image": "https://commons.wikimedia.org/wiki/Special:FilePath/TotalPalaSanMarco.jpg?width=420",
    "wikipedia_es": "https://es.wikipedia.org/wiki/Retablo_de_San_Marcos",
    "wikipedia_en": "https://en.wikipedia.org/wiki/San_Marco_Altarpiece",
    "wikipedia_it": "https://it.wikipedia.org/wiki/Pala_di_San_Marco",
    "wikidata": "https://www.wikidata.org/wiki/Q1215809",
    "_source": {
     "source": "Wikidata",
     "url": "https://www.wikidata.org/wiki/Q1215809",
     "retrieved_at": "2026-08-19"
    },
    "museum_id": "museum-of-san-marco"
   }
  },
  {
   "type": "Feature",
   "geometry": {
    "type": "Point",
    "coordinates": [
     12.454619,
     41.9034
    ]
   },
   "properties": {
    "painter": "Fra Angelico",
    "title": "St Lawrence Distributing Alms (detail)",
    "year": "1450",
    "country": "Vatican City",
    "location": "Niccoline Chapel",
    "kind": "church",
    "attribution": "attributed",
    "status": "present",
    "medium": "Fresco",
    "image": "https://commons.wikimedia.org/wiki/Special:FilePath/Angelico%2C%20niccolina%2008.jpg?width=420",
    "wikidata": "https://www.wikidata.org/wiki/Q126179375",
    "creation_place": "Rome",
    "creation_lat": 41.9028,
    "creation_lon": 12.4964,
    "_source": {
     "source": "Wikidata",
     "url": "https://www.wikidata.org/wiki/Q126179375",
     "retrieved_at": "2026-08-19"
    },
    "_overrides": {
     "creation": {
      "at": "2026-08-19",
      "source": "derived from start date + Caravaggio's documented itinerary (approximate)"
     }
    },
    "museum_id": "niccoline-chapel"
   }
  },
  {
   "type": "Feature",
   "geometry": {
    "type": "Point",
    "coordinates": [
     12.03607,
     44.2215
    ]
   },
   "properties": {
    "painter": "Fra Angelico",
    "title": "Nativity and Agony in the Garden",
    "city": "Forlì",
    "country": "Italy",
    "location": "Pinacoteca Civica di Forlì",
    "kind": "museum",
    "attribution": "attributed",
    "status": "present",
    "wikidata": "https://www.wikidata.org/wiki/Q131450144",
    "_source": {
     "source": "Wikidata",
     "url": "https://www.wikidata.org/wiki/Q131450144",
     "retrieved_at": "2026-08-19"
    },
    "museum_id": "pinacoteca-civica-di-forli"
   }
  },
  {
   "type": "Feature",
   "geometry": {
    "type": "Point",
    "coordinates": [
     12.45277,
     41.90573
    ]
   },
   "properties": {
    "painter": "Fra Angelico",
    "title": "Story of saint Nicholas (part 2)",
    "city": "Vatican City",
    "country": "Vatican City",
    "location": "Pinacoteca Vaticana",
    "kind": "museum",
    "attribution": "attributed",
    "status": "present",
    "wikidata": "https://www.wikidata.org/wiki/Q131613931",
    "_source": {
     "source": "Wikidata",
     "url": "https://www.wikidata.org/wiki/Q131613931",
     "retrieved_at": "2026-08-19"
    },
    "museum_id": "pinacoteca-vaticana"
   }
  },
  {
   "type": "Feature",
   "geometry": {
    "type": "Point",
    "coordinates": [
     10.40775,
     43.7152
    ]
   },
   "properties": {
    "painter": "Fra Angelico",
    "title": "Madonna dei Cedri",
    "city": "Pisa",
    "country": "Italy",
    "location": "National Museum of San Matteo",
    "kind": "museum",
    "attribution": "attributed",
    "status": "present",
    "wikidata": "https://www.wikidata.org/wiki/Q131690571",
    "_source": {
     "source": "Wikidata",
     "url": "https://www.wikidata.org/wiki/Q131690571",
     "retrieved_at": "2026-08-19"
    },
    "museum_id": "national-museum-of-san-matteo"
   }
  },
  {
   "type": "Feature",
   "geometry": {
    "type": "Point",
    "coordinates": [
     8.21659,
     53.1362
    ]
   },
   "properties": {
    "painter": "Fra Angelico",
    "title": "Madonna of Humility",
    "year": "1440",
    "city": "Oldenburg",
    "country": "Germany",
    "location": "Augusteum",
    "kind": "museum",
    "attribution": "attributed",
    "status": "present",
    "medium": "Panel",
    "dimensions": "74 × 52 cm",
    "genre": "religious art",
    "image": "https://commons.wikimedia.org/wiki/Special:FilePath/Fra%20Angelico%20097.jpg?width=420",
    "wikidata": "https://www.wikidata.org/wiki/Q17331378",
    "creation_place": "Florence",
    "creation_lat": 43.7696,
    "creation_lon": 11.2558,
    "_source": {
     "source": "Wikidata",
     "url": "https://www.wikidata.org/wiki/Q17331378",
     "retrieved_at": "2026-08-19"
    },
    "_overrides": {
     "creation": {
      "at": "2026-08-19",
      "source": "derived from start date + Caravaggio's documented itinerary (approximate)"
     }
    },
    "museum_id": "augusteum"
   }
  },
  {
   "type": "Feature",
   "geometry": {
    "type": "Point",
    "coordinates": [
     2.3358,
     48.8611
    ]
   },
   "properties": {
    "painter": "Fra Angelico",
    "title": "God the Father",
    "year": "1425",
    "country": "France",
    "location": "Louvre",
    "kind": "museum",
    "attribution": "attributed",
    "status": "present",
    "medium": "Panel",
    "genre": "religious art",
    "image": "https://commons.wikimedia.org/wiki/Special:FilePath/Le%20Christ%20b%C3%A9nissant%20-%20Fra%20Angelico%20-%20Mus%C3%A9e%20du%20Louvre%20Peintures%20DL%201973%2022%20-%20photo%202.jpg?width=420",
    "wikidata": "https://www.wikidata.org/wiki/Q18572514",
    "creation_place": "Florence",
    "creation_lat": 43.7696,
    "creation_lon": 11.2558,
    "_source": {
     "source": "Wikidata",
     "url": "https://www.wikidata.org/wiki/Q18572514",
     "retrieved_at": "2026-08-19"
    },
    "_overrides": {
     "creation": {
      "at": "2026-08-19",
      "source": "derived from start date + Caravaggio's documented itinerary (approximate)"
     }
    },
    "museum_id": "louvre",
    "city": "Paris"
   }
  },
  {
   "type": "Feature",
   "geometry": {
    "type": "Point",
    "coordinates": [
     2.3358,
     48.8611
    ]
   },
   "properties": {
    "painter": "Fra Angelico",
    "title": "Beheading of St. John the Baptist and Herod's Banquet",
    "year": "1430",
    "country": "France",
    "location": "Louvre",
    "kind": "museum",
    "attribution": "attributed",
    "status": "present",
    "medium": "Panel",
    "dimensions": "19.5 × 30.5 cm",
    "genre": "religious art",
    "image": "https://commons.wikimedia.org/wiki/Special:FilePath/La%20D%C3%A9collation%20de%20saint%20Jean%20Baptiste%20et%20le%20Banquet%20d%27H%C3%A9rode%20-%20Fra%20Angelico%20-%20Mus%C3%A9e%20du%20Louvre%20Peintures%20RF%20196.jpg?width=420",
    "wikidata": "https://www.wikidata.org/wiki/Q18572515",
    "creation_place": "Florence",
    "creation_lat": 43.7696,
    "creation_lon": 11.2558,
    "_source": {
     "source": "Wikidata",
     "url": "https://www.wikidata.org/wiki/Q18572515",
     "retrieved_at": "2026-08-19"
    },
    "_overrides": {
     "creation": {
      "at": "2026-08-19",
      "source": "derived from start date + Caravaggio's documented itinerary (approximate)"
     }
    },
    "museum_id": "louvre",
    "city": "Paris"
   }
  },
  {
   "type": "Feature",
   "geometry": {
    "type": "Point",
    "coordinates": [
     -73.9631,
     40.7794
    ]
   },
   "properties": {
    "painter": "Fra Angelico",
    "title": "The Crucifixion",
    "year": "1420",
    "city": "New York",
    "country": "United States",
    "location": "Metropolitan Museum of Art",
    "kind": "museum",
    "attribution": "attributed",
    "status": "present",
    "medium": "Panel",
    "dimensions": "64 × 49 cm",
    "genre": "religious art",
    "image": "https://commons.wikimedia.org/wiki/Special:FilePath/The%20Crucifixion%20MET%20DT9341.jpg?width=420",
    "wikidata": "https://www.wikidata.org/wiki/Q19911473",
    "creation_place": "Florence",
    "creation_lat": 43.7696,
    "creation_lon": 11.2558,
    "_source": {
     "source": "Wikidata",
     "url": "https://www.wikidata.org/wiki/Q19911473",
     "retrieved_at": "2026-08-19"
    },
    "_overrides": {
     "creation": {
      "at": "2026-08-19",
      "source": "derived from start date + Caravaggio's documented itinerary (approximate)"
     }
    },
    "museum_id": "metropolitan-museum-of-art"
   }
  },
  {
   "type": "Feature",
   "geometry": {
    "type": "Point",
    "coordinates": [
     -73.9631,
     40.7794
    ]
   },
   "properties": {
    "painter": "Fra Angelico",
    "title": "A Bishop Saint",
    "year": "1425",
    "city": "New York",
    "country": "United States",
    "location": "Metropolitan Museum of Art",
    "kind": "museum",
    "attribution": "attributed",
    "status": "present",
    "medium": "Panel",
    "genre": "religious art",
    "image": "https://commons.wikimedia.org/wiki/Special:FilePath/A%20Bishop%20Saint%20MET%20DT6628.jpg?width=420",
    "wikidata": "https://www.wikidata.org/wiki/Q19912513",
    "creation_place": "Florence",
    "creation_lat": 43.7696,
    "creation_lon": 11.2558,
    "_source": {
     "source": "Wikidata",
     "url": "https://www.wikidata.org/wiki/Q19912513",
     "retrieved_at": "2026-08-19"
    },
    "_overrides": {
     "creation": {
      "at": "2026-08-19",
      "source": "derived from start date + Caravaggio's documented itinerary (approximate)"
     }
    },
    "museum_id": "metropolitan-museum-of-art"
   }
  },
  {
   "type": "Feature",
   "geometry": {
    "type": "Point",
    "coordinates": [
     -3.6922,
     40.4139
    ]
   },
   "properties": {
    "painter": "Fra Angelico",
    "title": "Madonna of the Pomegranate",
    "year": "1426",
    "city": "Madrid",
    "country": "Spain",
    "location": "Museo del Prado",
    "kind": "museum",
    "attribution": "generally accepted",
    "status": "present",
    "medium": "Panel",
    "dimensions": "87 × 59 cm",
    "genre": "religious art",
    "image": "https://commons.wikimedia.org/wiki/Special:FilePath/Virgen%20de%20la%20granada%20%28Fra%20Angelico%29.jpg?width=420",
    "wikipedia_es": "https://es.wikipedia.org/wiki/Virgen_de_la_granada_(Fra_Angelico)",
    "wikidata": "https://www.wikidata.org/wiki/Q22082602",
    "creation_place": "Florence",
    "creation_lat": 43.7696,
    "creation_lon": 11.2558,
    "_source": {
     "source": "Wikidata",
     "url": "https://www.wikidata.org/wiki/Q22082602",
     "retrieved_at": "2026-08-19"
    },
    "_overrides": {
     "creation": {
      "at": "2026-08-19",
      "source": "derived from start date + Caravaggio's documented itinerary (approximate)"
     }
    },
    "museum_id": "museo-del-prado"
   }
  },
  {
   "type": "Feature",
   "geometry": {
    "type": "Point",
    "coordinates": [
     11.98315,
     43.27213
    ]
   },
   "properties": {
    "painter": "Fra Angelico",
    "title": "Annunciation of Cortona",
    "year": "1430",
    "city": "Cortona",
    "country": "Italy",
    "location": "Diocesan Museum in Cortona",
    "kind": "museum",
    "attribution": "generally accepted",
    "status": "present",
    "medium": "Panel",
    "dimensions": "175 × 180 cm",
    "genre": "religious art",
    "image": "https://commons.wikimedia.org/wiki/Special:FilePath/Beato%20angelico%2C%20annunciazione%20di%20cortona%2C%201434-36%2C%20da%20s.%20domenico%2C%2001.jpg?width=420",
    "wikipedia_es": "https://es.wikipedia.org/wiki/Anunciaci%C3%B3n_de_Cortona",
    "wikipedia_en": "https://en.wikipedia.org/wiki/Annunciation_of_Cortona",
    "wikipedia_it": "https://it.wikipedia.org/wiki/Annunciazione_di_Cortona",
    "wikidata": "https://www.wikidata.org/wiki/Q2376881",
    "creation_place": "Florence",
    "creation_lat": 43.7696,
    "creation_lon": 11.2558,
    "_source": {
     "source": "Wikidata",
     "url": "https://www.wikidata.org/wiki/Q2376881",
     "retrieved_at": "2026-08-19"
    },
    "_overrides": {
     "creation": {
      "at": "2026-08-19",
      "source": "derived from start date + Caravaggio's documented itinerary (approximate)"
     }
    },
    "museum_id": "diocesan-museum-in-cortona"
   }
  },
  {
   "type": "Feature",
   "geometry": {
    "type": "Point",
    "coordinates": [
     -3.6922,
     40.4139
    ]
   },
   "properties": {
    "painter": "Fra Angelico",
    "title": "Annunciation",
    "year": "1420",
    "city": "Madrid",
    "country": "Spain",
    "location": "Museo del Prado",
    "kind": "museum",
    "attribution": "generally accepted",
    "status": "present",
    "medium": "Panel",
    "dimensions": "162.3 × 191.5 cm",
    "genre": "religious art",
    "image": "https://commons.wikimedia.org/wiki/Special:FilePath/Fra%20Angelico%20-%20The%20Annunciation%20-%20WGA0454.jpg?width=420",
    "wikipedia_es": "https://es.wikipedia.org/wiki/Anunciaci%C3%B3n_(Fra_Angelico,_Madrid)",
    "wikipedia_en": "https://en.wikipedia.org/wiki/Annunciation_(Fra_Angelico,_Madrid)",
    "wikipedia_it": "https://it.wikipedia.org/wiki/Annunciazione_(Angelico_Prado)",
    "wikidata": "https://www.wikidata.org/wiki/Q2378567",
    "creation_place": "Florence",
    "creation_lat": 43.7696,
    "creation_lon": 11.2558,
    "_source": {
     "source": "Wikidata",
     "url": "https://www.wikidata.org/wiki/Q2378567",
     "retrieved_at": "2026-08-19"
    },
    "_overrides": {
     "creation": {
      "at": "2026-08-19",
      "source": "derived from start date + Caravaggio's documented itinerary (approximate)"
     }
    },
    "museum_id": "museo-del-prado"
   }
  },
  {
   "type": "Feature",
   "geometry": {
    "type": "Point",
    "coordinates": [
     11.259329,
     43.778198
    ]
   },
   "properties": {
    "painter": "Fra Angelico",
    "title": "Deposition of Christ",
    "year": "1500",
    "city": "Florence",
    "country": "Italy",
    "location": "Museum of San Marco",
    "kind": "church",
    "attribution": "generally accepted",
    "status": "present",
    "medium": "Panel",
    "dimensions": "275 × 285 cm",
    "genre": "religious art",
    "image": "https://commons.wikimedia.org/wiki/Special:FilePath/Beato%20angelico%20e%20lorenzo%20monaco%2C%20pala%20di%20santa%20trinita%20%28deposizione%20e%20santi%29%2C%20ante%201432%2C%2001.jpg?width=420",
    "wikipedia_es": "https://es.wikipedia.org/wiki/Descendimiento_de_la_Cruz_(Fra_Ang%C3%A9lico)",
    "wikipedia_en": "https://en.wikipedia.org/wiki/Deposition_of_Christ_(Fra_Angelico)",
    "wikipedia_it": "https://it.wikipedia.org/wiki/Deposizione_(Angelico)",
    "wikidata": "https://www.wikidata.org/wiki/Q2529591",
    "_source": {
     "source": "Wikidata",
     "url": "https://www.wikidata.org/wiki/Q2529591",
     "retrieved_at": "2026-08-19"
    },
    "museum_id": "museum-of-san-marco"
   }
  },
  {
   "type": "Feature",
   "geometry": {
    "type": "Point",
    "coordinates": [
     -0.1283,
     51.5089
    ]
   },
   "properties": {
    "painter": "Fra Angelico",
    "title": "Blessing Redeemer",
    "year": "1422-1423",
    "city": "London",
    "country": "United Kingdom",
    "location": "National Gallery",
    "kind": "museum",
    "attribution": "attributed",
    "status": "present",
    "dimensions": "28 × 22 cm",
    "genre": "religious art",
    "image": "https://commons.wikimedia.org/wiki/Special:FilePath/Workshop%20of%20Fra%20Angelico%20%28c.%201400-1455%29%20-%20Christ%20Blessing%20-%20RCIN%20407616%20-%20Royal%20Collection.jpg?width=420",
    "wikidata": "https://www.wikidata.org/wiki/Q26528391",
    "creation_place": "Florence",
    "creation_lat": 43.7696,
    "creation_lon": 11.2558,
    "_source": {
     "source": "Wikidata",
     "url": "https://www.wikidata.org/wiki/Q26528391",
     "retrieved_at": "2026-08-19"
    },
    "_overrides": {
     "creation": {
      "at": "2026-08-19",
      "source": "derived from start date + Caravaggio's documented itinerary (approximate)"
     }
    },
    "museum_id": "national-gallery"
   }
  },
  {
   "type": "Feature",
   "geometry": {
    "type": "Point",
    "coordinates": [
     30.3136,
     59.9406
    ]
   },
   "properties": {
    "painter": "Fra Angelico",
    "title": "Madonna and Child with Four Аngels",
    "year": "1420",
    "city": "Saint Petersburg",
    "country": "Russia",
    "location": "Hermitage Museum",
    "kind": "museum",
    "attribution": "attributed",
    "status": "present",
    "medium": "Poplar panel, tempera",
    "dimensions": "81 × 51 cm",
    "genre": "religious art",
    "image": "https://commons.wikimedia.org/wiki/Special:FilePath/Fra%20Angelico%20-%20Madonna%20of%20Humility%20-%20WGA00642.jpg?width=420",
    "wikidata": "https://www.wikidata.org/wiki/Q27970998",
    "creation_place": "Florence",
    "creation_lat": 43.7696,
    "creation_lon": 11.2558,
    "_source": {
     "source": "Wikidata",
     "url": "https://www.wikidata.org/wiki/Q27970998",
     "retrieved_at": "2026-08-19"
    },
    "_overrides": {
     "creation": {
      "at": "2026-08-19",
      "source": "derived from start date + Caravaggio's documented itinerary (approximate)"
     }
    },
    "museum_id": "hermitage-museum"
   }
  },
  {
   "type": "Feature",
   "geometry": {
    "type": "Point",
    "coordinates": [
     30.3136,
     59.9406
    ]
   },
   "properties": {
    "painter": "Fra Angelico",
    "title": "Tabernacle with Christ and Angels",
    "year": "1427",
    "city": "Saint Petersburg",
    "country": "Russia",
    "location": "Hermitage Museum",
    "kind": "museum",
    "attribution": "attributed",
    "status": "present",
    "dimensions": "65 × 32.5 cm",
    "genre": "religious art",
    "wikidata": "https://www.wikidata.org/wiki/Q27978562",
    "creation_place": "Florence",
    "creation_lat": 43.7696,
    "creation_lon": 11.2558,
    "_source": {
     "source": "Wikidata",
     "url": "https://www.wikidata.org/wiki/Q27978562",
     "retrieved_at": "2026-08-19"
    },
    "_overrides": {
     "creation": {
      "at": "2026-08-19",
      "source": "derived from start date + Caravaggio's documented itinerary (approximate)"
     }
    },
    "museum_id": "hermitage-museum"
   }
  },
  {
   "type": "Feature",
   "geometry": {
    "type": "Point",
    "coordinates": [
     19.05139,
     47.4925
    ]
   },
   "properties": {
    "painter": "Fra Angelico",
    "title": "Saint Anthony Abbot Shunning the Mass of Gold",
    "year": "1430",
    "city": "Budapest",
    "country": "Hungary",
    "location": "Museum of Fine Arts",
    "kind": "museum",
    "attribution": "attributed",
    "status": "present",
    "medium": "Panel",
    "dimensions": "19.7 × 28.1 cm",
    "genre": "religious art",
    "image": "https://commons.wikimedia.org/wiki/Special:FilePath/Fra%20Angelico%20-%20Saint%20Anthony%20Abbot%20Shunning%20the%20Mass%20of%20Gold%20-%2044.550%20-%20Museum%20of%20Fine%20Arts.jpg?width=420",
    "wikidata": "https://www.wikidata.org/wiki/Q28094541",
    "creation_place": "Florence",
    "creation_lat": 43.7696,
    "creation_lon": 11.2558,
    "_source": {
     "source": "Wikidata",
     "url": "https://www.wikidata.org/wiki/Q28094541",
     "retrieved_at": "2026-08-19"
    },
    "_overrides": {
     "creation": {
      "at": "2026-08-19",
      "source": "derived from start date + Caravaggio's documented itinerary (approximate)"
     }
    },
    "museum_id": "museum-of-fine-arts"
   }
  },
  {
   "type": "Feature",
   "geometry": {
    "type": "Point",
    "coordinates": [
     11.25933,
     43.7782
    ]
   },
   "properties": {
    "painter": "Fra Angelico",
    "title": "Annunciation",
    "year": "1451",
    "city": "Florence",
    "country": "Italy",
    "location": "Museum of San Marco",
    "kind": "museum",
    "attribution": "attributed",
    "status": "present",
    "medium": "Panel",
    "dimensions": "38.5 × 37 cm",
    "genre": "religious art",
    "image": "https://commons.wikimedia.org/wiki/Special:FilePath/Fra%20Angelico%20006.jpg?width=420",
    "wikidata": "https://www.wikidata.org/wiki/Q2851765",
    "creation_place": "Rome",
    "creation_lat": 41.9028,
    "creation_lon": 12.4964,
    "_source": {
     "source": "Wikidata",
     "url": "https://www.wikidata.org/wiki/Q2851765",
     "retrieved_at": "2026-08-19"
    },
    "_overrides": {
     "creation": {
      "at": "2026-08-19",
      "source": "derived from start date + Caravaggio's documented itinerary (approximate)"
     }
    },
    "museum_id": "museum-of-san-marco"
   }
  },
  {
   "type": "Feature",
   "geometry": {
    "type": "Point",
    "coordinates": [
     11.259329,
     43.778198
    ]
   },
   "properties": {
    "painter": "Fra Angelico",
    "title": "Armadio degli Argenti",
    "year": "1450",
    "city": "Florence",
    "country": "Italy",
    "location": "Museum of San Marco",
    "kind": "church",
    "attribution": "generally accepted",
    "status": "present",
    "medium": "Panel",
    "dimensions": "115.5 × 112.5 cm",
    "genre": "religious art",
    "image": "https://commons.wikimedia.org/wiki/Special:FilePath/Beato%20angelico%20e%20alessio%20baldovinetti%2C%20pannelli%20dell%27armadio%20degli%20argenti%2C%20dalla%20ss.%20annunziata%2C%201450-52%2C%2001.jpg?width=420",
    "wikipedia_en": "https://en.wikipedia.org/wiki/Armadio_degli_Argenti",
    "wikipedia_it": "https://it.wikipedia.org/wiki/Armadio_degli_Argenti",
    "wikidata": "https://www.wikidata.org/wiki/Q2861696",
    "creation_place": "Rome",
    "creation_lat": 41.9028,
    "creation_lon": 12.4964,
    "_source": {
     "source": "Wikidata",
     "url": "https://www.wikidata.org/wiki/Q2861696",
     "retrieved_at": "2026-08-19"
    },
    "_overrides": {
     "creation": {
      "at": "2026-08-19",
      "source": "derived from start date + Caravaggio's documented itinerary (approximate)"
     }
    },
    "museum_id": "museum-of-san-marco"
   }
  },
  {
   "type": "Feature",
   "geometry": {
    "type": "Point",
    "coordinates": [
     2.15331,
     41.36833
    ]
   },
   "properties": {
    "painter": "Fra Angelico",
    "title": "Madonna of Humility",
    "year": "1433",
    "city": "Barcelona",
    "country": "Spain",
    "location": "Museu Nacional d'Art de Catalunya",
    "kind": "museum",
    "attribution": "generally accepted",
    "status": "present",
    "medium": "Panel",
    "dimensions": "1470 × 910 cm",
    "genre": "religious art",
    "image": "https://commons.wikimedia.org/wiki/Special:FilePath/Virgen%20humildad-fra%20angelico.jpg?width=420",
    "wikipedia_es": "https://es.wikipedia.org/wiki/Virgen_de_la_Humildad_(Fray_Ang%C3%A9lico)",
    "wikipedia_en": "https://en.wikipedia.org/wiki/Madonna_of_Humility_(Fra_Angelico)",
    "wikipedia_it": "https://it.wikipedia.org/wiki/Madonna_dell%27Umilt%C3%A0_(Angelico)",
    "wikidata": "https://www.wikidata.org/wiki/Q3065237",
    "creation_place": "Florence",
    "creation_lat": 43.7696,
    "creation_lon": 11.2558,
    "_source": {
     "source": "Wikidata",
     "url": "https://www.wikidata.org/wiki/Q3065237",
     "retrieved_at": "2026-08-19"
    },
    "_overrides": {
     "creation": {
      "at": "2026-08-19",
      "source": "derived from start date + Caravaggio's documented itinerary (approximate)"
     }
    },
    "museum_id": "museu-nacional-d-art-de-catalunya"
   }
  },
  {
   "type": "Feature",
   "geometry": {
    "type": "Point",
    "coordinates": [
     11.5297,
     43.56435
    ]
   },
   "properties": {
    "painter": "Fra Angelico",
    "title": "Annunciation of San Giovanni Valdarno",
    "year": "1430",
    "city": "San Giovanni Valdarno",
    "country": "Italy",
    "location": "Museo della Basilica di Santa Maria delle Grazie",
    "kind": "museum",
    "attribution": "generally accepted",
    "status": "present",
    "medium": "Panel",
    "dimensions": "195 × 158 cm",
    "genre": "religious art",
    "image": "https://commons.wikimedia.org/wiki/Special:FilePath/Beato%20Angelico%2C%20Annunciazione%20di%20San%20Giovanni%20Valdarno%2C%201432%20ca.%2C%2001.jpg?width=420",
    "wikipedia_es": "https://es.wikipedia.org/wiki/Anunciaci%C3%B3n_de_San_Giovanni_Valdarno",
    "wikipedia_en": "https://en.wikipedia.org/wiki/Annunciation_of_San_Giovanni_Valdarno",
    "wikipedia_it": "https://it.wikipedia.org/wiki/Annunciazione_di_San_Giovanni_Valdarno",
    "wikidata": "https://www.wikidata.org/wiki/Q3202078",
    "creation_place": "Florence",
    "creation_lat": 43.7696,
    "creation_lon": 11.2558,
    "_source": {
     "source": "Wikidata",
     "url": "https://www.wikidata.org/wiki/Q3202078",
     "retrieved_at": "2026-08-19"
    },
    "_overrides": {
     "creation": {
      "at": "2026-08-19",
      "source": "derived from start date + Caravaggio's documented itinerary (approximate)"
     }
    },
    "museum_id": "museo-della-basilica-di-santa-maria-delle-grazie"
   }
  },
  {
   "type": "Feature",
   "geometry": {
    "type": "Point",
    "coordinates": [
     11.25933,
     43.7782
    ]
   },
   "properties": {
    "painter": "Fra Angelico",
    "title": "The Last Judgment",
    "year": "1431",
    "city": "Florence",
    "country": "Italy",
    "location": "Museum of San Marco",
    "kind": "museum",
    "attribution": "generally accepted",
    "status": "present",
    "medium": "Panel",
    "dimensions": "105 × 210 cm",
    "genre": "religious art",
    "image": "https://commons.wikimedia.org/wiki/Special:FilePath/Fra%20Angelico%20%E2%80%94%20The%20Last%20Judgment.jpg?width=420",
    "wikipedia_es": "https://es.wikipedia.org/wiki/El_Juicio_Final_(Fra_Angelico)",
    "wikipedia_en": "https://en.wikipedia.org/wiki/The_Last_Judgment_(Fra_Angelico,_Florence)",
    "wikipedia_it": "https://it.wikipedia.org/wiki/Giudizio_universale_(Angelico)",
    "wikidata": "https://www.wikidata.org/wiki/Q3223807",
    "creation_place": "Florence",
    "creation_lat": 43.7696,
    "creation_lon": 11.2558,
    "_source": {
     "source": "Wikidata",
     "url": "https://www.wikidata.org/wiki/Q3223807",
     "retrieved_at": "2026-08-19"
    },
    "_overrides": {
     "creation": {
      "at": "2026-08-19",
      "source": "derived from start date + Caravaggio's documented itinerary (approximate)"
     }
    },
    "museum_id": "museum-of-san-marco"
   }
  },
  {
   "type": "Feature",
   "geometry": {
    "type": "Point",
    "coordinates": [
     -77.02,
     38.8914
    ]
   },
   "properties": {
    "painter": "Fra Angelico",
    "title": "Adoration of the Magi",
    "year": "1430",
    "city": "Washington",
    "country": "United States",
    "location": "National Gallery of Art",
    "kind": "museum",
    "attribution": "generally accepted",
    "status": "present",
    "medium": "Poplar panel, tempera",
    "dimensions": "137.2 × 137.2 cm",
    "genre": "religious art",
    "image": "https://commons.wikimedia.org/wiki/Special:FilePath/Fra%20Angelico%20Adoration.jpg?width=420",
    "wikipedia_es": "https://es.wikipedia.org/wiki/Adoraci%C3%B3n_de_los_Magos_(Fra_Angelico_y_Filippo_Lippi)",
    "wikipedia_en": "https://en.wikipedia.org/wiki/Adoration_of_the_Magi_(Fra_Angelico_and_Filippo_Lippi)",
    "wikipedia_it": "https://it.wikipedia.org/wiki/Tondo_Cook",
    "wikidata": "https://www.wikidata.org/wiki/Q3531531",
    "creation_place": "Florence",
    "creation_lat": 43.7696,
    "creation_lon": 11.2558,
    "_source": {
     "source": "Wikidata",
     "url": "https://www.wikidata.org/wiki/Q3531531",
     "retrieved_at": "2026-08-19"
    },
    "_overrides": {
     "creation": {
      "at": "2026-08-19",
      "source": "derived from start date + Caravaggio's documented itinerary (approximate)"
     }
    },
    "museum_id": "national-gallery-of-art"
   }
  },
  {
   "type": "Feature",
   "geometry": {
    "type": "Point",
    "coordinates": [
     11.259329,
     43.778198
    ]
   },
   "properties": {
    "painter": "Fra Angelico",
    "title": "San Pietro Martire Triptych",
    "year": "1420",
    "city": "Florence",
    "country": "Italy",
    "location": "Museum of San Marco",
    "kind": "church",
    "attribution": "generally accepted",
    "status": "present",
    "medium": "Panel",
    "dimensions": "137 × 168 cm",
    "genre": "religious art",
    "image": "https://commons.wikimedia.org/wiki/Special:FilePath/Beato%20angelico%2C%20trittico%20di%20san%20pietro%20martire%2C%20ante%201429%2C%2001%2C1.jpg?width=420",
    "wikipedia_en": "https://en.wikipedia.org/wiki/San_Pietro_Martire_Triptych",
    "wikipedia_it": "https://it.wikipedia.org/wiki/Trittico_di_san_Pietro_martire",
    "wikidata": "https://www.wikidata.org/wiki/Q3539582",
    "creation_place": "Florence",
    "creation_lat": 43.7696,
    "creation_lon": 11.2558,
    "_source": {
     "source": "Wikidata",
     "url": "https://www.wikidata.org/wiki/Q3539582",
     "retrieved_at": "2026-08-19"
    },
    "_overrides": {
     "creation": {
      "at": "2026-08-19",
      "source": "derived from start date + Caravaggio's documented itinerary (approximate)"
     }
    },
    "museum_id": "museum-of-san-marco"
   }
  },
  {
   "type": "Feature",
   "geometry": {
    "type": "Point",
    "coordinates": [
     11.25933,
     43.7782
    ]
   },
   "properties": {
    "painter": "Fra Angelico",
    "title": "Lamentation over the Dead Christ",
    "year": "1436",
    "city": "Florence",
    "country": "Italy",
    "location": "Museum of San Marco",
    "kind": "museum",
    "attribution": "generally accepted",
    "status": "present",
    "medium": "Panel",
    "dimensions": "105 × 164 cm",
    "genre": "religious art",
    "image": "https://commons.wikimedia.org/wiki/Special:FilePath/Fra%20Angelico%20%E2%80%94%20Lamentation%20over%20dead%20Christ%201440.jpg?width=420",
    "wikipedia_en": "https://en.wikipedia.org/wiki/Croce_al_Tempio_Lamentation",
    "wikipedia_it": "https://it.wikipedia.org/wiki/Compianto_della_Croce_al_Tempio",
    "wikidata": "https://www.wikidata.org/wiki/Q3685114",
    "creation_place": "Florence",
    "creation_lat": 43.7696,
    "creation_lon": 11.2558,
    "_source": {
     "source": "Wikidata",
     "url": "https://www.wikidata.org/wiki/Q3685114",
     "retrieved_at": "2026-08-19"
    },
    "_overrides": {
     "creation": {
      "at": "2026-08-19",
      "source": "derived from start date + Caravaggio's documented itinerary (approximate)"
     }
    },
    "museum_id": "museum-of-san-marco"
   }
  },
  {
   "type": "Feature",
   "geometry": {
    "type": "Point",
    "coordinates": [
     11.25933,
     43.7782
    ]
   },
   "properties": {
    "painter": "Fra Angelico",
    "title": "Communion of the Apostles",
    "year": "1450",
    "city": "Florence",
    "country": "Italy",
    "location": "Museum of San Marco",
    "kind": "museum",
    "attribution": "generally accepted",
    "status": "present",
    "medium": "Fresco",
    "dimensions": "200 × 248 cm",
    "genre": "religious art",
    "image": "https://commons.wikimedia.org/wiki/Special:FilePath/Comunione%20degli%20apostoli%2C%20cella%2035.jpg?width=420",
    "wikipedia_it": "https://it.wikipedia.org/wiki/Comunione_degli_Apostoli_(Angelico)",
    "wikidata": "https://www.wikidata.org/wiki/Q3685500",
    "creation_place": "Rome",
    "creation_lat": 41.9028,
    "creation_lon": 12.4964,
    "_source": {
     "source": "Wikidata",
     "url": "https://www.wikidata.org/wiki/Q3685500",
     "retrieved_at": "2026-08-19"
    },
    "_overrides": {
     "creation": {
      "at": "2026-08-19",
      "source": "derived from start date + Caravaggio's documented itinerary (approximate)"
     }
    },
    "museum_id": "museum-of-san-marco"
   }
  },
  {
   "type": "Feature",
   "geometry": {
    "type": "Point",
    "coordinates": [
     -6.25255,
     53.34091
    ]
   },
   "properties": {
    "painter": "Fra Angelico",
    "title": "Saints Cosmas and Damian and their Brothers Surviving the Stake",
    "year": "1438-1443",
    "city": "Dublin",
    "country": "Ireland",
    "location": "National Gallery of Ireland",
    "kind": "museum",
    "attribution": "generally accepted",
    "status": "present",
    "medium": "Panel",
    "dimensions": "37 × 46 cm",
    "genre": "religious art",
    "image": "https://commons.wikimedia.org/wiki/Special:FilePath/Angelico%2C%20predella%20dei%20santi%20cosma%20e%20damiano%20da%20pala%20di%20san%20marco%2C%20condanna.jpg?width=420",
    "wikipedia_it": "https://it.wikipedia.org/wiki/Condanna_al_rogo_dei_santi_Cosma_e_Damiano",
    "wikidata": "https://www.wikidata.org/wiki/Q3686380",
    "creation_place": "Florence",
    "creation_lat": 43.7696,
    "creation_lon": 11.2558,
    "_source": {
     "source": "Wikidata",
     "url": "https://www.wikidata.org/wiki/Q3686380",
     "retrieved_at": "2026-08-19"
    },
    "_overrides": {
     "creation": {
      "at": "2026-08-19",
      "source": "derived from start date + Caravaggio's documented itinerary (approximate)"
     }
    },
    "museum_id": "national-gallery-of-ireland"
   }
  },
  {
   "type": "Feature",
   "geometry": {
    "type": "Point",
    "coordinates": [
     12.454619,
     41.9034
    ]
   },
   "properties": {
    "painter": "Fra Angelico",
    "title": "Ordination of St Laurence",
    "year": "1447",
    "country": "Vatican City",
    "location": "Niccoline Chapel",
    "kind": "church",
    "attribution": "generally accepted",
    "status": "present",
    "medium": "Fresco",
    "dimensions": "271 × 197 cm",
    "genre": "religious art",
    "image": "https://commons.wikimedia.org/wiki/Special:FilePath/St.%20Peter%20Niccoline%20Chapel.jpg?width=420",
    "wikipedia_it": "https://it.wikipedia.org/wiki/Consacrazione_di_san_Lorenzo_come_diacono",
    "wikidata": "https://www.wikidata.org/wiki/Q3687181",
    "creation_place": "Rome",
    "creation_lat": 41.9028,
    "creation_lon": 12.4964,
    "_source": {
     "source": "Wikidata",
     "url": "https://www.wikidata.org/wiki/Q3687181",
     "retrieved_at": "2026-08-19"
    },
    "_overrides": {
     "creation": {
      "at": "2026-08-19",
      "source": "derived from start date + Caravaggio's documented itinerary (approximate)"
     }
    },
    "museum_id": "niccoline-chapel"
   }
  },
  {
   "type": "Feature",
   "geometry": {
    "type": "Point",
    "coordinates": [
     10.30942,
     43.55021
    ]
   },
   "properties": {
    "painter": "Fra Angelico",
    "title": "Christ crowned with thorns",
    "year": "1430",
    "city": "Livorno",
    "country": "Italy",
    "location": "Duomo di Livorno",
    "kind": "church",
    "attribution": "generally accepted",
    "status": "present",
    "dimensions": "55 × 39 cm",
    "genre": "religious art",
    "image": "https://commons.wikimedia.org/wiki/Special:FilePath/Beato%20angelico%2C%20Cristo%20coronato%20di%20spine%2C%20livorno%2C%201420%20circa.jpg?width=420",
    "wikipedia_it": "https://it.wikipedia.org/wiki/Cristo_coronato_di_spine_(Beato_Angelico)",
    "wikidata": "https://www.wikidata.org/wiki/Q3697602",
    "creation_place": "Florence",
    "creation_lat": 43.7696,
    "creation_lon": 11.2558,
    "_source": {
     "source": "Wikidata",
     "url": "https://www.wikidata.org/wiki/Q3697602",
     "retrieved_at": "2026-08-19"
    },
    "_overrides": {
     "creation": {
      "at": "2026-08-19",
      "source": "derived from start date + Caravaggio's documented itinerary (approximate)"
     }
    },
    "museum_id": "duomo-di-livorno"
   }
  },
  {
   "type": "Feature",
   "geometry": {
    "type": "Point",
    "coordinates": [
     11.259329,
     43.778198
    ]
   },
   "properties": {
    "painter": "Fra Angelico",
    "title": "Man of Sorrows",
    "year": "1443",
    "city": "Florence",
    "country": "Italy",
    "location": "Museum of San Marco",
    "kind": "church",
    "attribution": "generally accepted",
    "status": "present",
    "genre": "religious art",
    "image": "https://commons.wikimedia.org/wiki/Special:FilePath/Cristo%20in%20piet%C3%A0%2C%20angelico%20san%20marco.jpg?width=420",
    "wikipedia_it": "https://it.wikipedia.org/wiki/Cristo_in_piet%C3%A0_(Angelico_San_Marco)",
    "wikidata": "https://www.wikidata.org/wiki/Q3697632",
    "creation_place": "Florence",
    "creation_lat": 43.7696,
    "creation_lon": 11.2558,
    "_source": {
     "source": "Wikidata",
     "url": "https://www.wikidata.org/wiki/Q3697632",
     "retrieved_at": "2026-08-19"
    },
    "_overrides": {
     "creation": {
      "at": "2026-08-19",
      "source": "derived from start date + Caravaggio's documented itinerary (approximate)"
     }
    },
    "museum_id": "museum-of-san-marco"
   }
  },
  {
   "type": "Feature",
   "geometry": {
    "type": "Point",
    "coordinates": [
     -71.1147,
     42.3742
    ]
   },
   "properties": {
    "painter": "Fra Angelico",
    "title": "Christ on the Cross, the Virgin, Saint John the Evangelist, and Cardinal Torquemada",
    "year": "1450",
    "city": "Cambridge",
    "country": "United States",
    "location": "Fogg Museum",
    "kind": "museum",
    "attribution": "generally accepted",
    "status": "present",
    "medium": "Panel",
    "dimensions": "88 × 36 cm",
    "genre": "religious art",
    "image": "https://commons.wikimedia.org/wiki/Special:FilePath/Fra%20Angelico%20-%20Christ%20on%20the%20Cross%2C%20the%20Virgin%2C%20Saint%20John%20the%20Evangelist%2C%20and%20Cardinal%20Torquemada%20-%201921.34%20-%20Fogg%20Museum.jpg?width=420",
    "wikipedia_it": "https://it.wikipedia.org/wiki/Crocifissione_con_il_cardinale_Torquemada",
    "wikidata": "https://www.wikidata.org/wiki/Q3698211",
    "creation_place": "Rome",
    "creation_lat": 41.9028,
    "creation_lon": 12.4964,
    "_source": {
     "source": "Wikidata",
     "url": "https://www.wikidata.org/wiki/Q3698211",
     "retrieved_at": "2026-08-19"
    },
    "_overrides": {
     "creation": {
      "at": "2026-08-19",
      "source": "derived from start date + Caravaggio's documented itinerary (approximate)"
     }
    },
    "museum_id": "fogg-museum"
   }
  },
  {
   "type": "Feature",
   "geometry": {
    "type": "Point",
    "coordinates": [
     11.57,
     48.14833
    ]
   },
   "properties": {
    "painter": "Fra Angelico",
    "title": "Crucifixion of Saints Cosmas and Damian",
    "year": "1439",
    "city": "Munich",
    "country": "Germany",
    "location": "Alte Pinakothek",
    "kind": "museum",
    "attribution": "generally accepted",
    "status": "present",
    "medium": "Poplar panel",
    "dimensions": "38.1 × 46 cm",
    "genre": "religious art",
    "image": "https://commons.wikimedia.org/wiki/Special:FilePath/FRA-ANGELICO%20DIE-HLL-COSMAS-UND-DAMIAN-UND-IHRE-BRUEDER-WERDEN-GEKREUZIGT-GESTEINIGT-UND-MIT-PFEILEN-BESCHOSSEN%20BSTGS%20WAF38.jpg?width=420",
    "wikipedia_it": "https://it.wikipedia.org/wiki/Crocifissione_dei_santi_Cosma_e_Damiano",
    "wikidata": "https://www.wikidata.org/wiki/Q3698213",
    "creation_place": "Florence",
    "creation_lat": 43.7696,
    "creation_lon": 11.2558,
    "_source": {
     "source": "Wikidata",
     "url": "https://www.wikidata.org/wiki/Q3698213",
     "retrieved_at": "2026-08-19"
    },
    "_overrides": {
     "creation": {
      "at": "2026-08-19",
      "source": "derived from start date + Caravaggio's documented itinerary (approximate)"
     }
    },
    "museum_id": "alte-pinakothek"
   }
  },
  {
   "type": "Feature",
   "geometry": {
    "type": "Point",
    "coordinates": [
     2.3358,
     48.8611
    ]
   },
   "properties": {
    "painter": "Fra Angelico",
    "title": "The Beheading of Saints Cosmas and Damian",
    "year": "1440",
    "city": "Paris",
    "country": "France",
    "location": "Louvre",
    "kind": "museum",
    "attribution": "generally accepted",
    "status": "present",
    "medium": "Poplar panel, tempera",
    "dimensions": "37.3 × 46.1 cm",
    "genre": "religious art",
    "image": "https://commons.wikimedia.org/wiki/Special:FilePath/Le%20Martyre%20des%20saints%20Cosme%20et%20Damien%20-%20Fra%20Angelico%20-%20Mus%C3%A9e%20du%20Louvre%20Peintures%20RF%20340%20-%20photo%202.jpg?width=420",
    "wikipedia_it": "https://it.wikipedia.org/wiki/Decapitazione_dei_santi_Cosma_e_Damiano",
    "wikidata": "https://www.wikidata.org/wiki/Q3704465",
    "creation_place": "Florence",
    "creation_lat": 43.7696,
    "creation_lon": 11.2558,
    "_source": {
     "source": "Wikidata",
     "url": "https://www.wikidata.org/wiki/Q3704465",
     "retrieved_at": "2026-08-19"
    },
    "_overrides": {
     "creation": {
      "at": "2026-08-19",
      "source": "derived from start date + Caravaggio's documented itinerary (approximate)"
     }
    },
    "museum_id": "louvre"
   }
  },
  {
   "type": "Feature",
   "geometry": {
    "type": "Point",
    "coordinates": [
     10.40775,
     43.7152
    ]
   },
   "properties": {
    "painter": "Fra Angelico",
    "title": "The Healing of Justinian by Saint Cosmas and Saint Damian",
    "year": "1439",
    "city": "Pisa",
    "country": "Italy",
    "location": "National Museum of San Matteo",
    "kind": "museum",
    "attribution": "generally accepted",
    "status": "present",
    "medium": "Panel",
    "dimensions": "37 × 45 cm",
    "genre": "religious art",
    "image": "https://commons.wikimedia.org/wiki/Special:FilePath/Fra%20Angelico%20%E2%80%94%20San%20Marco%20Altarpiece%20%E2%80%94%20Predella%20%E2%80%94%20The%20Healing%20of%20Deacon%20Justinian%20by%20Saints%20Cosmas%20and%20Damian.jpg?width=420",
    "wikipedia_it": "https://it.wikipedia.org/wiki/Guarigione_del_diacono_Giustiniano",
    "wikidata": "https://www.wikidata.org/wiki/Q3778382",
    "creation_place": "Florence",
    "creation_lat": 43.7696,
    "creation_lon": 11.2558,
    "_source": {
     "source": "Wikidata",
     "url": "https://www.wikidata.org/wiki/Q3778382",
     "retrieved_at": "2026-08-19"
    },
    "_overrides": {
     "creation": {
      "at": "2026-08-19",
      "source": "derived from start date + Caravaggio's documented itinerary (approximate)"
     }
    },
    "museum_id": "national-museum-of-san-matteo"
   }
  },
  {
   "type": "Feature",
   "geometry": {
    "type": "Point",
    "coordinates": [
     -77.02,
     38.8914
    ]
   },
   "properties": {
    "painter": "Fra Angelico",
    "title": "The Healing of Palladia by Saints Cosmas and Damian",
    "year": "1438-1443",
    "city": "Washington",
    "country": "United States",
    "location": "National Gallery of Art",
    "kind": "museum",
    "attribution": "generally accepted",
    "status": "present",
    "medium": "Wood",
    "dimensions": "36.5 × 46.5 cm",
    "genre": "religious art",
    "image": "https://commons.wikimedia.org/wiki/Special:FilePath/Angelico%2C%20predella%20dei%20santi%20cosma%20e%20damiano%20da%20pala%20di%20san%20marco%2C%20guarigione%20di%20palladia.jpg?width=420",
    "wikipedia_it": "https://it.wikipedia.org/wiki/Guarigione_di_Palladia",
    "wikidata": "https://www.wikidata.org/wiki/Q3778391",
    "creation_place": "Florence",
    "creation_lat": 43.7696,
    "creation_lon": 11.2558,
    "_source": {
     "source": "Wikidata",
     "url": "https://www.wikidata.org/wiki/Q3778391",
     "retrieved_at": "2026-08-19"
    },
    "_overrides": {
     "creation": {
      "at": "2026-08-19",
      "source": "derived from start date + Caravaggio's documented itinerary (approximate)"
     }
    },
    "museum_id": "national-gallery-of-art"
   }
  },
  {
   "type": "Feature",
   "geometry": {
    "type": "Point",
    "coordinates": [
     11.25933,
     43.7782
    ]
   },
   "properties": {
    "painter": "Fra Angelico",
    "title": "The Naming of Saint John the Baptist",
    "year": "1450",
    "city": "Florence",
    "country": "Italy",
    "location": "Museum of San Marco",
    "kind": "museum",
    "attribution": "generally accepted",
    "status": "present",
    "medium": "Panel",
    "dimensions": "26 × 24 cm",
    "genre": "religious art",
    "image": "https://commons.wikimedia.org/wiki/Special:FilePath/Fra%20Angelico%20002.jpg?width=420",
    "wikipedia_it": "https://it.wikipedia.org/wiki/Imposizione_del_nome_al_Battista",
    "wikidata": "https://www.wikidata.org/wiki/Q3796944",
    "creation_place": "Rome",
    "creation_lat": 41.9028,
    "creation_lon": 12.4964,
    "_source": {
     "source": "Wikidata",
     "url": "https://www.wikidata.org/wiki/Q3796944",
     "retrieved_at": "2026-08-19"
    },
    "_overrides": {
     "creation": {
      "at": "2026-08-19",
      "source": "derived from start date + Caravaggio's documented itinerary (approximate)"
     }
    },
    "museum_id": "museum-of-san-marco"
   }
  },
  {
   "type": "Feature",
   "geometry": {
    "type": "Point",
    "coordinates": [
     11.25528,
     43.76833
    ]
   },
   "properties": {
    "painter": "Fra Angelico",
    "title": "Coronation of the Virgin",
    "year": "1434",
    "city": "Florence",
    "country": "Italy",
    "location": "Uffizi Gallery",
    "kind": "museum",
    "attribution": "generally accepted",
    "status": "present",
    "medium": "Poplar panel, tempera",
    "dimensions": "112 × 114 cm",
    "genre": "religious art",
    "image": "https://commons.wikimedia.org/wiki/Special:FilePath/Fra%27%20Angelico%20-%20Incoronazione%20della%20Vergine%20-%20Google%20Art%20Project.jpg?width=420",
    "wikipedia_es": "https://es.wikipedia.org/wiki/Coronaci%C3%B3n_de_la_Virgen_(Fra_Angelico,_Uffizi)",
    "wikipedia_en": "https://en.wikipedia.org/wiki/Coronation_of_the_Virgin_(Fra_Angelico,_Uffizi)",
    "wikipedia_it": "https://it.wikipedia.org/wiki/Incoronazione_della_Vergine_(Angelico_Uffizi)",
    "wikidata": "https://www.wikidata.org/wiki/Q3797771",
    "creation_place": "Florence",
    "creation_lat": 43.7696,
    "creation_lon": 11.2558,
    "_source": {
     "source": "Wikidata",
     "url": "https://www.wikidata.org/wiki/Q3797771",
     "retrieved_at": "2026-08-19"
    },
    "_overrides": {
     "creation": {
      "at": "2026-08-19",
      "source": "derived from start date + Caravaggio's documented itinerary (approximate)"
     }
    },
    "museum_id": "uffizi-gallery"
   }
  },
  {
   "type": "Feature",
   "geometry": {
    "type": "Point",
    "coordinates": [
     8.67388,
     50.10322
    ]
   },
   "properties": {
    "painter": "Fra Angelico",
    "title": "Madonna and Child Enthroned and Twelve Angels",
    "year": "1420",
    "city": "Frankfurt",
    "country": "Germany",
    "location": "Städel Museum",
    "kind": "museum",
    "attribution": "generally accepted",
    "status": "present",
    "medium": "Panel",
    "dimensions": "37 × 28 cm",
    "genre": "religious art",
    "image": "https://commons.wikimedia.org/wiki/Special:FilePath/Madonna%20and%20Child%20Enthroned%20and%20Twelve%20Angels%20%28SM%20838%29.png?width=420",
    "wikipedia_it": "https://it.wikipedia.org/wiki/Madonna_col_Bambino_e_dodici_angeli",
    "wikidata": "https://www.wikidata.org/wiki/Q3842504",
    "creation_place": "Florence",
    "creation_lat": 43.7696,
    "creation_lon": 11.2558,
    "_source": {
     "source": "Wikidata",
     "url": "https://www.wikidata.org/wiki/Q3842504",
     "retrieved_at": "2026-08-19"
    },
    "_overrides": {
     "creation": {
      "at": "2026-08-19",
      "source": "derived from start date + Caravaggio's documented itinerary (approximate)"
     }
    },
    "museum_id": "stadel-museum"
   }
  },
  {
   "type": "Feature",
   "geometry": {
    "type": "Point",
    "coordinates": [
     11.25528,
     43.76833
    ]
   },
   "properties": {
    "painter": "Fra Angelico",
    "title": "Madonna with child",
    "year": "1500",
    "city": "Florence",
    "country": "Italy",
    "location": "Uffizi Gallery",
    "kind": "museum",
    "attribution": "generally accepted",
    "status": "present",
    "medium": "Panel",
    "dimensions": "134 × 59 cm",
    "genre": "religious art",
    "image": "https://commons.wikimedia.org/wiki/Special:FilePath/Angelico%2C%20madonna%20col%20bambino%2C%20uffizi%2C%201425-1449.jpg?width=420",
    "wikipedia_es": "https://es.wikipedia.org/wiki/Madonna_de_Pontassieve",
    "wikipedia_it": "https://it.wikipedia.org/wiki/Madonna_di_Pontassieve",
    "wikidata": "https://www.wikidata.org/wiki/Q3842724",
    "_source": {
     "source": "Wikidata",
     "url": "https://www.wikidata.org/wiki/Q3842724",
     "retrieved_at": "2026-08-19"
    },
    "museum_id": "uffizi-gallery"
   }
  },
  {
   "type": "Feature",
   "geometry": {
    "type": "Point",
    "coordinates": [
     11.25933,
     43.7782
    ]
   },
   "properties": {
    "painter": "Fra Angelico",
    "title": "Compagnia di San Francesco altarpiece",
    "year": "1420",
    "city": "Florence",
    "country": "Italy",
    "location": "Museum of San Marco",
    "kind": "museum",
    "attribution": "generally accepted",
    "status": "present",
    "medium": "Panel",
    "dimensions": "189 × 81 cm",
    "genre": "religious art",
    "image": "https://commons.wikimedia.org/wiki/Special:FilePath/Fra%20Angelico%20-%20Compagnia%20di%20San%20Francesco%20Altarpiece%20-%20WGA00620.jpg?width=420",
    "wikipedia_it": "https://it.wikipedia.org/wiki/Maest%C3%A0_(Angelico)",
    "wikidata": "https://www.wikidata.org/wiki/Q3843020",
    "creation_place": "Florence",
    "creation_lat": 43.7696,
    "creation_lon": 11.2558,
    "_source": {
     "source": "Wikidata",
     "url": "https://www.wikidata.org/wiki/Q3843020",
     "retrieved_at": "2026-08-19"
    },
    "_overrides": {
     "creation": {
      "at": "2026-08-19",
      "source": "derived from start date + Caravaggio's documented itinerary (approximate)"
     }
    },
    "museum_id": "museum-of-san-marco"
   }
  },
  {
   "type": "Feature",
   "geometry": {
    "type": "Point",
    "coordinates": [
     12.45639,
     41.90361
    ]
   },
   "properties": {
    "painter": "Fra Angelico",
    "title": "Martyrdom of St Lawrence",
    "year": "1447",
    "city": "Vatican City",
    "country": "Vatican City",
    "location": "Apostolic Palace",
    "kind": "museum",
    "attribution": "generally accepted",
    "status": "present",
    "medium": "Fresco",
    "dimensions": "271 × 236 cm",
    "genre": "religious art",
    "image": "https://commons.wikimedia.org/wiki/Special:FilePath/Angelico%2C%20niccolina%2007.jpg?width=420",
    "wikipedia_it": "https://it.wikipedia.org/wiki/Martirio_di_san_Lorenzo_(Angelico)",
    "wikidata": "https://www.wikidata.org/wiki/Q3850308",
    "creation_place": "Rome",
    "creation_lat": 41.9028,
    "creation_lon": 12.4964,
    "_source": {
     "source": "Wikidata",
     "url": "https://www.wikidata.org/wiki/Q3850308",
     "retrieved_at": "2026-08-19"
    },
    "_overrides": {
     "creation": {
      "at": "2026-08-19",
      "source": "derived from start date + Caravaggio's documented itinerary (approximate)"
     }
    },
    "museum_id": "apostolic-palace"
   }
  },
  {
   "type": "Feature",
   "geometry": {
    "type": "Point",
    "coordinates": [
     11.25933,
     43.7782
    ]
   },
   "properties": {
    "painter": "Fra Angelico",
    "title": "Bosco ai Frati Altarpiece",
    "year": "1450",
    "city": "Florence",
    "country": "Italy",
    "location": "Museum of San Marco",
    "kind": "museum",
    "attribution": "generally accepted",
    "status": "present",
    "medium": "Panel",
    "dimensions": "174 × 173 cm",
    "genre": "religious art",
    "image": "https://commons.wikimedia.org/wiki/Special:FilePath/Fra%20Angelico%20%E2%80%94%20Bosco%20ai%20Frati%20Altarpiece.jpg?width=420",
    "wikipedia_it": "https://it.wikipedia.org/wiki/Pala_di_Bosco_ai_Frati",
    "wikidata": "https://www.wikidata.org/wiki/Q3889232",
    "creation_place": "Rome",
    "creation_lat": 41.9028,
    "creation_lon": 12.4964,
    "_source": {
     "source": "Wikidata",
     "url": "https://www.wikidata.org/wiki/Q3889232",
     "retrieved_at": "2026-08-19"
    },
    "_overrides": {
     "creation": {
      "at": "2026-08-19",
      "source": "derived from start date + Caravaggio's documented itinerary (approximate)"
     }
    },
    "museum_id": "museum-of-san-marco"
   }
  },
  {
   "type": "Feature",
   "geometry": {
    "type": "Point",
    "coordinates": [
     11.57,
     48.14833
    ]
   },
   "properties": {
    "painter": "Fra Angelico",
    "title": "Entombment of Christ",
    "year": "1438-1443",
    "city": "Munich",
    "country": "Germany",
    "location": "Alte Pinakothek",
    "kind": "museum",
    "attribution": "generally accepted",
    "status": "present",
    "medium": "Panel",
    "dimensions": "37.9 × 46.4 cm",
    "genre": "religious art",
    "image": "https://commons.wikimedia.org/wiki/Special:FilePath/Entombment%20of%20Christ%20%28Fra%20Angelico%29.jpg?width=420",
    "wikipedia_it": "https://it.wikipedia.org/wiki/Piet%C3%A0_(Angelico)",
    "wikidata": "https://www.wikidata.org/wiki/Q3904386",
    "creation_place": "Florence",
    "creation_lat": 43.7696,
    "creation_lon": 11.2558,
    "_source": {
     "source": "Wikidata",
     "url": "https://www.wikidata.org/wiki/Q3904386",
     "retrieved_at": "2026-08-19"
    },
    "_overrides": {
     "creation": {
      "at": "2026-08-19",
      "source": "derived from start date + Caravaggio's documented itinerary (approximate)"
     }
    },
    "museum_id": "alte-pinakothek"
   }
  },
  {
   "type": "Feature",
   "geometry": {
    "type": "Point",
    "coordinates": [
     12.454619,
     41.9034
    ]
   },
   "properties": {
    "painter": "Fra Angelico",
    "title": "Lunette of the north wall",
    "year": "1447",
    "country": "Vatican City",
    "location": "Niccoline Chapel",
    "kind": "church",
    "attribution": "generally accepted",
    "status": "present",
    "medium": "Fresco",
    "dimensions": "322 × 412 cm",
    "genre": "religious art",
    "image": "https://commons.wikimedia.org/wiki/Special:FilePath/Angelico%2C%20niccolina%2005.jpg?width=420",
    "wikipedia_it": "https://it.wikipedia.org/wiki/Predica_di_santo_Stefano_e_disputa_nel_Sinedrio",
    "wikidata": "https://www.wikidata.org/wiki/Q3910091",
    "creation_place": "Rome",
    "creation_lat": 41.9028,
    "creation_lon": 12.4964,
    "_source": {
     "source": "Wikidata",
     "url": "https://www.wikidata.org/wiki/Q3910091",
     "retrieved_at": "2026-08-19"
    },
    "_overrides": {
     "creation": {
      "at": "2026-08-19",
      "source": "derived from start date + Caravaggio's documented itinerary (approximate)"
     }
    },
    "museum_id": "niccoline-chapel"
   }
  },
  {
   "type": "Feature",
   "geometry": {
    "type": "Point",
    "coordinates": [
     11.57,
     48.14833
    ]
   },
   "properties": {
    "painter": "Fra Angelico",
    "title": "The Saints Cosmas and Damian with their Brothers before the Proconsul Lysias",
    "year": "1438-1443",
    "city": "Munich",
    "country": "Germany",
    "location": "Alte Pinakothek",
    "kind": "museum",
    "attribution": "generally accepted",
    "status": "present",
    "medium": "Panel",
    "dimensions": "37.8 × 46.6 cm",
    "genre": "religious art",
    "image": "https://commons.wikimedia.org/wiki/Special:FilePath/Angelico%2C%20predella%20dei%20santi%20cosma%20e%20damiano%20da%20pala%20di%20san%20marco%2C%20davanti%20a%20lisius.jpg?width=420",
    "wikipedia_it": "https://it.wikipedia.org/wiki/San_Cosma_e_san_Damiano_davanti_a_Lisia",
    "wikidata": "https://www.wikidata.org/wiki/Q3946901",
    "creation_place": "Florence",
    "creation_lat": 43.7696,
    "creation_lon": 11.2558,
    "_source": {
     "source": "Wikidata",
     "url": "https://www.wikidata.org/wiki/Q3946901",
     "retrieved_at": "2026-08-19"
    },
    "_overrides": {
     "creation": {
      "at": "2026-08-19",
      "source": "derived from start date + Caravaggio's documented itinerary (approximate)"
     }
    },
    "museum_id": "alte-pinakothek"
   }
  },
  {
   "type": "Feature",
   "geometry": {
    "type": "Point",
    "coordinates": [
     11.57,
     48.14833
    ]
   },
   "properties": {
    "painter": "Fra Angelico",
    "title": "Saint Cosmas and Saint Damian Salvaged",
    "year": "1438-1443",
    "city": "Munich",
    "country": "Germany",
    "location": "Alte Pinakothek",
    "kind": "museum",
    "attribution": "generally accepted",
    "status": "present",
    "medium": "Panel",
    "dimensions": "38 × 46 cm",
    "genre": "religious art",
    "image": "https://commons.wikimedia.org/wiki/Special:FilePath/Angelico%2C%20predella%20dei%20santi%20cosma%20e%20damiano%20da%20pala%20di%20san%20marco%2C%20salvataggio.jpg?width=420",
    "wikipedia_it": "https://it.wikipedia.org/wiki/San_Cosma_e_san_Damiano_salvati_dall%27annegamento",
    "wikidata": "https://www.wikidata.org/wiki/Q3946902",
    "creation_place": "Florence",
    "creation_lat": 43.7696,
    "creation_lon": 11.2558,
    "_source": {
     "source": "Wikidata",
     "url": "https://www.wikidata.org/wiki/Q3946902",
     "retrieved_at": "2026-08-19"
    },
    "_overrides": {
     "creation": {
      "at": "2026-08-19",
      "source": "derived from start date + Caravaggio's documented itinerary (approximate)"
     }
    },
    "museum_id": "alte-pinakothek"
   }
  },
  {
   "type": "Feature",
   "geometry": {
    "type": "Point",
    "coordinates": [
     12.454619,
     41.9034
    ]
   },
   "properties": {
    "painter": "Fra Angelico",
    "title": "Condemnation of St Lawrence by the Emperor Valerian",
    "year": "1447",
    "country": "Vatican City",
    "location": "Niccoline Chapel",
    "kind": "church",
    "attribution": "generally accepted",
    "status": "present",
    "medium": "Fresco",
    "dimensions": "271 × 235 cm",
    "genre": "religious art",
    "image": "https://commons.wikimedia.org/wiki/Special:FilePath/Angelico%2C%20niccolina%2001.jpg?width=420",
    "wikipedia_it": "https://it.wikipedia.org/wiki/San_Lorenzo_davanti_a_Valeriano",
    "wikidata": "https://www.wikidata.org/wiki/Q3947496",
    "creation_place": "Rome",
    "creation_lat": 41.9028,
    "creation_lon": 12.4964,
    "_source": {
     "source": "Wikidata",
     "url": "https://www.wikidata.org/wiki/Q3947496",
     "retrieved_at": "2026-08-19"
    },
    "_overrides": {
     "creation": {
      "at": "2026-08-19",
      "source": "derived from start date + Caravaggio's documented itinerary (approximate)"
     }
    },
    "museum_id": "niccoline-chapel"
   }
  },
  {
   "type": "Feature",
   "geometry": {
    "type": "Point",
    "coordinates": [
     12.45639,
     41.90361
    ]
   },
   "properties": {
    "painter": "Fra Angelico",
    "title": "St Lawrence Distributing Alms",
    "year": "1447",
    "city": "Vatican City",
    "country": "Vatican City",
    "location": "Apostolic Palace",
    "kind": "museum",
    "attribution": "generally accepted",
    "status": "present",
    "medium": "Fresco",
    "dimensions": "271 × 205 cm",
    "genre": "religious art",
    "image": "https://commons.wikimedia.org/wiki/Special:FilePath/Angelico%2C%20niccolina%2011.jpg?width=420",
    "wikipedia_it": "https://it.wikipedia.org/wiki/San_Lorenzo_distribuisce_le_elemosine",
    "wikidata": "https://www.wikidata.org/wiki/Q3947498",
    "creation_place": "Rome",
    "creation_lat": 41.9028,
    "creation_lon": 12.4964,
    "_source": {
     "source": "Wikidata",
     "url": "https://www.wikidata.org/wiki/Q3947498",
     "retrieved_at": "2026-08-19"
    },
    "_overrides": {
     "creation": {
      "at": "2026-08-19",
      "source": "derived from start date + Caravaggio's documented itinerary (approximate)"
     }
    },
    "museum_id": "apostolic-palace"
   }
  },
  {
   "type": "Feature",
   "geometry": {
    "type": "Point",
    "coordinates": [
     12.454619,
     41.9034
    ]
   },
   "properties": {
    "painter": "Fra Angelico",
    "title": "Lunette of the east wall in Niccoline Chapel",
    "year": "1447",
    "country": "Vatican City",
    "location": "Niccoline Chapel",
    "kind": "church",
    "attribution": "generally accepted",
    "status": "present",
    "medium": "Fresco",
    "dimensions": "322 × 473 cm",
    "genre": "religious art",
    "image": "https://commons.wikimedia.org/wiki/Special:FilePath/Angelico%2C%20niccolina%2004.jpg?width=420",
    "wikipedia_it": "https://it.wikipedia.org/wiki/Santo_Stefano_condotto_al_martirio_e_lapidazione_di_santo_Stefano",
    "wikidata": "https://www.wikidata.org/wiki/Q3949515",
    "creation_place": "Rome",
    "creation_lat": 41.9028,
    "creation_lon": 12.4964,
    "_source": {
     "source": "Wikidata",
     "url": "https://www.wikidata.org/wiki/Q3949515",
     "retrieved_at": "2026-08-19"
    },
    "_overrides": {
     "creation": {
      "at": "2026-08-19",
      "source": "derived from start date + Caravaggio's documented itinerary (approximate)"
     }
    },
    "museum_id": "niccoline-chapel"
   }
  },
  {
   "type": "Feature",
   "geometry": {
    "type": "Point",
    "coordinates": [
     12.454619,
     41.9034
    ]
   },
   "properties": {
    "painter": "Fra Angelico",
    "title": "Lunette of the west wall in Niccoline Chapel",
    "year": "1447",
    "country": "Vatican City",
    "location": "Niccoline Chapel",
    "kind": "church",
    "attribution": "generally accepted",
    "status": "present",
    "medium": "Fresco",
    "dimensions": "322 × 472 cm",
    "genre": "religious art",
    "image": "https://commons.wikimedia.org/wiki/Special:FilePath/Angelico%2C%20niccolina%2006.jpg?width=420",
    "wikipedia_it": "https://it.wikipedia.org/wiki/Santo_Stefano_riceve_il_diaconato_e_distribuisce_le_elemosine",
    "wikidata": "https://www.wikidata.org/wiki/Q3949522",
    "creation_place": "Rome",
    "creation_lat": 41.9028,
    "creation_lon": 12.4964,
    "_source": {
     "source": "Wikidata",
     "url": "https://www.wikidata.org/wiki/Q3949522",
     "retrieved_at": "2026-08-19"
    },
    "_overrides": {
     "creation": {
      "at": "2026-08-19",
      "source": "derived from start date + Caravaggio's documented itinerary (approximate)"
     }
    },
    "museum_id": "niccoline-chapel"
   }
  },
  {
   "type": "Feature",
   "geometry": {
    "type": "Point",
    "coordinates": [
     11.259061,
     43.778317
    ]
   },
   "properties": {
    "painter": "Fra Angelico",
    "title": "Sepulchring of Saint Cosmas and Saint Damian",
    "year": "1438-1443",
    "city": "Florence",
    "country": "Italy",
    "location": "Basilica of St. Mark",
    "kind": "church",
    "attribution": "generally accepted",
    "status": "present",
    "medium": "Wood",
    "dimensions": "37 × 45 cm",
    "genre": "religious art",
    "image": "https://commons.wikimedia.org/wiki/Special:FilePath/Fra%20Angelico%20%E2%80%94%20San%20Marco%20Altarpiece%20%E2%80%94%20Predella%20%E2%80%94%20The%20Burial%20of%20Saints%20Cosmas%20and%20Damian.jpg?width=420",
    "wikipedia_it": "https://it.wikipedia.org/wiki/Sepoltura_dei_santi_Cosma_e_Damiano",
    "wikidata": "https://www.wikidata.org/wiki/Q3955665",
    "creation_place": "Florence",
    "creation_lat": 43.7696,
    "creation_lon": 11.2558,
    "_source": {
     "source": "Wikidata",
     "url": "https://www.wikidata.org/wiki/Q3955665",
     "retrieved_at": "2026-08-19"
    },
    "_overrides": {
     "creation": {
      "at": "2026-08-19",
      "source": "derived from start date + Caravaggio's documented itinerary (approximate)"
     }
    },
    "museum_id": "basilica-of-st-mark"
   }
  },
  {
   "type": "Feature",
   "geometry": {
    "type": "Point",
    "coordinates": [
     11.25933,
     43.7782
    ]
   },
   "properties": {
    "painter": "Fra Angelico",
    "title": "Tabernacle of the Linaioli",
    "year": "1433",
    "city": "Florence",
    "country": "Italy",
    "location": "Museum of San Marco",
    "kind": "museum",
    "attribution": "generally accepted",
    "status": "present",
    "medium": "Panel",
    "dimensions": "260 × 330 cm",
    "genre": "religious art",
    "image": "https://commons.wikimedia.org/wiki/Special:FilePath/Fra%20Angelico%20%E2%80%94%20Tabernacle%20of%20the%20Linaioli.jpg?width=420",
    "wikipedia_es": "https://es.wikipedia.org/wiki/Tabern%C3%A1culo_de_los_lineros",
    "wikipedia_en": "https://en.wikipedia.org/wiki/Tabernacle_of_the_Linaioli",
    "wikipedia_it": "https://it.wikipedia.org/wiki/Tabernacolo_dei_Linaioli",
    "wikidata": "https://www.wikidata.org/wiki/Q3979950",
    "creation_place": "Florence",
    "creation_lat": 43.7696,
    "creation_lon": 11.2558,
    "_source": {
     "source": "Wikidata",
     "url": "https://www.wikidata.org/wiki/Q3979950",
     "retrieved_at": "2026-08-19"
    },
    "_overrides": {
     "creation": {
      "at": "2026-08-19",
      "source": "derived from start date + Caravaggio's documented itinerary (approximate)"
     }
    },
    "museum_id": "museum-of-san-marco"
   }
  },
  {
   "type": "Feature",
   "geometry": {
    "type": "Point",
    "coordinates": [
     11.25528,
     43.76833
    ]
   },
   "properties": {
    "painter": "Fra Angelico",
    "title": "Thebaid",
    "year": "1420",
    "city": "Florence",
    "country": "Italy",
    "location": "Uffizi Gallery",
    "kind": "museum",
    "attribution": "generally accepted",
    "status": "present",
    "medium": "Panel",
    "dimensions": "73.5 × 208 cm",
    "image": "https://commons.wikimedia.org/wiki/Special:FilePath/Fra%20Angelico%20-%20Thebaid.jpg?width=420",
    "wikipedia_it": "https://it.wikipedia.org/wiki/Tebaide_(Angelico)",
    "wikidata": "https://www.wikidata.org/wiki/Q3982381",
    "creation_place": "Florence",
    "creation_lat": 43.7696,
    "creation_lon": 11.2558,
    "_source": {
     "source": "Wikidata",
     "url": "https://www.wikidata.org/wiki/Q3982381",
     "retrieved_at": "2026-08-19"
    },
    "_overrides": {
     "creation": {
      "at": "2026-08-19",
      "source": "derived from start date + Caravaggio's documented itinerary (approximate)"
     }
    },
    "museum_id": "uffizi-gallery"
   }
  },
  {
   "type": "Feature",
   "geometry": {
    "type": "Point",
    "coordinates": [
     12.46659,
     41.89333
    ]
   },
   "properties": {
    "painter": "Fra Angelico",
    "title": "Triptych of the Last Judgment, Ascension, and Pentecost",
    "year": "1447",
    "city": "Rome",
    "country": "Italy",
    "location": "Galleria Nazionale d'Arte Antica di Palazzo Corsini",
    "kind": "museum",
    "attribution": "generally accepted",
    "status": "present",
    "medium": "Panel",
    "dimensions": "55 × 38 cm",
    "genre": "religious art",
    "image": "https://commons.wikimedia.org/wiki/Special:FilePath/Angelico%2C%20trittico%20del%20giudizio%20universale%2C%20ascensione%20e%20pentecoste.jpg?width=420",
    "wikipedia_it": "https://it.wikipedia.org/wiki/Trittico_del_Giudizio_universale,_Ascensione_e_Pentecoste",
    "wikidata": "https://www.wikidata.org/wiki/Q3999099",
    "creation_place": "Rome",
    "creation_lat": 41.9028,
    "creation_lon": 12.4964,
    "_source": {
     "source": "Wikidata",
     "url": "https://www.wikidata.org/wiki/Q3999099",
     "retrieved_at": "2026-08-19"
    },
    "_overrides": {
     "creation": {
      "at": "2026-08-19",
      "source": "derived from start date + Caravaggio's documented itinerary (approximate)"
     }
    },
    "museum_id": "galleria-nazionale-d-arte-antica-di-palazzo-corsini"
   }
  },
  {
   "type": "Feature",
   "geometry": {
    "type": "Point",
    "coordinates": [
     13.36472,
     52.50861
    ]
   },
   "properties": {
    "painter": "Fra Angelico",
    "title": "Triptych: The Last Judgment",
    "year": "1437",
    "city": "Bezirk Mitte",
    "country": "Germany",
    "location": "Gemäldegalerie Berlin",
    "kind": "museum",
    "attribution": "generally accepted",
    "status": "present",
    "medium": "Paint, poplar panel",
    "dimensions": "103 × 65.3 cm",
    "genre": "religious art",
    "image": "https://commons.wikimedia.org/wiki/Special:FilePath/Fra%20Angelico%20-%20The%20Last%20Judgement%20%28Winged%20Altar%29%20-%20Google%20Art%20Project.jpg?width=420",
    "wikipedia_it": "https://it.wikipedia.org/wiki/Trittico_del_Giudizio_universale",
    "wikidata": "https://www.wikidata.org/wiki/Q3999100",
    "creation_place": "Florence",
    "creation_lat": 43.7696,
    "creation_lon": 11.2558,
    "_source": {
     "source": "Wikidata",
     "url": "https://www.wikidata.org/wiki/Q3999100",
     "retrieved_at": "2026-08-19"
    },
    "_overrides": {
     "creation": {
      "at": "2026-08-19",
      "source": "derived from start date + Caravaggio's documented itinerary (approximate)"
     }
    },
    "museum_id": "gemaldegalerie-berlin"
   }
  },
  {
   "type": "Feature",
   "geometry": {
    "type": "Point",
    "coordinates": [
     30.3136,
     59.9406
    ]
   },
   "properties": {
    "painter": "Fra Angelico",
    "title": "Madonna and Child",
    "year": "1430",
    "city": "Saint Petersburg",
    "country": "Russia",
    "location": "Hermitage Museum",
    "kind": "museum",
    "attribution": "generally accepted",
    "status": "present",
    "medium": "Fresco",
    "dimensions": "196 × 187 cm",
    "genre": "religious art",
    "image": "https://commons.wikimedia.org/wiki/Special:FilePath/Angelico%2C%20maria%20tra%20i%20santi%20domenico%20e%20tommaso%20d%27aquino.jpg?width=420",
    "wikipedia_en": "https://en.wikipedia.org/wiki/Madonna_and_Child_with_St_Dominic_and_St_Thomas_Aquinas",
    "wikipedia_it": "https://it.wikipedia.org/wiki/Madonna_col_Bambino_tra_i_santi_Domenico_e_Tommaso_d%27Aquino",
    "wikidata": "https://www.wikidata.org/wiki/Q4009968",
    "creation_place": "Florence",
    "creation_lat": 43.7696,
    "creation_lon": 11.2558,
    "_source": {
     "source": "Wikidata",
     "url": "https://www.wikidata.org/wiki/Q4009968",
     "retrieved_at": "2026-08-19"
    },
    "_overrides": {
     "creation": {
      "at": "2026-08-19",
      "source": "derived from start date + Caravaggio's documented itinerary (approximate)"
     }
    },
    "museum_id": "hermitage-museum"
   }
  },
  {
   "type": "Feature",
   "geometry": {
    "type": "Point",
    "coordinates": [
     13.39472,
     52.52194
    ]
   },
   "properties": {
    "painter": "Fra Angelico",
    "title": "Madonna and Child",
    "year": "1433",
    "city": "Berlin",
    "country": "Germany",
    "location": "Bode Museum",
    "kind": "museum",
    "attribution": "attributed",
    "status": "present",
    "medium": "Paint, poplar panel",
    "dimensions": "70 × 51 cm",
    "genre": "religious art",
    "image": "https://commons.wikimedia.org/wiki/Special:FilePath/Fra%20Angelico%20-%20Maria%20mit%20dem%20Kind%20und%20Heiligen%2C%201423%20-%201443%2C%2060.jpg?width=420",
    "wikidata": "https://www.wikidata.org/wiki/Q55085054",
    "creation_place": "Florence",
    "creation_lat": 43.7696,
    "creation_lon": 11.2558,
    "_source": {
     "source": "Wikidata",
     "url": "https://www.wikidata.org/wiki/Q55085054",
     "retrieved_at": "2026-08-19"
    },
    "_overrides": {
     "creation": {
      "at": "2026-08-19",
      "source": "derived from start date + Caravaggio's documented itinerary (approximate)"
     }
    },
    "museum_id": "bode-museum"
   }
  },
  {
   "type": "Feature",
   "geometry": {
    "type": "Point",
    "coordinates": [
     -81.61167,
     41.50889
    ]
   },
   "properties": {
    "painter": "Fra Angelico",
    "title": "Coronation of the Virgin",
    "year": "1420",
    "city": "Cleveland",
    "country": "United States",
    "location": "Cleveland Museum of Art",
    "kind": "museum",
    "attribution": "attributed",
    "status": "present",
    "dimensions": "27 × 37.2 cm",
    "genre": "religious art",
    "image": "https://commons.wikimedia.org/wiki/Special:FilePath/Clevelandart%201944.79.jpg?width=420",
    "wikidata": "https://www.wikidata.org/wiki/Q60515026",
    "creation_place": "Florence",
    "creation_lat": 43.7696,
    "creation_lon": 11.2558,
    "_source": {
     "source": "Wikidata",
     "url": "https://www.wikidata.org/wiki/Q60515026",
     "retrieved_at": "2026-08-19"
    },
    "_overrides": {
     "creation": {
      "at": "2026-08-19",
      "source": "derived from start date + Caravaggio's documented itinerary (approximate)"
     }
    },
    "museum_id": "cleveland-museum-of-art"
   }
  },
  {
   "type": "Feature",
   "geometry": {
    "type": "Point",
    "coordinates": [
     11.28533,
     43.80115
    ]
   },
   "properties": {
    "painter": "Fra Angelico",
    "title": "Fiesole Altarpiece",
    "year": "1420-1520",
    "city": "Fiesole",
    "country": "Italy",
    "location": "convent of San Domenico",
    "kind": "museum",
    "attribution": "generally accepted",
    "status": "present",
    "medium": "Panel",
    "dimensions": "212 × 237 cm",
    "genre": "religious art",
    "image": "https://commons.wikimedia.org/wiki/Special:FilePath/Angelico%2C%20pala%20di%20fiesole%2C%20full.jpg?width=420",
    "wikipedia_es": "https://es.wikipedia.org/wiki/Retablo_de_Fiesole",
    "wikipedia_en": "https://en.wikipedia.org/wiki/Fiesole_Altarpiece",
    "wikipedia_it": "https://it.wikipedia.org/wiki/Pala_di_Fiesole",
    "wikidata": "https://www.wikidata.org/wiki/Q61588",
    "creation_place": "Florence",
    "creation_lat": 43.7696,
    "creation_lon": 11.2558,
    "_source": {
     "source": "Wikidata",
     "url": "https://www.wikidata.org/wiki/Q61588",
     "retrieved_at": "2026-08-19"
    },
    "_overrides": {
     "creation": {
      "at": "2026-08-19",
      "source": "derived from start date + Caravaggio's documented itinerary (approximate)"
     }
    },
    "museum_id": "convent-of-san-domenico"
   }
  },
  {
   "type": "Feature",
   "geometry": {
    "type": "Point",
    "coordinates": [
     -1.62306,
     49.63722
    ]
   },
   "properties": {
    "painter": "Fra Angelico",
    "title": "Scenes from Thebaid",
    "year": "1430",
    "city": "Cherbourg-en-Cotentin",
    "country": "France",
    "location": "Musée Thomas-Henry",
    "kind": "museum",
    "attribution": "attributed",
    "status": "present",
    "medium": "Panel",
    "dimensions": "46 × 92 cm",
    "genre": "religious art",
    "image": "https://commons.wikimedia.org/wiki/Special:FilePath/Saint%20Benoit%20%C3%A0%20Subiaco%20-%20Fra%20Angelico%20-%20Mus%C3%A9e%20Cond%C3%A9.jpg?width=420",
    "wikidata": "https://www.wikidata.org/wiki/Q61756775",
    "creation_place": "Florence",
    "creation_lat": 43.7696,
    "creation_lon": 11.2558,
    "_source": {
     "source": "Wikidata",
     "url": "https://www.wikidata.org/wiki/Q61756775",
     "retrieved_at": "2026-08-19"
    },
    "_overrides": {
     "creation": {
      "at": "2026-08-19",
      "source": "derived from start date + Caravaggio's documented itinerary (approximate)"
     }
    },
    "museum_id": "musee-thomas-henry"
   }
  },
  {
   "type": "Feature",
   "geometry": {
    "type": "Point",
    "coordinates": [
     2.48528,
     49.19389
    ]
   },
   "properties": {
    "painter": "Fra Angelico",
    "title": "Q64651916",
    "year": "1430",
    "city": "Chantilly",
    "country": "France",
    "location": "Musée Condé",
    "kind": "museum",
    "attribution": "attributed",
    "status": "present",
    "medium": "Panel",
    "dimensions": "19 × 28.5 cm",
    "genre": "religious art",
    "image": "https://commons.wikimedia.org/wiki/Special:FilePath/Saint%20Benoit%20%C3%A0%20Subiaco%20-%20Fra%20Angelico%20-%20Mus%C3%A9e%20Cond%C3%A9.jpg?width=420",
    "wikidata": "https://www.wikidata.org/wiki/Q64651916",
    "creation_place": "Florence",
    "creation_lat": 43.7696,
    "creation_lon": 11.2558,
    "_source": {
     "source": "Wikidata",
     "url": "https://www.wikidata.org/wiki/Q64651916",
     "retrieved_at": "2026-08-19"
    },
    "_overrides": {
     "creation": {
      "at": "2026-08-19",
      "source": "derived from start date + Caravaggio's documented itinerary (approximate)"
     }
    },
    "museum_id": "musee-conde"
   }
  },
  {
   "type": "Feature",
   "geometry": {
    "type": "Point",
    "coordinates": [
     -1.62306,
     49.63722
    ]
   },
   "properties": {
    "painter": "Fra Angelico",
    "title": "Conversion of Saint Augustine",
    "year": "1430",
    "city": "Cherbourg-en-Cotentin",
    "country": "France",
    "location": "Musée Thomas-Henry",
    "kind": "museum",
    "attribution": "attributed",
    "status": "present",
    "medium": "Panel",
    "dimensions": "21.8 × 34.2 cm",
    "genre": "religious art",
    "image": "https://commons.wikimedia.org/wiki/Special:FilePath/Angelico%20-%20Conversion%20St.%20Augustine%20-%20Mus%C3%A9e%20Thomas%20Henry%20-%20from%20Thebaid%20dismembered.jpg?width=420",
    "wikidata": "https://www.wikidata.org/wiki/Q86858941",
    "creation_place": "Florence",
    "creation_lat": 43.7696,
    "creation_lon": 11.2558,
    "_source": {
     "source": "Wikidata",
     "url": "https://www.wikidata.org/wiki/Q86858941",
     "retrieved_at": "2026-08-19"
    },
    "_overrides": {
     "creation": {
      "at": "2026-08-19",
      "source": "derived from start date + Caravaggio's documented itinerary (approximate)"
     }
    },
    "museum_id": "musee-thomas-henry"
   }
  },
  {
   "type": "Feature",
   "geometry": {
    "type": "Point",
    "coordinates": [
     12.45277,
     41.90573
    ]
   },
   "properties": {
    "painter": "Fra Angelico",
    "title": "Story of saint Nicholas",
    "year": "1437",
    "city": "Vatican City",
    "country": "Vatican City",
    "location": "Pinacoteca Vaticana",
    "kind": "museum",
    "attribution": "attributed",
    "status": "present",
    "medium": "Panel",
    "dimensions": "34 × 60 cm",
    "genre": "religious art",
    "image": "https://commons.wikimedia.org/wiki/Special:FilePath/Fra%20Angelico%20086.jpg?width=420",
    "wikidata": "https://www.wikidata.org/wiki/Q87492048",
    "creation_place": "Florence",
    "creation_lat": 43.7696,
    "creation_lon": 11.2558,
    "_source": {
     "source": "Wikidata",
     "url": "https://www.wikidata.org/wiki/Q87492048",
     "retrieved_at": "2026-08-19"
    },
    "_overrides": {
     "creation": {
      "at": "2026-08-19",
      "source": "derived from start date + Caravaggio's documented itinerary (approximate)"
     }
    },
    "museum_id": "pinacoteca-vaticana"
   }
  },
  {
   "type": "Feature",
   "geometry": {
    "type": "Point",
    "coordinates": [
     12.38845,
     43.11156
    ]
   },
   "properties": {
    "painter": "Fra Angelico",
    "title": "Perugia Altarpiece",
    "year": "1438",
    "city": "Perugia",
    "country": "Italy",
    "location": "National Gallery of Umbria",
    "kind": "museum",
    "attribution": "generally accepted",
    "status": "present",
    "medium": "Panel",
    "dimensions": "128 × 88 cm",
    "genre": "religious art",
    "image": "https://commons.wikimedia.org/wiki/Special:FilePath/Angelico%20-%20Perugia%20Altarpiece%2C%20National%20Gallery%20of%20Umbria.jpg?width=420",
    "wikipedia_en": "https://en.wikipedia.org/wiki/Perugia_Altarpiece",
    "wikipedia_it": "https://it.wikipedia.org/wiki/Pala_di_Perugia",
    "wikidata": "https://www.wikidata.org/wiki/Q934458",
    "creation_place": "Florence",
    "creation_lat": 43.7696,
    "creation_lon": 11.2558,
    "_source": {
     "source": "Wikidata",
     "url": "https://www.wikidata.org/wiki/Q934458",
     "retrieved_at": "2026-08-19"
    },
    "_overrides": {
     "creation": {
      "at": "2026-08-19",
      "source": "derived from start date + Caravaggio's documented itinerary (approximate)"
     }
    },
    "museum_id": "national-gallery-of-umbria"
   }
  }
 ]
}