{
 "type": "FeatureCollection",
 "_note": "Canon from List of paintings by Frida Kahlo (Wikipedia). Coords via MediaWiki API.",
 "features": [
  {
   "type": "Feature",
   "geometry": {
    "type": "Point",
    "coordinates": [
     -0.5968,
     51.9831
    ]
   },
   "properties": {
    "painter": "Frida Kahlo",
    "title": "Urban Landscape",
    "year": "1925",
    "city": "Woburn Abbey",
    "location": "Private collection",
    "attribution": "generally accepted",
    "medium": "Oil on canvas, 34.29 x 40 cm",
    "image": "https://upload.wikimedia.org/wikipedia/en/thumb/d/d6/Paisaje_urbano%2C_Frida_Kahlo%2C_1925.jpg/500px-Paisaje_urbano%2C_Frida_Kahlo%2C_1925.jpg?utm_source=en.wikipedia.org&amp;utm_campaign=parser&amp;utm_content=thumbnail",
    "notable": true,
    "_source": {
     "source": "Wikipedia: List of paintings by Frida Kahlo",
     "coord": "MediaWiki coordinates API"
    },
    "museum_id": "private-collection",
    "country": "France"
   }
  },
  {
   "type": "Feature",
   "geometry": {
    "type": "Point",
    "coordinates": [
     -0.5968,
     51.9831
    ]
   },
   "properties": {
    "painter": "Frida Kahlo",
    "title": "Self-portrait in a Velvet Dress",
    "year": "1926",
    "city": "Woburn Abbey",
    "location": "Private collection",
    "attribution": "generally accepted",
    "medium": "Oil on canvas, 79 x 58 cm",
    "image": "https://upload.wikimedia.org/wikipedia/en/thumb/6/67/Self_Portrait_in_a_Velvet_Dress.jpg/500px-Self_Portrait_in_a_Velvet_Dress.jpg?utm_source=en.wikipedia.org&amp;utm_campaign=parser&amp;utm_content=thumbnail",
    "notable": true,
    "wikipedia_en": "https://en.wikipedia.org/wiki/Self-portrait_in_a_Velvet_Dress",
    "_source": {
     "source": "Wikipedia: List of paintings by Frida Kahlo",
     "coord": "MediaWiki coordinates API"
    },
    "museum_id": "private-collection",
    "qid": "Q123560990",
    "wikidata": "https://www.wikidata.org/wiki/Q123560990",
    "country": "France"
   }
  },
  {
   "type": "Feature",
   "geometry": {
    "type": "Point",
    "coordinates": [
     -0.5968,
     51.9831
    ]
   },
   "properties": {
    "painter": "Frida Kahlo",
    "title": "If Adelita... or The Peaked Caps",
    "year": "1927",
    "city": "Woburn Abbey",
    "location": "Private collection",
    "attribution": "generally accepted",
    "medium": "Oil on canvas, 65.3 x 45.1 cm",
    "image": "https://upload.wikimedia.org/wikipedia/en/thumb/b/b4/Si_Adelita_o_Los_Cachuchas%2C_Frida_Kahlo%2C_1927.webp/500px-Si_Adelita_o_Los_Cachuchas%2C_Frida_Kahlo%2C_1927.webp.png?utm_source=en.wikipedia.org&amp;utm_campaign=parser&amp;utm_content=thumbnail",
    "notable": true,
    "_source": {
     "source": "Wikipedia: List of paintings by Frida Kahlo",
     "coord": "MediaWiki coordinates API"
    },
    "museum_id": "private-collection",
    "country": "France"
   }
  },
  {
   "type": "Feature",
   "geometry": {
    "type": "Point",
    "coordinates": [
     -98.16667,
     19.43333
    ]
   },
   "properties": {
    "painter": "Frida Kahlo",
    "title": "La Adelita, Pancho Villa, and Frida",
    "year": "1927",
    "city": "Tlaxcala",
    "location": "Tlaxcalteca Institute of Culture",
    "attribution": "generally accepted",
    "medium": "Oil on canvas mounted on board, 65 x 45 cm",
    "image": "https://upload.wikimedia.org/wikipedia/en/thumb/3/3b/La_Adelita%2C_Pancho_Villa%2C_and_Frida%2C_Frida_Kahlo%2C_1927.jpg/500px-La_Adelita%2C_Pancho_Villa%2C_and_Frida%2C_Frida_Kahlo%2C_1927.jpg?utm_source=en.wikipedia.org&amp;utm_campaign=parser&amp;utm_content=thumbnail",
    "notable": true,
    "_source": {
     "source": "Wikipedia: List of paintings by Frida Kahlo",
     "coord": "MediaWiki coordinates API"
    },
    "museum_id": "tlaxcalteca-institute-of-culture"
   }
  },
  {
   "type": "Feature",
   "geometry": {
    "type": "Point",
    "coordinates": [
     -99.16222,
     19.35
    ]
   },
   "properties": {
    "painter": "Frida Kahlo",
    "title": "Portrait of Agustin Olmedo",
    "year": "1927",
    "city": "Mexico",
    "location": "Coyoacán",
    "attribution": "generally accepted",
    "medium": "Oil on canvas, 79 x 59 cm",
    "image": "https://upload.wikimedia.org/wikipedia/en/thumb/1/1e/Retrato_de_Agust%C3%ADn_Olmedo%2C_Frida_Kahlo%2C_1928.jpg/500px-Retrato_de_Agust%C3%ADn_Olmedo%2C_Frida_Kahlo%2C_1928.jpg?utm_source=en.wikipedia.org&amp;utm_campaign=parser&amp;utm_content=thumbnail",
    "notable": true,
    "_source": {
     "source": "Wikipedia: List of paintings by Frida Kahlo",
     "coord": "MediaWiki coordinates API"
    },
    "museum_id": "coyoacan"
   }
  },
  {
   "type": "Feature",
   "geometry": {
    "type": "Point",
    "coordinates": [
     -99.12602,
     19.266
    ]
   },
   "properties": {
    "painter": "Frida Kahlo",
    "title": "Portrait of Alicia Galant",
    "year": "1927",
    "city": "Mexico City",
    "location": "Museo Dolores Olmedo",
    "attribution": "generally accepted",
    "medium": "Oil on canvas, 107 x 93 cm",
    "image": "https://upload.wikimedia.org/wikipedia/en/thumb/7/70/Retrato_de_Alicia_Galant.jpeg/500px-Retrato_de_Alicia_Galant.jpeg?utm_source=en.wikipedia.org&amp;utm_campaign=parser&amp;utm_content=thumbnail",
    "notable": true,
    "_source": {
     "source": "Wikipedia: List of paintings by Frida Kahlo",
     "coord": "MediaWiki coordinates API"
    },
    "museum_id": "museo-dolores-olmedo"
   }
  },
  {
   "type": "Feature",
   "geometry": {
    "type": "Point",
    "coordinates": [
     -98.16667,
     19.43333
    ]
   },
   "properties": {
    "painter": "Frida Kahlo",
    "title": "Portrait of Miquel N. Lira",
    "year": "1927",
    "city": "Tlaxcala",
    "location": "Tlaxcalteca Institute of Culture",
    "attribution": "generally accepted",
    "medium": "Oil on canvas, 106 x 74 cm",
    "image": "https://upload.wikimedia.org/wikipedia/en/thumb/5/5e/Retrato_de_Miguel_N._Lira%2C_Frida_Kahlo%2C_1927.jpeg/500px-Retrato_de_Miguel_N._Lira%2C_Frida_Kahlo%2C_1927.jpeg?utm_source=en.wikipedia.org&amp;utm_campaign=parser&amp;utm_content=thumbnail",
    "notable": true,
    "_source": {
     "source": "Wikipedia: List of paintings by Frida Kahlo",
     "coord": "MediaWiki coordinates API"
    },
    "museum_id": "tlaxcalteca-institute-of-culture"
   }
  },
  {
   "type": "Feature",
   "geometry": {
    "type": "Point",
    "coordinates": [
     -0.5968,
     51.9831
    ]
   },
   "properties": {
    "painter": "Frida Kahlo",
    "title": "Portrait of Alejandro Gómez Arias",
    "year": "1928",
    "city": "Woburn Abbey",
    "location": "Private collection",
    "attribution": "generally accepted",
    "medium": "Oil on wood, 61.5 x 41 cm",
    "image": "https://upload.wikimedia.org/wikipedia/en/thumb/d/de/Retrato_de_Alejandro_G%C3%B3mez_Arias%2C_Frida_Kahlo%2C_1928.jpg/500px-Retrato_de_Alejandro_G%C3%B3mez_Arias%2C_Frida_Kahlo%2C_1928.jpg?utm_source=en.wikipedia.org&amp;utm_campaign=parser&amp;utm_content=thumbnail",
    "notable": true,
    "_source": {
     "source": "Wikipedia: List of paintings by Frida Kahlo",
     "coord": "MediaWiki coordinates API"
    },
    "museum_id": "private-collection",
    "country": "France"
   }
  },
  {
   "type": "Feature",
   "geometry": {
    "type": "Point",
    "coordinates": [
     -0.5968,
     51.9831
    ]
   },
   "properties": {
    "painter": "Frida Kahlo",
    "title": "Portrait of Cristina, My Sister",
    "year": "1928",
    "city": "Woburn Abbey",
    "location": "Private collection",
    "attribution": "generally accepted",
    "medium": "Oil on wood, 99 x 81.5 cm",
    "image": "https://upload.wikimedia.org/wikipedia/en/thumb/4/4b/Retrato_de_Cristina%2C_mi_hermana%2C_Frida_Kahlo%2C_1928.jpeg/500px-Retrato_de_Cristina%2C_mi_hermana%2C_Frida_Kahlo%2C_1928.jpeg?utm_source=en.wikipedia.org&amp;utm_campaign=parser&amp;utm_content=thumbnail",
    "notable": true,
    "_source": {
     "source": "Wikipedia: List of paintings by Frida Kahlo",
     "coord": "MediaWiki coordinates API"
    },
    "museum_id": "private-collection",
    "country": "France"
   }
  },
  {
   "type": "Feature",
   "geometry": {
    "type": "Point",
    "coordinates": [
     -71.05778,
     42.36028
    ]
   },
   "properties": {
    "painter": "Frida Kahlo",
    "title": "Two Women (Salvadora and Herminia)",
    "year": "1928",
    "city": "Boston",
    "country": "United States",
    "location": "Museum of Fine Arts",
    "attribution": "generally accepted",
    "medium": "Oil on canvas, 69.5 x 53.3 cm",
    "image": "https://upload.wikimedia.org/wikipedia/en/thumb/d/d6/Dos_mujeres%2C_Frida_Kahlo%2C_1928.jpg/500px-Dos_mujeres%2C_Frida_Kahlo%2C_1928.jpg?utm_source=en.wikipedia.org&amp;utm_campaign=parser&amp;utm_content=thumbnail",
    "notable": true,
    "_source": {
     "source": "Wikipedia: List of paintings by Frida Kahlo",
     "coord": "MediaWiki coordinates API"
    },
    "museum_id": "museum-of-fine-arts"
   }
  },
  {
   "type": "Feature",
   "geometry": {
    "type": "Point",
    "coordinates": [
     -99.16253,
     19.35514
    ]
   },
   "properties": {
    "painter": "Frida Kahlo",
    "title": "Portrait of a Girl",
    "year": "1929",
    "city": "Coyoacán",
    "location": "Frida Kahlo Museum",
    "attribution": "generally accepted",
    "medium": "Oil on canvas, 118.1 x 80 cm",
    "image": "https://upload.wikimedia.org/wikipedia/en/thumb/7/77/Retrato_de_una_ni%C3%B1a%2C_Frida_Kahlo%2C_1929.webp/500px-Retrato_de_una_ni%C3%B1a%2C_Frida_Kahlo%2C_1929.webp.png?utm_source=en.wikipedia.org&amp;utm_campaign=parser&amp;utm_content=thumbnail",
    "notable": true,
    "_source": {
     "source": "Wikipedia: List of paintings by Frida Kahlo",
     "coord": "MediaWiki coordinates API"
    },
    "museum_id": "frida-kahlo-museum"
   }
  },
  {
   "type": "Feature",
   "geometry": {
    "type": "Point",
    "coordinates": [
     -99.13333,
     19.43333
    ]
   },
   "properties": {
    "painter": "Frida Kahlo",
    "title": "Portrait of Isolda Pinedo Kahlo",
    "year": "1929",
    "city": "Mexico City",
    "location": "Collection of Grupo Sura",
    "attribution": "generally accepted",
    "medium": "Oil on canvas, 65.5 x 44 cm",
    "image": "https://upload.wikimedia.org/wikipedia/en/thumb/e/e7/Retrato_de_Isolda_Pinedo%2C_Frida_Kahlo%2C_1929.webp/500px-Retrato_de_Isolda_Pinedo%2C_Frida_Kahlo%2C_1929.webp.png?utm_source=en.wikipedia.org&amp;utm_campaign=parser&amp;utm_content=thumbnail",
    "notable": true,
    "_source": {
     "source": "Wikipedia: List of paintings by Frida Kahlo",
     "coord": "MediaWiki coordinates API"
    },
    "museum_id": "collection-of-grupo-sura"
   }
  },
  {
   "type": "Feature",
   "geometry": {
    "type": "Point",
    "coordinates": [
     -99.12602,
     19.266
    ]
   },
   "properties": {
    "painter": "Frida Kahlo",
    "title": "Portrait of Virginia (Little Girl)",
    "year": "1929",
    "city": "Mexico City",
    "location": "Museo Dolores Olmedo",
    "attribution": "generally accepted",
    "medium": "Oil on masonite, 84 x 68 cm",
    "image": "https://upload.wikimedia.org/wikipedia/en/thumb/f/f3/La_ni%C3%B1a_Virginia%2C_Frida_Kahlo%2C_1929.jpg/500px-La_ni%C3%B1a_Virginia%2C_Frida_Kahlo%2C_1929.jpg?utm_source=en.wikipedia.org&amp;utm_campaign=parser&amp;utm_content=thumbnail",
    "notable": true,
    "_source": {
     "source": "Wikipedia: List of paintings by Frida Kahlo",
     "coord": "MediaWiki coordinates API"
    },
    "museum_id": "museo-dolores-olmedo"
   }
  },
  {
   "type": "Feature",
   "geometry": {
    "type": "Point",
    "coordinates": [
     -99.12602,
     19.266
    ]
   },
   "properties": {
    "painter": "Frida Kahlo",
    "title": "The Bus",
    "year": "1929",
    "city": "Mexico City",
    "location": "Museo Dolores Olmedo",
    "attribution": "generally accepted",
    "medium": "Oil on canvas, 26 x 55.5 cm",
    "image": "https://upload.wikimedia.org/wikipedia/en/thumb/4/41/El_cami%C3%B3n%2C_Frida_Kahlo%2C_1929.jpg/500px-El_cami%C3%B3n%2C_Frida_Kahlo%2C_1929.jpg?utm_source=en.wikipedia.org&amp;utm_campaign=parser&amp;utm_content=thumbnail",
    "notable": true,
    "_source": {
     "source": "Wikipedia: List of paintings by Frida Kahlo",
     "coord": "MediaWiki coordinates API"
    },
    "museum_id": "museo-dolores-olmedo"
   }
  },
  {
   "type": "Feature",
   "geometry": {
    "type": "Point",
    "coordinates": [
     -0.5968,
     51.9831
    ]
   },
   "properties": {
    "painter": "Frida Kahlo",
    "title": "Portrait of a Woman in White",
    "year": "1930",
    "city": "Woburn Abbey",
    "country": "France",
    "location": "Private collection",
    "attribution": "generally accepted",
    "medium": "Oil on canvas, 119 x 81 cm",
    "image": "https://upload.wikimedia.org/wikipedia/en/thumb/7/7c/Retrato_de_una_mujer_de_blanco%2C_Frida_Kahlo%2C_1929.webp/500px-Retrato_de_una_mujer_de_blanco%2C_Frida_Kahlo%2C_1929.webp.png?utm_source=en.wikipedia.org&amp;utm_campaign=parser&amp;utm_content=thumbnail",
    "notable": true,
    "_source": {
     "source": "Wikipedia: List of paintings by Frida Kahlo",
     "coord": "MediaWiki coordinates API"
    },
    "museum_id": "private-collection"
   }
  },
  {
   "type": "Feature",
   "geometry": {
    "type": "Point",
    "coordinates": [
     -0.5968,
     51.9831
    ]
   },
   "properties": {
    "painter": "Frida Kahlo",
    "title": "Self-Portrait",
    "year": "1930",
    "city": "Woburn Abbey",
    "country": "France",
    "location": "Private collection",
    "attribution": "generally accepted",
    "medium": "Oil on canvas, 65 x 54 cm",
    "image": "https://upload.wikimedia.org/wikipedia/en/thumb/1/11/Autorretrato_de_Frida_Kahlo%2C_1930.webp/500px-Autorretrato_de_Frida_Kahlo%2C_1930.webp.png?utm_source=en.wikipedia.org&amp;utm_campaign=parser&amp;utm_content=thumbnail",
    "notable": true,
    "_source": {
     "source": "Wikipedia: List of paintings by Frida Kahlo",
     "coord": "MediaWiki coordinates API"
    },
    "museum_id": "private-collection"
   }
  },
  {
   "type": "Feature",
   "geometry": {
    "type": "Point",
    "coordinates": [
     -122.40105,
     37.78572
    ]
   },
   "properties": {
    "painter": "Frida Kahlo",
    "title": "Frieda and Diego Rivera",
    "year": "1931",
    "city": "San Francisco",
    "location": "San Francisco Museum of Modern Art",
    "attribution": "generally accepted",
    "medium": "Oil on canvas, 100 x 79 cm",
    "notable": true,
    "wikipedia_en": "https://en.wikipedia.org/wiki/Frieda_and_Diego_Rivera",
    "_source": {
     "source": "Wikipedia: List of paintings by Frida Kahlo",
     "coord": "MediaWiki coordinates API"
    },
    "museum_id": "san-francisco-museum-of-modern-art",
    "qid": "Q43281370",
    "wikidata": "https://www.wikidata.org/wiki/Q43281370"
   }
  },
  {
   "type": "Feature",
   "geometry": {
    "type": "Point",
    "coordinates": [
     -122.2714,
     37.8022
    ]
   },
   "properties": {
    "painter": "Frida Kahlo",
    "title": "Portrait of Dr. Leo Eloesser",
    "year": "1931",
    "city": "School of Medicine",
    "location": "University of California",
    "attribution": "generally accepted",
    "medium": "Oil on masonite, 85.1 x 59.7 cm",
    "notable": true,
    "_source": {
     "source": "Wikipedia: List of paintings by Frida Kahlo",
     "coord": "MediaWiki coordinates API"
    },
    "museum_id": "university-of-california"
   }
  },
  {
   "type": "Feature",
   "geometry": {
    "type": "Point",
    "coordinates": [
     -99.12602,
     19.266
    ]
   },
   "properties": {
    "painter": "Frida Kahlo",
    "title": "Portrait of Eva Frederick",
    "year": "1931",
    "city": "Mexico City",
    "location": "Museo Dolores Olmedo",
    "attribution": "generally accepted",
    "medium": "Oil on canvas, 87 x 44 cm",
    "notable": true,
    "_source": {
     "source": "Wikipedia: List of paintings by Frida Kahlo",
     "coord": "MediaWiki coordinates API"
    },
    "museum_id": "museo-dolores-olmedo"
   }
  },
  {
   "type": "Feature",
   "geometry": {
    "type": "Point",
    "coordinates": [
     -99.16253,
     19.35514
    ]
   },
   "properties": {
    "painter": "Frida Kahlo",
    "title": "Frida and the Cesarean Operation",
    "year": "1932",
    "city": "Coyoacán",
    "location": "Frida Kahlo Museum",
    "attribution": "generally accepted",
    "medium": "Oil on canvas, 73 x 62 cm",
    "notable": true,
    "_source": {
     "source": "Wikipedia: List of paintings by Frida Kahlo",
     "coord": "MediaWiki coordinates API"
    },
    "museum_id": "frida-kahlo-museum"
   }
  },
  {
   "type": "Feature",
   "geometry": {
    "type": "Point",
    "coordinates": [
     -99.12602,
     19.266
    ]
   },
   "properties": {
    "painter": "Frida Kahlo",
    "title": "Henry Ford Hospital",
    "year": "1932",
    "city": "Mexico City",
    "location": "Museo Dolores Olmedo",
    "attribution": "generally accepted",
    "medium": "Oil on metal, 30.5 x 38 cm",
    "notable": true,
    "wikipedia_en": "https://en.wikipedia.org/wiki/Henry_Ford_Hospital_(painting)",
    "_source": {
     "source": "Wikipedia: List of paintings by Frida Kahlo",
     "coord": "MediaWiki coordinates API"
    },
    "museum_id": "museo-dolores-olmedo",
    "qid": "Q118190557",
    "wikidata": "https://www.wikidata.org/wiki/Q118190557"
   }
  },
  {
   "type": "Feature",
   "geometry": {
    "type": "Point",
    "coordinates": [
     -99.12602,
     19.266
    ]
   },
   "properties": {
    "painter": "Frida Kahlo",
    "title": "Portrait of Luther Burbank",
    "year": "1932",
    "city": "Mexico City",
    "location": "Museo Dolores Olmedo",
    "attribution": "generally accepted",
    "medium": "Oil on masonite, 87 x 62 cm",
    "notable": true,
    "_source": {
     "source": "Wikipedia: List of paintings by Frida Kahlo",
     "coord": "MediaWiki coordinates API"
    },
    "museum_id": "museo-dolores-olmedo"
   }
  },
  {
   "type": "Feature",
   "geometry": {
    "type": "Point",
    "coordinates": [
     -74.0061,
     40.7128
    ]
   },
   "properties": {
    "painter": "Frida Kahlo",
    "title": "Self-Portrait on the Border of Mexico and The United States",
    "year": "1932",
    "city": "New York City",
    "location": "Collection of Maria Rodriquez de Reyero",
    "attribution": "generally accepted",
    "medium": "Oil on metal, 31 x 35 cm",
    "notable": true,
    "_source": {
     "source": "Wikipedia: List of paintings by Frida Kahlo",
     "coord": "MediaWiki coordinates API"
    },
    "museum_id": "collection-of-maria-rodriquez-de-reyero"
   }
  },
  {
   "type": "Feature",
   "geometry": {
    "type": "Point",
    "coordinates": [
     -122.41639,
     37.7775
    ]
   },
   "properties": {
    "painter": "Frida Kahlo",
    "title": "My Dress Hangs There",
    "year": "1933",
    "city": "San Francisco",
    "location": "Hoover Gallery",
    "attribution": "generally accepted",
    "medium": "Oil and collage on masonite, 45.7 x 49.5 cm",
    "notable": true,
    "wikipedia_en": "https://en.wikipedia.org/wiki/My_Dress_Hangs_There",
    "_source": {
     "source": "Wikipedia: List of paintings by Frida Kahlo",
     "coord": "MediaWiki coordinates API"
    },
    "museum_id": "hoover-gallery",
    "qid": "Q16488383",
    "wikidata": "https://www.wikidata.org/wiki/Q16488383"
   }
  },
  {
   "type": "Feature",
   "geometry": {
    "type": "Point",
    "coordinates": [
     -120,
     37
    ]
   },
   "properties": {
    "painter": "Frida Kahlo",
    "title": "Self-Portrait",
    "year": "1933",
    "city": "California",
    "location": "Private Collection",
    "attribution": "generally accepted",
    "medium": "Fresco mounted on metal, 62.8 x 48.2 cm",
    "notable": true,
    "_source": {
     "source": "Wikipedia: List of paintings by Frida Kahlo",
     "coord": "MediaWiki coordinates API"
    },
    "museum_id": "private-collection-2-2"
   }
  },
  {
   "type": "Feature",
   "geometry": {
    "type": "Point",
    "coordinates": [
     -0.5968,
     51.9831
    ]
   },
   "properties": {
    "painter": "Frida Kahlo",
    "title": "Self-Portrait – Very Ugly",
    "year": "1933",
    "city": "Woburn Abbey",
    "location": "Private collection",
    "attribution": "generally accepted",
    "medium": "Fresco mounted on masonite, 27.4 x 22.2 cm",
    "notable": true,
    "_source": {
     "source": "Wikipedia: List of paintings by Frida Kahlo",
     "coord": "MediaWiki coordinates API"
    },
    "museum_id": "private-collection",
    "country": "France"
   }
  },
  {
   "type": "Feature",
   "geometry": {
    "type": "Point",
    "coordinates": [
     -99.13333,
     19.43333
    ]
   },
   "properties": {
    "painter": "Frida Kahlo",
    "title": "Self-Portrait with Necklace",
    "year": "1933",
    "city": "Mexico City",
    "location": "Collection of Jacques & Natasha Gelman",
    "attribution": "generally accepted",
    "medium": "Oil on metal, 34.5 x 29.5 cm",
    "notable": true,
    "_source": {
     "source": "Wikipedia: List of paintings by Frida Kahlo",
     "coord": "MediaWiki coordinates API"
    },
    "museum_id": "collection-of-jacques-natasha-gelman"
   }
  },
  {
   "type": "Feature",
   "geometry": {
    "type": "Point",
    "coordinates": [
     -99.12602,
     19.266
    ]
   },
   "properties": {
    "painter": "Frida Kahlo",
    "title": "A Few Small Nips",
    "year": "1935",
    "city": "Mexico City",
    "location": "Museo Dolores Olmedo",
    "attribution": "generally accepted",
    "medium": "Oil on metal with wooden frame, 38 x 48.5 cm",
    "notable": true,
    "_source": {
     "source": "Wikipedia: List of paintings by Frida Kahlo",
     "coord": "MediaWiki coordinates API"
    },
    "museum_id": "museo-dolores-olmedo"
   }
  },
  {
   "type": "Feature",
   "geometry": {
    "type": "Point",
    "coordinates": [
     -120,
     37
    ]
   },
   "properties": {
    "painter": "Frida Kahlo",
    "title": "Self-Portrait with Curly Hair",
    "year": "1935",
    "city": "California",
    "location": "Private Collection",
    "attribution": "generally accepted",
    "medium": "Oil on tin, 19.3 x 14.7 cm",
    "notable": true,
    "_source": {
     "source": "Wikipedia: List of paintings by Frida Kahlo",
     "coord": "MediaWiki coordinates API"
    },
    "museum_id": "private-collection-2-2"
   }
  },
  {
   "type": "Feature",
   "geometry": {
    "type": "Point",
    "coordinates": [
     -73.9775,
     40.7617
    ]
   },
   "properties": {
    "painter": "Frida Kahlo",
    "title": "My Grandparents, My Parents, and I",
    "year": "1936",
    "city": "New York",
    "location": "Museum of Modern Art",
    "attribution": "generally accepted",
    "medium": "Oil and tempera on zinc, 30.7 x 34.5 cm",
    "notable": true,
    "_source": {
     "source": "Wikipedia: List of paintings by Frida Kahlo",
     "coord": "MediaWiki coordinates API"
    },
    "museum_id": "museum-of-modern-art",
    "country": "United States"
   }
  },
  {
   "type": "Feature",
   "geometry": {
    "type": "Point",
    "coordinates": [
     115.9,
     -32
    ]
   },
   "properties": {
    "painter": "Frida Kahlo",
    "title": "Cactus Fruits",
    "year": "1937",
    "city": "Perth",
    "location": "Robert Holmes Collection",
    "attribution": "generally accepted",
    "medium": "Oil on metal, 20 x 24 cm",
    "notable": true,
    "_source": {
     "source": "Wikipedia: List of paintings by Frida Kahlo",
     "coord": "MediaWiki coordinates API"
    },
    "museum_id": "robert-holmes-collection"
   }
  },
  {
   "type": "Feature",
   "geometry": {
    "type": "Point",
    "coordinates": [
     -73.9775,
     40.7617
    ]
   },
   "properties": {
    "painter": "Frida Kahlo",
    "title": "Fulang-Chang and I",
    "year": "1937",
    "city": "New York",
    "location": "Museum of Modern Art",
    "attribution": "generally accepted",
    "medium": "Oil on masonite, 40 x 28 cm",
    "notable": true,
    "_source": {
     "source": "Wikipedia: List of paintings by Frida Kahlo",
     "coord": "MediaWiki coordinates API"
    },
    "museum_id": "museum-of-modern-art",
    "country": "United States"
   }
  },
  {
   "type": "Feature",
   "geometry": {
    "type": "Point",
    "coordinates": [
     -99.13333,
     19.43333
    ]
   },
   "properties": {
    "painter": "Frida Kahlo",
    "title": "Me and My Doll",
    "year": "1937",
    "city": "Mexico City",
    "location": "Collection of Jacques & Natasha Gelman",
    "attribution": "generally accepted",
    "medium": "Oil on sheet metal, 40 x 31 cm",
    "notable": true,
    "_source": {
     "source": "Wikipedia: List of paintings by Frida Kahlo",
     "coord": "MediaWiki coordinates API"
    },
    "museum_id": "collection-of-jacques-natasha-gelman"
   }
  },
  {
   "type": "Feature",
   "geometry": {
    "type": "Point",
    "coordinates": [
     2.3522,
     48.8567
    ]
   },
   "properties": {
    "painter": "Frida Kahlo",
    "title": "Memory, the Heart",
    "year": "1937",
    "city": "Paris",
    "country": "France",
    "location": "Collection of Michel Petitjean",
    "attribution": "generally accepted",
    "medium": "Oil on metal, 40 x 28 cm",
    "notable": true,
    "wikipedia_en": "https://en.wikipedia.org/wiki/Memory,_the_Heart",
    "_source": {
     "source": "Wikipedia: List of paintings by Frida Kahlo",
     "coord": "MediaWiki coordinates API"
    },
    "museum_id": "collection-of-michel-petitjean",
    "qid": "Q5941128",
    "wikidata": "https://www.wikidata.org/wiki/Q5941128"
   }
  },
  {
   "type": "Feature",
   "geometry": {
    "type": "Point",
    "coordinates": [
     -99.12602,
     19.266
    ]
   },
   "properties": {
    "painter": "Frida Kahlo",
    "title": "My Nurse and I",
    "year": "1937",
    "city": "Mexico City",
    "location": "Museo Dolores Olmedo",
    "attribution": "generally accepted",
    "medium": "Oil on metal, 30.5 x 36.83 cm",
    "notable": true,
    "_source": {
     "source": "Wikipedia: List of paintings by Frida Kahlo",
     "coord": "MediaWiki coordinates API"
    },
    "museum_id": "museo-dolores-olmedo"
   }
  },
  {
   "type": "Feature",
   "geometry": {
    "type": "Point",
    "coordinates": [
     -99.13333,
     19.43333
    ]
   },
   "properties": {
    "painter": "Frida Kahlo",
    "title": "Portrait of Alberto Misrachi",
    "year": "1937",
    "city": "Mexico City",
    "location": "Collection of Ana Misrachi",
    "attribution": "generally accepted",
    "medium": "Oil on metal, 34.3 x 26.9 cm",
    "notable": true,
    "_source": {
     "source": "Wikipedia: List of paintings by Frida Kahlo",
     "coord": "MediaWiki coordinates API"
    },
    "museum_id": "collection-of-ana-misrachi"
   }
  },
  {
   "type": "Feature",
   "geometry": {
    "type": "Point",
    "coordinates": [
     -99.13333,
     19.43333
    ]
   },
   "properties": {
    "painter": "Frida Kahlo",
    "title": "Portrait of Diego Rivera",
    "year": "1937",
    "city": "Mexico City",
    "location": "Collection of Jacques & Natasha Gelman",
    "attribution": "generally accepted",
    "medium": "Oil on wood, 46 x 32 cm",
    "notable": true,
    "_source": {
     "source": "Wikipedia: List of paintings by Frida Kahlo",
     "coord": "MediaWiki coordinates API"
    },
    "museum_id": "collection-of-jacques-natasha-gelman"
   }
  },
  {
   "type": "Feature",
   "geometry": {
    "type": "Point",
    "coordinates": [
     -77.02931,
     38.90005
    ]
   },
   "properties": {
    "painter": "Frida Kahlo",
    "title": "Self-Portrait Dedicated to Leon Trotsky",
    "year": "1937",
    "city": "Washington",
    "country": "United States",
    "location": "National Museum of Women in the Arts",
    "attribution": "generally accepted",
    "medium": "Oil on masonite, 87 x 70 cm",
    "notable": true,
    "wikipedia_en": "https://en.wikipedia.org/wiki/Self-Portrait_Dedicated_to_Leon_Trotsky",
    "_source": {
     "source": "Wikipedia: List of paintings by Frida Kahlo",
     "coord": "MediaWiki coordinates API"
    },
    "museum_id": "national-museum-of-women-in-the-arts",
    "qid": "Q97164416",
    "wikidata": "https://www.wikidata.org/wiki/Q97164416"
   }
  },
  {
   "type": "Feature",
   "geometry": {
    "type": "Point",
    "coordinates": [
     -99.12602,
     19.266
    ]
   },
   "properties": {
    "painter": "Frida Kahlo",
    "title": "The Deceased Dimas",
    "year": "1937",
    "city": "Mexico City",
    "location": "Museo Dolores Olmedo",
    "attribution": "generally accepted",
    "medium": "Oil on masonite, 48 x 31 cm",
    "notable": true,
    "_source": {
     "source": "Wikipedia: List of paintings by Frida Kahlo",
     "coord": "MediaWiki coordinates API"
    },
    "museum_id": "museo-dolores-olmedo"
   }
  },
  {
   "type": "Feature",
   "geometry": {
    "type": "Point",
    "coordinates": [
     -0.5968,
     51.9831
    ]
   },
   "properties": {
    "painter": "Frida Kahlo",
    "title": "Four Inhabitants of Mexico City (The Square is Theirs)",
    "year": "1938",
    "city": "Woburn Abbey",
    "location": "Private collection",
    "attribution": "generally accepted",
    "medium": "Oil on canvas, 31.4 x 47.6 cm",
    "notable": true,
    "_source": {
     "source": "Wikipedia: List of paintings by Frida Kahlo",
     "coord": "MediaWiki coordinates API"
    },
    "museum_id": "private-collection",
    "country": "France"
   }
  },
  {
   "type": "Feature",
   "geometry": {
    "type": "Point",
    "coordinates": [
     -99.13333,
     19.43333
    ]
   },
   "properties": {
    "painter": "Frida Kahlo",
    "title": "Fruits of the Earth",
    "year": "1938",
    "city": "Mexico City",
    "location": "Collection of National Bank of Mexico",
    "attribution": "generally accepted",
    "medium": "Oil on masonite, 40.6 x 60 cm",
    "notable": true,
    "_source": {
     "source": "Wikipedia: List of paintings by Frida Kahlo",
     "coord": "MediaWiki coordinates API"
    },
    "museum_id": "collection-of-national-bank-of-mexico"
   }
  },
  {
   "type": "Feature",
   "geometry": {
    "type": "Point",
    "coordinates": [
     136.90111,
     35.16389
    ]
   },
   "properties": {
    "painter": "Frida Kahlo",
    "title": "Girl with Death Mask (She Plays Alone)",
    "year": "1938",
    "city": "Nagoya",
    "location": "Nagoya City Art Museum",
    "attribution": "generally accepted",
    "medium": "Oil on metal, 14.9 x 11 cm",
    "notable": true,
    "_source": {
     "source": "Wikipedia: List of paintings by Frida Kahlo",
     "coord": "MediaWiki coordinates API"
    },
    "museum_id": "nagoya-city-art-museum"
   }
  },
  {
   "type": "Feature",
   "geometry": {
    "type": "Point",
    "coordinates": [
     -0.5968,
     51.9831
    ]
   },
   "properties": {
    "painter": "Frida Kahlo",
    "title": "Itzcuintli Dog with Me",
    "year": "1938",
    "city": "Woburn Abbey",
    "location": "Private collection",
    "attribution": "generally accepted",
    "medium": "Oil on canvas, 71 x 52 cm",
    "notable": true,
    "_source": {
     "source": "Wikipedia: List of paintings by Frida Kahlo",
     "coord": "MediaWiki coordinates API"
    },
    "museum_id": "private-collection",
    "country": "France"
   }
  },
  {
   "type": "Feature",
   "geometry": {
    "type": "Point",
    "coordinates": [
     -89.38914,
     43.07458
    ]
   },
   "properties": {
    "painter": "Frida Kahlo",
    "title": "Pitahayas",
    "year": "1938",
    "city": "Madison",
    "location": "Madison Museum of Contemporary Art",
    "attribution": "generally accepted",
    "medium": "Oil on metal, 25.4 x 35.6 cm",
    "notable": true,
    "_source": {
     "source": "Wikipedia: List of paintings by Frida Kahlo",
     "coord": "MediaWiki coordinates API"
    },
    "museum_id": "madison-museum-of-contemporary-art"
   }
  },
  {
   "type": "Feature",
   "geometry": {
    "type": "Point",
    "coordinates": [
     -0.5968,
     51.9831
    ]
   },
   "properties": {
    "painter": "Frida Kahlo",
    "title": "Self-Portrait",
    "year": "1938",
    "city": "Woburn Abbey",
    "country": "France",
    "location": "Private collection",
    "attribution": "generally accepted",
    "medium": "Oil on plate, 12 x 7 cm",
    "notable": true,
    "_source": {
     "source": "Wikipedia: List of paintings by Frida Kahlo",
     "coord": "MediaWiki coordinates API"
    },
    "museum_id": "private-collection"
   }
  },
  {
   "type": "Feature",
   "geometry": {
    "type": "Point",
    "coordinates": [
     -78.87563,
     42.93245
    ]
   },
   "properties": {
    "painter": "Frida Kahlo",
    "title": "Self-Portrait with Monkey",
    "year": "1938",
    "city": "Buffalo",
    "location": "Albright Knox Art Gallery",
    "attribution": "generally accepted",
    "medium": "Oil on masonite, 40.6 x 30.5 cm",
    "notable": true,
    "wikipedia_en": "https://en.wikipedia.org/wiki/Self-Portrait_with_Monkey",
    "_source": {
     "source": "Wikipedia: List of paintings by Frida Kahlo",
     "coord": "MediaWiki coordinates API"
    },
    "museum_id": "albright-knox-art-gallery",
    "qid": "Q5712848",
    "wikidata": "https://www.wikidata.org/wiki/Q5712848"
   }
  },
  {
   "type": "Feature",
   "geometry": {
    "type": "Point",
    "coordinates": [
     2.35228,
     48.86064
    ]
   },
   "properties": {
    "painter": "Frida Kahlo",
    "title": "The Frame (Self-Portrait)",
    "year": "1938",
    "city": "Quartier Saint-Merri",
    "country": "France",
    "location": "Musée National d'Art Moderne",
    "attribution": "generally accepted",
    "medium": "Oil on aluminium and glass, 28.5 x 20.7 cm",
    "notable": true,
    "wikipedia_en": "https://en.wikipedia.org/wiki/The_Frame_(painting)",
    "_source": {
     "source": "Wikipedia: List of paintings by Frida Kahlo",
     "coord": "MediaWiki coordinates API"
    },
    "museum_id": "musee-national-d-art-moderne",
    "qid": "Q45895679",
    "wikidata": "https://www.wikidata.org/wiki/Q45895679"
   }
  },
  {
   "type": "Feature",
   "geometry": {
    "type": "Point",
    "coordinates": [
     -112.07265,
     33.46675
    ]
   },
   "properties": {
    "painter": "Frida Kahlo",
    "title": "The Suicide of Dorothy Hale",
    "year": "1938",
    "city": "Phoenix",
    "location": "Phoenix Art Museum",
    "attribution": "generally accepted",
    "medium": "Oil on masonite, 60.4 x 48.6 cm",
    "notable": true,
    "wikipedia_en": "https://en.wikipedia.org/wiki/The_Suicide_of_Dorothy_Hale",
    "_source": {
     "source": "Wikipedia: List of paintings by Frida Kahlo",
     "coord": "MediaWiki coordinates API"
    },
    "museum_id": "phoenix-art-museum",
    "qid": "Q2608280",
    "wikidata": "https://www.wikidata.org/wiki/Q2608280"
   }
  },
  {
   "type": "Feature",
   "geometry": {
    "type": "Point",
    "coordinates": [
     2.3522,
     48.8567
    ]
   },
   "properties": {
    "painter": "Frida Kahlo",
    "title": "What the Water Gave Me",
    "year": "1938",
    "city": "Paris",
    "country": "France",
    "location": "Collection of Daniel Filipacchi",
    "attribution": "generally accepted",
    "medium": "Oil on canvas, 91.44 x 70.5 cm",
    "notable": true,
    "wikipedia_en": "https://en.wikipedia.org/wiki/What_the_Water_Gave_Me_(painting)",
    "_source": {
     "source": "Wikipedia: List of paintings by Frida Kahlo",
     "coord": "MediaWiki coordinates API"
    },
    "museum_id": "collection-of-daniel-filipacchi",
    "qid": "Q19898216",
    "wikidata": "https://www.wikidata.org/wiki/Q19898216"
   }
  },
  {
   "type": "Feature",
   "geometry": {
    "type": "Point",
    "coordinates": [
     -99.13333,
     19.43333
    ]
   },
   "properties": {
    "painter": "Frida Kahlo",
    "title": "The Two Fridas",
    "year": "1939",
    "city": "Mexico City",
    "location": "Museo de Arte Moderno",
    "attribution": "generally accepted",
    "medium": "Oil on canvas, 173.5 x 173 cm",
    "notable": true,
    "wikipedia_en": "https://en.wikipedia.org/wiki/The_Two_Fridas",
    "_source": {
     "source": "Wikipedia: List of paintings by Frida Kahlo",
     "coord": "MediaWiki coordinates API"
    },
    "museum_id": "museo-de-arte-moderno",
    "qid": "Q3232010",
    "wikidata": "https://www.wikidata.org/wiki/Q3232010"
   }
  },
  {
   "type": "Feature",
   "geometry": {
    "type": "Point",
    "coordinates": [
     -118.29077,
     34.01617
    ]
   },
   "properties": {
    "painter": "Frida Kahlo",
    "title": "Self-Portrait Dedicated to Dr. Eloesser",
    "year": "1940",
    "location": "Lucas Museum of Narrative Art",
    "attribution": "generally accepted",
    "medium": "Oil on masonite, 59.5 x 40 cm",
    "notable": true,
    "_source": {
     "source": "Wikipedia: List of paintings by Frida Kahlo",
     "coord": "MediaWiki coordinates API"
    },
    "museum_id": "lucas-museum-of-narrative-art"
   }
  },
  {
   "type": "Feature",
   "geometry": {
    "type": "Point",
    "coordinates": [
     -73.9775,
     40.7617
    ]
   },
   "properties": {
    "painter": "Frida Kahlo",
    "title": "Self-Portrait with Cropped Hair",
    "year": "1940",
    "city": "New York",
    "location": "Museum of Modern Art",
    "attribution": "generally accepted",
    "medium": "Oil on canvas, 40 x 28 cm",
    "notable": true,
    "_source": {
     "source": "Wikipedia: List of paintings by Frida Kahlo",
     "coord": "MediaWiki coordinates API"
    },
    "museum_id": "museum-of-modern-art",
    "country": "United States"
   }
  },
  {
   "type": "Feature",
   "geometry": {
    "type": "Point",
    "coordinates": [
     -97.735,
     30.285
    ]
   },
   "properties": {
    "painter": "Frida Kahlo",
    "title": "Self-Portrait with Thorn Necklace and Hummingbird",
    "year": "1940",
    "city": "Austin",
    "location": "University of Texas at Austin",
    "attribution": "generally accepted",
    "medium": "Oil on canvas, 63.5 x 49.5 cm",
    "notable": true,
    "wikipedia_en": "https://en.wikipedia.org/wiki/Self-Portrait_with_Thorn_Necklace_and_Hummingbird",
    "_source": {
     "source": "Wikipedia: List of paintings by Frida Kahlo",
     "coord": "MediaWiki coordinates API"
    },
    "museum_id": "university-of-texas-at-austin",
    "qid": "Q5880026",
    "wikidata": "https://www.wikidata.org/wiki/Q5880026"
   }
  },
  {
   "type": "Feature",
   "geometry": {
    "type": "Point",
    "coordinates": [
     -0.5968,
     51.9831
    ]
   },
   "properties": {
    "painter": "Frida Kahlo",
    "title": "Flower Basket",
    "year": "1941",
    "city": "Woburn Abbey",
    "location": "Private collection",
    "attribution": "generally accepted",
    "medium": "Oil on copper plate, 64.1 cm",
    "notable": true,
    "_source": {
     "source": "Wikipedia: List of paintings by Frida Kahlo",
     "coord": "MediaWiki coordinates API"
    },
    "museum_id": "private-collection",
    "country": "France"
   }
  },
  {
   "type": "Feature",
   "geometry": {
    "type": "Point",
    "coordinates": [
     -99.16253,
     19.35514
    ]
   },
   "properties": {
    "painter": "Frida Kahlo",
    "title": "Portrait of Arija Muray",
    "year": "1941",
    "city": "Coyoacán",
    "location": "Frida Kahlo Museum",
    "attribution": "generally accepted",
    "medium": "Oil on masonite, 75 x 60 cm",
    "notable": true,
    "_source": {
     "source": "Wikipedia: List of paintings by Frida Kahlo",
     "coord": "MediaWiki coordinates API"
    },
    "museum_id": "frida-kahlo-museum"
   }
  },
  {
   "type": "Feature",
   "geometry": {
    "type": "Point",
    "coordinates": [
     -99.13333,
     19.43333
    ]
   },
   "properties": {
    "painter": "Frida Kahlo",
    "title": "Self-Portrait in Red and Gold Dress (MCMXLI)",
    "year": "1941",
    "city": "Mexico City",
    "location": "Collection of Jacques & Natasha Gelman",
    "attribution": "generally accepted",
    "medium": "Oil on canvas, 37.8 x 26.9 cm",
    "notable": true,
    "_source": {
     "source": "Wikipedia: List of paintings by Frida Kahlo",
     "coord": "MediaWiki coordinates API"
    },
    "museum_id": "collection-of-jacques-natasha-gelman"
   }
  },
  {
   "type": "Feature",
   "geometry": {
    "type": "Point",
    "coordinates": [
     -0.5968,
     51.9831
    ]
   },
   "properties": {
    "painter": "Frida Kahlo",
    "title": "Self-Portrait with Bonito",
    "year": "1941",
    "city": "Woburn Abbey",
    "location": "Private collection",
    "attribution": "generally accepted",
    "medium": "Oil on canvas, 55 x 43.4 cm",
    "notable": true,
    "_source": {
     "source": "Wikipedia: List of paintings by Frida Kahlo",
     "coord": "MediaWiki coordinates API"
    },
    "museum_id": "private-collection",
    "country": "France"
   }
  },
  {
   "type": "Feature",
   "geometry": {
    "type": "Point",
    "coordinates": [
     -99.13333,
     19.43333
    ]
   },
   "properties": {
    "painter": "Frida Kahlo",
    "title": "Self-Portrait with Braid",
    "year": "1941",
    "city": "Mexico City",
    "location": "Collection of Jacques & Natasha Gelman",
    "attribution": "generally accepted",
    "medium": "Oil on masonite, 51 x 38.7 cm",
    "notable": true,
    "_source": {
     "source": "Wikipedia: List of paintings by Frida Kahlo",
     "coord": "MediaWiki coordinates API"
    },
    "museum_id": "collection-of-jacques-natasha-gelman"
   }
  },
  {
   "type": "Feature",
   "geometry": {
    "type": "Point",
    "coordinates": [
     -99.13333,
     19.43333
    ]
   },
   "properties": {
    "painter": "Frida Kahlo",
    "title": "Portrait of Lucha Maria, a Girl from Tehuacan",
    "year": "1942",
    "city": "Mexico City",
    "location": "Collection of José Antonio Pérez Simón",
    "attribution": "generally accepted",
    "medium": "Oil on masonite, 54.6 x 43.2 cm",
    "notable": true,
    "_source": {
     "source": "Wikipedia: List of paintings by Frida Kahlo",
     "coord": "MediaWiki coordinates API"
    },
    "museum_id": "collection-of-jose-antonio-perez-simon"
   }
  },
  {
   "type": "Feature",
   "geometry": {
    "type": "Point",
    "coordinates": [
     -99.13333,
     19.43333
    ]
   },
   "properties": {
    "painter": "Frida Kahlo",
    "title": "Portrait of Marucha Lavin",
    "year": "1942",
    "city": "Mexico City",
    "location": "Collection of Jose Domingo and Eugenia Lavin",
    "attribution": "generally accepted",
    "medium": "Oil on copper, 64.8 cm",
    "notable": true,
    "_source": {
     "source": "Wikipedia: List of paintings by Frida Kahlo",
     "coord": "MediaWiki coordinates API"
    },
    "museum_id": "collection-of-jose-domingo-and-eugenia-lavin"
   }
  },
  {
   "type": "Feature",
   "geometry": {
    "type": "Point",
    "coordinates": [
     -58.40339,
     -34.57697
    ]
   },
   "properties": {
    "painter": "Frida Kahlo",
    "title": "Self-Portrait with Monkey and Parrot",
    "year": "1942",
    "city": "Buenos Aires",
    "location": "MALBA",
    "attribution": "generally accepted",
    "medium": "Oil on masonite, 54.6 x 43.2 cm",
    "notable": true,
    "_source": {
     "source": "Wikipedia: List of paintings by Frida Kahlo",
     "coord": "MediaWiki coordinates API"
    },
    "museum_id": "malba"
   }
  },
  {
   "type": "Feature",
   "geometry": {
    "type": "Point",
    "coordinates": [
     -99.16253,
     19.35514
    ]
   },
   "properties": {
    "painter": "Frida Kahlo",
    "title": "Still Life (Round)",
    "year": "1942",
    "city": "Coyoacán",
    "location": "Frida Kahlo Museum",
    "attribution": "generally accepted",
    "medium": "Oil on copper plate, 63 cm",
    "notable": true,
    "_source": {
     "source": "Wikipedia: List of paintings by Frida Kahlo",
     "coord": "MediaWiki coordinates API"
    },
    "museum_id": "frida-kahlo-museum"
   }
  },
  {
   "type": "Feature",
   "geometry": {
    "type": "Point",
    "coordinates": [
     -99.13333,
     19.43333
    ]
   },
   "properties": {
    "painter": "Frida Kahlo",
    "title": "Diego in My Thoughts ( Thinking of Diego) (Self-Portrait as a Tehuana)",
    "year": "1943",
    "city": "Mexico City",
    "location": "Collection of Jacques & Natasha Gelman",
    "attribution": "generally accepted",
    "medium": "Oil on masonite, 76 x 61 cm",
    "notable": true,
    "_source": {
     "source": "Wikipedia: List of paintings by Frida Kahlo",
     "coord": "MediaWiki coordinates API"
    },
    "museum_id": "collection-of-jacques-natasha-gelman"
   }
  },
  {
   "type": "Feature",
   "geometry": {
    "type": "Point",
    "coordinates": [
     -99.12602,
     19.266
    ]
   },
   "properties": {
    "painter": "Frida Kahlo",
    "title": "Flower of Life",
    "year": "1943",
    "city": "Mexico City",
    "location": "Museo Dolores Olmedo",
    "attribution": "generally accepted",
    "medium": "Oil on masonite, 27.8 x 19.7 cm",
    "notable": true,
    "_source": {
     "source": "Wikipedia: List of paintings by Frida Kahlo",
     "coord": "MediaWiki coordinates API"
    },
    "museum_id": "museo-dolores-olmedo"
   }
  },
  {
   "type": "Feature",
   "geometry": {
    "type": "Point",
    "coordinates": [
     -99.13333,
     19.43333
    ]
   },
   "properties": {
    "painter": "Frida Kahlo",
    "title": "Portrait of Natasha Gelman",
    "year": "1943",
    "city": "Mexico City",
    "location": "Collection of Jacques & Natasha Gelman",
    "attribution": "generally accepted",
    "medium": "Oil on canvas, 30 x 23 cm",
    "notable": true,
    "_source": {
     "source": "Wikipedia: List of paintings by Frida Kahlo",
     "coord": "MediaWiki coordinates API"
    },
    "museum_id": "collection-of-jacques-natasha-gelman"
   }
  },
  {
   "type": "Feature",
   "geometry": {
    "type": "Point",
    "coordinates": [
     -99.13333,
     19.43333
    ]
   },
   "properties": {
    "painter": "Frida Kahlo",
    "title": "Self-Portrait with Monkeys",
    "year": "1943",
    "city": "Mexico City",
    "location": "Collection of Jacques & Natasha Gelman",
    "attribution": "generally accepted",
    "medium": "Oil on canvas, 81.5 x 63 cm",
    "notable": true,
    "_source": {
     "source": "Wikipedia: List of paintings by Frida Kahlo",
     "coord": "MediaWiki coordinates API"
    },
    "museum_id": "collection-of-jacques-natasha-gelman"
   }
  },
  {
   "type": "Feature",
   "geometry": {
    "type": "Point",
    "coordinates": [
     -99.13333,
     19.43333
    ]
   },
   "properties": {
    "painter": "Frida Kahlo",
    "title": "The Bride Frightened at Seeing Life Opened",
    "year": "1943",
    "city": "Mexico City",
    "location": "Collection of Jacques & Natasha Gelman",
    "attribution": "generally accepted",
    "medium": "Oil on canvas, 63 x 81.5 cm",
    "notable": true,
    "_source": {
     "source": "Wikipedia: List of paintings by Frida Kahlo",
     "coord": "MediaWiki coordinates API"
    },
    "museum_id": "collection-of-jacques-natasha-gelman"
   }
  },
  {
   "type": "Feature",
   "geometry": {
    "type": "Point",
    "coordinates": [
     -99.13333,
     19.43333
    ]
   },
   "properties": {
    "painter": "Frida Kahlo",
    "title": "Thinking About Death",
    "year": "1943",
    "city": "Mexico City",
    "location": "Collection of Dolores Olmedo Patiño",
    "attribution": "generally accepted",
    "medium": "Oil on canvas mounted on masonite, 44.5 x 37 cm",
    "notable": true,
    "_source": {
     "source": "Wikipedia: List of paintings by Frida Kahlo",
     "coord": "MediaWiki coordinates API"
    },
    "museum_id": "collection-of-dolores-olmedo-patino"
   }
  },
  {
   "type": "Feature",
   "geometry": {
    "type": "Point",
    "coordinates": [
     -0.5968,
     51.9831
    ]
   },
   "properties": {
    "painter": "Frida Kahlo",
    "title": "Diego and Frida 1929–1944",
    "year": "1944",
    "city": "Woburn Abbey",
    "location": "Private collection",
    "attribution": "generally accepted",
    "medium": "Oil on masonite, 12.3 x 7.4 cm; with frame 26 x 18.5 cm",
    "notable": true,
    "_source": {
     "source": "Wikipedia: List of paintings by Frida Kahlo",
     "coord": "MediaWiki coordinates API"
    },
    "museum_id": "private-collection",
    "country": "France"
   }
  },
  {
   "type": "Feature",
   "geometry": {
    "type": "Point",
    "coordinates": [
     -0.5968,
     51.9831
    ]
   },
   "properties": {
    "painter": "Frida Kahlo",
    "title": "Frida and Diego (Diego and Frida 1929–1944 II)",
    "year": "1944",
    "city": "Woburn Abbey",
    "location": "Private collection",
    "attribution": "generally accepted",
    "medium": "Oil on masonite, 13.5 x 8.5 cm",
    "notable": true,
    "_source": {
     "source": "Wikipedia: List of paintings by Frida Kahlo",
     "coord": "MediaWiki coordinates API"
    },
    "museum_id": "private-collection",
    "country": "France"
   }
  },
  {
   "type": "Feature",
   "geometry": {
    "type": "Point",
    "coordinates": [
     -99.13333,
     19.43333
    ]
   },
   "properties": {
    "painter": "Frida Kahlo",
    "title": "Portrait of Alicia and Eduardo Safa",
    "year": "1944",
    "city": "Mexico City",
    "location": "Collection of Dolores Olmedo Patiño",
    "attribution": "generally accepted",
    "medium": "Oil on canvas, 56 x 85.5 cm",
    "notable": true,
    "_source": {
     "source": "Wikipedia: List of paintings by Frida Kahlo",
     "coord": "MediaWiki coordinates API"
    },
    "museum_id": "collection-of-dolores-olmedo-patino"
   }
  },
  {
   "type": "Feature",
   "geometry": {
    "type": "Point",
    "coordinates": [
     -99.13333,
     19.43333
    ]
   },
   "properties": {
    "painter": "Frida Kahlo",
    "title": "Portrait of Doña Rosita Morillo",
    "year": "1944",
    "city": "Mexico City",
    "location": "Collection of Dolores Olmedo Patiño",
    "attribution": "generally accepted",
    "medium": "Oil on canvas mounted on masonite, 75.5 x 59.5 cm",
    "notable": true,
    "_source": {
     "source": "Wikipedia: List of paintings by Frida Kahlo",
     "coord": "MediaWiki coordinates API"
    },
    "museum_id": "collection-of-dolores-olmedo-patino"
   }
  },
  {
   "type": "Feature",
   "geometry": {
    "type": "Point",
    "coordinates": [
     -98.89355,
     19.48964
    ]
   },
   "properties": {
    "painter": "Frida Kahlo",
    "title": "Portrait of Marte R. Gómez",
    "year": "1944",
    "city": "Texcoco",
    "location": "Universidad Autónoma Chapingo",
    "attribution": "generally accepted",
    "medium": "Oil on masonite, 32.4 x 26",
    "notable": true,
    "_source": {
     "source": "Wikipedia: List of paintings by Frida Kahlo",
     "coord": "MediaWiki coordinates API"
    },
    "museum_id": "universidad-autonoma-chapingo"
   }
  },
  {
   "type": "Feature",
   "geometry": {
    "type": "Point",
    "coordinates": [
     -99.13333,
     19.43333
    ]
   },
   "properties": {
    "painter": "Frida Kahlo",
    "title": "Portrait of Marte R. Gómez",
    "year": "1944",
    "city": "Mexico City",
    "location": "Collection of Marte Gomez Leal",
    "attribution": "generally accepted",
    "medium": "Oil on masonite, 32.5 x 26.5 cm",
    "notable": true,
    "_source": {
     "source": "Wikipedia: List of paintings by Frida Kahlo",
     "coord": "MediaWiki coordinates API"
    },
    "museum_id": "collection-of-marte-gomez-leal"
   }
  },
  {
   "type": "Feature",
   "geometry": {
    "type": "Point",
    "coordinates": [
     -99.13333,
     19.43333
    ]
   },
   "properties": {
    "painter": "Frida Kahlo",
    "title": "Portrait of the Engineer Eduardo Morillo Safa",
    "year": "1944",
    "city": "Mexico City",
    "location": "Collection of Dolores Olmedo Patiño",
    "attribution": "generally accepted",
    "medium": "Oil on masonite, 41.9 x 31.2 cm",
    "notable": true,
    "_source": {
     "source": "Wikipedia: List of paintings by Frida Kahlo",
     "coord": "MediaWiki coordinates API"
    },
    "museum_id": "collection-of-dolores-olmedo-patino"
   }
  },
  {
   "type": "Feature",
   "geometry": {
    "type": "Point",
    "coordinates": [
     -99.12602,
     19.266
    ]
   },
   "properties": {
    "painter": "Frida Kahlo",
    "title": "The Broken Column",
    "year": "1944",
    "city": "Mexico City",
    "location": "Museo Dolores Olmedo",
    "attribution": "generally accepted",
    "medium": "Oil on canvas, 43 x 33 cm",
    "notable": true,
    "wikipedia_en": "https://en.wikipedia.org/wiki/The_Broken_Column",
    "_source": {
     "source": "Wikipedia: List of paintings by Frida Kahlo",
     "coord": "MediaWiki coordinates API"
    },
    "museum_id": "museo-dolores-olmedo",
    "qid": "Q21056477",
    "wikidata": "https://www.wikidata.org/wiki/Q21056477"
   }
  },
  {
   "type": "Feature",
   "geometry": {
    "type": "Point",
    "coordinates": [
     -99.13333,
     19.43333
    ]
   },
   "properties": {
    "painter": "Frida Kahlo",
    "title": "Magnolias",
    "year": "1945",
    "city": "Mexico City",
    "location": "Collection of Balbina Azcarraga",
    "attribution": "generally accepted",
    "medium": "Oil on masonite, 41 x 57 cm",
    "notable": true,
    "_source": {
     "source": "Wikipedia: List of paintings by Frida Kahlo",
     "coord": "MediaWiki coordinates API"
    },
    "museum_id": "collection-of-balbina-azcarraga"
   }
  },
  {
   "type": "Feature",
   "geometry": {
    "type": "Point",
    "coordinates": [
     -99.23417,
     18.91861
    ]
   },
   "properties": {
    "painter": "Frida Kahlo",
    "title": "Self-Portrait with Monkey",
    "year": "1945",
    "city": "Cuernavaca",
    "location": "Collection of Robert Brady Foundation",
    "attribution": "generally accepted",
    "medium": "Oil on masonite, 57 x 42 cm",
    "notable": true,
    "_source": {
     "source": "Wikipedia: List of paintings by Frida Kahlo",
     "coord": "MediaWiki coordinates API"
    },
    "museum_id": "collection-of-robert-brady-foundation"
   }
  },
  {
   "type": "Feature",
   "geometry": {
    "type": "Point",
    "coordinates": [
     -99.12602,
     19.266
    ]
   },
   "properties": {
    "painter": "Frida Kahlo",
    "title": "Self-Portrait with Small Monkey",
    "year": "1945",
    "city": "Mexico City",
    "location": "Museo Dolores Olmedo",
    "attribution": "generally accepted",
    "medium": "Oil on masonite, 39.5 x 34.5 cm",
    "notable": true,
    "_source": {
     "source": "Wikipedia: List of paintings by Frida Kahlo",
     "coord": "MediaWiki coordinates API"
    },
    "museum_id": "museo-dolores-olmedo"
   }
  },
  {
   "type": "Feature",
   "geometry": {
    "type": "Point",
    "coordinates": [
     -99.12602,
     19.266
    ]
   },
   "properties": {
    "painter": "Frida Kahlo",
    "title": "The Chick",
    "year": "1945",
    "city": "Mexico City",
    "location": "Museo Dolores Olmedo",
    "attribution": "generally accepted",
    "medium": "Oil on masonite, 27.2 x 22.2 cm",
    "notable": true,
    "_source": {
     "source": "Wikipedia: List of paintings by Frida Kahlo",
     "coord": "MediaWiki coordinates API"
    },
    "museum_id": "museo-dolores-olmedo"
   }
  },
  {
   "type": "Feature",
   "geometry": {
    "type": "Point",
    "coordinates": [
     -99.12602,
     19.266
    ]
   },
   "properties": {
    "painter": "Frida Kahlo",
    "title": "The Mask",
    "year": "1945",
    "city": "Mexico City",
    "location": "Museo Dolores Olmedo",
    "attribution": "generally accepted",
    "medium": "Oil on masonite, 40 x 30.5 cm",
    "notable": true,
    "_source": {
     "source": "Wikipedia: List of paintings by Frida Kahlo",
     "coord": "MediaWiki coordinates API"
    },
    "museum_id": "museo-dolores-olmedo"
   }
  },
  {
   "type": "Feature",
   "geometry": {
    "type": "Point",
    "coordinates": [
     -99.13333,
     19.43333
    ]
   },
   "properties": {
    "painter": "Frida Kahlo",
    "title": "Without Hope",
    "year": "1945",
    "city": "Mexico City",
    "location": "Collection of Dolores Olmedo Patiño",
    "attribution": "generally accepted",
    "medium": "Oil on canvas mounted on masonite, 28 x 36 cm",
    "notable": true,
    "_source": {
     "source": "Wikipedia: List of paintings by Frida Kahlo",
     "coord": "MediaWiki coordinates API"
    },
    "museum_id": "collection-of-dolores-olmedo-patino"
   }
  },
  {
   "type": "Feature",
   "geometry": {
    "type": "Point",
    "coordinates": [
     -99.16253,
     19.35514
    ]
   },
   "properties": {
    "painter": "Frida Kahlo",
    "title": "Landscape (Landscape of El Pedregal)",
    "year": "1946",
    "city": "Coyoacán",
    "location": "Frida Kahlo Museum",
    "attribution": "generally accepted",
    "medium": "Oil on canvas, 20 x 27 cm",
    "notable": true,
    "_source": {
     "source": "Wikipedia: List of paintings by Frida Kahlo",
     "coord": "MediaWiki coordinates API"
    },
    "museum_id": "frida-kahlo-museum"
   }
  },
  {
   "type": "Feature",
   "geometry": {
    "type": "Point",
    "coordinates": [
     -95.36528,
     29.75667
    ]
   },
   "properties": {
    "painter": "Frida Kahlo",
    "title": "The Wounded Deer",
    "year": "1946",
    "city": "Houston",
    "location": "Collection unknown; formerly Collection of Carolyn Farb",
    "attribution": "generally accepted",
    "medium": "Oil on masonite, 22.4 x 30 cm",
    "notable": true,
    "wikipedia_en": "https://en.wikipedia.org/wiki/The_Wounded_Deer",
    "_source": {
     "source": "Wikipedia: List of paintings by Frida Kahlo",
     "coord": "MediaWiki coordinates API"
    },
    "museum_id": "collection-unknown-formerly-collection-of-carolyn-farb",
    "qid": "Q21010270",
    "wikidata": "https://www.wikidata.org/wiki/Q21010270"
   }
  },
  {
   "type": "Feature",
   "geometry": {
    "type": "Point",
    "coordinates": [
     2.3522,
     48.8567
    ]
   },
   "properties": {
    "painter": "Frida Kahlo",
    "title": "Tree of Hope, Remain Strong",
    "year": "1946",
    "city": "Paris",
    "country": "France",
    "location": "Collection of Daniel Filipacchi",
    "attribution": "generally accepted",
    "medium": "Oil on masonite, 55.9 x 40.6 cm",
    "notable": true,
    "_source": {
     "source": "Wikipedia: List of paintings by Frida Kahlo",
     "coord": "MediaWiki coordinates API"
    },
    "museum_id": "collection-of-daniel-filipacchi"
   }
  },
  {
   "type": "Feature",
   "geometry": {
    "type": "Point",
    "coordinates": [
     -58.40339,
     -34.57697
    ]
   },
   "properties": {
    "painter": "Frida Kahlo",
    "title": "Diego and I",
    "year": "1949",
    "city": "Buenos Aires",
    "location": "MALBA",
    "attribution": "generally accepted",
    "medium": "Oil on canvas mounted on masonite, 29.5 x 22.4 cm",
    "notable": true,
    "wikipedia_en": "https://en.wikipedia.org/wiki/Diego_and_I",
    "_source": {
     "source": "Wikipedia: List of paintings by Frida Kahlo",
     "coord": "MediaWiki coordinates API"
    },
    "museum_id": "malba",
    "qid": "Q109620518",
    "wikidata": "https://www.wikidata.org/wiki/Q109620518"
   }
  },
  {
   "type": "Feature",
   "geometry": {
    "type": "Point",
    "coordinates": [
     -99.13333,
     19.43333
    ]
   },
   "properties": {
    "painter": "Frida Kahlo",
    "title": "The Love Embrace of the Universe, the Earth (Mexico), Myself, Diego, and Señor Xolotl",
    "year": "1949",
    "city": "Mexico City",
    "location": "Collection of Jacques & Natasha Gelman",
    "attribution": "generally accepted",
    "medium": "Oil on canvas, 70 x 60.5 cm",
    "notable": true,
    "wikipedia_en": "https://en.wikipedia.org/wiki/The_Love_Embrace_of_the_Universe,_the_Earth_(Mexico),_Myself,_Diego,_and_Se%C3%B1or_Xolotl",
    "_source": {
     "source": "Wikipedia: List of paintings by Frida Kahlo",
     "coord": "MediaWiki coordinates API"
    },
    "museum_id": "collection-of-jacques-natasha-gelman",
    "qid": "Q23663690",
    "wikidata": "https://www.wikidata.org/wiki/Q23663690"
   }
  },
  {
   "type": "Feature",
   "geometry": {
    "type": "Point",
    "coordinates": [
     -99.16253,
     19.35514
    ]
   },
   "properties": {
    "painter": "Frida Kahlo",
    "title": "Portrait of Frida's Family",
    "year": "1950",
    "city": "Coyoacán",
    "location": "Frida Kahlo Museum",
    "attribution": "generally accepted",
    "medium": "Oil on masonite, 41 x 59 cm",
    "notable": true,
    "_source": {
     "source": "Wikipedia: List of paintings by Frida Kahlo",
     "coord": "MediaWiki coordinates API"
    },
    "museum_id": "frida-kahlo-museum"
   }
  },
  {
   "type": "Feature",
   "geometry": {
    "type": "Point",
    "coordinates": [
     -99.13333,
     19.43333
    ]
   },
   "properties": {
    "painter": "Frida Kahlo",
    "title": "Coconuts",
    "year": "1951",
    "city": "Mexico City",
    "location": "Museo de Arte Moderno",
    "attribution": "generally accepted",
    "medium": "Oil on masonite, 25.4 x 34.6 cm",
    "notable": true,
    "_source": {
     "source": "Wikipedia: List of paintings by Frida Kahlo",
     "coord": "MediaWiki coordinates API"
    },
    "museum_id": "museo-de-arte-moderno"
   }
  },
  {
   "type": "Feature",
   "geometry": {
    "type": "Point",
    "coordinates": [
     -99.16253,
     19.35514
    ]
   },
   "properties": {
    "painter": "Frida Kahlo",
    "title": "Portrait of Marta Patricia Procel",
    "year": "1951",
    "city": "Coyoacán",
    "location": "Frida Kahlo Museum",
    "attribution": "generally accepted",
    "medium": "Oil pencil on masonite, 70 x 61cm",
    "notable": true,
    "_source": {
     "source": "Wikipedia: List of paintings by Frida Kahlo",
     "coord": "MediaWiki coordinates API"
    },
    "museum_id": "frida-kahlo-museum"
   }
  },
  {
   "type": "Feature",
   "geometry": {
    "type": "Point",
    "coordinates": [
     -99.16253,
     19.35514
    ]
   },
   "properties": {
    "painter": "Frida Kahlo",
    "title": "Portrait of My Father",
    "year": "1951",
    "city": "Coyoacán",
    "location": "Frida Kahlo Museum",
    "attribution": "generally accepted",
    "medium": "Oil on masonite, 60.5 x 46.5 cm",
    "notable": true,
    "_source": {
     "source": "Wikipedia: List of paintings by Frida Kahlo",
     "coord": "MediaWiki coordinates API"
    },
    "museum_id": "frida-kahlo-museum"
   }
  },
  {
   "type": "Feature",
   "geometry": {
    "type": "Point",
    "coordinates": [
     -99.13333,
     19.43333
    ]
   },
   "properties": {
    "painter": "Frida Kahlo",
    "title": "Self-Portrait with the Portrait of Doctor Farill",
    "year": "1951",
    "city": "Mexico City",
    "location": "Galería Arvil",
    "attribution": "generally accepted",
    "medium": "Oil on masonite, 41.5 x 50 cm",
    "notable": true,
    "_source": {
     "source": "Wikipedia: List of paintings by Frida Kahlo",
     "coord": "MediaWiki coordinates API"
    },
    "museum_id": "galeria-arvil"
   }
  },
  {
   "type": "Feature",
   "geometry": {
    "type": "Point",
    "coordinates": [
     -99.13333,
     19.43333
    ]
   },
   "properties": {
    "painter": "Frida Kahlo",
    "title": "Still Life with Parrot and Flag",
    "year": "1951",
    "city": "Mexico City",
    "location": "Collection of Diaz Ordaz",
    "attribution": "generally accepted",
    "medium": "Oil on masonite, 28 x 40 cm",
    "notable": true,
    "_source": {
     "source": "Wikipedia: List of paintings by Frida Kahlo",
     "coord": "MediaWiki coordinates API"
    },
    "museum_id": "collection-of-diaz-ordaz"
   }
  },
  {
   "type": "Feature",
   "geometry": {
    "type": "Point",
    "coordinates": [
     -97.735,
     30.285
    ]
   },
   "properties": {
    "painter": "Frida Kahlo",
    "title": "Still Life with Parrot and Fruit",
    "year": "1951",
    "city": "Austin",
    "location": "University of Texas at Austin",
    "attribution": "generally accepted",
    "medium": "Oil on canvas, 25.4 x 29.7 cm",
    "notable": true,
    "_source": {
     "source": "Wikipedia: List of paintings by Frida Kahlo",
     "coord": "MediaWiki coordinates API"
    },
    "museum_id": "university-of-texas-at-austin"
   }
  },
  {
   "type": "Feature",
   "geometry": {
    "type": "Point",
    "coordinates": [
     -99.13333,
     19.43333
    ]
   },
   "properties": {
    "painter": "Frida Kahlo",
    "title": "The Circle",
    "year": "1951",
    "city": "Mexico City",
    "location": "Collection of Dolores Olmedo Patiño",
    "attribution": "generally accepted",
    "medium": "Oil on metal, 15 cm",
    "notable": true,
    "_source": {
     "source": "Wikipedia: List of paintings by Frida Kahlo",
     "coord": "MediaWiki coordinates API"
    },
    "museum_id": "collection-of-dolores-olmedo-patino"
   }
  },
  {
   "type": "Feature",
   "geometry": {
    "type": "Point",
    "coordinates": [
     -118.3592,
     34.0633
    ]
   },
   "properties": {
    "painter": "Frida Kahlo",
    "title": "Weeping Coconuts",
    "year": "1951",
    "city": "Los Angeles",
    "country": "United States",
    "location": "Los Angeles County Museum of Art",
    "attribution": "generally accepted",
    "medium": "Oil on masonite, 35.6 x 42.6 cm",
    "notable": true,
    "_source": {
     "source": "Wikipedia: List of paintings by Frida Kahlo",
     "coord": "MediaWiki coordinates API"
    },
    "museum_id": "los-angeles-county-museum-of-art"
   }
  },
  {
   "type": "Feature",
   "geometry": {
    "type": "Point",
    "coordinates": [
     -99.13333,
     19.43333
    ]
   },
   "properties": {
    "painter": "Frida Kahlo",
    "title": "Living Nature",
    "year": "1952",
    "city": "Mexico City",
    "location": "Collection of María Félix",
    "attribution": "generally accepted",
    "medium": "Oil on canvas, 44 x 59.7 cm",
    "notable": true,
    "_source": {
     "source": "Wikipedia: List of paintings by Frida Kahlo",
     "coord": "MediaWiki coordinates API"
    },
    "museum_id": "collection-of-maria-felix"
   }
  },
  {
   "type": "Feature",
   "geometry": {
    "type": "Point",
    "coordinates": [
     -99.16253,
     19.35514
    ]
   },
   "properties": {
    "painter": "Frida Kahlo",
    "title": "Self-Portrait (Unfinished)",
    "year": "1952",
    "city": "Coyoacán",
    "location": "Frida Kahlo Museum",
    "attribution": "generally accepted",
    "medium": "Oil and charcoal on canvas, 55 x 65 cm",
    "notable": true,
    "_source": {
     "source": "Wikipedia: List of paintings by Frida Kahlo",
     "coord": "MediaWiki coordinates API"
    },
    "museum_id": "frida-kahlo-museum"
   }
  },
  {
   "type": "Feature",
   "geometry": {
    "type": "Point",
    "coordinates": [
     -99.13333,
     19.43333
    ]
   },
   "properties": {
    "painter": "Frida Kahlo",
    "title": "Still Life with Watermelons",
    "year": "1953",
    "city": "Mexico City",
    "location": "Museo de Arte Moderno",
    "attribution": "generally accepted",
    "medium": "Oil on compressed wood, 40 x 60 cm",
    "notable": true,
    "_source": {
     "source": "Wikipedia: List of paintings by Frida Kahlo",
     "coord": "MediaWiki coordinates API"
    },
    "museum_id": "museo-de-arte-moderno"
   }
  },
  {
   "type": "Feature",
   "geometry": {
    "type": "Point",
    "coordinates": [
     -99.16253,
     19.35514
    ]
   },
   "properties": {
    "painter": "Frida Kahlo",
    "title": "Brick Kilns",
    "year": "1954",
    "city": "Coyoacán",
    "location": "Frida Kahlo Museum",
    "attribution": "generally accepted",
    "medium": "Oil on masonite, 39 x 59.5 cm",
    "notable": true,
    "_source": {
     "source": "Wikipedia: List of paintings by Frida Kahlo",
     "coord": "MediaWiki coordinates API"
    },
    "museum_id": "frida-kahlo-museum"
   }
  },
  {
   "type": "Feature",
   "geometry": {
    "type": "Point",
    "coordinates": [
     -0.5968,
     51.9831
    ]
   },
   "properties": {
    "painter": "Frida Kahlo",
    "title": "Frida in Flames (Self-Portrait Inside of a Sunflower)",
    "year": "1954",
    "city": "Woburn Abbey",
    "location": "Private collection",
    "attribution": "generally accepted",
    "medium": "Oil on canvas, mounted on wood, 23.8 x 32.4 cm",
    "notable": true,
    "_source": {
     "source": "Wikipedia: List of paintings by Frida Kahlo",
     "coord": "MediaWiki coordinates API"
    },
    "museum_id": "private-collection",
    "country": "France"
   }
  },
  {
   "type": "Feature",
   "geometry": {
    "type": "Point",
    "coordinates": [
     -99.16253,
     19.35514
    ]
   },
   "properties": {
    "painter": "Frida Kahlo",
    "title": "Marxism Will Give Health to the Sick",
    "year": "1954",
    "city": "Coyoacán",
    "location": "Frida Kahlo Museum",
    "attribution": "generally accepted",
    "medium": "Oil on masonite, 76 x 61 cm",
    "notable": true,
    "_source": {
     "source": "Wikipedia: List of paintings by Frida Kahlo",
     "coord": "MediaWiki coordinates API"
    },
    "museum_id": "frida-kahlo-museum"
   }
  },
  {
   "type": "Feature",
   "geometry": {
    "type": "Point",
    "coordinates": [
     -99.16253,
     19.35514
    ]
   },
   "properties": {
    "painter": "Frida Kahlo",
    "title": "Portrait of Stalin (Unfinished)",
    "year": "1954",
    "city": "Coyoacán",
    "location": "Frida Kahlo Museum",
    "attribution": "generally accepted",
    "medium": "Oil and pencil on masonite, 61.7 x 46.7 cm",
    "notable": true,
    "_source": {
     "source": "Wikipedia: List of paintings by Frida Kahlo",
     "coord": "MediaWiki coordinates API"
    },
    "museum_id": "frida-kahlo-museum"
   }
  },
  {
   "type": "Feature",
   "geometry": {
    "type": "Point",
    "coordinates": [
     -120,
     37
    ]
   },
   "properties": {
    "painter": "Frida Kahlo",
    "title": "Self-Portrait with a Portrait of Diego on the Breast and Maria Between the Eyebrows",
    "year": "1954",
    "city": "California",
    "location": "Private Collection",
    "attribution": "generally accepted",
    "medium": "Oil on masonite, 61 x 41 cm",
    "notable": true,
    "_source": {
     "source": "Wikipedia: List of paintings by Frida Kahlo",
     "coord": "MediaWiki coordinates API"
    },
    "museum_id": "private-collection-2-2"
   }
  },
  {
   "type": "Feature",
   "geometry": {
    "type": "Point",
    "coordinates": [
     -99.16253,
     19.35514
    ]
   },
   "properties": {
    "painter": "Frida Kahlo",
    "title": "Self-Portrait with Stalin",
    "year": "1954",
    "city": "Coyoacán",
    "location": "Frida Kahlo Museum",
    "attribution": "generally accepted",
    "medium": "Oil on masonite, 59 x 39 cm",
    "notable": true,
    "_source": {
     "source": "Wikipedia: List of paintings by Frida Kahlo",
     "coord": "MediaWiki coordinates API"
    },
    "museum_id": "frida-kahlo-museum"
   }
  },
  {
   "type": "Feature",
   "geometry": {
    "type": "Point",
    "coordinates": [
     -99.16253,
     19.35514
    ]
   },
   "properties": {
    "painter": "Frida Kahlo",
    "title": "Still Life with Flag",
    "year": "1954",
    "city": "Coyoacán",
    "location": "Frida Kahlo Museum",
    "attribution": "generally accepted",
    "medium": "Oil on masonite, 38 x 52 cm",
    "notable": true,
    "_source": {
     "source": "Wikipedia: List of paintings by Frida Kahlo",
     "coord": "MediaWiki coordinates API"
    },
    "museum_id": "frida-kahlo-museum"
   }
  },
  {
   "type": "Feature",
   "geometry": {
    "type": "Point",
    "coordinates": [
     -0.5968,
     51.9831
    ]
   },
   "properties": {
    "painter": "Frida Kahlo",
    "title": "Viva la Vida and the Dr. Juan Farill",
    "year": "1954",
    "city": "Woburn Abbey",
    "location": "Private collection",
    "attribution": "generally accepted",
    "medium": "Oil on masonite, 39 x 65 cm",
    "notable": true,
    "_source": {
     "source": "Wikipedia: List of paintings by Frida Kahlo",
     "coord": "MediaWiki coordinates API"
    },
    "museum_id": "private-collection",
    "country": "France"
   }
  },
  {
   "type": "Feature",
   "geometry": {
    "type": "Point",
    "coordinates": [
     -99.16253,
     19.35514
    ]
   },
   "properties": {
    "painter": "Frida Kahlo",
    "title": "Viva la Vida (Long Live Life)",
    "year": "1954",
    "city": "Coyoacán",
    "location": "Frida Kahlo Museum",
    "attribution": "generally accepted",
    "medium": "Oil on masonite, 52 x 72 cm",
    "notable": true,
    "_source": {
     "source": "Wikipedia: List of paintings by Frida Kahlo",
     "coord": "MediaWiki coordinates API"
    },
    "museum_id": "frida-kahlo-museum"
   }
  }
 ]
}