{
 "type": "FeatureCollection",
 "_note": "Canon from List of works by Caspar David Friedrich (Wikipedia). Coords via MediaWiki API.",
 "features": [
  {
   "type": "Feature",
   "geometry": {
    "type": "Point",
    "coordinates": [
     11.57111,
     48.14972
    ]
   },
   "properties": {
    "painter": "Caspar David Friedrich",
    "title": "The Summer (in French)",
    "year": "1807",
    "location": "Neue Pinakothek",
    "attribution": "generally accepted",
    "dimensions": "71.4 x 103.6 cm",
    "image": "https://upload.wikimedia.org/wikipedia/commons/thumb/a/ac/Caspar_David_Friedrich_-_Der_Sommer_%28Landschaft_mit_Liebespaar%29.jpg/500px-Caspar_David_Friedrich_-_Der_Sommer_%28Landschaft_mit_Liebespaar%29.jpg?utm_source=en.wikipedia.org&amp;utm_campaign=parser&amp;utm_content=thumbnail",
    "notable": true,
    "_source": {
     "source": "Wikipedia: List of works by Caspar David Friedrich",
     "coord": "MediaWiki coordinates API"
    },
    "museum_id": "neue-pinakothek",
    "city": "Munich",
    "country": "Germany"
   }
  },
  {
   "type": "Feature",
   "geometry": {
    "type": "Point",
    "coordinates": [
     13.7444,
     51.0519
    ]
   },
   "properties": {
    "painter": "Caspar David Friedrich",
    "title": "Dolmen in the Snow",
    "year": "1807",
    "location": "Galerie Neue Meister",
    "attribution": "generally accepted",
    "dimensions": "61.5 x 80 cm",
    "image": "https://upload.wikimedia.org/wikipedia/commons/thumb/0/0c/Caspar_David_Friedrich_-_Cairn_in_Snow_-_Google_Art_Project.jpg/500px-Caspar_David_Friedrich_-_Cairn_in_Snow_-_Google_Art_Project.jpg?utm_source=en.wikipedia.org&amp;utm_campaign=parser&amp;utm_content=thumbnail",
    "notable": true,
    "wikipedia_en": "https://en.wikipedia.org/wiki/Dolmen_in_the_Snow",
    "_source": {
     "source": "Wikipedia: List of works by Caspar David Friedrich",
     "coord": "MediaWiki coordinates API"
    },
    "museum_id": "galerie-neue-meister",
    "city": "Dresden",
    "country": "Germany",
    "qid": "Q1652361",
    "wikidata": "https://www.wikidata.org/wiki/Q1652361",
    "wga_url": "https://www.wga.hu/html/f/friedric/1/102fried.html"
   }
  },
  {
   "type": "Feature",
   "geometry": {
    "type": "Point",
    "coordinates": [
     13.7444,
     51.0519
    ]
   },
   "properties": {
    "painter": "Caspar David Friedrich",
    "title": "Cross in the Mountains",
    "year": "1808",
    "location": "Galerie Neue Meister",
    "attribution": "generally accepted",
    "dimensions": "115 x 110 cm",
    "image": "https://upload.wikimedia.org/wikipedia/commons/thumb/9/91/Caspar_David_Friedrich_-_Das_Kreuz_im_Gebirge.jpg/500px-Caspar_David_Friedrich_-_Das_Kreuz_im_Gebirge.jpg?utm_source=en.wikipedia.org&amp;utm_campaign=parser&amp;utm_content=thumbnail",
    "notable": true,
    "wikipedia_en": "https://en.wikipedia.org/wiki/Cross_in_the_Mountains",
    "_source": {
     "source": "Wikipedia: List of works by Caspar David Friedrich",
     "coord": "MediaWiki coordinates API"
    },
    "museum_id": "galerie-neue-meister",
    "city": "Dresden",
    "country": "Germany",
    "qid": "Q884782",
    "wikidata": "https://www.wikidata.org/wiki/Q884782",
    "wga_url": "https://www.wga.hu/html/f/friedric/1/104fried.html"
   }
  },
  {
   "type": "Feature",
   "geometry": {
    "type": "Point",
    "coordinates": [
     9.74011,
     52.3655
    ]
   },
   "properties": {
    "painter": "Caspar David Friedrich",
    "title": "Portrait of an older man [ Wikidata ]",
    "year": "1808 to 1810",
    "location": "Lower Saxony State Museum",
    "attribution": "generally accepted",
    "dimensions": "51.7 x 42.4 cm",
    "image": "https://upload.wikimedia.org/wikipedia/commons/0/0c/Portrait_of_Friedrich%27s_Father.jpg?utm_source=en.wikipedia.org&amp;utm_campaign=parser&amp;utm_content=thumbnail_unscaled",
    "notable": true,
    "_source": {
     "source": "Wikipedia: List of works by Caspar David Friedrich",
     "coord": "MediaWiki coordinates API"
    },
    "museum_id": "lower-saxony-state-museum",
    "city": "Hanover"
   }
  },
  {
   "type": "Feature",
   "geometry": {
    "type": "Point",
    "coordinates": [
     11.339,
     50.723
    ]
   },
   "properties": {
    "painter": "Caspar David Friedrich",
    "title": "Morning mist in the Mountains [ Wikidata ]",
    "year": "1808",
    "location": "Heidecksburg",
    "attribution": "generally accepted",
    "dimensions": "71 x 104 cm",
    "image": "https://upload.wikimedia.org/wikipedia/commons/thumb/f/f2/Friedrich%2C_Caspar_David_%E2%80%93_Morgennebel_im_Gebirge.jpg/500px-Friedrich%2C_Caspar_David_%E2%80%93_Morgennebel_im_Gebirge.jpg?utm_source=en.wikipedia.org&amp;utm_campaign=parser&amp;utm_content=thumbnail",
    "notable": true,
    "_source": {
     "source": "Wikipedia: List of works by Caspar David Friedrich",
     "coord": "MediaWiki coordinates API"
    },
    "museum_id": "heidecksburg"
   }
  },
  {
   "type": "Feature",
   "geometry": {
    "type": "Point",
    "coordinates": [
     11.07556,
     49.44833
    ]
   },
   "properties": {
    "painter": "Caspar David Friedrich",
    "title": "The Feldstein near Rathen [ Wikidata ]",
    "year": "1808",
    "location": "Germanisches Nationalmuseum",
    "attribution": "generally accepted",
    "image": "https://upload.wikimedia.org/wikipedia/commons/thumb/5/59/Caspar_David_Friedrich_-_Der_Heldstein_bei_Rathen_an_der_Elbe_%281828%29.jpg/500px-Caspar_David_Friedrich_-_Der_Heldstein_bei_Rathen_an_der_Elbe_%281828%29.jpg?utm_source=en.wikipedia.org&amp;utm_campaign=parser&amp;utm_content=thumbnail",
    "notable": true,
    "_source": {
     "source": "Wikipedia: List of works by Caspar David Friedrich",
     "coord": "MediaWiki coordinates API"
    },
    "museum_id": "germanisches-nationalmuseum",
    "city": "Nuremberg",
    "country": "Germany"
   }
  },
  {
   "type": "Feature",
   "geometry": {
    "type": "Point",
    "coordinates": [
     8.47528,
     49.48278
    ]
   },
   "properties": {
    "painter": "Caspar David Friedrich",
    "title": "Monk in the snow [ Wikidata ]",
    "year": "1808",
    "location": "Kunsthalle Mannheim",
    "attribution": "generally accepted",
    "image": "https://upload.wikimedia.org/wikipedia/commons/thumb/8/8e/Caspar_David_Friedrich_046_%28Monk_in_the_Snow%29.jpg/500px-Caspar_David_Friedrich_046_%28Monk_in_the_Snow%29.jpg?utm_source=en.wikipedia.org&amp;utm_campaign=parser&amp;utm_content=thumbnail",
    "notable": true,
    "_source": {
     "source": "Wikipedia: List of works by Caspar David Friedrich",
     "coord": "MediaWiki coordinates API"
    },
    "museum_id": "kunsthalle-mannheim"
   }
  },
  {
   "type": "Feature",
   "geometry": {
    "type": "Point",
    "coordinates": [
     13.39806,
     52.52083
    ]
   },
   "properties": {
    "painter": "Caspar David Friedrich",
    "title": "The Monk by the Sea",
    "year": "1809",
    "location": "Alte Nationalgalerie",
    "attribution": "generally accepted",
    "dimensions": "115 x 110 cm",
    "image": "https://upload.wikimedia.org/wikipedia/commons/thumb/2/21/Caspar_David_Friedrich_-_Der_M%C3%B6nch_am_Meer_-_Google_Art_Project.jpg/500px-Caspar_David_Friedrich_-_Der_M%C3%B6nch_am_Meer_-_Google_Art_Project.jpg?utm_source=en.wikipedia.org&amp;utm_campaign=parser&amp;utm_content=thumbnail",
    "notable": true,
    "wikipedia_en": "https://en.wikipedia.org/wiki/The_Monk_by_the_Sea",
    "_source": {
     "source": "Wikipedia: List of works by Caspar David Friedrich",
     "coord": "MediaWiki coordinates API"
    },
    "museum_id": "alte-nationalgalerie",
    "city": "Berlin",
    "country": "Germany",
    "qid": "Q693746",
    "wikidata": "https://www.wikidata.org/wiki/Q693746",
    "wga_url": "https://www.wga.hu/html/f/friedric/1/105fried.html"
   }
  },
  {
   "type": "Feature",
   "geometry": {
    "type": "Point",
    "coordinates": [
     13.39806,
     52.52083
    ]
   },
   "properties": {
    "painter": "Caspar David Friedrich",
    "title": "The Abbey in the Oakwood",
    "year": "1809 to 1810",
    "location": "Alte Nationalgalerie",
    "attribution": "generally accepted",
    "dimensions": "110 x 171 cm",
    "image": "https://upload.wikimedia.org/wikipedia/commons/thumb/3/32/Caspar_David_Friedrich_-_Abtei_im_Eichwald_-_Google_Art_Project.jpg/500px-Caspar_David_Friedrich_-_Abtei_im_Eichwald_-_Google_Art_Project.jpg?utm_source=en.wikipedia.org&amp;utm_campaign=parser&amp;utm_content=thumbnail",
    "notable": true,
    "wikipedia_en": "https://en.wikipedia.org/wiki/The_Abbey_in_the_Oakwood",
    "_source": {
     "source": "Wikipedia: List of works by Caspar David Friedrich",
     "coord": "MediaWiki coordinates API"
    },
    "museum_id": "alte-nationalgalerie",
    "city": "Berlin",
    "country": "Germany",
    "qid": "Q334360",
    "wikidata": "https://www.wikidata.org/wiki/Q334360",
    "wga_url": "https://www.wga.hu/html/f/friedric/1/106fried.html"
   }
  },
  {
   "type": "Feature",
   "geometry": {
    "type": "Point",
    "coordinates": [
     11.57111,
     48.14972
    ]
   },
   "properties": {
    "painter": "Caspar David Friedrich",
    "title": "Giant Mountains Landscape with Rising Fog [ Wikidata ]",
    "year": "1809 to 1810",
    "location": "Neue Pinakothek",
    "attribution": "generally accepted",
    "dimensions": "54.9 x 70.4 cm",
    "image": "https://upload.wikimedia.org/wikipedia/commons/thumb/f/f6/Caspar_David_Friedrich_-_Riesengebirge_Landscape_with_Rising_Fog_-_WGA8257.jpg/500px-Caspar_David_Friedrich_-_Riesengebirge_Landscape_with_Rising_Fog_-_WGA8257.jpg?utm_source=en.wikipedia.org&amp;utm_campaign=parser&amp;utm_content=thumbnail",
    "notable": true,
    "_source": {
     "source": "Wikipedia: List of works by Caspar David Friedrich",
     "coord": "MediaWiki coordinates API"
    },
    "museum_id": "neue-pinakothek",
    "city": "Munich",
    "country": "Germany"
   }
  },
  {
   "type": "Feature",
   "geometry": {
    "type": "Point",
    "coordinates": [
     7.00417,
     51.44167
    ]
   },
   "properties": {
    "painter": "Caspar David Friedrich",
    "title": "Mountain Landscape with Rainbow",
    "year": "1810",
    "location": "Museum Folkwang",
    "attribution": "generally accepted",
    "dimensions": "70 x 102 cm",
    "image": "https://upload.wikimedia.org/wikipedia/commons/thumb/0/0f/Caspar_David_Friedrich_-_Gebirgslandschaft_mit_Regenbogen.jpg/500px-Caspar_David_Friedrich_-_Gebirgslandschaft_mit_Regenbogen.jpg?utm_source=en.wikipedia.org&amp;utm_campaign=parser&amp;utm_content=thumbnail",
    "notable": true,
    "wikipedia_en": "https://en.wikipedia.org/wiki/Mountain_Landscape_with_Rainbow",
    "_source": {
     "source": "Wikipedia: List of works by Caspar David Friedrich",
     "coord": "MediaWiki coordinates API"
    },
    "museum_id": "museum-folkwang",
    "city": "Essen",
    "country": "Germany",
    "qid": "Q507120",
    "wikidata": "https://www.wikidata.org/wiki/Q507120"
   }
  },
  {
   "type": "Feature",
   "geometry": {
    "type": "Point",
    "coordinates": [
     13.7444,
     51.0519
    ]
   },
   "properties": {
    "painter": "Caspar David Friedrich",
    "title": "Bohemian Landscape with Mount Milleschauer (in French)",
    "year": "1808",
    "location": "Galerie Neue Meister",
    "attribution": "generally accepted",
    "dimensions": "70 x 104 cm",
    "image": "https://upload.wikimedia.org/wikipedia/commons/thumb/4/46/Friedrich%2C_Caspar_David_-_B%C3%B6hmische_Landschaft_mit_dem_Milleschauer.jpg/500px-Friedrich%2C_Caspar_David_-_B%C3%B6hmische_Landschaft_mit_dem_Milleschauer.jpg?utm_source=en.wikipedia.org&amp;utm_campaign=parser&amp;utm_content=thumbnail",
    "notable": true,
    "_source": {
     "source": "Wikipedia: List of works by Caspar David Friedrich",
     "coord": "MediaWiki coordinates API"
    },
    "museum_id": "galerie-neue-meister",
    "city": "Dresden",
    "country": "Germany"
   }
  },
  {
   "type": "Feature",
   "geometry": {
    "type": "Point",
    "coordinates": [
     8.4,
     49.0119
    ]
   },
   "properties": {
    "painter": "Caspar David Friedrich",
    "title": "Morning on the Riesengebirge",
    "year": "1810 to 1811",
    "location": "Kunsthalle Karlsruhe",
    "attribution": "generally accepted",
    "dimensions": "108 x 170 cm",
    "image": "https://upload.wikimedia.org/wikipedia/commons/thumb/6/62/Caspar_David_Friedrich%2C_Morgen_im_Riesengebirge.jpg/500px-Caspar_David_Friedrich%2C_Morgen_im_Riesengebirge.jpg?utm_source=en.wikipedia.org&amp;utm_campaign=parser&amp;utm_content=thumbnail",
    "notable": true,
    "wikipedia_en": "https://en.wikipedia.org/wiki/Morning_on_the_Riesengebirge",
    "_source": {
     "source": "Wikipedia: List of works by Caspar David Friedrich",
     "coord": "MediaWiki coordinates API"
    },
    "museum_id": "kunsthalle-karlsruhe",
    "qid": "Q1587929",
    "wikidata": "https://www.wikidata.org/wiki/Q1587929"
   }
  },
  {
   "type": "Feature",
   "geometry": {
    "type": "Point",
    "coordinates": [
     30.3136,
     59.9406
    ]
   },
   "properties": {
    "painter": "Caspar David Friedrich",
    "title": "Landscape with Rainbow (Friedrich) [ Wikidata ]",
    "year": "c. 1810",
    "location": "Hermitage Museum",
    "attribution": "generally accepted",
    "dimensions": "59 x 84.5 cm",
    "image": "https://upload.wikimedia.org/wikipedia/commons/thumb/8/89/Caspar_David_Friedrich_-_Landschaft_auf_R%C3%BCgen_mit_Regenbogen.jpg/500px-Caspar_David_Friedrich_-_Landschaft_auf_R%C3%BCgen_mit_Regenbogen.jpg?utm_source=en.wikipedia.org&amp;utm_campaign=parser&amp;utm_content=thumbnail",
    "notable": true,
    "_source": {
     "source": "Wikipedia: List of works by Caspar David Friedrich",
     "coord": "MediaWiki coordinates API"
    },
    "museum_id": "hermitage-museum",
    "city": "Saint Petersburg",
    "country": "Russia"
   }
  },
  {
   "type": "Feature",
   "geometry": {
    "type": "Point",
    "coordinates": [
     -0.1283,
     51.5089
    ]
   },
   "properties": {
    "painter": "Caspar David Friedrich",
    "title": "Winter Landscape with church [ Wikidata ]",
    "year": "1811",
    "location": "National Gallery",
    "attribution": "generally accepted",
    "dimensions": "32 x 45 cm",
    "image": "https://upload.wikimedia.org/wikipedia/commons/thumb/9/9e/Caspar_David_Friedrich_-_Winterlandschaft_%28London%29.jpg/500px-Caspar_David_Friedrich_-_Winterlandschaft_%28London%29.jpg?utm_source=en.wikipedia.org&amp;utm_campaign=parser&amp;utm_content=thumbnail",
    "notable": true,
    "_source": {
     "source": "Wikipedia: List of works by Caspar David Friedrich",
     "coord": "MediaWiki coordinates API"
    },
    "museum_id": "national-gallery",
    "city": "London",
    "country": "United Kingdom"
   }
  },
  {
   "type": "Feature",
   "geometry": {
    "type": "Point",
    "coordinates": [
     -84.20111,
     39.76583
    ]
   },
   "properties": {
    "painter": "Caspar David Friedrich",
    "title": "Winter Landscape with Church [ Wikidata ]",
    "year": "1811",
    "location": "Dayton Art Institute",
    "attribution": "generally accepted",
    "dimensions": "33 x 45 cm",
    "image": "https://upload.wikimedia.org/wikipedia/commons/thumb/b/be/Caspar_David_Friedrich_-_Winter_Landscape_with_Church_-_WGA08245.jpg/500px-Caspar_David_Friedrich_-_Winter_Landscape_with_Church_-_WGA08245.jpg?utm_source=en.wikipedia.org&amp;utm_campaign=parser&amp;utm_content=thumbnail",
    "notable": true,
    "_source": {
     "source": "Wikipedia: List of works by Caspar David Friedrich",
     "coord": "MediaWiki coordinates API"
    },
    "museum_id": "dayton-art-institute",
    "city": "US"
   }
  },
  {
   "type": "Feature",
   "geometry": {
    "type": "Point",
    "coordinates": [
     -87.89706,
     43.04007
    ]
   },
   "properties": {
    "painter": "Caspar David Friedrich",
    "title": "Harbor by Moonlight",
    "year": "1811",
    "location": "Milwaukee Art Museum",
    "attribution": "generally accepted",
    "dimensions": "24 x 36.5 cm",
    "image": "https://upload.wikimedia.org/wikipedia/commons/thumb/9/96/Caspar_David_Friedrich_-_Hafen_bei_Mondschein.jpg/500px-Caspar_David_Friedrich_-_Hafen_bei_Mondschein.jpg?utm_source=en.wikipedia.org&amp;utm_campaign=parser&amp;utm_content=thumbnail",
    "notable": true,
    "_source": {
     "source": "Wikipedia: List of works by Caspar David Friedrich",
     "coord": "MediaWiki coordinates API"
    },
    "museum_id": "milwaukee-art-museum",
    "city": "Milwaukee",
    "country": "United States"
   }
  },
  {
   "type": "Feature",
   "geometry": {
    "type": "Point",
    "coordinates": [
     -95.946,
     41.2603
    ]
   },
   "properties": {
    "painter": "Caspar David Friedrich",
    "title": "Landscape with Oak Trees and a Hunter",
    "year": "1811",
    "location": "Joslyn Art Museum",
    "attribution": "generally accepted",
    "dimensions": "32 x 44.5 cm",
    "image": "https://upload.wikimedia.org/wikipedia/commons/thumb/9/9f/Caspar_David_Friedrich_Landscape_with_Oak_Trees_and_a_Hunter.jpg/500px-Caspar_David_Friedrich_Landscape_with_Oak_Trees_and_a_Hunter.jpg?utm_source=en.wikipedia.org&amp;utm_campaign=parser&amp;utm_content=thumbnail",
    "notable": true,
    "_source": {
     "source": "Wikipedia: List of works by Caspar David Friedrich",
     "coord": "MediaWiki coordinates API"
    },
    "museum_id": "joslyn-art-museum",
    "city": "Omaha"
   }
  },
  {
   "type": "Feature",
   "geometry": {
    "type": "Point",
    "coordinates": [
     13.7444,
     51.0519
    ]
   },
   "properties": {
    "painter": "Caspar David Friedrich",
    "title": "Rocks in the Harz mountain (in French)",
    "year": "1811",
    "location": "Galerie Neue Meister",
    "attribution": "generally accepted",
    "dimensions": "32 x 45 cm",
    "image": "https://upload.wikimedia.org/wikipedia/commons/thumb/0/0a/Caspar_David_Friedrich_-_Felspartie_im_Harz.jpg/500px-Caspar_David_Friedrich_-_Felspartie_im_Harz.jpg?utm_source=en.wikipedia.org&amp;utm_campaign=parser&amp;utm_content=thumbnail",
    "notable": true,
    "_source": {
     "source": "Wikipedia: List of works by Caspar David Friedrich",
     "coord": "MediaWiki coordinates API"
    },
    "museum_id": "galerie-neue-meister",
    "city": "Dresden",
    "country": "Germany"
   }
  },
  {
   "type": "Feature",
   "geometry": {
    "type": "Point",
    "coordinates": [
     6.77333,
     51.2343
    ]
   },
   "properties": {
    "painter": "Caspar David Friedrich",
    "title": "Cross and cathedral in the mountains (in French)",
    "year": "1812",
    "location": "Museum Kunstpalast",
    "attribution": "generally accepted",
    "dimensions": "45 x 37 cm",
    "image": "https://upload.wikimedia.org/wikipedia/commons/thumb/a/ae/Caspar_David_Friedrich_025.jpg/500px-Caspar_David_Friedrich_025.jpg?utm_source=en.wikipedia.org&amp;utm_campaign=parser&amp;utm_content=thumbnail",
    "notable": true,
    "_source": {
     "source": "Wikipedia: List of works by Caspar David Friedrich",
     "coord": "MediaWiki coordinates API"
    },
    "museum_id": "museum-kunstpalast",
    "city": "Pempelfort",
    "country": "Germany"
   }
  },
  {
   "type": "Feature",
   "geometry": {
    "type": "Point",
    "coordinates": [
     10.00306,
     53.555
    ]
   },
   "properties": {
    "painter": "Caspar David Friedrich",
    "title": "The Tombs of the Old Heroes",
    "year": "1812",
    "location": "Hamburger Kunsthalle",
    "attribution": "generally accepted",
    "dimensions": "49.5 × 70.5 cm",
    "image": "https://upload.wikimedia.org/wikipedia/commons/thumb/2/26/Caspar_David_Friedrich_-_Grabmale_alter_Helden.jpg/500px-Caspar_David_Friedrich_-_Grabmale_alter_Helden.jpg?utm_source=en.wikipedia.org&amp;utm_campaign=parser&amp;utm_content=thumbnail",
    "notable": true,
    "wikipedia_en": "https://en.wikipedia.org/wiki/The_Tombs_of_the_Old_Heroes",
    "_source": {
     "source": "Wikipedia: List of works by Caspar David Friedrich",
     "coord": "MediaWiki coordinates API"
    },
    "museum_id": "hamburger-kunsthalle",
    "city": "Hamburg-Mitte",
    "country": "Germany",
    "qid": "Q17493547",
    "wikidata": "https://www.wikidata.org/wiki/Q17493547"
   }
  },
  {
   "type": "Feature",
   "geometry": {
    "type": "Point",
    "coordinates": [
     9.18688,
     48.78023
    ]
   },
   "properties": {
    "painter": "Caspar David Friedrich",
    "title": "Cross in the Mountains (Friedrich) [ Wikidata ]",
    "year": "1813",
    "location": "Staatsgalerie Stuttgart",
    "attribution": "generally accepted",
    "dimensions": "42 x 32 cm",
    "image": "https://upload.wikimedia.org/wikipedia/commons/thumb/b/bf/Friedrich_Kreuz_im_Wald.jpg/500px-Friedrich_Kreuz_im_Wald.jpg?utm_source=en.wikipedia.org&amp;utm_campaign=parser&amp;utm_content=thumbnail",
    "notable": true,
    "_source": {
     "source": "Wikipedia: List of works by Caspar David Friedrich",
     "coord": "MediaWiki coordinates API"
    },
    "museum_id": "staatsgalerie-stuttgart",
    "city": "Stuttgart",
    "country": "Germany"
   }
  },
  {
   "type": "Feature",
   "geometry": {
    "type": "Point",
    "coordinates": [
     10.70444,
     50.94583
    ]
   },
   "properties": {
    "painter": "Caspar David Friedrich",
    "title": "Cross in the Mountains (in French)",
    "year": "1822",
    "location": "Friedenstein Palace",
    "attribution": "generally accepted",
    "dimensions": "71.7 x 128 cm",
    "image": "https://upload.wikimedia.org/wikipedia/commons/thumb/3/35/Kreuzimgebirge.jpg/500px-Kreuzimgebirge.jpg?utm_source=en.wikipedia.org&amp;utm_campaign=parser&amp;utm_content=thumbnail",
    "notable": true,
    "_source": {
     "source": "Wikipedia: List of works by Caspar David Friedrich",
     "coord": "MediaWiki coordinates API"
    },
    "museum_id": "friedenstein-palace"
   }
  },
  {
   "type": "Feature",
   "geometry": {
    "type": "Point",
    "coordinates": [
     13.03863,
     52.40326
    ]
   },
   "properties": {
    "painter": "Caspar David Friedrich",
    "title": "The Cross beside the Baltic [ Wikidata ]",
    "year": "1815",
    "location": "Sanssouci Palace",
    "attribution": "generally accepted",
    "dimensions": "45 x 33.5 cm",
    "image": "https://upload.wikimedia.org/wikipedia/commons/thumb/3/33/Caspar_David_Friedrich_-_Kreuz_an_der_Ostsee_%28Schloss_Carlottenburg%2C_Neuer_Pavillon%29.jpg/500px-Caspar_David_Friedrich_-_Kreuz_an_der_Ostsee_%28Schloss_Carlottenburg%2C_Neuer_Pavillon%29.jpg?utm_source=en.wikipedia.org&amp;utm_campaign=parser&amp;utm_content=thumbnail",
    "notable": true,
    "_source": {
     "source": "Wikipedia: List of works by Caspar David Friedrich",
     "coord": "MediaWiki coordinates API"
    },
    "museum_id": "sanssouci-palace",
    "city": "Potsdam",
    "country": "Germany"
   }
  },
  {
   "type": "Feature",
   "geometry": {
    "type": "Point",
    "coordinates": [
     13.2957,
     52.5209
    ]
   },
   "properties": {
    "painter": "Caspar David Friedrich",
    "title": "View of a Harbour (in Swedish)",
    "year": "1815 to 1816",
    "location": "Schloss Charlottenburg",
    "attribution": "generally accepted",
    "dimensions": "90 x 71 cm",
    "image": "https://upload.wikimedia.org/wikipedia/commons/thumb/c/cb/Caspar_David_Friedrich_-_View_of_a_harbour.png/500px-Caspar_David_Friedrich_-_View_of_a_harbour.png?utm_source=en.wikipedia.org&amp;utm_campaign=parser&amp;utm_content=thumbnail",
    "notable": true,
    "_source": {
     "source": "Wikipedia: List of works by Caspar David Friedrich",
     "coord": "MediaWiki coordinates API"
    },
    "museum_id": "schloss-charlottenburg"
   }
  },
  {
   "type": "Feature",
   "geometry": {
    "type": "Point",
    "coordinates": [
     13.39806,
     52.52083
    ]
   },
   "properties": {
    "painter": "Caspar David Friedrich",
    "title": "Two Men by the Sea",
    "year": "1817",
    "location": "Alte Nationalgalerie",
    "attribution": "generally accepted",
    "dimensions": "51 x 66 cm",
    "image": "https://upload.wikimedia.org/wikipedia/commons/thumb/3/35/Two_Men_by_the_Sea_by_Caspar_David_Friedrich.jpg/500px-Two_Men_by_the_Sea_by_Caspar_David_Friedrich.jpg?utm_source=en.wikipedia.org&amp;utm_campaign=parser&amp;utm_content=thumbnail",
    "notable": true,
    "wikipedia_en": "https://en.wikipedia.org/wiki/Two_Men_by_the_Sea",
    "_source": {
     "source": "Wikipedia: List of works by Caspar David Friedrich",
     "coord": "MediaWiki coordinates API"
    },
    "museum_id": "alte-nationalgalerie",
    "city": "Berlin",
    "country": "Germany",
    "qid": "Q232084",
    "wikidata": "https://www.wikidata.org/wiki/Q232084",
    "wga_url": "https://www.wga.hu/html/f/friedric/2/207friee.html"
   }
  },
  {
   "type": "Feature",
   "geometry": {
    "type": "Point",
    "coordinates": [
     10.68972,
     53.87
    ]
   },
   "properties": {
    "painter": "Caspar David Friedrich",
    "title": "@media screen{html.skin-theme-clientpref-night .mw-parser-output .sister-inline-image img[src*=\"Wiktionary-logo-en-v2.svg\"]{filter:invert(1)brightness(55%)contrast(250%)hue-rotate(180deg)}}@media screen and (prefers-color-scheme:dark){html.skin-theme-clientpref-os .mw-parser-output .sister-inline-image img[src*=\"Wiktionary-logo-en-v2.svg\"]{filter:invert(1)brightness(55%)contrast(250%)hue-rotate(180deg)}} Media related to Coastline in the evening light at Wikimedia Commons",
    "year": "1816 to 1818",
    "location": "Behnhaus",
    "attribution": "generally accepted",
    "dimensions": "22 x 31 cm",
    "image": "https://upload.wikimedia.org/wikipedia/commons/thumb/1/18/Caspar_David_Friedrich_-_K%C3%BCstenlandschaft_im_Abendlicht.jpg/500px-Caspar_David_Friedrich_-_K%C3%BCstenlandschaft_im_Abendlicht.jpg?utm_source=en.wikipedia.org&amp;utm_campaign=parser&amp;utm_content=thumbnail",
    "notable": true,
    "_source": {
     "source": "Wikipedia: List of works by Caspar David Friedrich",
     "coord": "MediaWiki coordinates API"
    },
    "museum_id": "behnhaus"
   }
  },
  {
   "type": "Feature",
   "geometry": {
    "type": "Point",
    "coordinates": [
     10.00306,
     53.555
    ]
   },
   "properties": {
    "painter": "Caspar David Friedrich",
    "title": "City at Moonrise",
    "year": "c. 1817",
    "location": "Hamburger Kunsthalle",
    "attribution": "generally accepted",
    "dimensions": "45 x 33 cm",
    "image": "https://upload.wikimedia.org/wikipedia/commons/thumb/a/ac/City_at_Moonrise_by_Caspar_David_Friedrich.jpg/500px-City_at_Moonrise_by_Caspar_David_Friedrich.jpg?utm_source=en.wikipedia.org&amp;utm_campaign=parser&amp;utm_content=thumbnail",
    "notable": true,
    "_source": {
     "source": "Wikipedia: List of works by Caspar David Friedrich",
     "coord": "MediaWiki coordinates API"
    },
    "museum_id": "hamburger-kunsthalle",
    "city": "Hamburg-Mitte",
    "country": "Germany"
   }
  },
  {
   "type": "Feature",
   "geometry": {
    "type": "Point",
    "coordinates": [
     -73.5801,
     45.4987
    ]
   },
   "properties": {
    "painter": "Caspar David Friedrich",
    "title": "Neubrandenburg in the Morning Mist",
    "year": "c. 1817",
    "location": "Montreal Museum of Fine Arts",
    "attribution": "generally accepted",
    "dimensions": "91 x 72 cm",
    "image": "https://upload.wikimedia.org/wikipedia/commons/thumb/7/79/Caspar_David_Friedrich_036.jpg/500px-Caspar_David_Friedrich_036.jpg?utm_source=en.wikipedia.org&amp;utm_campaign=parser&amp;utm_content=thumbnail",
    "notable": true,
    "wikipedia_en": "https://en.wikipedia.org/wiki/Neubrandenburg_(painting)",
    "_source": {
     "source": "Wikipedia: List of works by Caspar David Friedrich",
     "coord": "MediaWiki coordinates API"
    },
    "museum_id": "montreal-museum-of-fine-arts",
    "city": "Montreal",
    "country": "Canada",
    "qid": "Q17325449",
    "wikidata": "https://www.wikidata.org/wiki/Q17325449",
    "wga_url": "https://www.wga.hu/html/f/friedric/2/208fried.html"
   }
  },
  {
   "type": "Feature",
   "geometry": {
    "type": "Point",
    "coordinates": [
     10.00306,
     53.555
    ]
   },
   "properties": {
    "painter": "Caspar David Friedrich",
    "title": "Wanderer above the Sea of Fog",
    "year": "1817 to 1818",
    "location": "Hamburger Kunsthalle",
    "attribution": "generally accepted",
    "dimensions": "94.8 x 74.8 cm",
    "image": "https://upload.wikimedia.org/wikipedia/commons/thumb/a/af/Caspar_David_Friedrich_-_Wanderer_above_the_Sea_of_Fog.jpeg/500px-Caspar_David_Friedrich_-_Wanderer_above_the_Sea_of_Fog.jpeg?utm_source=en.wikipedia.org&amp;utm_campaign=parser&amp;utm_content=thumbnail",
    "notable": true,
    "wikipedia_en": "https://en.wikipedia.org/wiki/Wanderer_above_the_Sea_of_Fog",
    "_source": {
     "source": "Wikipedia: List of works by Caspar David Friedrich",
     "coord": "MediaWiki coordinates API"
    },
    "museum_id": "hamburger-kunsthalle",
    "city": "Hamburg-Mitte",
    "country": "Germany",
    "qid": "Q311243",
    "wikidata": "https://www.wikidata.org/wiki/Q311243"
   }
  },
  {
   "type": "Feature",
   "geometry": {
    "type": "Point",
    "coordinates": [
     10.2361,
     50.0439
    ]
   },
   "properties": {
    "painter": "Caspar David Friedrich",
    "title": "The Cathedral (Friedrich) [ Wikidata ]",
    "year": "1818",
    "location": "Museum Georg Schäfer",
    "attribution": "generally accepted",
    "dimensions": "70 x 152 cm",
    "image": "https://upload.wikimedia.org/wikipedia/commons/thumb/9/92/TheCathedral1818.jpg/500px-TheCathedral1818.jpg?utm_source=en.wikipedia.org&amp;utm_campaign=parser&amp;utm_content=thumbnail",
    "notable": true,
    "_source": {
     "source": "Wikipedia: List of works by Caspar David Friedrich",
     "coord": "MediaWiki coordinates API"
    },
    "museum_id": "museum-georg-schafer"
   }
  },
  {
   "type": "Feature",
   "geometry": {
    "type": "Point",
    "coordinates": [
     11.57111,
     48.14972
    ]
   },
   "properties": {
    "painter": "Caspar David Friedrich",
    "title": "The Gazebo",
    "year": "1818",
    "location": "Neue Pinakothek",
    "attribution": "generally accepted",
    "dimensions": "30.0 x 21.5 cm",
    "image": "https://upload.wikimedia.org/wikipedia/commons/thumb/b/b7/Caspar_David_Friedrich_069.jpg/500px-Caspar_David_Friedrich_069.jpg?utm_source=en.wikipedia.org&amp;utm_campaign=parser&amp;utm_content=thumbnail",
    "notable": true,
    "wikipedia_en": "https://en.wikipedia.org/wiki/The_Gazebo_(painting)",
    "_source": {
     "source": "Wikipedia: List of works by Caspar David Friedrich",
     "coord": "MediaWiki coordinates API"
    },
    "museum_id": "neue-pinakothek",
    "city": "Munich",
    "country": "Germany",
    "qid": "Q17321856",
    "wikidata": "https://www.wikidata.org/wiki/Q17321856"
   }
  },
  {
   "type": "Feature",
   "geometry": {
    "type": "Point",
    "coordinates": [
     8.73028,
     47.50139
    ]
   },
   "properties": {
    "painter": "Caspar David Friedrich",
    "title": "Chalk Cliffs on Rügen",
    "year": "c. 1818",
    "location": "Kunstmuseum Winterthur",
    "attribution": "generally accepted",
    "dimensions": "90.5 x 71 cm",
    "image": "https://upload.wikimedia.org/wikipedia/commons/thumb/a/a7/Caspar_David_Friedrich%27s_Chalk_Cliffs_on_R%C3%BCgen.jpg/500px-Caspar_David_Friedrich%27s_Chalk_Cliffs_on_R%C3%BCgen.jpg?utm_source=en.wikipedia.org&amp;utm_campaign=parser&amp;utm_content=thumbnail",
    "notable": true,
    "wikipedia_en": "https://en.wikipedia.org/wiki/Chalk_Cliffs_on_R%C3%BCgen",
    "_source": {
     "source": "Wikipedia: List of works by Caspar David Friedrich",
     "coord": "MediaWiki coordinates API"
    },
    "museum_id": "kunstmuseum-winterthur",
    "qid": "Q1787143",
    "wikidata": "https://www.wikidata.org/wiki/Q1787143"
   }
  },
  {
   "type": "Feature",
   "geometry": {
    "type": "Point",
    "coordinates": [
     7.00417,
     51.44167
    ]
   },
   "properties": {
    "painter": "Caspar David Friedrich",
    "title": "Woman before the Setting Sun (in German)",
    "year": "1818 to 1820",
    "location": "Museum Folkwang",
    "attribution": "generally accepted",
    "dimensions": "22 x 30 cm",
    "image": "https://upload.wikimedia.org/wikipedia/commons/thumb/1/17/Caspar_David_Friedrich_-_Woman_before_the_Rising_Sun_%28Woman_before_the_Setting_Sun%29_-_WGA08253.jpg/500px-Caspar_David_Friedrich_-_Woman_before_the_Rising_Sun_%28Woman_before_the_Setting_Sun%29_-_WGA08253.jpg?utm_source=en.wikipedia.org&amp;utm_campaign=parser&amp;utm_content=thumbnail",
    "notable": true,
    "_source": {
     "source": "Wikipedia: List of works by Caspar David Friedrich",
     "coord": "MediaWiki coordinates API"
    },
    "museum_id": "museum-folkwang",
    "city": "Essen",
    "country": "Germany"
   }
  },
  {
   "type": "Feature",
   "geometry": {
    "type": "Point",
    "coordinates": [
     13.39806,
     52.52083
    ]
   },
   "properties": {
    "painter": "Caspar David Friedrich",
    "title": "The Port of Greifswald",
    "year": "1818 to 1820",
    "location": "Alte Nationalgalerie",
    "attribution": "generally accepted",
    "dimensions": "90 x 70 cm",
    "image": "https://upload.wikimedia.org/wikipedia/commons/thumb/f/f8/Friedrich%2C_Caspar_David_-_Der_Greifswalder_Hafen.jpg/500px-Friedrich%2C_Caspar_David_-_Der_Greifswalder_Hafen.jpg?utm_source=en.wikipedia.org&amp;utm_campaign=parser&amp;utm_content=thumbnail",
    "notable": true,
    "wikipedia_en": "https://en.wikipedia.org/wiki/The_Port_of_Greifswald",
    "_source": {
     "source": "Wikipedia: List of works by Caspar David Friedrich",
     "coord": "MediaWiki coordinates API"
    },
    "museum_id": "alte-nationalgalerie",
    "city": "Berlin",
    "country": "Germany",
    "qid": "Q1545495",
    "wikidata": "https://www.wikidata.org/wiki/Q1545495",
    "wga_url": "https://www.wga.hu/html/f/friedric/2/211friee.html"
   }
  },
  {
   "type": "Feature",
   "geometry": {
    "type": "Point",
    "coordinates": [
     -93.2742,
     44.9586
    ]
   },
   "properties": {
    "painter": "Caspar David Friedrich",
    "title": "On the Sailing Boat",
    "year": "c. 1819",
    "location": "Minneapolis Institute of Art",
    "attribution": "generally accepted",
    "dimensions": "71 x 56 cm",
    "image": "https://upload.wikimedia.org/wikipedia/commons/thumb/6/6d/Caspar_David_Friedrich_-_Auf_dem_Segler.jpg/500px-Caspar_David_Friedrich_-_Auf_dem_Segler.jpg?utm_source=en.wikipedia.org&amp;utm_campaign=parser&amp;utm_content=thumbnail",
    "notable": true,
    "_source": {
     "source": "Wikipedia: List of works by Caspar David Friedrich",
     "coord": "MediaWiki coordinates API"
    },
    "museum_id": "minneapolis-institute-of-art",
    "city": "Minneapolis",
    "country": "United States"
   }
  },
  {
   "type": "Feature",
   "geometry": {
    "type": "Point",
    "coordinates": [
     10.00306,
     53.555
    ]
   },
   "properties": {
    "painter": "Caspar David Friedrich",
    "title": "Monastery Burial-Ground Under Snow [ Wikidata ]",
    "year": "1819",
    "location": "Hamburger Kunsthalle",
    "attribution": "generally accepted",
    "image": "https://upload.wikimedia.org/wikipedia/commons/thumb/5/55/Caspar_David_Friedrich_049.jpg/500px-Caspar_David_Friedrich_049.jpg?utm_source=en.wikipedia.org&amp;utm_campaign=parser&amp;utm_content=thumbnail",
    "notable": true,
    "_source": {
     "source": "Wikipedia: List of works by Caspar David Friedrich",
     "coord": "MediaWiki coordinates API"
    },
    "museum_id": "hamburger-kunsthalle",
    "city": "Hamburg-Mitte",
    "country": "Germany"
   }
  },
  {
   "type": "Feature",
   "geometry": {
    "type": "Point",
    "coordinates": [
     13.7444,
     51.0519
    ]
   },
   "properties": {
    "painter": "Caspar David Friedrich",
    "title": "Dolmen in the Fall (in French)",
    "year": "c. 1820",
    "location": "Galerie Neue Meister",
    "attribution": "generally accepted",
    "image": "https://upload.wikimedia.org/wikipedia/commons/thumb/b/b5/Caspar_David_Friedrich_-_H%C3%BCnengrab_im_Herbst_-_Galerie_Neue_Meister_Dresden.jpg/500px-Caspar_David_Friedrich_-_H%C3%BCnengrab_im_Herbst_-_Galerie_Neue_Meister_Dresden.jpg?utm_source=en.wikipedia.org&amp;utm_campaign=parser&amp;utm_content=thumbnail",
    "notable": true,
    "_source": {
     "source": "Wikipedia: List of works by Caspar David Friedrich",
     "coord": "MediaWiki coordinates API"
    },
    "museum_id": "galerie-neue-meister",
    "city": "Dresden",
    "country": "Germany"
   }
  },
  {
   "type": "Feature",
   "geometry": {
    "type": "Point",
    "coordinates": [
     13.7444,
     51.0519
    ]
   },
   "properties": {
    "painter": "Caspar David Friedrich",
    "title": "Two Men Contemplating the Moon",
    "year": "1819 to 1820",
    "location": "Galerie Neue Meister",
    "attribution": "generally accepted",
    "dimensions": "35 x 44 cm",
    "image": "https://upload.wikimedia.org/wikipedia/commons/thumb/f/ff/Caspar_David_Friedrich_-_Two_Men_Contemplating_the_Moon_-_Google_Art_Project.jpg/500px-Caspar_David_Friedrich_-_Two_Men_Contemplating_the_Moon_-_Google_Art_Project.jpg?utm_source=en.wikipedia.org&amp;utm_campaign=parser&amp;utm_content=thumbnail",
    "notable": true,
    "wikipedia_en": "https://en.wikipedia.org/wiki/Two_Men_Contemplating_the_Moon",
    "_source": {
     "source": "Wikipedia: List of works by Caspar David Friedrich",
     "coord": "MediaWiki coordinates API"
    },
    "museum_id": "galerie-neue-meister",
    "city": "Dresden",
    "country": "Germany",
    "qid": "Q232087",
    "wikidata": "https://www.wikidata.org/wiki/Q232087",
    "wga_url": "https://www.wga.hu/html/f/friedric/2/213fried.html"
   }
  },
  {
   "type": "Feature",
   "geometry": {
    "type": "Point",
    "coordinates": [
     6.95861,
     50.9375
    ]
   },
   "properties": {
    "painter": "Caspar David Friedrich",
    "title": "Port of Greifswald [ Wikidata ]",
    "year": "c. 1810 to 1820",
    "location": "Wallraf-Richartz Museum",
    "attribution": "generally accepted",
    "dimensions": "94 x 74 cm",
    "image": "https://upload.wikimedia.org/wikipedia/commons/thumb/7/76/Caspar_David_Friedrich_Hafen_von_Greifswald.jpg/500px-Caspar_David_Friedrich_Hafen_von_Greifswald.jpg?utm_source=en.wikipedia.org&amp;utm_campaign=parser&amp;utm_content=thumbnail",
    "notable": true,
    "_source": {
     "source": "Wikipedia: List of works by Caspar David Friedrich",
     "coord": "MediaWiki coordinates API"
    },
    "museum_id": "wallraf-richartz-museum",
    "city": "Cologne",
    "country": "Germany"
   }
  },
  {
   "type": "Feature",
   "geometry": {
    "type": "Point",
    "coordinates": [
     -79.39278,
     43.65361
    ]
   },
   "properties": {
    "painter": "Caspar David Friedrich",
    "title": "Oak in the Snow",
    "year": "1820",
    "location": "Art Gallery of Ontario",
    "attribution": "generally accepted",
    "dimensions": "44 x 34.5 cm",
    "image": "https://upload.wikimedia.org/wikipedia/commons/thumb/b/be/Caspar_David_Friedrich_-_Oak_in_the_Snow_-_WGA8281.jpg/500px-Caspar_David_Friedrich_-_Oak_in_the_Snow_-_WGA8281.jpg?utm_source=en.wikipedia.org&amp;utm_campaign=parser&amp;utm_content=thumbnail",
    "notable": true,
    "_source": {
     "source": "Wikipedia: List of works by Caspar David Friedrich",
     "coord": "MediaWiki coordinates API"
    },
    "museum_id": "art-gallery-of-ontario",
    "city": "Toronto",
    "country": "Canada"
   }
  },
  {
   "type": "Feature",
   "geometry": {
    "type": "Point",
    "coordinates": [
     6.95861,
     50.9375
    ]
   },
   "properties": {
    "painter": "Caspar David Friedrich",
    "title": "River Bank in Fog",
    "year": "1821",
    "location": "Wallraf-Richartz Museum",
    "attribution": "generally accepted",
    "dimensions": "22 x 33.5 cm",
    "image": "https://upload.wikimedia.org/wikipedia/commons/thumb/1/19/Caspar_David_Friedrich_-_Flussufer_im_Nebel_-_Wallraf-Richartz-Museum.jpg/500px-Caspar_David_Friedrich_-_Flussufer_im_Nebel_-_Wallraf-Richartz-Museum.jpg?utm_source=en.wikipedia.org&amp;utm_campaign=parser&amp;utm_content=thumbnail",
    "notable": true,
    "wikipedia_en": "https://en.wikipedia.org/wiki/River_Bank_in_Fog",
    "_source": {
     "source": "Wikipedia: List of works by Caspar David Friedrich",
     "coord": "MediaWiki coordinates API"
    },
    "museum_id": "wallraf-richartz-museum",
    "city": "Cologne",
    "country": "Germany",
    "qid": "Q18603131",
    "wikidata": "https://www.wikidata.org/wiki/Q18603131"
   }
  },
  {
   "type": "Feature",
   "geometry": {
    "type": "Point",
    "coordinates": [
     -79.94898,
     40.44369
    ]
   },
   "properties": {
    "painter": "Caspar David Friedrich",
    "title": "Night in a Harbour [ Wikidata ]",
    "year": "c. 1820",
    "location": "Carnegie Museum of Art",
    "attribution": "generally accepted",
    "dimensions": "74 x 52 cm",
    "image": "https://upload.wikimedia.org/wikipedia/commons/thumb/1/12/Caspar_David_Friedrich_-_The_Sisters_on_the_Balcony_-_WGA8258.jpg/500px-Caspar_David_Friedrich_-_The_Sisters_on_the_Balcony_-_WGA8258.jpg?utm_source=en.wikipedia.org&amp;utm_campaign=parser&amp;utm_content=thumbnail",
    "notable": true,
    "_source": {
     "source": "Wikipedia: List of works by Caspar David Friedrich",
     "coord": "MediaWiki coordinates API"
    },
    "museum_id": "carnegie-museum-of-art",
    "city": "Pittsburgh",
    "country": "United States"
   }
  },
  {
   "type": "Feature",
   "geometry": {
    "type": "Point",
    "coordinates": [
     -73.2137,
     42.7078
    ]
   },
   "properties": {
    "painter": "Caspar David Friedrich",
    "title": "Drifting Clouds (Friedrich) [ Wikidata ]",
    "year": "c. 1820",
    "location": "Sterling and Francine Clark Art Institute",
    "attribution": "generally accepted",
    "dimensions": "18.3 x 24.5 cm",
    "image": "https://upload.wikimedia.org/wikipedia/commons/thumb/7/7a/Caspar_David_Friedrich_-_Drifting_Clouds_-_WGA8259.jpg/500px-Caspar_David_Friedrich_-_Drifting_Clouds_-_WGA8259.jpg?utm_source=en.wikipedia.org&amp;utm_campaign=parser&amp;utm_content=thumbnail",
    "notable": true,
    "_source": {
     "source": "Wikipedia: List of works by Caspar David Friedrich",
     "coord": "MediaWiki coordinates API"
    },
    "museum_id": "sterling-and-francine-clark-art-institute",
    "city": "Williamstown"
   }
  },
  {
   "type": "Feature",
   "geometry": {
    "type": "Point",
    "coordinates": [
     9.74011,
     52.3655
    ]
   },
   "properties": {
    "painter": "Caspar David Friedrich",
    "title": "Evening",
    "year": "c. 1820 to 1821",
    "location": "Lower Saxony State Museum",
    "attribution": "generally accepted",
    "dimensions": "22 x 30.5 cm",
    "image": "https://upload.wikimedia.org/wikipedia/commons/thumb/6/6c/Caspar_David_Friedrich_008.jpg/500px-Caspar_David_Friedrich_008.jpg?utm_source=en.wikipedia.org&amp;utm_campaign=parser&amp;utm_content=thumbnail",
    "notable": true,
    "wikipedia_en": "https://en.wikipedia.org/wiki/Evening_(painting)",
    "_source": {
     "source": "Wikipedia: List of works by Caspar David Friedrich",
     "coord": "MediaWiki coordinates API"
    },
    "museum_id": "lower-saxony-state-museum",
    "city": "Hanover",
    "qid": "Q16331419",
    "wikidata": "https://www.wikidata.org/wiki/Q16331419"
   }
  },
  {
   "type": "Feature",
   "geometry": {
    "type": "Point",
    "coordinates": [
     9.74011,
     52.3655
    ]
   },
   "properties": {
    "painter": "Caspar David Friedrich",
    "title": "The Morning (Friedrich) [ Wikidata ]",
    "year": "c. 1820 to 1821",
    "location": "Lower Saxony State Museum",
    "attribution": "generally accepted",
    "dimensions": "22 x 30.5 cm",
    "image": "https://upload.wikimedia.org/wikipedia/commons/thumb/e/ec/Caspar_David_Friedrich_009.jpg/500px-Caspar_David_Friedrich_009.jpg?utm_source=en.wikipedia.org&amp;utm_campaign=parser&amp;utm_content=thumbnail",
    "notable": true,
    "_source": {
     "source": "Wikipedia: List of works by Caspar David Friedrich",
     "coord": "MediaWiki coordinates API"
    },
    "museum_id": "lower-saxony-state-museum",
    "city": "Hanover"
   }
  },
  {
   "type": "Feature",
   "geometry": {
    "type": "Point",
    "coordinates": [
     -118.475,
     34.0775
    ]
   },
   "properties": {
    "painter": "Caspar David Friedrich",
    "title": "View of the Baltic [ Wikidata ]",
    "year": "1820 to 1825",
    "location": "Getty Center",
    "attribution": "generally accepted",
    "dimensions": "34.5 x 44 cm",
    "image": "https://upload.wikimedia.org/wikipedia/commons/thumb/7/70/Caspar_David_Friedrich_-_View_of_the_Baltic_-_WGA08260.jpg/500px-Caspar_David_Friedrich_-_View_of_the_Baltic_-_WGA08260.jpg?utm_source=en.wikipedia.org&amp;utm_campaign=parser&amp;utm_content=thumbnail",
    "notable": true,
    "_source": {
     "source": "Wikipedia: List of works by Caspar David Friedrich",
     "coord": "MediaWiki coordinates API"
    },
    "museum_id": "getty-center",
    "city": "Los Angeles",
    "country": "United States"
   }
  },
  {
   "type": "Feature",
   "geometry": {
    "type": "Point",
    "coordinates": [
     13.39806,
     52.52083
    ]
   },
   "properties": {
    "painter": "Caspar David Friedrich",
    "title": "Fog in the Elbe Valley [ Wikidata ]",
    "year": "1821",
    "location": "Alte Nationalgalerie",
    "attribution": "generally accepted",
    "dimensions": "33 x 43 cm",
    "image": "https://upload.wikimedia.org/wikipedia/commons/thumb/e/ec/Caspar_David_Friedrich_Fog_in_the_Elbe_Valley.jpg/500px-Caspar_David_Friedrich_Fog_in_the_Elbe_Valley.jpg?utm_source=en.wikipedia.org&amp;utm_campaign=parser&amp;utm_content=thumbnail",
    "notable": true,
    "_source": {
     "source": "Wikipedia: List of works by Caspar David Friedrich",
     "coord": "MediaWiki coordinates API"
    },
    "museum_id": "alte-nationalgalerie",
    "city": "Berlin",
    "country": "Germany"
   }
  },
  {
   "type": "Feature",
   "geometry": {
    "type": "Point",
    "coordinates": [
     30.3136,
     59.9406
    ]
   },
   "properties": {
    "painter": "Caspar David Friedrich",
    "title": "Moonrise by the Sea",
    "year": "c.1821",
    "location": "Hermitage Museum",
    "attribution": "generally accepted",
    "dimensions": "135 x 170 cm",
    "image": "https://upload.wikimedia.org/wikipedia/commons/thumb/1/1f/Caspar_David_Friedrich_-_Mondaufgang_%C3%BCber_dem_Meer.jpg/500px-Caspar_David_Friedrich_-_Mondaufgang_%C3%BCber_dem_Meer.jpg?utm_source=en.wikipedia.org&amp;utm_campaign=parser&amp;utm_content=thumbnail",
    "notable": true,
    "wikipedia_en": "https://en.wikipedia.org/wiki/Moonrise_by_the_Sea",
    "_source": {
     "source": "Wikipedia: List of works by Caspar David Friedrich",
     "coord": "MediaWiki coordinates API"
    },
    "museum_id": "hermitage-museum",
    "city": "Saint Petersburg",
    "country": "Russia",
    "qid": "Q1423223",
    "wikidata": "https://www.wikidata.org/wiki/Q1423223",
    "wga_url": "https://www.wga.hu/html/f/friedric/3/305fried.html"
   }
  },
  {
   "type": "Feature",
   "geometry": {
    "type": "Point",
    "coordinates": [
     8.73028,
     47.50139
    ]
   },
   "properties": {
    "painter": "Caspar David Friedrich",
    "title": "Morning in the Mountains (in French)",
    "year": "1822 to 1823",
    "location": "Kunstmuseum Winterthur",
    "attribution": "generally accepted",
    "dimensions": "135 x 170 cm",
    "image": "https://upload.wikimedia.org/wikipedia/commons/thumb/1/19/Friedrich_der-morgen-im-gebirge.jpg/500px-Friedrich_der-morgen-im-gebirge.jpg?utm_source=en.wikipedia.org&amp;utm_campaign=parser&amp;utm_content=thumbnail",
    "notable": true,
    "_source": {
     "source": "Wikipedia: List of works by Caspar David Friedrich",
     "coord": "MediaWiki coordinates API"
    },
    "museum_id": "kunstmuseum-winterthur"
   }
  },
  {
   "type": "Feature",
   "geometry": {
    "type": "Point",
    "coordinates": [
     2.3358,
     48.8611
    ]
   },
   "properties": {
    "painter": "Caspar David Friedrich",
    "title": "The Tree of Crows",
    "year": "c. 1822",
    "location": "Louvre",
    "attribution": "generally accepted",
    "dimensions": "59 x 73 cm",
    "image": "https://upload.wikimedia.org/wikipedia/commons/thumb/b/b7/Caspar_David_Friedrich_056.jpg/500px-Caspar_David_Friedrich_056.jpg?utm_source=en.wikipedia.org&amp;utm_campaign=parser&amp;utm_content=thumbnail",
    "notable": true,
    "wikipedia_en": "https://en.wikipedia.org/wiki/The_Tree_of_Crows",
    "_source": {
     "source": "Wikipedia: List of works by Caspar David Friedrich",
     "coord": "MediaWiki coordinates API"
    },
    "museum_id": "louvre",
    "city": "Paris",
    "country": "France",
    "qid": "Q24213",
    "wikidata": "https://www.wikidata.org/wiki/Q24213",
    "wga_url": "https://www.wga.hu/html/f/friedric/3/303fried.html"
   }
  },
  {
   "type": "Feature",
   "geometry": {
    "type": "Point",
    "coordinates": [
     -112.07265,
     33.46675
    ]
   },
   "properties": {
    "painter": "Caspar David Friedrich",
    "title": "The Lonely Tree",
    "year": "1822",
    "location": "Phoenix Art Museum",
    "attribution": "generally accepted",
    "dimensions": "55 x 71 cm",
    "image": "https://upload.wikimedia.org/wikipedia/commons/thumb/8/86/Caspar_David_Friedrich_-_Village_Landscape_in_Morning_Light_%28The_Lone_Tree%29_-_WGA8265.jpg/500px-Caspar_David_Friedrich_-_Village_Landscape_in_Morning_Light_%28The_Lone_Tree%29_-_WGA8265.jpg?utm_source=en.wikipedia.org&amp;utm_campaign=parser&amp;utm_content=thumbnail",
    "notable": true,
    "wikipedia_en": "https://en.wikipedia.org/wiki/The_Lonely_Tree",
    "_source": {
     "source": "Wikipedia: List of works by Caspar David Friedrich",
     "coord": "MediaWiki coordinates API"
    },
    "museum_id": "phoenix-art-museum",
    "city": "Phoenix",
    "qid": "Q1198515",
    "wikidata": "https://www.wikidata.org/wiki/Q1198515",
    "wga_url": "https://www.wga.hu/html/f/friedric/3/304fried.html"
   }
  },
  {
   "type": "Feature",
   "geometry": {
    "type": "Point",
    "coordinates": [
     11.57111,
     48.14972
    ]
   },
   "properties": {
    "painter": "Caspar David Friedrich",
    "title": "Moonrise Over the Sea",
    "year": "1822",
    "location": "Neue Pinakothek",
    "attribution": "generally accepted",
    "dimensions": "55 x 71 cm",
    "image": "https://upload.wikimedia.org/wikipedia/commons/thumb/0/01/Caspar_David_Friedrich_-_Mondaufgang_am_Meer_-_Google_Art_Project.jpg/500px-Caspar_David_Friedrich_-_Mondaufgang_am_Meer_-_Google_Art_Project.jpg?utm_source=en.wikipedia.org&amp;utm_campaign=parser&amp;utm_content=thumbnail",
    "notable": true,
    "wikipedia_en": "https://en.wikipedia.org/wiki/Moonrise_Over_the_Sea",
    "_source": {
     "source": "Wikipedia: List of works by Caspar David Friedrich",
     "coord": "MediaWiki coordinates API"
    },
    "museum_id": "neue-pinakothek",
    "city": "Munich",
    "country": "Germany",
    "qid": "Q1423223",
    "wikidata": "https://www.wikidata.org/wiki/Q1423223",
    "wga_url": "https://www.wga.hu/html/f/friedric/3/305fried.html"
   }
  },
  {
   "type": "Feature",
   "geometry": {
    "type": "Point",
    "coordinates": [
     37.60603,
     55.74703
    ]
   },
   "properties": {
    "painter": "Caspar David Friedrich",
    "title": "Woman at a Window",
    "year": "1822",
    "location": "Pushkin Museum",
    "attribution": "generally accepted",
    "dimensions": "44 x 37 cm",
    "image": "https://upload.wikimedia.org/wikipedia/commons/thumb/6/60/Caspar_David_Friedrich_-_Woman_at_a_Window_-_WGA8268.jpg/500px-Caspar_David_Friedrich_-_Woman_at_a_Window_-_WGA8268.jpg?utm_source=en.wikipedia.org&amp;utm_campaign=parser&amp;utm_content=thumbnail",
    "notable": true,
    "wikipedia_en": "https://en.wikipedia.org/wiki/Woman_at_a_Window",
    "_source": {
     "source": "Wikipedia: List of works by Caspar David Friedrich",
     "coord": "MediaWiki coordinates API"
    },
    "museum_id": "pushkin-museum",
    "city": "Moscow",
    "country": "Russia",
    "qid": "Q1451490",
    "wikidata": "https://www.wikidata.org/wiki/Q1451490",
    "wga_url": "https://www.wga.hu/html/f/friedric/3/307fried.html"
   }
  },
  {
   "type": "Feature",
   "geometry": {
    "type": "Point",
    "coordinates": [
     -0.1283,
     51.5089
    ]
   },
   "properties": {
    "painter": "Caspar David Friedrich",
    "title": "Forest Interior by Moonlight [ Wikidata ]",
    "year": "1823 to 1830",
    "city": "London",
    "country": "United Kingdom",
    "location": "National Gallery",
    "attribution": "generally accepted",
    "dimensions": "70.5 x 49 cm",
    "image": "https://upload.wikimedia.org/wikipedia/commons/thumb/d/d8/Waldinneres_bei_Mondschein_%28Caspar_David_Friedrich%29-Detail-WUS03239.jpg/500px-Waldinneres_bei_Mondschein_%28Caspar_David_Friedrich%29-Detail-WUS03239.jpg?utm_source=en.wikipedia.org&amp;utm_campaign=parser&amp;utm_content=thumbnail",
    "notable": true,
    "_source": {
     "source": "Wikipedia: List of works by Caspar David Friedrich",
     "coord": "MediaWiki coordinates API"
    },
    "museum_id": "national-gallery"
   }
  },
  {
   "type": "Feature",
   "geometry": {
    "type": "Point",
    "coordinates": [
     -96.80089,
     32.78756
    ]
   },
   "properties": {
    "painter": "Caspar David Friedrich",
    "title": "Ruins of Eldena, near Greifswald [ Wikidata ]",
    "year": "1825",
    "location": "Dallas Museum of Art",
    "attribution": "generally accepted",
    "dimensions": "35 x 49 cm",
    "image": "https://upload.wikimedia.org/wikipedia/commons/thumb/9/90/Caspar_David_Friedrich_Eldena_Ruin.jpg/500px-Caspar_David_Friedrich_Eldena_Ruin.jpg?utm_source=en.wikipedia.org&amp;utm_campaign=parser&amp;utm_content=thumbnail",
    "notable": true,
    "_source": {
     "source": "Wikipedia: List of works by Caspar David Friedrich",
     "coord": "MediaWiki coordinates API"
    },
    "museum_id": "dallas-museum-of-art",
    "city": "Dallas",
    "country": "United States"
   }
  },
  {
   "type": "Feature",
   "geometry": {
    "type": "Point",
    "coordinates": [
     6.95861,
     50.9375
    ]
   },
   "properties": {
    "painter": "Caspar David Friedrich",
    "title": "The Sea of Ice",
    "year": "1824",
    "location": "Wallraf-Richartz Museum",
    "attribution": "generally accepted",
    "dimensions": "96.7 x 126.9 cm",
    "image": "https://upload.wikimedia.org/wikipedia/commons/thumb/8/87/Caspar_David_Friedrich_-_The_Sea_of_Ice_-_WGA8270.jpg/500px-Caspar_David_Friedrich_-_The_Sea_of_Ice_-_WGA8270.jpg?utm_source=en.wikipedia.org&amp;utm_campaign=parser&amp;utm_content=thumbnail",
    "notable": true,
    "wikipedia_en": "https://en.wikipedia.org/wiki/The_Sea_of_Ice",
    "_source": {
     "source": "Wikipedia: List of works by Caspar David Friedrich",
     "coord": "MediaWiki coordinates API"
    },
    "museum_id": "wallraf-richartz-museum",
    "city": "Cologne",
    "country": "Germany",
    "qid": "Q194137",
    "wikidata": "https://www.wikidata.org/wiki/Q194137",
    "wga_url": "https://www.wga.hu/html/f/friedric/3/309fried.html"
   }
  },
  {
   "type": "Feature",
   "geometry": {
    "type": "Point",
    "coordinates": [
     10.00306,
     53.555
    ]
   },
   "properties": {
    "painter": "Caspar David Friedrich",
    "title": "Hill and Ploughed Field near Dresden [ Wikidata ]",
    "year": "1824",
    "location": "Hamburger Kunsthalle",
    "attribution": "generally accepted",
    "dimensions": "22.2 x 30.5 cm",
    "image": "https://upload.wikimedia.org/wikipedia/commons/thumb/1/1a/Hill_and_Ploughed_Field_near_Dresden_by_Caspar_David_Friedrich.jpg/500px-Hill_and_Ploughed_Field_near_Dresden_by_Caspar_David_Friedrich.jpg?utm_source=en.wikipedia.org&amp;utm_campaign=parser&amp;utm_content=thumbnail",
    "notable": true,
    "_source": {
     "source": "Wikipedia: List of works by Caspar David Friedrich",
     "coord": "MediaWiki coordinates API"
    },
    "museum_id": "hamburger-kunsthalle",
    "city": "Hamburg-Mitte",
    "country": "Germany"
   }
  },
  {
   "type": "Feature",
   "geometry": {
    "type": "Point",
    "coordinates": [
     13.39806,
     52.52083
    ]
   },
   "properties": {
    "painter": "Caspar David Friedrich",
    "title": "Man and Woman Contemplating the Moon",
    "year": "c. 1824",
    "location": "Alte Nationalgalerie",
    "attribution": "generally accepted",
    "dimensions": "34 x 44 cm",
    "image": "https://upload.wikimedia.org/wikipedia/commons/thumb/b/bf/Caspar_David_Friedrich_-_Mann_und_Frau_in_Betrachtung_des_Mondes_-_Alte_Nationalgalerie_Berlin.jpg/500px-Caspar_David_Friedrich_-_Mann_und_Frau_in_Betrachtung_des_Mondes_-_Alte_Nationalgalerie_Berlin.jpg?utm_source=en.wikipedia.org&amp;utm_campaign=parser&amp;utm_content=thumbnail",
    "notable": true,
    "wikipedia_en": "https://en.wikipedia.org/wiki/Man_and_Woman_Contemplating_the_Moon",
    "_source": {
     "source": "Wikipedia: List of works by Caspar David Friedrich",
     "coord": "MediaWiki coordinates API"
    },
    "museum_id": "alte-nationalgalerie",
    "city": "Berlin",
    "country": "Germany",
    "qid": "Q232087",
    "wikidata": "https://www.wikidata.org/wiki/Q232087",
    "wga_url": "https://www.wga.hu/html/f/friedric/2/213fried.html"
   }
  },
  {
   "type": "Feature",
   "geometry": {
    "type": "Point",
    "coordinates": [
     -77.47471,
     37.55642
    ]
   },
   "properties": {
    "painter": "Caspar David Friedrich",
    "title": "Evening with Clouds",
    "year": "Oct 1824",
    "location": "Virginia Museum of Fine Arts",
    "attribution": "generally accepted",
    "dimensions": "20 x 27.5 cm",
    "image": "https://upload.wikimedia.org/wikipedia/commons/thumb/3/39/Caspar_David_Friedrich_-_Evening_-_WGA08272.jpg/500px-Caspar_David_Friedrich_-_Evening_-_WGA08272.jpg?utm_source=en.wikipedia.org&amp;utm_campaign=parser&amp;utm_content=thumbnail",
    "notable": true,
    "_source": {
     "source": "Wikipedia: List of works by Caspar David Friedrich",
     "coord": "MediaWiki coordinates API"
    },
    "museum_id": "virginia-museum-of-fine-arts",
    "city": "Richmond",
    "country": "United States"
   }
  },
  {
   "type": "Feature",
   "geometry": {
    "type": "Point",
    "coordinates": [
     -72.67389,
     41.76333
    ]
   },
   "properties": {
    "painter": "Caspar David Friedrich",
    "title": "Reefs by the Seashore [ Wikidata ]",
    "year": "c. 1824",
    "location": "Wadsworth Atheneum",
    "attribution": "generally accepted",
    "dimensions": "22 x 31 cm",
    "image": "https://upload.wikimedia.org/wikipedia/commons/thumb/a/a7/Caspar_David_Friedrich_-_Rocky_Reef_on_the_Sea_Shore_-_WGA8273.jpg/500px-Caspar_David_Friedrich_-_Rocky_Reef_on_the_Sea_Shore_-_WGA8273.jpg?utm_source=en.wikipedia.org&amp;utm_campaign=parser&amp;utm_content=thumbnail",
    "notable": true,
    "_source": {
     "source": "Wikipedia: List of works by Caspar David Friedrich",
     "coord": "MediaWiki coordinates API"
    },
    "museum_id": "wadsworth-atheneum",
    "city": "Hartford"
   }
  },
  {
   "type": "Feature",
   "geometry": {
    "type": "Point",
    "coordinates": [
     13.7444,
     51.0519
    ]
   },
   "properties": {
    "painter": "Caspar David Friedrich",
    "title": "Trees and Bushes in the Snow (in French)",
    "year": "c. 1825",
    "location": "Galerie Neue Meister",
    "attribution": "generally accepted",
    "dimensions": "31 x 25.5 cm",
    "image": "https://upload.wikimedia.org/wikipedia/commons/thumb/e/e6/Caspar_David_Friedrich_-_Geb%C3%BCsch_im_Schnee.jpg/500px-Caspar_David_Friedrich_-_Geb%C3%BCsch_im_Schnee.jpg?utm_source=en.wikipedia.org&amp;utm_campaign=parser&amp;utm_content=thumbnail",
    "notable": true,
    "_source": {
     "source": "Wikipedia: List of works by Caspar David Friedrich",
     "coord": "MediaWiki coordinates API"
    },
    "museum_id": "galerie-neue-meister",
    "city": "Dresden",
    "country": "Germany"
   }
  },
  {
   "type": "Feature",
   "geometry": {
    "type": "Point",
    "coordinates": [
     -46.6558,
     -23.5611
    ]
   },
   "properties": {
    "painter": "Caspar David Friedrich",
    "title": "The Cemetery Entrance (in French)",
    "year": "1825",
    "location": "São Paulo Museum of Art",
    "attribution": "generally accepted",
    "dimensions": "143 x 110 cm",
    "image": "https://upload.wikimedia.org/wikipedia/commons/thumb/f/f4/Caspar_David_Friedrich_-_The_Cemetery_-_Google_Art_Project.jpg/500px-Caspar_David_Friedrich_-_The_Cemetery_-_Google_Art_Project.jpg?utm_source=en.wikipedia.org&amp;utm_campaign=parser&amp;utm_content=thumbnail",
    "notable": true,
    "_source": {
     "source": "Wikipedia: List of works by Caspar David Friedrich",
     "coord": "MediaWiki coordinates API"
    },
    "museum_id": "sao-paulo-museum-of-art",
    "city": "São Paulo",
    "country": "Brazil"
   }
  },
  {
   "type": "Feature",
   "geometry": {
    "type": "Point",
    "coordinates": [
     -73.9631,
     40.7794
    ]
   },
   "properties": {
    "painter": "Caspar David Friedrich",
    "title": "Two Men Contemplating the Moon",
    "year": "1825 to 1830",
    "location": "Metropolitan Museum of Art",
    "attribution": "generally accepted",
    "dimensions": "35 x 44 cm",
    "image": "https://upload.wikimedia.org/wikipedia/commons/thumb/5/55/Friedrich_-_Two_Men_Contemplating_the_Moon.jpg/500px-Friedrich_-_Two_Men_Contemplating_the_Moon.jpg?utm_source=en.wikipedia.org&amp;utm_campaign=parser&amp;utm_content=thumbnail",
    "notable": true,
    "wikipedia_en": "https://en.wikipedia.org/wiki/Two_Men_Contemplating_the_Moon",
    "_source": {
     "source": "Wikipedia: List of works by Caspar David Friedrich",
     "coord": "MediaWiki coordinates API"
    },
    "museum_id": "metropolitan-museum-of-art",
    "city": "New York",
    "country": "United States",
    "qid": "Q232087",
    "wikidata": "https://www.wikidata.org/wiki/Q232087",
    "wga_url": "https://www.wga.hu/html/f/friedric/2/213fried.html"
   }
  },
  {
   "type": "Feature",
   "geometry": {
    "type": "Point",
    "coordinates": [
     -104.98935,
     39.73719
    ]
   },
   "properties": {
    "painter": "Caspar David Friedrich",
    "title": "The Cemetery Gate [ Wikidata ]",
    "year": "1825 to 1830",
    "location": "Denver Art Museum",
    "attribution": "generally accepted",
    "dimensions": "31 x 25 cm",
    "image": "https://upload.wikimedia.org/wikipedia/commons/thumb/c/ce/Caspar_David_Friedrich_-_The_Cemetery_Gate_%28The_Churchyard%29_-_WGA8276.jpg/500px-Caspar_David_Friedrich_-_The_Cemetery_Gate_%28The_Churchyard%29_-_WGA8276.jpg?utm_source=en.wikipedia.org&amp;utm_campaign=parser&amp;utm_content=thumbnail",
    "notable": true,
    "_source": {
     "source": "Wikipedia: List of works by Caspar David Friedrich",
     "coord": "MediaWiki coordinates API"
    },
    "museum_id": "denver-art-museum",
    "city": "Denver",
    "country": "United States"
   }
  },
  {
   "type": "Feature",
   "geometry": {
    "type": "Point",
    "coordinates": [
     13.39806,
     52.52083
    ]
   },
   "properties": {
    "painter": "Caspar David Friedrich",
    "title": "Seashore by Moonlight [ Wikidata ]",
    "year": "1825 to 1830",
    "location": "Alte Nationalgalerie",
    "attribution": "generally accepted",
    "dimensions": "77 x 97 cm",
    "image": "https://upload.wikimedia.org/wikipedia/commons/thumb/6/63/Seashore_with_Shipwreck_by_Moonlight.jpg/500px-Seashore_with_Shipwreck_by_Moonlight.jpg?utm_source=en.wikipedia.org&amp;utm_campaign=parser&amp;utm_content=thumbnail",
    "notable": true,
    "_source": {
     "source": "Wikipedia: List of works by Caspar David Friedrich",
     "coord": "MediaWiki coordinates API"
    },
    "museum_id": "alte-nationalgalerie",
    "city": "Berlin",
    "country": "Germany"
   }
  },
  {
   "type": "Feature",
   "geometry": {
    "type": "Point",
    "coordinates": [
     7.59417,
     47.55417
    ]
   },
   "properties": {
    "painter": "Caspar David Friedrich",
    "title": "The Watzmann",
    "year": "1824 to 1825",
    "location": "Kunstmuseum Basel",
    "attribution": "generally accepted",
    "dimensions": "135 x 170 cm",
    "image": "https://upload.wikimedia.org/wikipedia/commons/thumb/5/51/Caspar_David_Friedrich_-_The_Watzmann_%281824-25%29.jpg/500px-Caspar_David_Friedrich_-_The_Watzmann_%281824-25%29.jpg?utm_source=en.wikipedia.org&amp;utm_campaign=parser&amp;utm_content=thumbnail",
    "notable": true,
    "wikipedia_en": "https://en.wikipedia.org/wiki/The_Watzmann",
    "_source": {
     "source": "Wikipedia: List of works by Caspar David Friedrich",
     "coord": "MediaWiki coordinates API"
    },
    "museum_id": "kunstmuseum-basel",
    "city": "Basel",
    "country": "Switzerland",
    "qid": "Q1197913",
    "wikidata": "https://www.wikidata.org/wiki/Q1197913",
    "wga_url": "https://www.wga.hu/html/f/friedric/4/403fried.html"
   }
  },
  {
   "type": "Feature",
   "geometry": {
    "type": "Point",
    "coordinates": [
     -75.69891,
     45.42954
    ]
   },
   "properties": {
    "painter": "Caspar David Friedrich",
    "title": "Graveyard under Snow [ Wikidata ]",
    "year": "1826",
    "location": "National Gallery of Canada",
    "attribution": "generally accepted",
    "dimensions": "31 x 25 cm",
    "image": "https://upload.wikimedia.org/wikipedia/commons/thumb/7/74/Caspar_David_Friedrich_-_Graveyard_under_Snow_-_Museum_der_bildenden_K%C3%BCnste.jpg/500px-Caspar_David_Friedrich_-_Graveyard_under_Snow_-_Museum_der_bildenden_K%C3%BCnste.jpg?utm_source=en.wikipedia.org&amp;utm_campaign=parser&amp;utm_content=thumbnail",
    "notable": true,
    "_source": {
     "source": "Wikipedia: List of works by Caspar David Friedrich",
     "coord": "MediaWiki coordinates API"
    },
    "museum_id": "national-gallery-of-canada",
    "city": "Ottawa",
    "country": "Canada"
   }
  },
  {
   "type": "Feature",
   "geometry": {
    "type": "Point",
    "coordinates": [
     13.39806,
     52.52083
    ]
   },
   "properties": {
    "painter": "Caspar David Friedrich",
    "title": "Cabin in the Snow (in German)",
    "year": "1827",
    "location": "Alte Nationalgalerie",
    "attribution": "generally accepted",
    "dimensions": "31 x 25 cm",
    "image": "https://upload.wikimedia.org/wikipedia/commons/thumb/2/2e/Caspar_David_Friedrich_-_Verschneite_H%C3%BCtte.jpg/500px-Caspar_David_Friedrich_-_Verschneite_H%C3%BCtte.jpg?utm_source=en.wikipedia.org&amp;utm_campaign=parser&amp;utm_content=thumbnail",
    "notable": true,
    "_source": {
     "source": "Wikipedia: List of works by Caspar David Friedrich",
     "coord": "MediaWiki coordinates API"
    },
    "museum_id": "alte-nationalgalerie",
    "city": "Berlin",
    "country": "Germany"
   }
  },
  {
   "type": "Feature",
   "geometry": {
    "type": "Point",
    "coordinates": [
     -1.26056,
     51.75556
    ]
   },
   "properties": {
    "painter": "Caspar David Friedrich",
    "title": "The Oaktree in the Snow [ Wikidata ]",
    "year": "1829",
    "location": "Ashmolean Museum",
    "attribution": "generally accepted",
    "dimensions": "71 x 48 cm",
    "image": "https://upload.wikimedia.org/wikipedia/commons/thumb/3/3b/Friedrich%2C_Caspar_David_-_Eichbaum_im_Schnee.jpg/500px-Friedrich%2C_Caspar_David_-_Eichbaum_im_Schnee.jpg?utm_source=en.wikipedia.org&amp;utm_campaign=parser&amp;utm_content=thumbnail",
    "notable": true,
    "_source": {
     "source": "Wikipedia: List of works by Caspar David Friedrich",
     "coord": "MediaWiki coordinates API"
    },
    "museum_id": "ashmolean-museum",
    "city": "Oxford",
    "country": "United Kingdom"
   }
  },
  {
   "type": "Feature",
   "geometry": {
    "type": "Point",
    "coordinates": [
     -94.58084,
     39.04531
    ]
   },
   "properties": {
    "painter": "Caspar David Friedrich",
    "title": "Ships in Harbour, Evening",
    "year": "c. 1828",
    "location": "Nelson-Atkins Museum of Art",
    "attribution": "generally accepted",
    "dimensions": "76.5 x 88.2 cm",
    "image": "https://upload.wikimedia.org/wikipedia/commons/thumb/a/a1/Caspar_David_Friedrich_-_Boats_in_the_Harbour_at_Evening_-_WGA08282.jpg/500px-Caspar_David_Friedrich_-_Boats_in_the_Harbour_at_Evening_-_WGA08282.jpg?utm_source=en.wikipedia.org&amp;utm_campaign=parser&amp;utm_content=thumbnail",
    "notable": true,
    "wikipedia_en": "https://en.wikipedia.org/wiki/Ships_in_Harbour,_Evening",
    "_source": {
     "source": "Wikipedia: List of works by Caspar David Friedrich",
     "coord": "MediaWiki coordinates API"
    },
    "museum_id": "nelson-atkins-museum-of-art",
    "city": "Kansas City",
    "country": "United States",
    "qid": "Q999836",
    "wikidata": "https://www.wikidata.org/wiki/Q999836",
    "wga_url": "https://www.wga.hu/html/f/friedric/4/407fried.html"
   }
  },
  {
   "type": "Feature",
   "geometry": {
    "type": "Point",
    "coordinates": [
     10.00306,
     53.555
    ]
   },
   "properties": {
    "painter": "Caspar David Friedrich",
    "title": "The Evergreens by the Waterfall [ Wikidata ]",
    "year": "1828",
    "location": "Hamburger Kunsthalle",
    "attribution": "generally accepted",
    "dimensions": "44.2 x 34.8 cm",
    "image": "https://upload.wikimedia.org/wikipedia/commons/thumb/8/89/Caspar_David_Friedrich_-_Tannen_am_Wasserfall.jpg/500px-Caspar_David_Friedrich_-_Tannen_am_Wasserfall.jpg?utm_source=en.wikipedia.org&amp;utm_campaign=parser&amp;utm_content=thumbnail",
    "notable": true,
    "_source": {
     "source": "Wikipedia: List of works by Caspar David Friedrich",
     "coord": "MediaWiki coordinates API"
    },
    "museum_id": "hamburger-kunsthalle",
    "city": "Hamburg-Mitte",
    "country": "Germany"
   }
  },
  {
   "type": "Feature",
   "geometry": {
    "type": "Point",
    "coordinates": [
     7.47222,
     51.51306
    ]
   },
   "properties": {
    "painter": "Caspar David Friedrich",
    "title": "The Temple of Juno in Agrigento",
    "year": "c. 1828 to 1830",
    "location": "Museum am Ostwall",
    "attribution": "generally accepted",
    "dimensions": "53.3 x 71.5 cm",
    "image": "https://upload.wikimedia.org/wikipedia/commons/thumb/9/9e/Junotempel_in_Agrigent_%281828-1830%29_-_Caspar_David_Friedrich_%28MKK%2C_Dortmund%29.jpg/500px-Junotempel_in_Agrigent_%281828-1830%29_-_Caspar_David_Friedrich_%28MKK%2C_Dortmund%29.jpg?utm_source=en.wikipedia.org&amp;utm_campaign=parser&amp;utm_content=thumbnail",
    "notable": true,
    "wikipedia_en": "https://en.wikipedia.org/wiki/The_Temple_of_Juno_in_Agrigento",
    "_source": {
     "source": "Wikipedia: List of works by Caspar David Friedrich",
     "coord": "MediaWiki coordinates API"
    },
    "museum_id": "museum-am-ostwall",
    "qid": "Q18021530",
    "wikidata": "https://www.wikidata.org/wiki/Q18021530"
   }
  },
  {
   "type": "Feature",
   "geometry": {
    "type": "Point",
    "coordinates": [
     -3.69493,
     40.41604
    ]
   },
   "properties": {
    "painter": "Caspar David Friedrich",
    "title": "Easter Morning",
    "year": "c. 1828 to 1835",
    "location": "Thyssen-Bornemisza Museum",
    "attribution": "generally accepted",
    "dimensions": "43.7 x 34.4 cm",
    "image": "https://upload.wikimedia.org/wikipedia/commons/thumb/d/d0/Caspar_David_Friedrich_-_Ostermorgen.jpg/500px-Caspar_David_Friedrich_-_Ostermorgen.jpg?utm_source=en.wikipedia.org&amp;utm_campaign=parser&amp;utm_content=thumbnail",
    "notable": true,
    "_source": {
     "source": "Wikipedia: List of works by Caspar David Friedrich",
     "coord": "MediaWiki coordinates API"
    },
    "museum_id": "thyssen-bornemisza-museum",
    "city": "Madrid",
    "country": "Spain"
   }
  },
  {
   "type": "Feature",
   "geometry": {
    "type": "Point",
    "coordinates": [
     7.47222,
     51.51306
    ]
   },
   "properties": {
    "painter": "Caspar David Friedrich",
    "title": "Evening Landscape with Two Men",
    "year": "1830 to 1835",
    "location": "Museum am Ostwall",
    "attribution": "generally accepted",
    "dimensions": "25 x 31 cm",
    "image": "https://upload.wikimedia.org/wikipedia/commons/thumb/4/4b/Sunset_by_Caspar_David_Friedrich.jpg/500px-Sunset_by_Caspar_David_Friedrich.jpg?utm_source=en.wikipedia.org&amp;utm_campaign=parser&amp;utm_content=thumbnail",
    "notable": true,
    "wikipedia_en": "https://en.wikipedia.org/wiki/Sunset_(Friedrich_painting)",
    "_source": {
     "source": "Wikipedia: List of works by Caspar David Friedrich",
     "coord": "MediaWiki coordinates API"
    },
    "museum_id": "museum-am-ostwall",
    "qid": "Q4531523",
    "wikidata": "https://www.wikidata.org/wiki/Q4531523",
    "wga_url": "https://www.wga.hu/html/f/friedric/4/408fried.html"
   }
  },
  {
   "type": "Feature",
   "geometry": {
    "type": "Point",
    "coordinates": [
     13.7444,
     51.0519
    ]
   },
   "properties": {
    "painter": "Caspar David Friedrich",
    "title": "The Great Enclosure",
    "year": "c. 1832",
    "location": "Galerie Neue Meister",
    "attribution": "generally accepted",
    "dimensions": "73.5 x 102.5 cm",
    "image": "https://upload.wikimedia.org/wikipedia/commons/thumb/5/5c/Caspar_David_Friedrich_007.jpg/500px-Caspar_David_Friedrich_007.jpg?utm_source=en.wikipedia.org&amp;utm_campaign=parser&amp;utm_content=thumbnail",
    "notable": true,
    "wikipedia_en": "https://en.wikipedia.org/wiki/The_Great_Enclosure",
    "_source": {
     "source": "Wikipedia: List of works by Caspar David Friedrich",
     "coord": "MediaWiki coordinates API"
    },
    "museum_id": "galerie-neue-meister",
    "city": "Dresden",
    "country": "Germany",
    "qid": "Q3822640",
    "wikidata": "https://www.wikidata.org/wiki/Q3822640",
    "wga_url": "https://www.wga.hu/html/f/friedric/4/410fried.html"
   }
  },
  {
   "type": "Feature",
   "geometry": {
    "type": "Point",
    "coordinates": [
     13.3825,
     54.0947
    ]
   },
   "properties": {
    "painter": "Caspar David Friedrich",
    "title": "Neubrandenburg Burning",
    "year": "c. 1835",
    "location": "Pomeranian State Museum",
    "attribution": "generally accepted",
    "dimensions": "72 x 101 cm",
    "image": "https://upload.wikimedia.org/wikipedia/commons/thumb/8/8b/Friedrich%2C_Caspar_David_-_Das_brennende_Neubrandenburg_-_HKH-60688.webp/500px-Friedrich%2C_Caspar_David_-_Das_brennende_Neubrandenburg_-_HKH-60688.webp.png?utm_source=en.wikipedia.org&amp;utm_campaign=parser&amp;utm_content=thumbnail",
    "notable": true,
    "wikipedia_en": "https://en.wikipedia.org/wiki/Neubrandenburg_Burning",
    "_source": {
     "source": "Wikipedia: List of works by Caspar David Friedrich",
     "coord": "MediaWiki coordinates API"
    },
    "museum_id": "pomeranian-state-museum",
    "city": "Greifswald",
    "qid": "Q18202267",
    "wikidata": "https://www.wikidata.org/wiki/Q18202267",
    "wga_url": "https://www.wga.hu/html/f/friedric/4/411fried.html"
   }
  },
  {
   "type": "Feature",
   "geometry": {
    "type": "Point",
    "coordinates": [
     -86.1855,
     39.8259
    ]
   },
   "properties": {
    "painter": "Caspar David Friedrich",
    "title": "Wreck in the Moonlight [ Wikidata ]",
    "year": "c. 1835",
    "location": "Indianapolis Museum of Art",
    "attribution": "generally accepted",
    "dimensions": "31.3 x 42.5 cm",
    "image": "https://upload.wikimedia.org/wikipedia/commons/thumb/0/03/Wreck_in_the_Moonlight.jpg/500px-Wreck_in_the_Moonlight.jpg?utm_source=en.wikipedia.org&amp;utm_campaign=parser&amp;utm_content=thumbnail",
    "notable": true,
    "_source": {
     "source": "Wikipedia: List of works by Caspar David Friedrich",
     "coord": "MediaWiki coordinates API"
    },
    "museum_id": "indianapolis-museum-of-art",
    "city": "Indianapolis"
   }
  },
  {
   "type": "Feature",
   "geometry": {
    "type": "Point",
    "coordinates": [
     12.37566,
     51.34245
    ]
   },
   "properties": {
    "painter": "Caspar David Friedrich",
    "title": "The Stages of Life",
    "year": "1835",
    "location": "Museum der bildenden Künste",
    "attribution": "generally accepted",
    "dimensions": "72.5 x 94 cm",
    "image": "https://upload.wikimedia.org/wikipedia/commons/thumb/7/74/Caspar_David_Friedrich_-_Die_Lebensstufen_%28ca._1834%29.jpg/500px-Caspar_David_Friedrich_-_Die_Lebensstufen_%28ca._1834%29.jpg?utm_source=en.wikipedia.org&amp;utm_campaign=parser&amp;utm_content=thumbnail",
    "notable": true,
    "wikipedia_en": "https://en.wikipedia.org/wiki/The_Stages_of_Life",
    "_source": {
     "source": "Wikipedia: List of works by Caspar David Friedrich",
     "coord": "MediaWiki coordinates API"
    },
    "museum_id": "museum-der-bildenden-kunste",
    "city": "Leipzig",
    "country": "Germany",
    "qid": "Q1214313",
    "wikidata": "https://www.wikidata.org/wiki/Q1214313"
   }
  },
  {
   "type": "Feature",
   "geometry": {
    "type": "Point",
    "coordinates": [
     8.67388,
     50.10322
    ]
   },
   "properties": {
    "painter": "Caspar David Friedrich",
    "title": "Landscape with the Rosenberg in the Bohemian Mountains [ Wikidata ]",
    "year": "c. 1835",
    "location": "Städel",
    "attribution": "generally accepted",
    "dimensions": "34.9 x 48.5 cm",
    "image": "https://upload.wikimedia.org/wikipedia/commons/thumb/a/ac/Caspar_David_Friedrich_-_Landscape_with_the_Rosenberg_in_the_Bohemian_Mountains_-_Google_Art_Project.jpg/500px-Caspar_David_Friedrich_-_Landscape_with_the_Rosenberg_in_the_Bohemian_Mountains_-_Google_Art_Project.jpg?utm_source=en.wikipedia.org&amp;utm_campaign=parser&amp;utm_content=thumbnail",
    "notable": true,
    "_source": {
     "source": "Wikipedia: List of works by Caspar David Friedrich",
     "coord": "MediaWiki coordinates API"
    },
    "museum_id": "stadel",
    "city": "Frankfurt am Main",
    "country": "Germany"
   }
  },
  {
   "type": "Feature",
   "geometry": {
    "type": "Point",
    "coordinates": [
     10.00306,
     53.555
    ]
   },
   "properties": {
    "painter": "Caspar David Friedrich",
    "title": "Sea Shore in Moonlight [ Wikidata ]",
    "year": "1835",
    "location": "Hamburger Kunsthalle",
    "attribution": "generally accepted",
    "image": "https://upload.wikimedia.org/wikipedia/commons/thumb/8/8f/Caspar_David_Friedrich_-_K%C3%BCste_bei_Mondschein.jpg/500px-Caspar_David_Friedrich_-_K%C3%BCste_bei_Mondschein.jpg?utm_source=en.wikipedia.org&amp;utm_campaign=parser&amp;utm_content=thumbnail",
    "notable": true,
    "_source": {
     "source": "Wikipedia: List of works by Caspar David Friedrich",
     "coord": "MediaWiki coordinates API"
    },
    "museum_id": "hamburger-kunsthalle",
    "city": "Hamburg-Mitte",
    "country": "Germany"
   }
  },
  {
   "type": "Feature",
   "geometry": {
    "type": "Point",
    "coordinates": [
     11.03419,
     50.97561
    ]
   },
   "properties": {
    "painter": "Caspar David Friedrich",
    "title": "Forest in late autumn [ Wikidata ]",
    "year": "1835",
    "location": "Angermuseum",
    "attribution": "generally accepted",
    "dimensions": "35 x 44 cm",
    "image": "https://upload.wikimedia.org/wikipedia/commons/thumb/b/ba/Caspar_David_Friedrich_-_Wald_im_Sp%C3%A4therbst.jpg/500px-Caspar_David_Friedrich_-_Wald_im_Sp%C3%A4therbst.jpg?utm_source=en.wikipedia.org&amp;utm_campaign=parser&amp;utm_content=thumbnail",
    "notable": true,
    "_source": {
     "source": "Wikipedia: List of works by Caspar David Friedrich",
     "coord": "MediaWiki coordinates API"
    },
    "museum_id": "angermuseum"
   }
  },
  {
   "type": "Feature",
   "geometry": {
    "type": "Point",
    "coordinates": [
     -117.15043,
     32.73216
    ]
   },
   "properties": {
    "painter": "Caspar David Friedrich",
    "title": "Giant Mountains (Friedrich) [ Wikidata ]",
    "year": "c. 1830 to 1835",
    "location": "San Diego Museum of Art",
    "attribution": "generally accepted",
    "dimensions": "72 x 102 cm",
    "image": "https://upload.wikimedia.org/wikipedia/commons/thumb/6/69/Caspar_David_Friedrich_-_The_Riesengebirge_-_WGA8285.jpg/500px-Caspar_David_Friedrich_-_The_Riesengebirge_-_WGA8285.jpg?utm_source=en.wikipedia.org&amp;utm_campaign=parser&amp;utm_content=thumbnail",
    "notable": true,
    "_source": {
     "source": "Wikipedia: List of works by Caspar David Friedrich",
     "coord": "MediaWiki coordinates API"
    },
    "museum_id": "san-diego-museum-of-art",
    "city": "San Diego",
    "country": "United States"
   }
  },
  {
   "type": "Feature",
   "geometry": {
    "type": "Point",
    "coordinates": [
     30.3136,
     59.9406
    ]
   },
   "properties": {
    "painter": "Caspar David Friedrich",
    "title": "The Dreamer (in French)",
    "year": "1820 to 1840",
    "location": "Hermitage Museum",
    "attribution": "generally accepted",
    "dimensions": "27 x 21 cm",
    "image": "https://upload.wikimedia.org/wikipedia/commons/thumb/9/94/Caspar_David_Friedrich_011.jpg/500px-Caspar_David_Friedrich_011.jpg?utm_source=en.wikipedia.org&amp;utm_campaign=parser&amp;utm_content=thumbnail",
    "notable": true,
    "_source": {
     "source": "Wikipedia: List of works by Caspar David Friedrich",
     "coord": "MediaWiki coordinates API"
    },
    "museum_id": "hermitage-museum",
    "city": "Saint Petersburg",
    "country": "Russia"
   }
  },
  {
   "type": "Feature",
   "geometry": {
    "type": "Point",
    "coordinates": [
     8.47528,
     49.48278
    ]
   },
   "properties": {
    "painter": "Caspar David Friedrich",
    "year": "1810s",
    "location": "Kunsthalle Mannheim",
    "attribution": "copy",
    "medium": "Oil on canvas",
    "dimensions": "67x52.4 cm",
    "image": "https://upload.wikimedia.org/wikipedia/commons/thumb/4/49/Anonymous_-_Portrait_of_Caspar_David_Friedrich_%281810s%29.jpg/500px-Anonymous_-_Portrait_of_Caspar_David_Friedrich_%281810s%29.jpg?utm_source=en.wikipedia.org&amp;utm_campaign=parser&amp;utm_content=thumbnail",
    "notable": true,
    "_source": {
     "source": "Wikipedia: List of works by Caspar David Friedrich",
     "coord": "MediaWiki coordinates API"
    },
    "museum_id": "kunsthalle-mannheim"
   }
  },
  {
   "type": "Feature",
   "geometry": {
    "type": "Point",
    "coordinates": [
     -78.70289,
     35.81019
    ]
   },
   "properties": {
    "painter": "Caspar David Friedrich",
    "year": "19th century",
    "location": "North Carolina Museum of Art",
    "attribution": "copy",
    "medium": "Oil on canvas",
    "dimensions": "81x99 cm",
    "image": "https://upload.wikimedia.org/wikipedia/commons/thumb/1/1f/Caspar_David_Friedrich_-_Mondaufgang_%C3%BCber_dem_Meer.jpg/500px-Caspar_David_Friedrich_-_Mondaufgang_%C3%BCber_dem_Meer.jpg?utm_source=en.wikipedia.org&amp;utm_campaign=parser&amp;utm_content=thumbnail",
    "notable": true,
    "_source": {
     "source": "Wikipedia: List of works by Caspar David Friedrich",
     "coord": "MediaWiki coordinates API"
    },
    "museum_id": "north-carolina-museum-of-art",
    "city": "Raleigh"
   }
  },
  {
   "type": "Feature",
   "geometry": {
    "type": "Point",
    "coordinates": [
     -96.80089,
     32.78756
    ]
   },
   "properties": {
    "painter": "Caspar David Friedrich",
    "year": "1798",
    "location": "Dallas Museum of Art",
    "attribution": "copy",
    "medium": "Oil on canvas",
    "dimensions": "30x22 cm",
    "image": "https://upload.wikimedia.org/wikipedia/commons/thumb/f/f1/Caspar_David_Friedrich_-_Wreck_in_the_Sea_of_Ice_-_WGA8233.jpg/500px-Caspar_David_Friedrich_-_Wreck_in_the_Sea_of_Ice_-_WGA8233.jpg?utm_source=en.wikipedia.org&amp;utm_campaign=parser&amp;utm_content=thumbnail",
    "notable": true,
    "_source": {
     "source": "Wikipedia: List of works by Caspar David Friedrich",
     "coord": "MediaWiki coordinates API"
    },
    "museum_id": "dallas-museum-of-art",
    "city": "Dallas",
    "country": "United States"
   }
  }
 ]
}