{
 "type": "FeatureCollection",
 "_note": "Generated by scripts/build.py from Wikidata. Do not edit by hand — put manual fixes in the painter's overlay (data/overlay/*.json). Each feature carries _source (scraped base or manual addition) and, when edited, _overrides.",
 "features": [
  {
   "type": "Feature",
   "geometry": {
    "type": "Point",
    "coordinates": [
     13.36472,
     52.50861
    ]
   },
   "properties": {
    "painter": "Domenico Ghirlandaio",
    "title": "Judith with her servant",
    "year": "1489",
    "city": "Bezirk Mitte",
    "country": "Germany",
    "location": "Gemäldegalerie Berlin",
    "kind": "museum",
    "attribution": "attributed",
    "status": "present",
    "medium": "Paint, poplar panel",
    "genre": "religious art",
    "image": "https://commons.wikimedia.org/wiki/Special:FilePath/Ghirlandaio%2C%20Domenico%3B%20Judith%3B%20Gem%C3%A4ldegalerie%20Berlin.jpg?width=420",
    "wikidata": "https://www.wikidata.org/wiki/Q107435928",
    "creation_place": "Florence",
    "creation_lat": 43.7696,
    "creation_lon": 11.2558,
    "_source": {
     "source": "Wikidata",
     "url": "https://www.wikidata.org/wiki/Q107435928",
     "retrieved_at": "2026-08-23"
    },
    "_overrides": {
     "creation": {
      "at": "2026-08-23",
      "source": "derived from start date + Caravaggio's documented itinerary (approximate)"
     }
    },
    "museum_id": "gemaldegalerie-berlin",
    "qid": "Q107435928"
   }
  },
  {
   "type": "Feature",
   "geometry": {
    "type": "Point",
    "coordinates": [
     2.3358,
     48.8611
    ]
   },
   "properties": {
    "painter": "Domenico Ghirlandaio",
    "title": "Q115676434",
    "year": "1490",
    "country": "France",
    "location": "Louvre",
    "kind": "museum",
    "attribution": "attributed",
    "status": "present",
    "medium": "Oil on panel",
    "dimensions": "45 × 41.5 cm",
    "genre": "Christian painting",
    "image": "https://commons.wikimedia.org/wiki/Special:FilePath/L%27Apparition%20du%20Christ%20%C3%A0%20la%20Vierge%20-%20Domenico%20Ghirlandaio%20-%20Mus%C3%A9e%20du%20Louvre%20Peintures%20RFML.PE.2019.9.1.jpg?width=420",
    "wikidata": "https://www.wikidata.org/wiki/Q115676434",
    "creation_place": "Florence",
    "creation_lat": 43.7696,
    "creation_lon": 11.2558,
    "_source": {
     "source": "Wikidata",
     "url": "https://www.wikidata.org/wiki/Q115676434",
     "retrieved_at": "2026-08-23"
    },
    "_overrides": {
     "creation": {
      "at": "2026-08-23",
      "source": "derived from start date + Caravaggio's documented itinerary (approximate)"
     }
    },
    "museum_id": "louvre",
    "city": "Paris",
    "qid": "Q115676434",
    "_merged": [
     {
      "source": "Wikidata",
      "title": "L'Apparition du Christ à la Vierge",
      "qid": "Q115676434",
      "url": "https://www.wikidata.org/wiki/Q115676434"
     }
    ]
   }
  },
  {
   "type": "Feature",
   "geometry": {
    "type": "Point",
    "coordinates": [
     11.249425,
     43.775128
    ]
   },
   "properties": {
    "painter": "Domenico Ghirlandaio",
    "title": "Apparition of the angel to Zacharias",
    "year": "1450-1480",
    "city": "Florence",
    "country": "Italy",
    "location": "Tornabuoni Chapel",
    "kind": "church",
    "attribution": "attributed",
    "status": "present",
    "medium": "Fresco",
    "image": "https://commons.wikimedia.org/wiki/Special:FilePath/Domenico%20Ghirlandaio%20-%20Angel%20Appearing%20to%20Zacharias%20%28detail%29%20-%20WGA8848.jpg?width=420",
    "wikidata": "https://www.wikidata.org/wiki/Q118671866",
    "_source": {
     "source": "Wikidata",
     "url": "https://www.wikidata.org/wiki/Q118671866",
     "retrieved_at": "2026-08-23"
    },
    "museum_id": "tornabuoni-chapel",
    "qid": "Q118671866",
    "wga_url": "https://www.wga.hu/html//g/ghirland/domenico/6tornab/62tornab/1appear1.html"
   }
  },
  {
   "type": "Feature",
   "geometry": {
    "type": "Point",
    "coordinates": [
     12.56698,
     44.06261
    ]
   },
   "properties": {
    "painter": "Domenico Ghirlandaio",
    "title": "Altarpiece of San Vincenzo Ferrer",
    "year": "1493",
    "city": "Rimini",
    "country": "Italy",
    "location": "City Museum of Rimini",
    "kind": "museum",
    "attribution": "attributed",
    "status": "present",
    "genre": "religious art",
    "image": "https://commons.wikimedia.org/wiki/Special:FilePath/Domenico%20ghirlandaio%20e%20bottega%2C%20pala%20di%20san%20vincenzo%20ferrer%2C%201493-96%2C%2001.JPG?width=420",
    "wikidata": "https://www.wikidata.org/wiki/Q132247328",
    "creation_place": "Florence",
    "creation_lat": 43.7696,
    "creation_lon": 11.2558,
    "_source": {
     "source": "Wikidata",
     "url": "https://www.wikidata.org/wiki/Q132247328",
     "retrieved_at": "2026-08-23"
    },
    "_overrides": {
     "creation": {
      "at": "2026-08-23",
      "source": "derived from start date + Caravaggio's documented itinerary (approximate)"
     }
    },
    "museum_id": "city-museum-of-rimini",
    "qid": "Q132247328"
   }
  },
  {
   "type": "Feature",
   "geometry": {
    "type": "Point",
    "coordinates": [
     11.249425,
     43.775128
    ]
   },
   "properties": {
    "painter": "Domenico Ghirlandaio",
    "title": "Death and Assumption of the Virgin",
    "year": "1450",
    "city": "Florence",
    "country": "Italy",
    "location": "Tornabuoni Chapel",
    "kind": "church",
    "attribution": "attributed",
    "status": "present",
    "medium": "Fresco",
    "genre": "religious art",
    "image": "https://commons.wikimedia.org/wiki/Special:FilePath/Domenico%20Ghirlandaio%20-%20Death%20and%20Assumption%20of%20the%20Virgin%20-%20WGA8844.jpg?width=420",
    "wikidata": "https://www.wikidata.org/wiki/Q140772089",
    "_source": {
     "source": "Wikidata",
     "url": "https://www.wikidata.org/wiki/Q140772089",
     "retrieved_at": "2026-08-23"
    },
    "museum_id": "tornabuoni-chapel",
    "qid": "Q140772089",
    "wga_url": "https://www.wga.hu/html/g/ghirland/domenico/6tornab/61tornab/7death.html"
   }
  },
  {
   "type": "Feature",
   "geometry": {
    "type": "Point",
    "coordinates": [
     11.249425,
     43.775128
    ]
   },
   "properties": {
    "painter": "Domenico Ghirlandaio",
    "title": "Cappella Tornabuoni - Martyrdom of St Peter Martyr",
    "year": "1450",
    "city": "Florence",
    "country": "Italy",
    "location": "Tornabuoni Chapel",
    "kind": "church",
    "attribution": "attributed",
    "status": "present",
    "medium": "Fresco",
    "genre": "religious art",
    "image": "https://commons.wikimedia.org/wiki/Special:FilePath/Domenico%20Ghirlandaio%20-%20Martyrdom%20of%20St%20Peter%20Martyr%20WGA.jpg?width=420",
    "wikidata": "https://www.wikidata.org/wiki/Q140772615",
    "_source": {
     "source": "Wikidata",
     "url": "https://www.wikidata.org/wiki/Q140772615",
     "retrieved_at": "2026-08-23"
    },
    "museum_id": "tornabuoni-chapel",
    "qid": "Q140772615",
    "wga_url": "https://www.wga.hu/html//g/ghirland/domenico/6tornab/63tornab/2martyr.html"
   }
  },
  {
   "type": "Feature",
   "geometry": {
    "type": "Point",
    "coordinates": [
     11.04277,
     43.46782
    ]
   },
   "properties": {
    "painter": "Domenico Ghirlandaio",
    "title": "Funeral of Saint Fina",
    "year": "1473",
    "city": "San Gimignano",
    "country": "Italy",
    "location": "Collegiate Church of San Gimignano",
    "kind": "museum",
    "attribution": "attributed",
    "status": "present",
    "medium": "Fresco",
    "genre": "religious art",
    "image": "https://commons.wikimedia.org/wiki/Special:FilePath/Domenico%20Ghirlandaio%20-%20Obsequies%20of%20St%20Fina%20-%20WGA08758.jpg?width=420",
    "wikidata": "https://www.wikidata.org/wiki/Q140772662",
    "creation_place": "Florence",
    "creation_lat": 43.7696,
    "creation_lon": 11.2558,
    "_source": {
     "source": "Wikidata",
     "url": "https://www.wikidata.org/wiki/Q140772662",
     "retrieved_at": "2026-08-23"
    },
    "_overrides": {
     "creation": {
      "at": "2026-08-23",
      "source": "derived from start date + Caravaggio's documented itinerary (approximate)"
     }
    },
    "museum_id": "collegiate-church-of-san-gimignano",
    "qid": "Q140772662",
    "wga_url": "https://www.wga.hu/html/g/ghirland/domenico/2s_fina/2obsequ.html"
   }
  },
  {
   "type": "Feature",
   "geometry": {
    "type": "Point",
    "coordinates": [
     11.25083,
     43.77028
    ]
   },
   "properties": {
    "painter": "Domenico Ghirlandaio",
    "title": "Cappella Sassetti - Obsequies of Saint Francis",
    "year": "1482",
    "city": "Florence",
    "country": "Italy",
    "location": "Sassetti Chapel",
    "kind": "museum",
    "attribution": "attributed",
    "status": "present",
    "genre": "religious art",
    "image": "https://commons.wikimedia.org/wiki/Special:FilePath/Cappella%20Sassetti%20Death%20of%20St%20Francis.jpg?width=420",
    "wikidata": "https://www.wikidata.org/wiki/Q140772739",
    "creation_place": "Florence",
    "creation_lat": 43.7696,
    "creation_lon": 11.2558,
    "_source": {
     "source": "Wikidata",
     "url": "https://www.wikidata.org/wiki/Q140772739",
     "retrieved_at": "2026-08-23"
    },
    "_overrides": {
     "creation": {
      "at": "2026-08-23",
      "source": "derived from start date + Caravaggio's documented itinerary (approximate)"
     }
    },
    "museum_id": "sassetti-chapel",
    "qid": "Q140772739"
   }
  },
  {
   "type": "Feature",
   "geometry": {
    "type": "Point",
    "coordinates": [
     11.249425,
     43.775128
    ]
   },
   "properties": {
    "painter": "Domenico Ghirlandaio",
    "title": "Cappella Tornabuoni - Preaching of Saint John the Baptist",
    "year": "1450",
    "city": "Florence",
    "country": "Italy",
    "location": "Tornabuoni Chapel",
    "kind": "church",
    "attribution": "attributed",
    "status": "present",
    "medium": "Fresco",
    "genre": "religious art",
    "image": "https://commons.wikimedia.org/wiki/Special:FilePath/Domenico%20Ghirlandaio%20-%20Preaching%20of%20St%20John%20the%20Baptist%20-%20WGA8864.jpg?width=420",
    "wikidata": "https://www.wikidata.org/wiki/Q140772889",
    "_source": {
     "source": "Wikidata",
     "url": "https://www.wikidata.org/wiki/Q140772889",
     "retrieved_at": "2026-08-23"
    },
    "museum_id": "tornabuoni-chapel",
    "qid": "Q140772889",
    "wga_url": "https://www.wga.hu/html/g/ghirland/domenico/6tornab/62tornab/5preach.html"
   }
  },
  {
   "type": "Feature",
   "geometry": {
    "type": "Point",
    "coordinates": [
     11.2493,
     43.7746
    ]
   },
   "properties": {
    "painter": "Domenico Ghirlandaio",
    "title": "Vaulting of the Tornabuoni Chapel: Evangelists",
    "year": "1450",
    "city": "Florence",
    "country": "Italy",
    "location": "Basilica of Santa Maria Novella",
    "kind": "museum",
    "attribution": "attributed",
    "status": "present",
    "medium": "Fresco",
    "genre": "religious art",
    "image": "https://commons.wikimedia.org/wiki/Special:FilePath/Domenico%20Ghirlandaio%20-%20Vaulting%20of%20the%20Tornabuoni%20Chapel%20-%20WGA08877.jpg?width=420",
    "wikidata": "https://www.wikidata.org/wiki/Q140773939",
    "_source": {
     "source": "Wikidata",
     "url": "https://www.wikidata.org/wiki/Q140773939",
     "retrieved_at": "2026-08-23"
    },
    "museum_id": "basilica-of-santa-maria-novella",
    "qid": "Q140773939",
    "wga_url": "https://www.wga.hu/html/g/ghirland/domenico/6tornab/63tornab/7vault.html"
   }
  },
  {
   "type": "Feature",
   "geometry": {
    "type": "Point",
    "coordinates": [
     11.249425,
     43.775128
    ]
   },
   "properties": {
    "painter": "Domenico Ghirlandaio",
    "title": "Cappella Tornabuoni - Zacharias Writes Down the Name of his Son",
    "year": "1450",
    "city": "Florence",
    "country": "Italy",
    "location": "Tornabuoni Chapel",
    "kind": "church",
    "attribution": "attributed",
    "status": "present",
    "medium": "Fresco",
    "genre": "religious art",
    "image": "https://commons.wikimedia.org/wiki/Special:FilePath/Domenico%20Ghirlandaio%20-%20Zacharias%20Writes%20Down%20the%20Name%20of%20his%20Son%20-%20WGA8861.jpg?width=420",
    "wikidata": "https://www.wikidata.org/wiki/Q140774531",
    "_source": {
     "source": "Wikidata",
     "url": "https://www.wikidata.org/wiki/Q140774531",
     "retrieved_at": "2026-08-23"
    },
    "museum_id": "tornabuoni-chapel",
    "qid": "Q140774531",
    "wga_url": "https://www.wga.hu/html/g/ghirland/domenico/6tornab/62tornab/4naming.html"
   }
  },
  {
   "type": "Feature",
   "geometry": {
    "type": "Point",
    "coordinates": [
     -73.9631,
     40.7794
    ]
   },
   "properties": {
    "painter": "Domenico Ghirlandaio",
    "title": "Francesco Sassetti and His Son Teodoro",
    "year": "1488",
    "city": "New York",
    "country": "United States",
    "location": "Metropolitan Museum of Art",
    "kind": "museum",
    "attribution": "generally accepted",
    "status": "present",
    "medium": "Panel",
    "dimensions": "75.9 × 63.8 cm",
    "genre": "portrait",
    "image": "https://commons.wikimedia.org/wiki/Special:FilePath/Francesco%20Sassetti%20%281421%E2%80%931490%29%20and%20His%20Son%20Teodoro%20MET%20DT1369.jpg?width=420",
    "wikipedia_it": "https://it.wikipedia.org/wiki/Ritratto_di_Francesco_Sassetti_con_il_figlio_Teodoro",
    "wikidata": "https://www.wikidata.org/wiki/Q15089686",
    "creation_place": "Florence",
    "creation_lat": 43.7696,
    "creation_lon": 11.2558,
    "_source": {
     "source": "Wikidata",
     "url": "https://www.wikidata.org/wiki/Q15089686",
     "retrieved_at": "2026-08-23"
    },
    "_overrides": {
     "creation": {
      "at": "2026-08-23",
      "source": "derived from start date + Caravaggio's documented itinerary (approximate)"
     }
    },
    "museum_id": "metropolitan-museum-of-art",
    "qid": "Q15089686"
   }
  },
  {
   "type": "Feature",
   "geometry": {
    "type": "Point",
    "coordinates": [
     2.3358,
     48.8611
    ]
   },
   "properties": {
    "painter": "Domenico Ghirlandaio",
    "title": "Madonna and Child",
    "year": "1476",
    "country": "France",
    "location": "Louvre",
    "kind": "museum",
    "attribution": "attributed",
    "status": "present",
    "medium": "Oil on panel",
    "dimensions": "78.7 × 55.5 cm",
    "genre": "religious art",
    "image": "https://commons.wikimedia.org/wiki/Special:FilePath/Domenico%20ghirlandaio%2C%20madonna%20col%20bambino%2C%201473-75%20ca.%20%28louvre%29.jpg?width=420",
    "wikidata": "https://www.wikidata.org/wiki/Q18565939",
    "creation_place": "Florence",
    "creation_lat": 43.7696,
    "creation_lon": 11.2558,
    "_source": {
     "source": "Wikidata",
     "url": "https://www.wikidata.org/wiki/Q18565939",
     "retrieved_at": "2026-08-23"
    },
    "_overrides": {
     "creation": {
      "at": "2026-08-23",
      "source": "derived from start date + Caravaggio's documented itinerary (approximate)"
     }
    },
    "museum_id": "louvre",
    "city": "Paris",
    "qid": "Q18565939"
   }
  },
  {
   "type": "Feature",
   "geometry": {
    "type": "Point",
    "coordinates": [
     -73.9631,
     40.7794
    ]
   },
   "properties": {
    "painter": "Domenico Ghirlandaio",
    "title": "Portrait of a Man",
    "year": "1478",
    "city": "New York",
    "country": "United States",
    "location": "Metropolitan Museum of Art",
    "kind": "museum",
    "attribution": "generally accepted",
    "status": "present",
    "medium": "Wood",
    "dimensions": "54.6 × 44.5 cm",
    "genre": "portrait",
    "image": "https://commons.wikimedia.org/wiki/Special:FilePath/Domenico%20Ghirlandaio%20-%20Portrait%20of%20a%20Man.jpg?width=420",
    "wikipedia_en": "https://en.wikipedia.org/wiki/Portrait_of_a_Man_(Domenico_Ghirlandaio)",
    "wikidata": "https://www.wikidata.org/wiki/Q19376279",
    "creation_place": "Florence",
    "creation_lat": 43.7696,
    "creation_lon": 11.2558,
    "_source": {
     "source": "Wikidata",
     "url": "https://www.wikidata.org/wiki/Q19376279",
     "retrieved_at": "2026-08-23"
    },
    "_overrides": {
     "creation": {
      "at": "2026-08-23",
      "source": "derived from start date + Caravaggio's documented itinerary (approximate)"
     }
    },
    "museum_id": "metropolitan-museum-of-art",
    "qid": "Q19376279"
   }
  },
  {
   "type": "Feature",
   "geometry": {
    "type": "Point",
    "coordinates": [
     -3.19556,
     55.95083
    ]
   },
   "properties": {
    "painter": "Domenico Ghirlandaio",
    "title": "The Virgin Adoring the Christ Child",
    "year": "1470",
    "city": "Edinburgh",
    "country": "United Kingdom",
    "location": "Scottish National Gallery",
    "kind": "museum",
    "attribution": "attributed",
    "status": "present",
    "medium": "Oil on canvas",
    "dimensions": "106.7 × 76.3 cm",
    "genre": "religious art",
    "image": "https://commons.wikimedia.org/wiki/Special:FilePath/Attributed%20to%20Verrocchio%20-%20The%20Virgin%20Adoring%20the%20Christ%20Child%20%28%27The%20Ruskin%20Madonna%27%29%2C%20About%201470%2C%20NG%202338.png?width=420",
    "wikidata": "https://www.wikidata.org/wiki/Q20081867",
    "creation_place": "Florence",
    "creation_lat": 43.7696,
    "creation_lon": 11.2558,
    "_source": {
     "source": "Wikidata",
     "url": "https://www.wikidata.org/wiki/Q20081867",
     "retrieved_at": "2026-08-23"
    },
    "_overrides": {
     "creation": {
      "at": "2026-08-23",
      "source": "derived from start date + Caravaggio's documented itinerary (approximate)"
     }
    },
    "museum_id": "scottish-national-gallery",
    "qid": "Q20081867"
   }
  },
  {
   "type": "Feature",
   "geometry": {
    "type": "Point",
    "coordinates": [
     -77.02,
     38.8914
    ]
   },
   "properties": {
    "painter": "Domenico Ghirlandaio",
    "title": "Madonna and Child",
    "year": "1470",
    "city": "Washington",
    "country": "United States",
    "location": "National Gallery of Art",
    "kind": "museum",
    "attribution": "attributed",
    "status": "present",
    "genre": "religious art",
    "image": "https://commons.wikimedia.org/wiki/Special:FilePath/Madonna%20and%20Child%20sc1087.jpg?width=420",
    "wikidata": "https://www.wikidata.org/wiki/Q20173996",
    "creation_place": "Florence",
    "creation_lat": 43.7696,
    "creation_lon": 11.2558,
    "_source": {
     "source": "Wikidata",
     "url": "https://www.wikidata.org/wiki/Q20173996",
     "retrieved_at": "2026-08-23"
    },
    "_overrides": {
     "creation": {
      "at": "2026-08-23",
      "source": "derived from start date + Caravaggio's documented itinerary (approximate)"
     }
    },
    "museum_id": "national-gallery-of-art",
    "qid": "Q20173996"
   }
  },
  {
   "type": "Feature",
   "geometry": {
    "type": "Point",
    "coordinates": [
     -77.02,
     38.8914
    ]
   },
   "properties": {
    "painter": "Domenico Ghirlandaio",
    "title": "Portrait of Lucrezia Tornabuoni",
    "year": "1475",
    "city": "Washington",
    "country": "United States",
    "location": "National Gallery of Art",
    "kind": "museum",
    "attribution": "attributed",
    "status": "present",
    "medium": "Oil paint, poplar panel, tempera painting",
    "dimensions": "53.3 × 39.9 cm",
    "genre": "portrait",
    "image": "https://commons.wikimedia.org/wiki/Special:FilePath/Lucrezia%20Tornabuoni%20A27994.jpg?width=420",
    "wikidata": "https://www.wikidata.org/wiki/Q20174171",
    "creation_place": "Florence",
    "creation_lat": 43.7696,
    "creation_lon": 11.2558,
    "_source": {
     "source": "Wikidata",
     "url": "https://www.wikidata.org/wiki/Q20174171",
     "retrieved_at": "2026-08-23"
    },
    "_overrides": {
     "creation": {
      "at": "2026-08-23",
      "source": "derived from start date + Caravaggio's documented itinerary (approximate)"
     }
    },
    "museum_id": "national-gallery-of-art",
    "qid": "Q20174171"
   }
  },
  {
   "type": "Feature",
   "geometry": {
    "type": "Point",
    "coordinates": [
     2.3358,
     48.8611
    ]
   },
   "properties": {
    "painter": "Domenico Ghirlandaio",
    "title": "An Old Man and his Grandson",
    "year": "1490",
    "country": "France",
    "location": "Louvre",
    "kind": "museum",
    "attribution": "generally accepted",
    "status": "present",
    "medium": "Poplar panel, tempera",
    "dimensions": "62.7 × 46.3 cm",
    "genre": "portrait",
    "image": "https://commons.wikimedia.org/wiki/Special:FilePath/Ghirlandaio%2C%20Domenico%20-%20An%20Old%20Man%20and%20His%20Grandson%20-%20Louvre%20-%20Google%20Art%20Project.jpg?width=420",
    "wikipedia_es": "https://es.wikipedia.org/wiki/Un_anciano_con_su_nieto",
    "wikipedia_en": "https://en.wikipedia.org/wiki/An_Old_Man_and_his_Grandson",
    "wikipedia_it": "https://it.wikipedia.org/wiki/Ritratto_di_vecchio_con_nipote",
    "wikidata": "https://www.wikidata.org/wiki/Q23915",
    "creation_place": "Florence",
    "creation_lat": 43.7696,
    "creation_lon": 11.2558,
    "_source": {
     "source": "Wikidata",
     "url": "https://www.wikidata.org/wiki/Q23915",
     "retrieved_at": "2026-08-23"
    },
    "_overrides": {
     "creation": {
      "at": "2026-08-23",
      "source": "derived from start date + Caravaggio's documented itinerary (approximate)"
     }
    },
    "museum_id": "louvre",
    "city": "Paris",
    "qid": "Q23915",
    "wga_url": "https://www.wga.hu/html/g/ghirland/domenico/7panel/08oldman.html"
   }
  },
  {
   "type": "Feature",
   "geometry": {
    "type": "Point",
    "coordinates": [
     2.3358,
     48.8611
    ]
   },
   "properties": {
    "painter": "Domenico Ghirlandaio",
    "title": "Visitation",
    "year": "1491",
    "country": "France",
    "location": "Louvre",
    "kind": "museum",
    "attribution": "generally accepted",
    "status": "present",
    "medium": "Panel",
    "dimensions": "172 × 167 cm",
    "genre": "religious art",
    "image": "https://commons.wikimedia.org/wiki/Special:FilePath/La%20Visitation%20avec%20Marie-Jacobie%20et%20Marie-Salom%C3%A9%20-%20Domenico%20Ghirlandaio%20-%20Mus%C3%A9e%20du%20Louvre%20Peintures%20INV%20297%20%3B%20MR%20240.jpg?width=420",
    "wikipedia_es": "https://es.wikipedia.org/wiki/La_Visitaci%C3%B3n_(Ghirlandaio)",
    "wikipedia_en": "https://en.wikipedia.org/wiki/Visitation_(Ghirlandaio)",
    "wikipedia_it": "https://it.wikipedia.org/wiki/Visitazione_(Ghirlandaio)",
    "wikidata": "https://www.wikidata.org/wiki/Q23946",
    "creation_place": "Florence",
    "creation_lat": 43.7696,
    "creation_lon": 11.2558,
    "_source": {
     "source": "Wikidata",
     "url": "https://www.wikidata.org/wiki/Q23946",
     "retrieved_at": "2026-08-23"
    },
    "_overrides": {
     "creation": {
      "at": "2026-08-23",
      "source": "derived from start date + Caravaggio's documented itinerary (approximate)"
     }
    },
    "museum_id": "louvre",
    "city": "Paris",
    "qid": "Q23946",
    "wga_url": "https://www.wga.hu/html/g/ghirland/domenico/7panel/09visita.html"
   }
  },
  {
   "type": "Feature",
   "geometry": {
    "type": "Point",
    "coordinates": [
     -9.15417,
     38.73667
    ]
   },
   "properties": {
    "painter": "Domenico Ghirlandaio",
    "title": "Portrait of a young woman",
    "year": "1490",
    "city": "Lisbon",
    "country": "Portugal",
    "location": "Calouste Gulbenkian Museum",
    "kind": "museum",
    "attribution": "generally accepted",
    "status": "present",
    "medium": "Panel",
    "dimensions": "44 × 32 cm",
    "genre": "portrait",
    "image": "https://commons.wikimedia.org/wiki/Special:FilePath/Domenico%20ghirlandaio%2C%20ritratto%20di%20giovane%20donna%2C%20lisbona.jpg?width=420",
    "wikipedia_it": "https://it.wikipedia.org/wiki/Ritratto_di_giovane_donna_(Ghirlandaio)",
    "wikidata": "https://www.wikidata.org/wiki/Q25443881",
    "creation_place": "Florence",
    "creation_lat": 43.7696,
    "creation_lon": 11.2558,
    "_source": {
     "source": "Wikidata",
     "url": "https://www.wikidata.org/wiki/Q25443881",
     "retrieved_at": "2026-08-23"
    },
    "_overrides": {
     "creation": {
      "at": "2026-08-23",
      "source": "derived from start date + Caravaggio's documented itinerary (approximate)"
     }
    },
    "museum_id": "calouste-gulbenkian-museum",
    "qid": "Q25443881",
    "wga_url": "https://www.wga.hu/html/g/ghirland/domenico/7panel/081portra.html"
   }
  },
  {
   "type": "Feature",
   "geometry": {
    "type": "Point",
    "coordinates": [
     -3.69493,
     40.41604
    ]
   },
   "properties": {
    "painter": "Domenico Ghirlandaio",
    "title": "Portrait of Giovanna Tornabuoni",
    "year": "1480",
    "city": "Madrid",
    "country": "Spain",
    "location": "Thyssen-Bornemisza Museum",
    "kind": "museum",
    "attribution": "generally accepted",
    "status": "present",
    "medium": "Panel",
    "dimensions": "77 × 49 cm",
    "genre": "portrait",
    "image": "https://commons.wikimedia.org/wiki/Special:FilePath/Domenico%20Ghirlandaio%2C%201489-1490%20-%20Portrait%20of%20Giovanna%20Tornabuoni%20-%20Google%20Art%20Project.jpg?width=420",
    "wikipedia_es": "https://es.wikipedia.org/wiki/Retrato_de_Giovanna_Tornabuoni",
    "wikipedia_en": "https://en.wikipedia.org/wiki/Portrait_of_Giovanna_Tornabuoni",
    "wikipedia_it": "https://it.wikipedia.org/wiki/Ritratto_di_Giovanna_Tornabuoni",
    "wikidata": "https://www.wikidata.org/wiki/Q2623789",
    "creation_place": "Florence",
    "creation_lat": 43.7696,
    "creation_lon": 11.2558,
    "_source": {
     "source": "Wikidata",
     "url": "https://www.wikidata.org/wiki/Q2623789",
     "retrieved_at": "2026-08-23"
    },
    "_overrides": {
     "creation": {
      "at": "2026-08-23",
      "source": "derived from start date + Caravaggio's documented itinerary (approximate)"
     }
    },
    "museum_id": "thyssen-bornemisza-museum",
    "qid": "Q2623789",
    "wga_url": "https://www.wga.hu/html/g/ghirland/domenico/7panel/07tornab.html"
   }
  },
  {
   "type": "Feature",
   "geometry": {
    "type": "Point",
    "coordinates": [
     -0.1283,
     51.5089
    ]
   },
   "properties": {
    "painter": "Domenico Ghirlandaio",
    "title": "The Virgin and Child",
    "year": "1485",
    "city": "London",
    "country": "United Kingdom",
    "location": "National Gallery",
    "kind": "museum",
    "attribution": "attributed",
    "status": "present",
    "dimensions": "88.9 × 57.8 cm",
    "genre": "religious art",
    "image": "https://commons.wikimedia.org/wiki/Special:FilePath/Domenico%20Ghirlandaio%20%281449-1494%29%20-%20The%20Virgin%20and%20Child%20-%20NG3937%20-%20National%20Gallery.jpg?width=420",
    "wikidata": "https://www.wikidata.org/wiki/Q26492400",
    "creation_place": "Florence",
    "creation_lat": 43.7696,
    "creation_lon": 11.2558,
    "_source": {
     "source": "Wikidata",
     "url": "https://www.wikidata.org/wiki/Q26492400",
     "retrieved_at": "2026-08-23"
    },
    "_overrides": {
     "creation": {
      "at": "2026-08-23",
      "source": "derived from start date + Caravaggio's documented itinerary (approximate)"
     }
    },
    "museum_id": "national-gallery",
    "qid": "Q26492400"
   }
  },
  {
   "type": "Feature",
   "geometry": {
    "type": "Point",
    "coordinates": [
     0.11944,
     52.20028
    ]
   },
   "properties": {
    "painter": "Domenico Ghirlandaio",
    "title": "The Nativity",
    "year": "1492",
    "city": "Cambridge",
    "country": "United Kingdom",
    "location": "Fitzwilliam Museum",
    "kind": "museum",
    "attribution": "generally accepted",
    "status": "present",
    "medium": "Panel",
    "dimensions": "85 × 63 cm",
    "genre": "religious art",
    "image": "https://commons.wikimedia.org/wiki/Special:FilePath/Domenico%20ghirlandaio%2C%20adorazione%20del%20bambino%2C%20cambridge.jpg?width=420",
    "wikipedia_it": "https://it.wikipedia.org/wiki/Nativit%C3%A0_(Ghirlandaio)",
    "wikidata": "https://www.wikidata.org/wiki/Q31192784",
    "creation_place": "Florence",
    "creation_lat": 43.7696,
    "creation_lon": 11.2558,
    "_source": {
     "source": "Wikidata",
     "url": "https://www.wikidata.org/wiki/Q31192784",
     "retrieved_at": "2026-08-23"
    },
    "_overrides": {
     "creation": {
      "at": "2026-08-23",
      "source": "derived from start date + Caravaggio's documented itinerary (approximate)"
     }
    },
    "museum_id": "fitzwilliam-museum",
    "qid": "Q31192784",
    "wga_url": "https://www.wga.hu/html/g/ghirland/domenico/7panel/13nativi.html"
   }
  },
  {
   "type": "Feature",
   "geometry": {
    "type": "Point",
    "coordinates": [
     11.26111,
     43.77639
    ]
   },
   "properties": {
    "painter": "Domenico Ghirlandaio",
    "title": "Adoration of the Magi",
    "year": "1485",
    "city": "Florence",
    "country": "Italy",
    "location": "Hospital of Innocents",
    "kind": "museum",
    "attribution": "generally accepted",
    "status": "present",
    "medium": "Oil on canvas",
    "dimensions": "285 × 240 cm",
    "genre": "religious art",
    "image": "https://commons.wikimedia.org/wiki/Special:FilePath/Adoration%20of%20the%20Magi%20Spedale%20degli%20Innocenti.jpg?width=420",
    "wikipedia_es": "https://es.wikipedia.org/wiki/Adoraci%C3%B3n_de_los_Reyes_Magos_(Ospedale_degli_Innocenti)",
    "wikipedia_en": "https://en.wikipedia.org/wiki/Adoration_of_the_Magi_(Ospedale_degli_Innocenti)",
    "wikipedia_it": "https://it.wikipedia.org/wiki/Adorazione_dei_Magi_degli_Innocenti",
    "wikidata": "https://www.wikidata.org/wiki/Q3201479",
    "creation_place": "Florence",
    "creation_lat": 43.7696,
    "creation_lon": 11.2558,
    "_source": {
     "source": "Wikidata",
     "url": "https://www.wikidata.org/wiki/Q3201479",
     "retrieved_at": "2026-08-23"
    },
    "_overrides": {
     "creation": {
      "at": "2026-08-23",
      "source": "derived from start date + Caravaggio's documented itinerary (approximate)"
     }
    },
    "museum_id": "hospital-of-innocents",
    "qid": "Q3201479",
    "wga_url": "https://www.wga.hu/html/g/ghirland/domenico/8spedale/spedale.html"
   }
  },
  {
   "type": "Feature",
   "geometry": {
    "type": "Point",
    "coordinates": [
     11.25528,
     43.76833
    ]
   },
   "properties": {
    "painter": "Domenico Ghirlandaio",
    "title": "The Adoration of the Magi",
    "year": "1487",
    "city": "Florence",
    "country": "Italy",
    "location": "Uffizi Gallery",
    "kind": "museum",
    "attribution": "generally accepted",
    "status": "present",
    "genre": "religious art",
    "image": "https://commons.wikimedia.org/wiki/Special:FilePath/Ghirlandaio%2C%20adorazione%20tornabuoni.jpg?width=420",
    "wikipedia_it": "https://it.wikipedia.org/wiki/Adorazione_dei_Magi_Tornabuoni",
    "wikidata": "https://www.wikidata.org/wiki/Q3605541",
    "creation_place": "Florence",
    "creation_lat": 43.7696,
    "creation_lon": 11.2558,
    "_source": {
     "source": "Wikidata",
     "url": "https://www.wikidata.org/wiki/Q3605541",
     "retrieved_at": "2026-08-23"
    },
    "_overrides": {
     "creation": {
      "at": "2026-08-23",
      "source": "derived from start date + Caravaggio's documented itinerary (approximate)"
     }
    },
    "museum_id": "uffizi-gallery",
    "qid": "Q3605541",
    "wga_url": "https://www.wga.hu/html/g/ghirland/domenico/7panel/06tondo.html"
   }
  },
  {
   "type": "Feature",
   "geometry": {
    "type": "Point",
    "coordinates": [
     11.250833,
     43.770278
    ]
   },
   "properties": {
    "painter": "Domenico Ghirlandaio",
    "title": "Adoration of the Shepherds",
    "year": "1480",
    "city": "Florence",
    "country": "Italy",
    "location": "Sassetti Chapel",
    "kind": "church",
    "attribution": "generally accepted",
    "status": "present",
    "medium": "Oil on panel",
    "dimensions": "167 × 167 cm",
    "genre": "religious art",
    "image": "https://commons.wikimedia.org/wiki/Special:FilePath/Domenico%20Ghirlandaio%20-%20Adoration%20of%20the%20Shepherds%20%28detail%29%20-%20WGA08821.jpg?width=420",
    "wikipedia_it": "https://it.wikipedia.org/wiki/Adorazione_dei_pastori_(Ghirlandaio)",
    "wikidata": "https://www.wikidata.org/wiki/Q3605551",
    "creation_place": "Florence",
    "creation_lat": 43.7696,
    "creation_lon": 11.2558,
    "_source": {
     "source": "Wikidata",
     "url": "https://www.wikidata.org/wiki/Q3605551",
     "retrieved_at": "2026-08-23"
    },
    "_overrides": {
     "creation": {
      "at": "2026-08-23",
      "source": "derived from start date + Caravaggio's documented itinerary (approximate)"
     }
    },
    "museum_id": "sassetti-chapel",
    "qid": "Q3605551",
    "wga_url": "https://www.wga.hu/html/g/ghirland/domenico/5sassett/shepherd/shepher2.html"
   }
  },
  {
   "type": "Feature",
   "geometry": {
    "type": "Point",
    "coordinates": [
     10.85954,
     43.40183
    ]
   },
   "properties": {
    "painter": "Domenico Ghirlandaio",
    "title": "Christ in Heaven with Four Saints and a Donor",
    "year": "1492",
    "city": "Volterra",
    "country": "Italy",
    "location": "Pinacoteca e Museo Civico di Volterra",
    "kind": "museum",
    "attribution": "generally accepted",
    "status": "present",
    "medium": "Panel",
    "dimensions": "308 × 199 cm",
    "genre": "religious art",
    "image": "https://commons.wikimedia.org/wiki/Special:FilePath/Christ%20in%20Heaven%20with%20Four%20Saints%20and%20a%20Donor.jpg?width=420",
    "wikipedia_en": "https://en.wikipedia.org/wiki/Christ_in_Glory_with_Four_Saints_and_a_Donor",
    "wikipedia_it": "https://it.wikipedia.org/wiki/Cristo_in_gloria_con_quattro_santi_e_un_donatore",
    "wikidata": "https://www.wikidata.org/wiki/Q3697629",
    "creation_place": "Florence",
    "creation_lat": 43.7696,
    "creation_lon": 11.2558,
    "_source": {
     "source": "Wikidata",
     "url": "https://www.wikidata.org/wiki/Q3697629",
     "retrieved_at": "2026-08-23"
    },
    "_overrides": {
     "creation": {
      "at": "2026-08-23",
      "source": "derived from start date + Caravaggio's documented itinerary (approximate)"
     }
    },
    "museum_id": "pinacoteca-e-museo-civico-di-volterra",
    "qid": "Q3697629",
    "wga_url": "https://www.wga.hu/html/g/ghirland/domenico/7panel/10heaven.html"
   }
  },
  {
   "type": "Feature",
   "geometry": {
    "type": "Point",
    "coordinates": [
     12.2385,
     43.45431
    ]
   },
   "properties": {
    "painter": "Domenico Ghirlandaio",
    "title": "Coronation of the Virgin",
    "year": "1486",
    "city": "Castello",
    "country": "Italy",
    "location": "Citta di Castello Communal Art Gallery",
    "kind": "museum",
    "attribution": "generally accepted",
    "status": "present",
    "medium": "Panel",
    "genre": "religious art",
    "image": "https://commons.wikimedia.org/wiki/Special:FilePath/Domenico%20ghirlandaio%2C%20incoronazione%20della%20vergine%20di%20citt%C3%A0%20di%20castello.jpg?width=420",
    "wikipedia_it": "https://it.wikipedia.org/wiki/Incoronazione_della_Vergine_di_Citt%C3%A0_di_Castello",
    "wikidata": "https://www.wikidata.org/wiki/Q3797780",
    "creation_place": "Florence",
    "creation_lat": 43.7696,
    "creation_lon": 11.2558,
    "_source": {
     "source": "Wikidata",
     "url": "https://www.wikidata.org/wiki/Q3797780",
     "retrieved_at": "2026-08-23"
    },
    "_overrides": {
     "creation": {
      "at": "2026-08-23",
      "source": "derived from start date + Caravaggio's documented itinerary (approximate)"
     }
    },
    "museum_id": "citta-di-castello-communal-art-gallery",
    "qid": "Q3797780",
    "wga_url": "https://www.wga.hu/html/g/ghirland/domenico/7panel/04corona.html"
   }
  },
  {
   "type": "Feature",
   "geometry": {
    "type": "Point",
    "coordinates": [
     12.5146,
     42.5191
    ]
   },
   "properties": {
    "painter": "Domenico Ghirlandaio",
    "title": "Coronation of the Virgin",
    "year": "1486",
    "city": "Narni",
    "country": "Italy",
    "location": "Eroli Museum",
    "kind": "museum",
    "attribution": "generally accepted",
    "status": "present",
    "medium": "Panel",
    "dimensions": "330 × 230 cm",
    "genre": "religious art",
    "image": "https://commons.wikimedia.org/wiki/Special:FilePath/Domenico%20ghirlandaio%2C%20incoronazione%20della%20vergine%20di%20narni.jpg?width=420",
    "wikipedia_it": "https://it.wikipedia.org/wiki/Incoronazione_della_Vergine_di_Narni",
    "wikidata": "https://www.wikidata.org/wiki/Q3797781",
    "creation_place": "Florence",
    "creation_lat": 43.7696,
    "creation_lon": 11.2558,
    "_source": {
     "source": "Wikidata",
     "url": "https://www.wikidata.org/wiki/Q3797781",
     "retrieved_at": "2026-08-23"
    },
    "_overrides": {
     "creation": {
      "at": "2026-08-23",
      "source": "derived from start date + Caravaggio's documented itinerary (approximate)"
     }
    },
    "museum_id": "eroli-museum",
    "qid": "Q3797781",
    "wga_url": "https://www.wga.hu/html/g/ghirland/domenico/7panel/03corona.html"
   }
  },
  {
   "type": "Feature",
   "geometry": {
    "type": "Point",
    "coordinates": [
     10.50587,
     43.84066
    ]
   },
   "properties": {
    "painter": "Domenico Ghirlandaio",
    "title": "Madonna and Child Enthroned with Saints",
    "year": "1479",
    "city": "Lucca",
    "country": "Italy",
    "location": "Lucca Cathedral",
    "kind": "church",
    "attribution": "generally accepted",
    "status": "present",
    "medium": "Panel",
    "dimensions": "170 × 160 cm",
    "genre": "religious art",
    "image": "https://commons.wikimedia.org/wiki/Special:FilePath/Domenico%20ghirlandaio%2C%20Madonna%20and%20Child%20Enthroned%20with%20Saints%2C%20lucca%2001.jpg?width=420",
    "wikipedia_it": "https://it.wikipedia.org/wiki/Madonna_in_trono_col_Bambino_e_santi_(Ghirlandaio_Lucca)",
    "wikidata": "https://www.wikidata.org/wiki/Q3842757",
    "creation_place": "Florence",
    "creation_lat": 43.7696,
    "creation_lon": 11.2558,
    "_source": {
     "source": "Wikidata",
     "url": "https://www.wikidata.org/wiki/Q3842757",
     "retrieved_at": "2026-08-23"
    },
    "_overrides": {
     "creation": {
      "at": "2026-08-23",
      "source": "derived from start date + Caravaggio's documented itinerary (approximate)"
     }
    },
    "museum_id": "lucca-cathedral",
    "qid": "Q3842757",
    "wga_url": "https://www.wga.hu/html/g/ghirland/domenico/7panel/01madonn.html"
   }
  },
  {
   "type": "Feature",
   "geometry": {
    "type": "Point",
    "coordinates": [
     11.25528,
     43.76833
    ]
   },
   "properties": {
    "painter": "Domenico Ghirlandaio",
    "title": "Madonna and Child Enthroned with Saints",
    "year": "1484",
    "city": "Florence",
    "country": "Italy",
    "location": "Uffizi Gallery",
    "kind": "museum",
    "attribution": "generally accepted",
    "status": "present",
    "dimensions": "190 × 200 cm",
    "genre": "religious art",
    "image": "https://commons.wikimedia.org/wiki/Special:FilePath/Domenico%20Ghirlandaio%20Madonna%20and%20Child%20enthroned%20with%20Saint%20c%201483.jpg?width=420",
    "wikipedia_es": "https://es.wikipedia.org/wiki/Sacra_conversazione_degli_Ingesuati",
    "wikipedia_it": "https://it.wikipedia.org/wiki/Sacra_conversazione_degli_Ingesuati",
    "wikidata": "https://www.wikidata.org/wiki/Q3944518",
    "creation_place": "Florence",
    "creation_lat": 43.7696,
    "creation_lon": 11.2558,
    "_source": {
     "source": "Wikidata",
     "url": "https://www.wikidata.org/wiki/Q3944518",
     "retrieved_at": "2026-08-23"
    },
    "_overrides": {
     "creation": {
      "at": "2026-08-23",
      "source": "derived from start date + Caravaggio's documented itinerary (approximate)"
     }
    },
    "museum_id": "uffizi-gallery",
    "qid": "Q3944518",
    "wga_url": "https://www.wga.hu/html/g/ghirland/domenico/7panel/02madonn.html"
   }
  },
  {
   "type": "Feature",
   "geometry": {
    "type": "Point",
    "coordinates": [
     11.25528,
     43.76833
    ]
   },
   "properties": {
    "painter": "Domenico Ghirlandaio",
    "title": "Madonna and Child Enthroned between Angels and Saints",
    "year": "1483",
    "city": "Florence",
    "country": "Italy",
    "location": "Uffizi Gallery",
    "kind": "museum",
    "attribution": "generally accepted",
    "status": "present",
    "medium": "Panel",
    "dimensions": "168 × 197 cm",
    "genre": "religious art",
    "image": "https://commons.wikimedia.org/wiki/Special:FilePath/Domenico%20Ghirlandaio%20Madonna%20and%20Child%20enthroned%20between%20Angels%20and%20Saint%20c%201486.jpg?width=420",
    "wikipedia_it": "https://it.wikipedia.org/wiki/Sacra_conversazione_di_Monticelli",
    "wikidata": "https://www.wikidata.org/wiki/Q3944520",
    "creation_place": "Florence",
    "creation_lat": 43.7696,
    "creation_lon": 11.2558,
    "_source": {
     "source": "Wikidata",
     "url": "https://www.wikidata.org/wiki/Q3944520",
     "retrieved_at": "2026-08-23"
    },
    "_overrides": {
     "creation": {
      "at": "2026-08-23",
      "source": "derived from start date + Caravaggio's documented itinerary (approximate)"
     }
    },
    "museum_id": "uffizi-gallery",
    "qid": "Q3944520",
    "wga_url": "https://www.wga.hu/html/g/ghirland/domenico/7panel/05madon.html"
   }
  },
  {
   "type": "Feature",
   "geometry": {
    "type": "Point",
    "coordinates": [
     -73.9631,
     40.7794
    ]
   },
   "properties": {
    "painter": "Domenico Ghirlandaio",
    "title": "Saint Christopher and the Infant Christ",
    "year": "1473",
    "city": "New York",
    "country": "United States",
    "location": "Metropolitan Museum of Art",
    "kind": "museum",
    "attribution": "generally accepted",
    "status": "present",
    "medium": "Fresco",
    "dimensions": "284.5 × 149.9 cm",
    "genre": "religious art",
    "image": "https://commons.wikimedia.org/wiki/Special:FilePath/Ghirlandaio%2C%20san%20cristoforo%2C%20forse%20da%20san%20miniato%20fra%20le%20torri.JPG?width=420",
    "wikipedia_it": "https://it.wikipedia.org/wiki/San_Cristoforo_(Ghirlandaio)",
    "wikidata": "https://www.wikidata.org/wiki/Q3946909",
    "creation_place": "Florence",
    "creation_lat": 43.7696,
    "creation_lon": 11.2558,
    "_source": {
     "source": "Wikidata",
     "url": "https://www.wikidata.org/wiki/Q3946909",
     "retrieved_at": "2026-08-23"
    },
    "_overrides": {
     "creation": {
      "at": "2026-08-23",
      "source": "derived from start date + Caravaggio's documented itinerary (approximate)"
     }
    },
    "museum_id": "metropolitan-museum-of-art",
    "qid": "Q3946909"
   }
  },
  {
   "type": "Feature",
   "geometry": {
    "type": "Point",
    "coordinates": [
     11.2589,
     43.7769
    ]
   },
   "properties": {
    "painter": "Domenico Ghirlandaio",
    "title": "Saints Stephen, James, and Peter",
    "year": "1493",
    "city": "Florence",
    "country": "Italy",
    "location": "Galleria dell'Accademia",
    "kind": "museum",
    "attribution": "generally accepted",
    "status": "present",
    "dimensions": "174.5 × 172 cm",
    "genre": "religious art",
    "image": "https://commons.wikimedia.org/wiki/Special:FilePath/Ghirlandaio%2C%20Santo%20Stefano%20tra%20i%20santi%20Jacopo%20e%20Pietro%2C%20accademia.jpg?width=420",
    "wikipedia_it": "https://it.wikipedia.org/wiki/Santo_Stefano_tra_i_santi_Jacopo_e_Pietro",
    "wikidata": "https://www.wikidata.org/wiki/Q3949523",
    "creation_place": "Florence",
    "creation_lat": 43.7696,
    "creation_lon": 11.2558,
    "_source": {
     "source": "Wikidata",
     "url": "https://www.wikidata.org/wiki/Q3949523",
     "retrieved_at": "2026-08-23"
    },
    "_overrides": {
     "creation": {
      "at": "2026-08-23",
      "source": "derived from start date + Caravaggio's documented itinerary (approximate)"
     }
    },
    "museum_id": "galleria-dell-accademia",
    "qid": "Q3949523"
   }
  },
  {
   "type": "Feature",
   "geometry": {
    "type": "Point",
    "coordinates": [
     19.07678,
     47.51587
    ]
   },
   "properties": {
    "painter": "Domenico Ghirlandaio",
    "title": "Saint John the Evangelist on the Island of Patmos",
    "year": "1482",
    "city": "Budapest district XIV",
    "country": "Hungary",
    "location": "Museum of Fine Arts, Budapest",
    "kind": "museum",
    "attribution": "attributed",
    "status": "present",
    "medium": "Panel",
    "genre": "religious art",
    "image": "https://commons.wikimedia.org/wiki/Special:FilePath/Domenico%20Ghirlandaio%20-%20St%20John%20the%20Evangelist%20on%20the%20Island%20of%20Patmos%20-%20WGA8885.jpg?width=420",
    "wikidata": "https://www.wikidata.org/wiki/Q50900342",
    "creation_place": "Florence",
    "creation_lat": 43.7696,
    "creation_lon": 11.2558,
    "_source": {
     "source": "Wikidata",
     "url": "https://www.wikidata.org/wiki/Q50900342",
     "retrieved_at": "2026-08-23"
    },
    "_overrides": {
     "creation": {
      "at": "2026-08-23",
      "source": "derived from start date + Caravaggio's documented itinerary (approximate)"
     }
    },
    "museum_id": "museum-of-fine-arts-budapest",
    "qid": "Q50900342",
    "wga_url": "https://www.wga.hu/html/g/ghirland/domenico/7panel/02patmox.html"
   }
  },
  {
   "type": "Feature",
   "geometry": {
    "type": "Point",
    "coordinates": [
     -71.094166666,
     42.339444444
    ]
   },
   "properties": {
    "painter": "Domenico Ghirlandaio",
    "title": "Virgin and Child; Coronation of the Virgin",
    "year": "1480",
    "location": "Museum of Fine Arts Boston",
    "city": "Boston",
    "country": "United States",
    "attribution": "generally accepted",
    "image": "https://commons.wikimedia.org/wiki/Special:FilePath/Domenico%20Ghirlandaio%20-%20Virgin%20and%20Child%2C%20Coronation%20of%20the%20Virgin%20-%2022.5%20-%20Museum%20of%20Fine%20Arts.jpg?width=500",
    "qid": "Q20539100",
    "wikidata": "https://www.wikidata.org/wiki/Q20539100",
    "_source": {
     "source": "Wikidata",
     "url": "https://www.wikidata.org/wiki/Q20539100",
     "note": "harvested: painting by this creator with an image and a documented collection"
    },
    "creation_place": "Florence",
    "creation_lat": 43.771389,
    "creation_lon": 11.254167,
    "_overrides": {
     "creation": {
      "at": "2026-08-24",
      "source": "derived",
      "note": "creation place inferred from the painter's itinerary at this work's date (approximate)"
     }
    }
   }
  },
  {
   "type": "Feature",
   "geometry": {
    "type": "Point",
    "coordinates": [
     11.569985,
     48.148291
    ]
   },
   "properties": {
    "painter": "Domenico Ghirlandaio",
    "title": "St Catherine of Siena",
    "year": "1490",
    "location": "Alte Pinakothek",
    "city": "Munich",
    "country": "Germany",
    "attribution": "generally accepted",
    "image": "https://commons.wikimedia.org/wiki/Special:FilePath/Ghirlandaio%2C%20santa%20caterina%20da%20siena.jpg?width=500",
    "qid": "Q21968095",
    "wikidata": "https://www.wikidata.org/wiki/Q21968095",
    "_source": {
     "source": "Wikidata",
     "url": "https://www.wikidata.org/wiki/Q21968095",
     "note": "harvested: painting by this creator with an image and a documented collection"
    },
    "creation_place": "Florence",
    "creation_lat": 43.771389,
    "creation_lon": 11.254167,
    "_overrides": {
     "creation": {
      "at": "2026-08-24",
      "source": "derived",
      "note": "creation place inferred from the painter's itinerary at this work's date (approximate)"
     }
    }
   }
  },
  {
   "type": "Feature",
   "geometry": {
    "type": "Point",
    "coordinates": [
     11.569985,
     48.148291
    ]
   },
   "properties": {
    "painter": "Domenico Ghirlandaio",
    "title": "St Lawrence",
    "year": "1490",
    "location": "Alte Pinakothek",
    "city": "Munich",
    "country": "Germany",
    "attribution": "generally accepted",
    "image": "https://commons.wikimedia.org/wiki/Special:FilePath/Ghirlandaio%2C%20san%20lorenzo.jpg?width=500",
    "qid": "Q21968101",
    "wikidata": "https://www.wikidata.org/wiki/Q21968101",
    "_source": {
     "source": "Wikidata",
     "url": "https://www.wikidata.org/wiki/Q21968101",
     "note": "harvested: painting by this creator with an image and a documented collection"
    },
    "creation_place": "Florence",
    "creation_lat": 43.771389,
    "creation_lon": 11.254167,
    "_overrides": {
     "creation": {
      "at": "2026-08-24",
      "source": "derived",
      "note": "creation place inferred from the painter's itinerary at this work's date (approximate)"
     }
    }
   }
  },
  {
   "type": "Feature",
   "geometry": {
    "type": "Point",
    "coordinates": [
     13.364722222,
     52.508611111
    ]
   },
   "properties": {
    "painter": "Domenico Ghirlandaio",
    "title": "The Meeting of the Young Christ and the Young St. John",
    "year": "1485",
    "location": "Gemäldegalerie Berlin",
    "city": "Bezirk Mitte",
    "country": "Germany",
    "attribution": "generally accepted",
    "image": "https://commons.wikimedia.org/wiki/Special:FilePath/Domenico%20Ghirlandaio%20%281448%20-%201494%29%20-%20The%20Meeting%20of%20the%20Young%20Christ%20and%20the%20Young%20St.%20John%20-%2093%20-%20Gem%C3%A4ldegalerie.jpg?width=500",
    "qid": "Q107436077",
    "wikidata": "https://www.wikidata.org/wiki/Q107436077",
    "_source": {
     "source": "Wikidata",
     "url": "https://www.wikidata.org/wiki/Q107436077",
     "note": "harvested: painting by this creator with an image and a documented collection"
    },
    "creation_place": "Florence",
    "creation_lat": 43.771389,
    "creation_lon": 11.254167,
    "_overrides": {
     "creation": {
      "at": "2026-08-24",
      "source": "derived",
      "note": "creation place inferred from the painter's itinerary at this work's date (approximate)"
     }
    }
   }
  },
  {
   "type": "Feature",
   "geometry": {
    "type": "Point",
    "coordinates": [
     13.364722222,
     52.508611111
    ]
   },
   "properties": {
    "painter": "Domenico Ghirlandaio",
    "title": "Saint Vincent Ferrer",
    "year": "1494",
    "location": "Gemäldegalerie Berlin",
    "city": "Bezirk Mitte",
    "country": "Germany",
    "attribution": "generally accepted",
    "image": "https://commons.wikimedia.org/wiki/Special:FilePath/San%20Vicente%20Ferrer%20%28parte%20del%20Retablo%20Tornabuoni%29%20-%20Domenico%20Ghirlandaio.jpg?width=500",
    "qid": "Q107436829",
    "wikidata": "https://www.wikidata.org/wiki/Q107436829",
    "_source": {
     "source": "Wikidata",
     "url": "https://www.wikidata.org/wiki/Q107436829",
     "note": "harvested: painting by this creator with an image and a documented collection"
    },
    "creation_place": "Florence",
    "creation_lat": 43.771389,
    "creation_lon": 11.254167,
    "_overrides": {
     "creation": {
      "at": "2026-08-24",
      "source": "derived",
      "note": "creation place inferred from the painter's itinerary at this work's date (approximate)"
     }
    }
   }
  },
  {
   "type": "Feature",
   "geometry": {
    "type": "Point",
    "coordinates": [
     13.364722222,
     52.508611111
    ]
   },
   "properties": {
    "painter": "Domenico Ghirlandaio",
    "title": "Saint Antoninus Pierozzi",
    "year": "1494",
    "location": "Gemäldegalerie Berlin",
    "city": "Bezirk Mitte",
    "country": "Germany",
    "attribution": "generally accepted",
    "image": "https://commons.wikimedia.org/wiki/Special:FilePath/San%20Antonino%20Pierozzi%20%28parte%20del%20Retablo%20Tornabuoni%29%20-%20Domenico%20Ghirlandaio.jpg?width=500",
    "qid": "Q107436830",
    "wikidata": "https://www.wikidata.org/wiki/Q107436830",
    "_source": {
     "source": "Wikidata",
     "url": "https://www.wikidata.org/wiki/Q107436830",
     "note": "harvested: painting by this creator with an image and a documented collection"
    },
    "creation_place": "Florence",
    "creation_lat": 43.771389,
    "creation_lon": 11.254167,
    "_overrides": {
     "creation": {
      "at": "2026-08-24",
      "source": "derived",
      "note": "creation place inferred from the painter's itinerary at this work's date (approximate)"
     }
    }
   }
  },
  {
   "type": "Feature",
   "geometry": {
    "type": "Point",
    "coordinates": [
     13.364722222,
     52.508611111
    ]
   },
   "properties": {
    "painter": "Domenico Ghirlandaio",
    "title": "Mary with the child adored by four saints",
    "year": "1490",
    "location": "Gemäldegalerie Berlin",
    "city": "Bezirk Mitte",
    "country": "Germany",
    "attribution": "generally accepted",
    "image": "https://commons.wikimedia.org/wiki/Special:FilePath/Werkstatt%2C%20Domenico%20Ghirlandaio%20%281448%20-%201494%29%20-%20Mary%20with%20the%20child%20adored%20by%20four%20saints%20-%2088%20-%20Gem%C3%A4ldegalerie.jpg?width=500",
    "qid": "Q107436835",
    "wikidata": "https://www.wikidata.org/wiki/Q107436835",
    "_source": {
     "source": "Wikidata",
     "url": "https://www.wikidata.org/wiki/Q107436835",
     "note": "harvested: painting by this creator with an image and a documented collection"
    },
    "creation_place": "Florence",
    "creation_lat": 43.771389,
    "creation_lon": 11.254167,
    "_overrides": {
     "creation": {
      "at": "2026-08-24",
      "source": "derived",
      "note": "creation place inferred from the painter's itinerary at this work's date (approximate)"
     }
    }
   }
  },
  {
   "type": "Feature",
   "geometry": {
    "type": "Point",
    "coordinates": [
     13.364722222,
     52.508611111
    ]
   },
   "properties": {
    "painter": "Domenico Ghirlandaio",
    "title": "Adoration of the Kings",
    "year": "",
    "location": "Gemäldegalerie Berlin",
    "city": "Bezirk Mitte",
    "country": "Germany",
    "attribution": "generally accepted",
    "image": "https://commons.wikimedia.org/wiki/Special:FilePath/Schule%2C%20Domenico%20Ghirlandaio%20%281448%20-%201494%29%20-%20Adoration%20of%20the%20Kings%20-%201378%20-%20Gem%C3%A4ldegalerie.jpg?width=500",
    "qid": "Q107437231",
    "wikidata": "https://www.wikidata.org/wiki/Q107437231",
    "_source": {
     "source": "Wikidata",
     "url": "https://www.wikidata.org/wiki/Q107437231",
     "note": "harvested: painting by this creator with an image and a documented collection"
    }
   }
  },
  {
   "type": "Feature",
   "geometry": {
    "type": "Point",
    "coordinates": [
     13.364722222,
     52.508611111
    ]
   },
   "properties": {
    "painter": "Domenico Ghirlandaio",
    "title": "Mary, John and Christ as a Child",
    "year": "",
    "location": "Gemäldegalerie Berlin",
    "city": "Bezirk Mitte",
    "country": "Germany",
    "attribution": "generally accepted",
    "image": "https://commons.wikimedia.org/wiki/Special:FilePath/Schule%2C%20Domenico%20Ghirlandaio%20%281448%20-%201494%29%20-%20Mary%2C%20John%20and%20Christ%20as%20a%20Child%20-%201379A%20-%20Gem%C3%A4ldegalerie.jpg?width=500",
    "qid": "Q107437235",
    "wikidata": "https://www.wikidata.org/wiki/Q107437235",
    "_source": {
     "source": "Wikidata",
     "url": "https://www.wikidata.org/wiki/Q107437235",
     "note": "harvested: painting by this creator with an image and a documented collection"
    }
   }
  },
  {
   "type": "Feature",
   "geometry": {
    "type": "Point",
    "coordinates": [
     13.364722222,
     52.508611111
    ]
   },
   "properties": {
    "painter": "Domenico Ghirlandaio",
    "title": "Saint Jerome",
    "year": "",
    "location": "Gemäldegalerie Berlin",
    "city": "Bezirk Mitte",
    "country": "Germany",
    "attribution": "generally accepted",
    "image": "https://commons.wikimedia.org/wiki/Special:FilePath/Nachfolge%2C%20Domenico%20Ghirlandaio%20%281448%20-%201494%29%20-%20Saint%20Jerome%20-%201380%20-%20Gem%C3%A4ldegalerie.jpg?width=500",
    "qid": "Q107437238",
    "wikidata": "https://www.wikidata.org/wiki/Q107437238",
    "_source": {
     "source": "Wikidata",
     "url": "https://www.wikidata.org/wiki/Q107437238",
     "note": "harvested: painting by this creator with an image and a documented collection"
    }
   }
  },
  {
   "type": "Feature",
   "geometry": {
    "type": "Point",
    "coordinates": [
     -0.128333333,
     51.508888888
    ]
   },
   "properties": {
    "painter": "Domenico Ghirlandaio",
    "title": "Portrait of a Young Man in Red",
    "year": "1480",
    "location": "National Gallery",
    "city": "City of Westminster",
    "country": "United Kingdom",
    "attribution": "generally accepted",
    "image": "https://commons.wikimedia.org/wiki/Special:FilePath/Domenico%20Ghirlandaio%20%281449-1494%29%20-%20Portrait%20of%20a%20Young%20Man%20in%20Red%20-%20NG2489%20-%20National%20Gallery.jpg?width=500",
    "qid": "Q26492868",
    "wikidata": "https://www.wikidata.org/wiki/Q26492868",
    "_source": {
     "source": "Wikidata",
     "url": "https://www.wikidata.org/wiki/Q26492868",
     "note": "harvested: painting by this creator with an image and a documented collection"
    },
    "creation_place": "Florence",
    "creation_lat": 43.771389,
    "creation_lon": 11.254167,
    "_overrides": {
     "creation": {
      "at": "2026-08-24",
      "source": "derived",
      "note": "creation place inferred from the painter's itinerary at this work's date (approximate)"
     }
    }
   }
  },
  {
   "type": "Feature",
   "geometry": {
    "type": "Point",
    "coordinates": [
     -0.128333333,
     51.508888888
    ]
   },
   "properties": {
    "painter": "Domenico Ghirlandaio",
    "title": "A Legend of Saints Justus and Clement of Volterra",
    "year": "1479",
    "location": "National Gallery",
    "city": "City of Westminster",
    "country": "United Kingdom",
    "attribution": "generally accepted",
    "image": "https://commons.wikimedia.org/wiki/Special:FilePath/Ghirlandaio%2C%20Domenico%20-%20Saints%20Justus%20and%20Clement.jpg?width=500",
    "qid": "Q26705849",
    "wikidata": "https://www.wikidata.org/wiki/Q26705849",
    "_source": {
     "source": "Wikidata",
     "url": "https://www.wikidata.org/wiki/Q26705849",
     "note": "harvested: painting by this creator with an image and a documented collection"
    },
    "creation_place": "Florence",
    "creation_lat": 43.771389,
    "creation_lon": 11.254167,
    "_overrides": {
     "creation": {
      "at": "2026-08-24",
      "source": "derived",
      "note": "creation place inferred from the painter's itinerary at this work's date (approximate)"
     }
    }
   }
  },
  {
   "type": "Feature",
   "geometry": {
    "type": "Point",
    "coordinates": [
     19.07678,
     47.51587
    ]
   },
   "properties": {
    "painter": "Domenico Ghirlandaio",
    "title": "Saint Stephen Protomartyr",
    "year": "1490",
    "location": "Museum of Fine Arts, Budapest",
    "city": "Budapest district XIV",
    "country": "Hungary",
    "attribution": "generally accepted",
    "image": "https://commons.wikimedia.org/wiki/Special:FilePath/Domenico%20Ghirlandaio%20-%20St%20Stephen%20-%20WGA8900.jpg?width=500",
    "qid": "Q50989260",
    "wikidata": "https://www.wikidata.org/wiki/Q50989260",
    "_source": {
     "source": "Wikidata",
     "url": "https://www.wikidata.org/wiki/Q50989260",
     "note": "harvested: painting by this creator with an image and a documented collection"
    },
    "creation_place": "Florence",
    "creation_lat": 43.771389,
    "creation_lon": 11.254167,
    "_overrides": {
     "creation": {
      "at": "2026-08-24",
      "source": "derived",
      "note": "creation place inferred from the painter's itinerary at this work's date (approximate)"
     }
    }
   }
  },
  {
   "type": "Feature",
   "geometry": {
    "type": "Point",
    "coordinates": [
     12.4449,
     50.9919
    ]
   },
   "properties": {
    "painter": "Domenico Ghirlandaio",
    "title": "Portrait of a woman",
    "year": "1485",
    "location": "Lindenau museum",
    "city": "Altenburg",
    "country": "Germany",
    "attribution": "generally accepted",
    "image": "https://commons.wikimedia.org/wiki/Special:FilePath/Remember%20Me%20exhibition%2C%20Rijksmuseum%20110.jpg?width=500",
    "qid": "Q110086441",
    "wikidata": "https://www.wikidata.org/wiki/Q110086441",
    "_source": {
     "source": "Wikidata",
     "url": "https://www.wikidata.org/wiki/Q110086441",
     "note": "harvested: painting by this creator with an image and a documented collection"
    },
    "creation_place": "Florence",
    "creation_lat": 43.771389,
    "creation_lon": 11.254167,
    "_overrides": {
     "creation": {
      "at": "2026-08-24",
      "source": "derived",
      "note": "creation place inferred from the painter's itinerary at this work's date (approximate)"
     }
    }
   }
  },
  {
   "type": "Feature",
   "geometry": {
    "type": "Point",
    "coordinates": [
     11.04277,
     43.46782
    ]
   },
   "properties": {
    "painter": "Domenico Ghirlandaio",
    "title": "Announcement of Death to St Fina",
    "year": "1473",
    "location": "Collegiate Church of San Gimignano",
    "city": "San Gimignano",
    "country": "Italy",
    "attribution": "generally accepted",
    "image": "https://commons.wikimedia.org/wiki/Special:FilePath/Domenico%20Ghirlandaio%20-%20Announcement%20of%20Death%20to%20St%20Fina%20-%20WGA08755.jpg?width=500",
    "qid": "Q112666920",
    "wikidata": "https://www.wikidata.org/wiki/Q112666920",
    "_source": {
     "source": "Wikidata",
     "url": "https://www.wikidata.org/wiki/Q112666920",
     "note": "harvested: painting by this creator with an image and a documented collection"
    },
    "creation_place": "Florence",
    "creation_lat": 43.771389,
    "creation_lon": 11.254167,
    "_overrides": {
     "creation": {
      "at": "2026-08-24",
      "source": "derived",
      "note": "creation place inferred from the painter's itinerary at this work's date (approximate)"
     }
    }
   }
  },
  {
   "type": "Feature",
   "geometry": {
    "type": "Point",
    "coordinates": [
     -83.064722222,
     42.359444444
    ]
   },
   "properties": {
    "painter": "Domenico Ghirlandaio",
    "title": "Portrait of a Young Man",
    "year": "1448",
    "location": "Detroit Institute of Arts",
    "city": "Detroit",
    "country": "United States",
    "attribution": "generally accepted",
    "image": "https://commons.wikimedia.org/wiki/Special:FilePath/Domenico%20Ghirlandaio%20-%20Young%20Man%20-%2053.468%20-%20Detroit%20Institute%20of%20Arts.jpg?width=500",
    "qid": "Q64514356",
    "wikidata": "https://www.wikidata.org/wiki/Q64514356",
    "_source": {
     "source": "Wikidata",
     "url": "https://www.wikidata.org/wiki/Q64514356",
     "note": "harvested: painting by this creator with an image and a documented collection"
    }
   }
  },
  {
   "type": "Feature",
   "geometry": {
    "type": "Point",
    "coordinates": [
     -83.064722222,
     42.359444444
    ]
   },
   "properties": {
    "painter": "Domenico Ghirlandaio",
    "title": "Archangel Saint Michael and the Angels at War with the Devil",
    "year": "1448",
    "location": "Detroit Institute of Arts",
    "city": "Detroit",
    "country": "United States",
    "attribution": "generally accepted",
    "image": "https://commons.wikimedia.org/wiki/Special:FilePath/Domenico%20Ghirlandaio%20-%20Saint%20Michael%20and%20the%20Angels%20at%20War%20with%20the%20Devil%20-%2025.205%20-%20Detroit%20Institute%20of%20Arts.jpg?width=500",
    "qid": "Q64514361",
    "wikidata": "https://www.wikidata.org/wiki/Q64514361",
    "_source": {
     "source": "Wikidata",
     "url": "https://www.wikidata.org/wiki/Q64514361",
     "note": "harvested: painting by this creator with an image and a documented collection"
    }
   }
  },
  {
   "type": "Feature",
   "geometry": {
    "type": "Point",
    "coordinates": [
     -118.1125,
     34.129166666
    ]
   },
   "properties": {
    "painter": "Domenico Ghirlandaio",
    "title": "Portrait of a Man",
    "year": "1490",
    "location": "The Huntington Library, Art Museum, and Botanical Gardens",
    "city": "San Marino",
    "country": "United States",
    "attribution": "generally accepted",
    "image": "https://commons.wikimedia.org/wiki/Special:FilePath/Ghirlandaio%2C%20Domenico%20-%20Portrait%20of%20a%20Man%20-%20Huntington%20Library.jpg?width=500",
    "qid": "Q98857387",
    "wikidata": "https://www.wikidata.org/wiki/Q98857387",
    "_source": {
     "source": "Wikidata",
     "url": "https://www.wikidata.org/wiki/Q98857387",
     "note": "harvested: painting by this creator with an image and a documented collection"
    },
    "creation_place": "Florence",
    "creation_lat": 43.771389,
    "creation_lon": 11.254167,
    "_overrides": {
     "creation": {
      "at": "2026-08-24",
      "source": "derived",
      "note": "creation place inferred from the painter's itinerary at this work's date (approximate)"
     }
    }
   }
  },
  {
   "type": "Feature",
   "geometry": {
    "type": "Point",
    "coordinates": [
     -118.1125,
     34.129166666
    ]
   },
   "properties": {
    "painter": "Domenico Ghirlandaio",
    "title": "Portrait of a Woman",
    "year": "1490",
    "location": "The Huntington Library, Art Museum, and Botanical Gardens",
    "city": "San Marino",
    "country": "United States",
    "attribution": "generally accepted",
    "image": "https://commons.wikimedia.org/wiki/Special:FilePath/Ghirlandaio%2C%20Domenico%20-%20Portrait%20of%20a%20Woman%20-%20Huntington%20Library.jpg?width=500",
    "qid": "Q99288209",
    "wikidata": "https://www.wikidata.org/wiki/Q99288209",
    "_source": {
     "source": "Wikidata",
     "url": "https://www.wikidata.org/wiki/Q99288209",
     "note": "harvested: painting by this creator with an image and a documented collection"
    },
    "creation_place": "Florence",
    "creation_lat": 43.771389,
    "creation_lon": 11.254167,
    "_overrides": {
     "creation": {
      "at": "2026-08-24",
      "source": "derived",
      "note": "creation place inferred from the painter's itinerary at this work's date (approximate)"
     }
    }
   }
  },
  {
   "type": "Feature",
   "geometry": {
    "type": "Point",
    "coordinates": [
     -73.2136,
     42.7078
    ]
   },
   "properties": {
    "painter": "Domenico Ghirlandaio",
    "title": "Portrait of a Lady",
    "year": "1490",
    "location": "Clark Art Institute",
    "city": "Massachusetts",
    "country": "United States",
    "attribution": "generally accepted",
    "image": "https://commons.wikimedia.org/wiki/Special:FilePath/Domenico%20Ghirlandaio%20Portrait%20of%20a%20Lady.jpg?width=500",
    "qid": "Q104773734",
    "wikidata": "https://www.wikidata.org/wiki/Q104773734",
    "_source": {
     "source": "Wikidata",
     "url": "https://www.wikidata.org/wiki/Q104773734",
     "note": "harvested: painting by this creator with an image and a documented collection"
    },
    "creation_place": "Florence",
    "creation_lat": 43.771389,
    "creation_lon": 11.254167,
    "_overrides": {
     "creation": {
      "at": "2026-08-24",
      "source": "derived",
      "note": "creation place inferred from the painter's itinerary at this work's date (approximate)"
     }
    }
   }
  },
  {
   "type": "Feature",
   "geometry": {
    "type": "Point",
    "coordinates": [
     3.880191666,
     43.611736111
    ]
   },
   "properties": {
    "painter": "Domenico Ghirlandaio",
    "title": "Portrait de jeune femme",
    "year": "1490",
    "location": "Musée Fabre",
    "city": "Montpellier",
    "country": "France",
    "attribution": "generally accepted",
    "image": "https://commons.wikimedia.org/wiki/Special:FilePath/Ghirlandaio-Portraits.JPG?width=500",
    "qid": "Q115673188",
    "wikidata": "https://www.wikidata.org/wiki/Q115673188",
    "_source": {
     "source": "Wikidata",
     "url": "https://www.wikidata.org/wiki/Q115673188",
     "note": "harvested: painting by this creator with an image and a documented collection"
    },
    "creation_place": "Florence",
    "creation_lat": 43.771389,
    "creation_lon": 11.254167,
    "_overrides": {
     "creation": {
      "at": "2026-08-24",
      "source": "derived",
      "note": "creation place inferred from the painter's itinerary at this work's date (approximate)"
     }
    }
   }
  },
  {
   "type": "Feature",
   "geometry": {
    "type": "Point",
    "coordinates": [
     -6.25255,
     53.34091
    ]
   },
   "properties": {
    "painter": "Domenico Ghirlandaio",
    "title": "Presumed Portrait of Clarice Orsini, Wife of Lorenzo the Magnificent",
    "year": "1490",
    "location": "National Gallery of Ireland",
    "city": "Dublin City",
    "country": "Ireland",
    "attribution": "generally accepted",
    "image": "https://commons.wikimedia.org/wiki/Special:FilePath/Clarice%20Orsini%20de%20Medici.JPG?width=500",
    "qid": "Q77899223",
    "wikidata": "https://www.wikidata.org/wiki/Q77899223",
    "_source": {
     "source": "Wikidata",
     "url": "https://www.wikidata.org/wiki/Q77899223",
     "note": "harvested: painting by this creator with an image and a documented collection"
    },
    "creation_place": "Florence",
    "creation_lat": 43.771389,
    "creation_lon": 11.254167,
    "_overrides": {
     "creation": {
      "at": "2026-08-24",
      "source": "derived",
      "note": "creation place inferred from the painter's itinerary at this work's date (approximate)"
     }
    }
   }
  },
  {
   "type": "Feature",
   "geometry": {
    "type": "Point",
    "coordinates": [
     11.249425,
     43.775127777
    ]
   },
   "properties": {
    "painter": "Domenico Ghirlandaio",
    "title": "Madonna in Glory with Saints",
    "year": "1490",
    "location": "Tornabuoni Chapel",
    "city": "Florence",
    "country": "Italy",
    "attribution": "generally accepted",
    "image": "https://commons.wikimedia.org/wiki/Special:FilePath/Domenico%20ghirlandaio%2C%20Madonna%20in%20Glory%20with%20Saints%2C%20munich.jpg?width=500",
    "qid": "Q21968078",
    "wikidata": "https://www.wikidata.org/wiki/Q21968078",
    "_source": {
     "source": "Wikidata",
     "url": "https://www.wikidata.org/wiki/Q21968078",
     "note": "harvested: painting by this creator with an image and a documented collection"
    },
    "creation_place": "Florence",
    "creation_lat": 43.771389,
    "creation_lon": 11.254167,
    "_overrides": {
     "creation": {
      "at": "2026-08-24",
      "source": "derived",
      "note": "creation place inferred from the painter's itinerary at this work's date (approximate)"
     }
    }
   }
  },
  {
   "type": "Feature",
   "geometry": {
    "type": "Point",
    "coordinates": [
     11.249425,
     43.775127777
    ]
   },
   "properties": {
    "painter": "Domenico Ghirlandaio",
    "title": "Baptism of Christ",
    "year": "1488",
    "location": "Tornabuoni Chapel",
    "city": "Florence",
    "country": "Italy",
    "attribution": "generally accepted",
    "image": "https://commons.wikimedia.org/wiki/Special:FilePath/Domenico%20Ghirlandaio%20-%20Baptism%20of%20Christ%20-%20WGA8866.jpg?width=500",
    "qid": "Q112666932",
    "wikidata": "https://www.wikidata.org/wiki/Q112666932",
    "_source": {
     "source": "Wikidata",
     "url": "https://www.wikidata.org/wiki/Q112666932",
     "note": "harvested: painting by this creator with an image and a documented collection"
    },
    "creation_place": "Florence",
    "creation_lat": 43.771389,
    "creation_lon": 11.254167,
    "_overrides": {
     "creation": {
      "at": "2026-08-24",
      "source": "derived",
      "note": "creation place inferred from the painter's itinerary at this work's date (approximate)"
     }
    }
   }
  },
  {
   "type": "Feature",
   "geometry": {
    "type": "Point",
    "coordinates": [
     -71.11472222,
     42.37416667
    ]
   },
   "properties": {
    "painter": "Domenico Ghirlandaio",
    "title": "The Virgin of the Annunciation",
    "year": "1475",
    "location": "Harvard Art Museums",
    "city": "Cambridge",
    "country": "United States",
    "attribution": "generally accepted",
    "image": "https://commons.wikimedia.org/wiki/Special:FilePath/Domenico%20Ghirlandaio%20-%20The%20Virgin%20of%20the%20Annunciation%20-%201969.36%20-%20Harvard%20Art%20Museums.jpg?width=500",
    "qid": "Q106864650",
    "wikidata": "https://www.wikidata.org/wiki/Q106864650",
    "_source": {
     "source": "Wikidata",
     "url": "https://www.wikidata.org/wiki/Q106864650",
     "note": "harvested: painting by this creator with an image and a documented collection"
    },
    "creation_place": "Florence",
    "creation_lat": 43.771389,
    "creation_lon": 11.254167,
    "_overrides": {
     "creation": {
      "at": "2026-08-24",
      "source": "derived",
      "note": "creation place inferred from the painter's itinerary at this work's date (approximate)"
     }
    }
   }
  },
  {
   "type": "Feature",
   "geometry": {
    "type": "Point",
    "coordinates": [
     13.364722222,
     52.508611111
    ]
   },
   "properties": {
    "painter": "Domenico Ghirlandaio",
    "title": "Resurrection of Christ",
    "year": "1492",
    "location": "Gemäldegalerie Berlin",
    "city": "Bezirk Mitte",
    "country": "Germany",
    "attribution": "generally accepted",
    "image": "https://commons.wikimedia.org/wiki/Special:FilePath/Domenico%20Ghirlandaio%20-%20Resurrezione%20di%20Cristo.jpg?width=500",
    "qid": "Q21968106",
    "wikidata": "https://www.wikidata.org/wiki/Q21968106",
    "_source": {
     "source": "Wikidata",
     "url": "https://www.wikidata.org/wiki/Q21968106",
     "note": "harvested: painting by this creator with an image and a documented collection"
    },
    "creation_place": "Florence",
    "creation_lat": 43.771389,
    "creation_lon": 11.254167,
    "_overrides": {
     "creation": {
      "at": "2026-08-24",
      "source": "derived",
      "note": "creation place inferred from the painter's itinerary at this work's date (approximate)"
     }
    }
   }
  },
  {
   "type": "Feature",
   "geometry": {
    "type": "Point",
    "coordinates": [
     12.3298413,
     45.4307669
    ]
   },
   "properties": {
    "painter": "Domenico Ghirlandaio",
    "title": "Madonna adoring the Child with two angels",
    "year": "1490",
    "location": "Cini Palace",
    "city": "Venice",
    "country": "Italy",
    "attribution": "generally accepted",
    "image": "https://commons.wikimedia.org/wiki/Special:FilePath/Sebastiano%20mainardi%2005.jpg?width=500",
    "qid": "Q116990427",
    "wikidata": "https://www.wikidata.org/wiki/Q116990427",
    "_source": {
     "source": "Wikidata",
     "url": "https://www.wikidata.org/wiki/Q116990427",
     "note": "harvested: painting by this creator with an image and a documented collection"
    },
    "creation_place": "Florence",
    "creation_lat": 43.771389,
    "creation_lon": 11.254167,
    "_overrides": {
     "creation": {
      "at": "2026-08-24",
      "source": "derived",
      "note": "creation place inferred from the painter's itinerary at this work's date (approximate)"
     }
    }
   }
  },
  {
   "type": "Feature",
   "geometry": {
    "type": "Point",
    "coordinates": [
     19.9366,
     50.0544
    ]
   },
   "properties": {
    "painter": "Domenico Ghirlandaio",
    "title": "Adoration of the Child.",
    "year": "1490",
    "location": "Wawel Castle",
    "city": "Kraków",
    "country": "Poland",
    "attribution": "generally accepted",
    "image": "https://commons.wikimedia.org/wiki/Special:FilePath/Domenico%20Ghirlandaio%20008.jpg?width=500",
    "qid": "Q118495482",
    "wikidata": "https://www.wikidata.org/wiki/Q118495482",
    "_source": {
     "source": "Wikidata",
     "url": "https://www.wikidata.org/wiki/Q118495482",
     "note": "harvested: painting by this creator with an image and a documented collection"
    },
    "creation_place": "Florence",
    "creation_lat": 43.771389,
    "creation_lon": 11.254167,
    "_overrides": {
     "creation": {
      "at": "2026-08-24",
      "source": "derived",
      "note": "creation place inferred from the painter's itinerary at this work's date (approximate)"
     }
    }
   }
  },
  {
   "type": "Feature",
   "geometry": {
    "type": "Point",
    "coordinates": [
     -0.17162,
     51.49685
    ]
   },
   "properties": {
    "painter": "Domenico Ghirlandaio",
    "title": "The Magnanimity of Alexander the Great  (scene from the story of Alexander the Great)",
    "year": "",
    "location": "Victoria and Albert Museum",
    "city": "Royal Borough of Kensington and Chelsea",
    "country": "United Kingdom",
    "attribution": "generally accepted",
    "image": "https://commons.wikimedia.org/wiki/Special:FilePath/Domenico%20Ghirlandaio%20%281449-1494%29%20%28studio%20of%29%20-%20The%20Magnanimity%20of%20Alexander%20the%20Great%20%28scene%20from%20the%20story%20of%20Alexander%20the%20Great%29%20-%20E.373-2006%20-%20Victoria%20and%20Albert%20Museum.jpg?width=500",
    "qid": "Q119450963",
    "wikidata": "https://www.wikidata.org/wiki/Q119450963",
    "_source": {
     "source": "Wikidata",
     "url": "https://www.wikidata.org/wiki/Q119450963",
     "note": "harvested: painting by this creator with an image and a documented collection"
    }
   }
  },
  {
   "type": "Feature",
   "geometry": {
    "type": "Point",
    "coordinates": [
     -0.17162,
     51.49685
    ]
   },
   "properties": {
    "painter": "Domenico Ghirlandaio",
    "title": "Julius Caesar and the Crossing of the Rubicon (scene from the story of Alexander the Great)",
    "year": "",
    "location": "Victoria and Albert Museum",
    "city": "Royal Borough of Kensington and Chelsea",
    "country": "United Kingdom",
    "attribution": "generally accepted",
    "image": "https://commons.wikimedia.org/wiki/Special:FilePath/Domenico%20Ghirlandaio%20%281449-1494%29%20%28studio%20of%29%20-%20Julius%20Caesar%20and%20the%20Crossing%20of%20the%20Rubicon%20%28scene%20from%20the%20story%20of%20Alexander%20the%20Great%29%20-%20E.372-2006%20-%20Victoria%20and%20Albert%20Museum.jpg?width=500",
    "qid": "Q119451010",
    "wikidata": "https://www.wikidata.org/wiki/Q119451010",
    "_source": {
     "source": "Wikidata",
     "url": "https://www.wikidata.org/wiki/Q119451010",
     "note": "harvested: painting by this creator with an image and a documented collection"
    }
   }
  },
  {
   "type": "Feature",
   "geometry": {
    "type": "Point",
    "coordinates": [
     11.256111111,
     43.769444444
    ]
   },
   "properties": {
    "painter": "Domenico Ghirlandaio",
    "title": "Three ancient heroes, Decius Mus, Scipio Africanus and Cicero",
    "year": "1480",
    "location": "Palazzo Vecchio",
    "city": "Florence",
    "country": "Italy",
    "attribution": "generally accepted",
    "image": "https://commons.wikimedia.org/wiki/Special:FilePath/Domenico%20Ghirlandaio%20-%20Trois%20h%C3%A9ros%20antiques.jpg?width=500",
    "qid": "Q140774147",
    "wikidata": "https://www.wikidata.org/wiki/Q140774147",
    "_source": {
     "source": "Wikidata",
     "url": "https://www.wikidata.org/wiki/Q140774147",
     "note": "harvested: painting by this creator with an image and a documented collection"
    },
    "creation_place": "Florence",
    "creation_lat": 43.771389,
    "creation_lon": 11.254167,
    "_overrides": {
     "creation": {
      "at": "2026-08-24",
      "source": "derived",
      "note": "creation place inferred from the painter's itinerary at this work's date (approximate)"
     }
    }
   }
  },
  {
   "type": "Feature",
   "geometry": {
    "type": "Point",
    "coordinates": [
     11.250833333,
     43.770277777
    ]
   },
   "properties": {
    "painter": "Domenico Ghirlandaio",
    "title": "Sassetti Chapel: Sibyl Agrippa",
    "year": "1480",
    "location": "Sassetti Chapel",
    "city": "Florence",
    "country": "Italy",
    "attribution": "generally accepted",
    "image": "https://commons.wikimedia.org/wiki/Special:FilePath/Domenico%20Ghirlandaio%20-%20Chapelle%20Sassetti%20-%20Sibylle.jpg?width=500",
    "qid": "Q140771881",
    "wikidata": "https://www.wikidata.org/wiki/Q140771881",
    "_source": {
     "source": "Wikidata",
     "url": "https://www.wikidata.org/wiki/Q140771881",
     "note": "harvested: painting by this creator with an image and a documented collection"
    },
    "creation_place": "Florence",
    "creation_lat": 43.771389,
    "creation_lon": 11.254167,
    "_overrides": {
     "creation": {
      "at": "2026-08-24",
      "source": "derived",
      "note": "creation place inferred from the painter's itinerary at this work's date (approximate)"
     }
    }
   }
  },
  {
   "type": "Feature",
   "geometry": {
    "type": "Point",
    "coordinates": [
     -1.26056,
     51.75556
    ]
   },
   "properties": {
    "painter": "Domenico Ghirlandaio",
    "title": "Portrait of a young Man",
    "year": "1477",
    "location": "Ashmolean Museum",
    "city": "Oxford",
    "country": "United Kingdom",
    "attribution": "generally accepted",
    "image": "https://commons.wikimedia.org/wiki/Special:FilePath/Domenico%20Ghirlandaio%20%281449-1494%29%20-%20Portrait%20of%20a%20young%20Man%20-%20WA1850.15%20-%20Ashmolean%20Museum.jpg?width=500",
    "qid": "Q118630798",
    "wikidata": "https://www.wikidata.org/wiki/Q118630798",
    "_source": {
     "source": "Wikidata",
     "url": "https://www.wikidata.org/wiki/Q118630798",
     "note": "harvested: painting by this creator with an image and a documented collection"
    },
    "creation_place": "Florence",
    "creation_lat": 43.771389,
    "creation_lon": 11.254167,
    "_overrides": {
     "creation": {
      "at": "2026-08-24",
      "source": "derived",
      "note": "creation place inferred from the painter's itinerary at this work's date (approximate)"
     }
    }
   }
  },
  {
   "type": "Feature",
   "geometry": {
    "type": "Point",
    "coordinates": [
     -1.91565514,
     54.54173763
    ]
   },
   "properties": {
    "painter": "Domenico Ghirlandaio",
    "title": "Madonna Adoring the Child",
    "year": "",
    "location": "Bowes Museum",
    "city": "Barnard Castle",
    "country": "United Kingdom",
    "attribution": "generally accepted",
    "image": "https://commons.wikimedia.org/wiki/Special:FilePath/Domenico%20Ghirlandaio%20%281449-1494%29%20%28studio%20of%29%20-%20Madonna%20Adoring%20the%20Child%20-%20B.M.40%20-%20Bowes%20Museum.jpg?width=500",
    "qid": "Q118630719",
    "wikidata": "https://www.wikidata.org/wiki/Q118630719",
    "_source": {
     "source": "Wikidata",
     "url": "https://www.wikidata.org/wiki/Q118630719",
     "note": "harvested: painting by this creator with an image and a documented collection"
    }
   }
  },
  {
   "type": "Feature",
   "geometry": {
    "type": "Point",
    "coordinates": [
     11.250719,
     43.770153
    ]
   },
   "properties": {
    "painter": "Domenico Ghirlandaio",
    "title": "King David",
    "year": "1483",
    "location": "Basilica of the Holy Trinity",
    "city": "Florence",
    "country": "Italy",
    "attribution": "generally accepted",
    "image": "https://commons.wikimedia.org/wiki/Special:FilePath/Domenico%20Ghirlandaio%20-%20David%20-%20WGA08793.jpg?width=500",
    "qid": "Q140772080",
    "wikidata": "https://www.wikidata.org/wiki/Q140772080",
    "_source": {
     "source": "Wikidata",
     "url": "https://www.wikidata.org/wiki/Q140772080",
     "note": "harvested: painting by this creator with an image and a documented collection"
    },
    "creation_place": "Florence",
    "creation_lat": 43.771389,
    "creation_lon": 11.254167,
    "_overrides": {
     "creation": {
      "at": "2026-08-24",
      "source": "derived",
      "note": "creation place inferred from the painter's itinerary at this work's date (approximate)"
     }
    }
   }
  },
  {
   "type": "Feature",
   "geometry": {
    "type": "Point",
    "coordinates": [
     11.250719,
     43.770153
    ]
   },
   "properties": {
    "painter": "Domenico Ghirlandaio",
    "title": "Meeting of Augustus and the Sibyl",
    "year": "1483",
    "location": "Basilica of the Holy Trinity",
    "city": "Florence",
    "country": "Italy",
    "attribution": "generally accepted",
    "image": "https://commons.wikimedia.org/wiki/Special:FilePath/Domenico%20Ghirlandaio%20-%20Meeting%20of%20Augustus%20and%20the%20Sibyl%20-%20WGA08792.jpg?width=500",
    "qid": "Q140772655",
    "wikidata": "https://www.wikidata.org/wiki/Q140772655",
    "_source": {
     "source": "Wikidata",
     "url": "https://www.wikidata.org/wiki/Q140772655",
     "note": "harvested: painting by this creator with an image and a documented collection"
    },
    "creation_place": "Florence",
    "creation_lat": 43.771389,
    "creation_lon": 11.254167,
    "_overrides": {
     "creation": {
      "at": "2026-08-24",
      "source": "derived",
      "note": "creation place inferred from the painter's itinerary at this work's date (approximate)"
     }
    }
   }
  },
  {
   "type": "Feature",
   "geometry": {
    "type": "Point",
    "coordinates": [
     9.185952,
     45.46378
    ]
   },
   "properties": {
    "painter": "Domenico Ghirlandaio",
    "title": "Adoration of the Child",
    "year": "1450",
    "location": "Pinacoteca Ambrosiana",
    "city": "Milan",
    "country": "Italy",
    "attribution": "generally accepted",
    "image": "https://commons.wikimedia.org/wiki/Special:FilePath/Domenico%20ghirlandaio%2C%20tondo%20con%20l%27adorazione%20del%20bambino.jpg?width=500",
    "qid": "Q140787136",
    "wikidata": "https://www.wikidata.org/wiki/Q140787136",
    "_source": {
     "source": "Wikidata",
     "url": "https://www.wikidata.org/wiki/Q140787136",
     "note": "harvested: painting by this creator with an image and a documented collection"
    }
   }
  },
  {
   "type": "Feature",
   "geometry": {
    "type": "Point",
    "coordinates": [
     8.21638,
     53.1377
    ]
   },
   "properties": {
    "painter": "Domenico Ghirlandaio",
    "title": "Musizierende Engel",
    "year": "1490",
    "location": "Niedersächsisches Landesmuseum für Kunst und Kulturgeschichte",
    "city": "Oldenburg",
    "country": "Germany",
    "attribution": "generally accepted",
    "image": "https://commons.wikimedia.org/wiki/Special:FilePath/Domenico%20Ghirlandaio%20-%20Musizierende%20Engel.jpg?width=500",
    "qid": "Q119438564",
    "wikidata": "https://www.wikidata.org/wiki/Q119438564",
    "_source": {
     "source": "Wikidata",
     "url": "https://www.wikidata.org/wiki/Q119438564",
     "note": "harvested: painting by this creator with an image and a documented collection"
    },
    "creation_place": "Florence",
    "creation_lat": 43.771389,
    "creation_lon": 11.254167,
    "_overrides": {
     "creation": {
      "at": "2026-08-24",
      "source": "derived",
      "note": "creation place inferred from the painter's itinerary at this work's date (approximate)"
     }
    }
   }
  },
  {
   "type": "Feature",
   "geometry": {
    "type": "Point",
    "coordinates": [
     8.21638,
     53.1377
    ]
   },
   "properties": {
    "painter": "Domenico Ghirlandaio",
    "title": "Musizierende Engel",
    "year": "1490",
    "location": "Niedersächsisches Landesmuseum für Kunst und Kulturgeschichte",
    "city": "Oldenburg",
    "country": "Germany",
    "attribution": "generally accepted",
    "image": "https://commons.wikimedia.org/wiki/Special:FilePath/Domenico%20Ghirlandaio%20-%20Music-making%20angel.jpg?width=500",
    "qid": "Q119438654",
    "wikidata": "https://www.wikidata.org/wiki/Q119438654",
    "_source": {
     "source": "Wikidata",
     "url": "https://www.wikidata.org/wiki/Q119438654",
     "note": "harvested: painting by this creator with an image and a documented collection"
    },
    "creation_place": "Florence",
    "creation_lat": 43.771389,
    "creation_lon": 11.254167,
    "_overrides": {
     "creation": {
      "at": "2026-08-24",
      "source": "derived",
      "note": "creation place inferred from the painter's itinerary at this work's date (approximate)"
     }
    }
   }
  },
  {
   "type": "Feature",
   "geometry": {
    "type": "Point",
    "coordinates": [
     11.249425,
     43.775127777
    ]
   },
   "properties": {
    "painter": "Domenico Ghirlandaio",
    "title": "Anbetung der Könige",
    "year": "1450",
    "location": "Tornabuoni Chapel",
    "city": "Florence",
    "country": "Italy",
    "attribution": "generally accepted",
    "image": "https://commons.wikimedia.org/wiki/Special:FilePath/Domenico%20Ghirlandaio%20-%20Adoration%20of%20the%20Magi%20-%20WGA8841.jpg?width=500",
    "qid": "Q140771623",
    "wikidata": "https://www.wikidata.org/wiki/Q140771623",
    "_source": {
     "source": "Wikidata",
     "url": "https://www.wikidata.org/wiki/Q140771623",
     "note": "harvested: painting by this creator with an image and a documented collection"
    }
   }
  },
  {
   "type": "Feature",
   "geometry": {
    "type": "Point",
    "coordinates": [
     11.249425,
     43.775127777
    ]
   },
   "properties": {
    "painter": "Domenico Ghirlandaio",
    "title": "Herod's Banquet",
    "year": "1450",
    "location": "Tornabuoni Chapel",
    "city": "Florence",
    "country": "Italy",
    "attribution": "generally accepted",
    "image": "https://commons.wikimedia.org/wiki/Special:FilePath/Domenico%20Ghirlandaio%20-%20Herod%27s%20Banquet%20-%20WGA8868.jpg?width=500",
    "qid": "Q140772522",
    "wikidata": "https://www.wikidata.org/wiki/Q140772522",
    "_source": {
     "source": "Wikidata",
     "url": "https://www.wikidata.org/wiki/Q140772522",
     "note": "harvested: painting by this creator with an image and a documented collection"
    }
   }
  },
  {
   "type": "Feature",
   "geometry": {
    "type": "Point",
    "coordinates": [
     11.249425,
     43.775127777
    ]
   },
   "properties": {
    "painter": "Domenico Ghirlandaio",
    "title": "Portrait of the Donor Francesca Pitti-Tornabuoni",
    "year": "1450",
    "location": "Tornabuoni Chapel",
    "city": "Florence",
    "country": "Italy",
    "attribution": "generally accepted",
    "image": "https://commons.wikimedia.org/wiki/Special:FilePath/Domenico%20Ghirlandaio%20-%20Portrait%20of%20the%20Donor%20Francesca%20Pitti-Tornabuoni%20-%20WGA8876.jpg?width=500",
    "qid": "Q140772873",
    "wikidata": "https://www.wikidata.org/wiki/Q140772873",
    "_source": {
     "source": "Wikidata",
     "url": "https://www.wikidata.org/wiki/Q140772873",
     "note": "harvested: painting by this creator with an image and a documented collection"
    }
   }
  },
  {
   "type": "Feature",
   "geometry": {
    "type": "Point",
    "coordinates": [
     11.249425,
     43.775127777
    ]
   },
   "properties": {
    "painter": "Domenico Ghirlandaio",
    "title": "Portrait of the Donor Giovanni Tornabuoni",
    "year": "1450",
    "location": "Tornabuoni Chapel",
    "city": "Florence",
    "country": "Italy",
    "attribution": "generally accepted",
    "image": "https://commons.wikimedia.org/wiki/Special:FilePath/Domenico%20Ghirlandaio%20-%20Portrait%20of%20the%20Donor%20Giovanni%20Tornabuoni%20-%20WGA8875.jpg?width=500",
    "qid": "Q140772881",
    "wikidata": "https://www.wikidata.org/wiki/Q140772881",
    "_source": {
     "source": "Wikidata",
     "url": "https://www.wikidata.org/wiki/Q140772881",
     "note": "harvested: painting by this creator with an image and a documented collection"
    }
   }
  },
  {
   "type": "Feature",
   "geometry": {
    "type": "Point",
    "coordinates": [
     11.249425,
     43.775127777
    ]
   },
   "properties": {
    "painter": "Domenico Ghirlandaio",
    "title": "St Dominic Burning Heretical Writings",
    "year": "1450",
    "location": "Tornabuoni Chapel",
    "city": "Florence",
    "country": "Italy",
    "attribution": "generally accepted",
    "image": "https://commons.wikimedia.org/wiki/Special:FilePath/Domenico%20Ghirlandaio%20-%20St%20Dominic%20Burning%20Heretical%20Writings%20-%20WGA8871.jpg?width=500",
    "qid": "Q140773132",
    "wikidata": "https://www.wikidata.org/wiki/Q140773132",
    "_source": {
     "source": "Wikidata",
     "url": "https://www.wikidata.org/wiki/Q140773132",
     "note": "harvested: painting by this creator with an image and a documented collection"
    }
   }
  },
  {
   "type": "Feature",
   "geometry": {
    "type": "Point",
    "coordinates": [
     11.249425,
     43.775127777
    ]
   },
   "properties": {
    "painter": "Domenico Ghirlandaio",
    "title": "St John the Baptist in the Desert",
    "year": "1450",
    "location": "Tornabuoni Chapel",
    "city": "Florence",
    "country": "Italy",
    "attribution": "generally accepted",
    "image": "https://commons.wikimedia.org/wiki/Special:FilePath/Domenico%20Ghirlandaio%20-%20St%20John%20the%20Baptist%20in%20the%20Desert%20-%20WGA8874.jpg?width=500",
    "qid": "Q140773153",
    "wikidata": "https://www.wikidata.org/wiki/Q140773153",
    "_source": {
     "source": "Wikidata",
     "url": "https://www.wikidata.org/wiki/Q140773153",
     "note": "harvested: painting by this creator with an image and a documented collection"
    }
   }
  },
  {
   "type": "Feature",
   "geometry": {
    "type": "Point",
    "coordinates": [
     -1.4722,
     43.4922
    ]
   },
   "properties": {
    "painter": "Domenico Ghirlandaio",
    "title": "Tête d'une sainte femme avec une auréole",
    "year": "",
    "location": "Musée Bonnat-Helleu",
    "city": "Bayonne",
    "country": "France",
    "attribution": "generally accepted",
    "image": "https://commons.wikimedia.org/wiki/Special:FilePath/Domenico%20Ghirlandaio%20-%20T%C3%AAte%20d%27une%20sainte%20femme%20avec%20une%20aur%C3%A9ole.jpg?width=500",
    "qid": "Q140786791",
    "wikidata": "https://www.wikidata.org/wiki/Q140786791",
    "_source": {
     "source": "Wikidata",
     "url": "https://www.wikidata.org/wiki/Q140786791",
     "note": "harvested: painting by this creator with an image and a documented collection"
    }
   }
  },
  {
   "type": "Feature",
   "geometry": {
    "type": "Point",
    "coordinates": [
     11.24598,
     43.77251
    ]
   },
   "properties": {
    "painter": "Domenico Ghirlandaio",
    "title": "Madonna of Mercy",
    "year": "1472",
    "location": "Ognissanti Church",
    "city": "Florence",
    "country": "Italy",
    "attribution": "generally accepted",
    "image": "https://commons.wikimedia.org/wiki/Special:FilePath/Domenico%20ghirlandaio%2C%20Cappella%20vespucci%2001.jpg?width=500",
    "qid": "Q140774800",
    "wikidata": "https://www.wikidata.org/wiki/Q140774800",
    "_source": {
     "source": "Wikidata",
     "url": "https://www.wikidata.org/wiki/Q140774800",
     "note": "harvested: painting by this creator with an image and a documented collection"
    },
    "creation_place": "Florence",
    "creation_lat": 43.771389,
    "creation_lon": 11.254167,
    "_overrides": {
     "creation": {
      "at": "2026-08-24",
      "source": "derived",
      "note": "creation place inferred from the painter's itinerary at this work's date (approximate)"
     }
    }
   }
  },
  {
   "type": "Feature",
   "geometry": {
    "type": "Point",
    "coordinates": [
     11.24598,
     43.77251
    ]
   },
   "properties": {
    "painter": "Domenico Ghirlandaio",
    "title": "Madonna",
    "year": "1473",
    "location": "Ognissanti Church",
    "city": "Florence",
    "country": "Italy",
    "attribution": "generally accepted",
    "image": "https://commons.wikimedia.org/wiki/Special:FilePath/Domenico%20Ghirlandaio%20006.jpg?width=500",
    "qid": "Q140786853",
    "wikidata": "https://www.wikidata.org/wiki/Q140786853",
    "_source": {
     "source": "Wikidata",
     "url": "https://www.wikidata.org/wiki/Q140786853",
     "note": "harvested: painting by this creator with an image and a documented collection"
    },
    "creation_place": "Florence",
    "creation_lat": 43.771389,
    "creation_lon": 11.254167,
    "_overrides": {
     "creation": {
      "at": "2026-08-24",
      "source": "derived",
      "note": "creation place inferred from the painter's itinerary at this work's date (approximate)"
     }
    }
   }
  },
  {
   "type": "Feature",
   "geometry": {
    "type": "Point",
    "coordinates": [
     -0.138041,
     50.8237
    ]
   },
   "properties": {
    "painter": "Domenico Ghirlandaio",
    "title": "Giovanna Tornabuoni",
    "year": "1850",
    "location": "Brighton Museum & Art Gallery",
    "city": "Brighton and Hove",
    "country": "United Kingdom",
    "attribution": "generally accepted",
    "image": "https://commons.wikimedia.org/wiki/Special:FilePath/Domenico%20Ghirlandaio%20%281449-1494%29%20%28copy%20after%29%20-%20Giovanna%20Tornabuoni%20-%20FA000152%20-%20Brighton%20Museum%20%5E%20Art%20Gallery.jpg?width=500",
    "qid": "Q120011266",
    "wikidata": "https://www.wikidata.org/wiki/Q120011266",
    "_source": {
     "source": "Wikidata",
     "url": "https://www.wikidata.org/wiki/Q120011266",
     "note": "harvested: painting by this creator with an image and a documented collection"
    }
   }
  },
  {
   "type": "Feature",
   "geometry": {
    "type": "Point",
    "coordinates": [
     11.150416,
     43.795401
    ]
   },
   "properties": {
    "painter": "Domenico Ghirlandaio",
    "title": "Madonna and Child with St Sebastian and St Julian",
    "year": "1473",
    "location": "Church of St. Andrew in San Donnino",
    "city": "Campi Bisenzio",
    "country": "Italy",
    "attribution": "generally accepted",
    "image": "https://commons.wikimedia.org/wiki/Special:FilePath/Domenico%20ghirlandaio%2C%20madonna%20e%20santi%2C%20brozzi.jpg?width=500",
    "qid": "Q140775121",
    "wikidata": "https://www.wikidata.org/wiki/Q140775121",
    "_source": {
     "source": "Wikidata",
     "url": "https://www.wikidata.org/wiki/Q140775121",
     "note": "harvested: painting by this creator with an image and a documented collection"
    },
    "creation_place": "Florence",
    "creation_lat": 43.771389,
    "creation_lon": 11.254167,
    "_overrides": {
     "creation": {
      "at": "2026-08-24",
      "source": "derived",
      "note": "creation place inferred from the painter's itinerary at this work's date (approximate)"
     }
    }
   }
  }
 ]
}