{
 "type": "FeatureCollection",
 "_note": "Generated by scripts/build.py from Wikidata. Do not edit by hand — put manual fixes in the painter's overlay (data/overlay/*.json). Each feature carries _source (scraped base or manual addition) and, when edited, _overrides.",
 "features": [
  {
   "type": "Feature",
   "geometry": {
    "type": "Point",
    "coordinates": [
     12.32814,
     45.43108
    ]
   },
   "properties": {
    "painter": "Giorgione",
    "title": "Q137594811",
    "year": "1505",
    "city": "Venice",
    "country": "Italy",
    "location": "Gallerie dell'Accademia",
    "kind": "museum",
    "attribution": "attributed",
    "status": "present",
    "medium": "Oil on canvas",
    "dimensions": "50 × 81 cm",
    "genre": "sacra conversazione",
    "image": "https://commons.wikimedia.org/wiki/Special:FilePath/Giorgione%20-%20Sacra%20Conversazione%20-%20WGA21123.jpg?width=420",
    "wikidata": "https://www.wikidata.org/wiki/Q137594811",
    "creation_place": "Venice",
    "creation_lat": 45.4408,
    "creation_lon": 12.3155,
    "_source": {
     "source": "Wikidata",
     "url": "https://www.wikidata.org/wiki/Q137594811",
     "retrieved_at": "2026-08-20"
    },
    "_overrides": {
     "creation": {
      "at": "2026-08-20",
      "source": "derived from start date + Caravaggio's documented itinerary (approximate)"
     }
    },
    "museum_id": "gallerie-dell-accademia",
    "qid": "Q137594811"
   }
  },
  {
   "type": "Feature",
   "geometry": {
    "type": "Point",
    "coordinates": [
     11.926769,
     45.670884
    ]
   },
   "properties": {
    "painter": "Giorgione",
    "title": "Castelfranco Madonna",
    "year": "1503",
    "city": "Castelfranco Veneto",
    "country": "Italy",
    "location": "Dome of Castlefranco Veneto",
    "kind": "church",
    "attribution": "generally accepted",
    "status": "present",
    "medium": "Oil paint, poplar panel",
    "dimensions": "200 × 152 cm",
    "genre": "religious art",
    "image": "https://commons.wikimedia.org/wiki/Special:FilePath/Giorgione%20-%20Pala%20di%20Castelfranco.jpg?width=420",
    "wikipedia_es": "https://es.wikipedia.org/wiki/Pala_de_Castelfranco",
    "wikipedia_en": "https://en.wikipedia.org/wiki/Castelfranco_Madonna",
    "wikipedia_it": "https://it.wikipedia.org/wiki/Pala_di_Castelfranco",
    "wikidata": "https://www.wikidata.org/wiki/Q1720631",
    "creation_place": "Venice",
    "creation_lat": 45.4408,
    "creation_lon": 12.3155,
    "_source": {
     "source": "Wikidata",
     "url": "https://www.wikidata.org/wiki/Q1720631",
     "retrieved_at": "2026-08-20"
    },
    "_overrides": {
     "creation": {
      "at": "2026-08-20",
      "source": "derived from start date + Caravaggio's documented itinerary (approximate)"
     }
    },
    "museum_id": "dome-of-castlefranco-veneto",
    "qid": "Q1720631",
    "wga_url": "https://www.wga.hu/html/g/giorgion/religion/madon_fz.html"
   }
  },
  {
   "type": "Feature",
   "geometry": {
    "type": "Point",
    "coordinates": [
     4.8853,
     52.36
    ]
   },
   "properties": {
    "painter": "Giorgione",
    "title": "Woman with a Unicorn",
    "year": "1510",
    "city": "Amsterdam",
    "country": "Netherlands",
    "location": "Rijksmuseum",
    "kind": "museum",
    "attribution": "attributed",
    "status": "present",
    "medium": "Oil on canvas",
    "dimensions": "28 × 39 cm",
    "genre": "allegory",
    "image": "https://commons.wikimedia.org/wiki/Special:FilePath/Anoniem%20-%20Vrouw%20met%20eenhoorn.jpg?width=420",
    "wikidata": "https://www.wikidata.org/wiki/Q17335702",
    "creation_place": "Venice",
    "creation_lat": 45.4408,
    "creation_lon": 12.3155,
    "_source": {
     "source": "Wikidata",
     "url": "https://www.wikidata.org/wiki/Q17335702",
     "retrieved_at": "2026-08-20"
    },
    "_overrides": {
     "creation": {
      "at": "2026-08-20",
      "source": "derived from start date + Caravaggio's documented itinerary (approximate)"
     }
    },
    "museum_id": "rijksmuseum",
    "qid": "Q17335702"
   }
  },
  {
   "type": "Feature",
   "geometry": {
    "type": "Point",
    "coordinates": [
     11.25528,
     43.76833
    ]
   },
   "properties": {
    "painter": "Giorgione",
    "title": "The Judgement of Solomon",
    "year": "1500",
    "city": "Florence",
    "country": "Italy",
    "location": "Uffizi Gallery",
    "kind": "museum",
    "attribution": "generally accepted",
    "status": "present",
    "medium": "Oil on panel",
    "dimensions": "89 × 72 cm",
    "genre": "religious art",
    "image": "https://commons.wikimedia.org/wiki/Special:FilePath/Giorgione%2C%20giudizio%20di%20salomone.jpg?width=420",
    "wikipedia_es": "https://es.wikipedia.org/wiki/El_juicio_de_Salom%C3%B3n_(Giorgione)",
    "wikipedia_en": "https://en.wikipedia.org/wiki/The_Judgement_of_Solomon_(Giorgione)",
    "wikipedia_it": "https://it.wikipedia.org/wiki/Giudizio_di_Salomone_(Giorgione)",
    "wikidata": "https://www.wikidata.org/wiki/Q2452374",
    "creation_place": "Venice",
    "creation_lat": 45.4408,
    "creation_lon": 12.3155,
    "_source": {
     "source": "Wikidata",
     "url": "https://www.wikidata.org/wiki/Q2452374",
     "retrieved_at": "2026-08-20"
    },
    "_overrides": {
     "creation": {
      "at": "2026-08-20",
      "source": "derived from start date + Caravaggio's documented itinerary (approximate)"
     }
    },
    "museum_id": "uffizi-gallery",
    "qid": "Q2452374",
    "wga_url": "https://www.wga.hu/html/g/giorgion/various/solomon.html"
   }
  },
  {
   "type": "Feature",
   "geometry": {
    "type": "Point",
    "coordinates": [
     10.53306,
     52.26333
    ]
   },
   "properties": {
    "painter": "Giorgione",
    "title": "Self-portrait",
    "year": "1509",
    "city": "Braunschweig",
    "country": "Germany",
    "location": "Herzog Anton Ulrich Museum",
    "kind": "museum",
    "attribution": "generally accepted",
    "status": "present",
    "medium": "Oil on canvas",
    "dimensions": "52 × 43 cm",
    "genre": "self-portrait",
    "image": "https://commons.wikimedia.org/wiki/Special:FilePath/Self%20portrait%2C%20by%20Giorgio%20da%20Castelfranco.jpg?width=420",
    "wikipedia_en": "https://en.wikipedia.org/wiki/Self-portrait_as_David",
    "wikipedia_it": "https://it.wikipedia.org/wiki/Autoritratto_come_David",
    "wikidata": "https://www.wikidata.org/wiki/Q2872711",
    "creation_place": "Venice",
    "creation_lat": 45.4408,
    "creation_lon": 12.3155,
    "_source": {
     "source": "Wikidata",
     "url": "https://www.wikidata.org/wiki/Q2872711",
     "retrieved_at": "2026-08-20"
    },
    "_overrides": {
     "creation": {
      "at": "2026-08-20",
      "source": "derived from start date + Caravaggio's documented itinerary (approximate)"
     }
    },
    "museum_id": "herzog-anton-ulrich-museum",
    "qid": "Q2872711",
    "wga_url": "https://www.wga.hu/html/g/giorgion/portrait/05selfpo.html"
   }
  },
  {
   "type": "Feature",
   "geometry": {
    "type": "Point",
    "coordinates": [
     16.3616,
     48.20388
    ]
   },
   "properties": {
    "painter": "Giorgione",
    "title": "Young Man with Arrow",
    "year": "1505",
    "city": "Vienna",
    "country": "Austria",
    "location": "Kunsthistorisches Museum",
    "kind": "museum",
    "attribution": "generally accepted",
    "status": "present",
    "medium": "Oil on panel",
    "dimensions": "48 × 42 cm",
    "genre": "portrait",
    "image": "https://commons.wikimedia.org/wiki/Special:FilePath/Giorgio%20da%20Castelfranco%2C%20gen.%20Giorgione%2C%20Kunsthistorisches%20Museum%20Wien%2C%20Gem%C3%A4ldegalerie%20-%20Knabe%20mit%20Pfeil%20-%20GG%20323%20-%20Kunsthistorisches%20Museum.jpg?width=420",
    "wikipedia_it": "https://it.wikipedia.org/wiki/Ragazzo_con_la_freccia",
    "wikidata": "https://www.wikidata.org/wiki/Q3098667",
    "creation_place": "Venice",
    "creation_lat": 45.4408,
    "creation_lon": 12.3155,
    "_source": {
     "source": "Wikidata",
     "url": "https://www.wikidata.org/wiki/Q3098667",
     "retrieved_at": "2026-08-20"
    },
    "_overrides": {
     "creation": {
      "at": "2026-08-20",
      "source": "derived from start date + Caravaggio's documented itinerary (approximate)"
     }
    },
    "museum_id": "kunsthistorisches-museum",
    "qid": "Q3098667"
   }
  },
  {
   "type": "Feature",
   "geometry": {
    "type": "Point",
    "coordinates": [
     -0.1283,
     51.5089
    ]
   },
   "properties": {
    "painter": "Giorgione",
    "title": "Adoration of the Magi",
    "year": "1506",
    "city": "London",
    "country": "United Kingdom",
    "location": "National Gallery",
    "kind": "museum",
    "attribution": "generally accepted",
    "status": "present",
    "medium": "Oil on panel",
    "dimensions": "29.8 × 81.3 cm",
    "genre": "religious art",
    "image": "https://commons.wikimedia.org/wiki/Special:FilePath/Giorgione%20-%20Adorazione%20dei%20Magi%20%281506-1507%29.jpg?width=420",
    "wikipedia_it": "https://it.wikipedia.org/wiki/Adorazione_dei_Magi_(Giorgione)",
    "wikidata": "https://www.wikidata.org/wiki/Q3605531",
    "creation_place": "Venice",
    "creation_lat": 45.4408,
    "creation_lon": 12.3155,
    "_source": {
     "source": "Wikidata",
     "url": "https://www.wikidata.org/wiki/Q3605531",
     "retrieved_at": "2026-08-20"
    },
    "_overrides": {
     "creation": {
      "at": "2026-08-20",
      "source": "derived from start date + Caravaggio's documented itinerary (approximate)"
     }
    },
    "museum_id": "national-gallery",
    "qid": "Q3605531",
    "wga_url": "https://www.wga.hu/html/g/giorgion/religion/adoratio.html"
   }
  },
  {
   "type": "Feature",
   "geometry": {
    "type": "Point",
    "coordinates": [
     -77.02,
     38.8914
    ]
   },
   "properties": {
    "painter": "Giorgione",
    "title": "Adoration of the Shepherds",
    "year": "1507",
    "city": "Washington",
    "country": "United States",
    "location": "National Gallery of Art",
    "kind": "museum",
    "attribution": "generally accepted",
    "status": "present",
    "medium": "Oil on panel",
    "dimensions": "90.8 × 110.5 cm",
    "genre": "religious art",
    "image": "https://commons.wikimedia.org/wiki/Special:FilePath/Giorgione%20-%20Adoration%20of%20the%20Shepherds%20-%20National%20Gallery%20of%20Art.jpg?width=420",
    "wikipedia_es": "https://es.wikipedia.org/wiki/Adoraci%C3%B3n_de_los_pastores_(Giorgione)",
    "wikipedia_en": "https://en.wikipedia.org/wiki/Adoration_of_the_Shepherds_(Giorgione)",
    "wikipedia_it": "https://it.wikipedia.org/wiki/Adorazione_dei_pastori_Allendale",
    "wikidata": "https://www.wikidata.org/wiki/Q3605563",
    "creation_place": "Venice",
    "creation_lat": 45.4408,
    "creation_lon": 12.3155,
    "_source": {
     "source": "Wikidata",
     "url": "https://www.wikidata.org/wiki/Q3605563",
     "retrieved_at": "2026-08-20"
    },
    "_overrides": {
     "creation": {
      "at": "2026-08-20",
      "source": "derived from start date + Caravaggio's documented itinerary (approximate)"
     }
    },
    "museum_id": "national-gallery-of-art",
    "qid": "Q3605563",
    "wga_url": "https://www.wga.hu/html/g/giorgion/religion/shepherd.html"
   }
  },
  {
   "type": "Feature",
   "geometry": {
    "type": "Point",
    "coordinates": [
     19.07678,
     47.51587
    ]
   },
   "properties": {
    "painter": "Giorgione",
    "title": "Portrait of a Youth",
    "year": "1503",
    "city": "Zugló",
    "country": "Hungary",
    "location": "Museum of Fine Arts, Budapest",
    "kind": "museum",
    "attribution": "generally accepted",
    "status": "present",
    "medium": "Oil on canvas",
    "dimensions": "72.5 × 54 cm",
    "genre": "portrait",
    "image": "https://commons.wikimedia.org/wiki/Special:FilePath/Portrait%20of%20a%20Young%20Man%20Giorgione%20-%20Museum%20of%20Fine%20Arts%20-%20Budapest.jpg?width=420",
    "wikipedia_en": "https://en.wikipedia.org/wiki/Portrait_of_a_Young_Man_(Giorgione,_Budapest)",
    "wikipedia_it": "https://it.wikipedia.org/wiki/Ritratto_di_giovane_(Giorgione_Budapest)",
    "wikidata": "https://www.wikidata.org/wiki/Q3656034",
    "creation_place": "Venice",
    "creation_lat": 45.4408,
    "creation_lon": 12.3155,
    "_source": {
     "source": "Wikidata",
     "url": "https://www.wikidata.org/wiki/Q3656034",
     "retrieved_at": "2026-08-20"
    },
    "_overrides": {
     "creation": {
      "at": "2026-08-20",
      "source": "derived from start date + Caravaggio's documented itinerary (approximate)"
     }
    },
    "museum_id": "museum-of-fine-arts-budapest",
    "qid": "Q3656034",
    "wga_url": "https://www.wga.hu/html/g/giorgion/portrait/07portra.html"
   }
  },
  {
   "type": "Feature",
   "geometry": {
    "type": "Point",
    "coordinates": [
     12.49214,
     41.91421
    ]
   },
   "properties": {
    "painter": "Giorgione",
    "title": "Cantore appassionato",
    "year": "1508",
    "city": "Rome",
    "country": "Italy",
    "location": "Galleria Borghese",
    "kind": "museum",
    "attribution": "generally accepted",
    "status": "present",
    "medium": "Oil on canvas",
    "dimensions": "102 × 78 cm",
    "genre": "portrait",
    "image": "https://commons.wikimedia.org/wiki/Special:FilePath/Giorgione%2C%20Impassioned%20Singer.jpg?width=420",
    "wikipedia_it": "https://it.wikipedia.org/wiki/Cantore_appassionato",
    "wikidata": "https://www.wikidata.org/wiki/Q3656454",
    "creation_place": "Venice",
    "creation_lat": 45.4408,
    "creation_lon": 12.3155,
    "_source": {
     "source": "Wikidata",
     "url": "https://www.wikidata.org/wiki/Q3656454",
     "retrieved_at": "2026-08-20"
    },
    "_overrides": {
     "creation": {
      "at": "2026-08-20",
      "source": "derived from start date + Caravaggio's documented itinerary (approximate)"
     }
    },
    "museum_id": "galleria-borghese",
    "qid": "Q3656454",
    "wga_url": "https://www.wga.hu/html/g/giorgion/various/singer.html"
   }
  },
  {
   "type": "Feature",
   "geometry": {
    "type": "Point",
    "coordinates": [
     12.32531,
     45.43657
    ]
   },
   "properties": {
    "painter": "Giorgione",
    "title": "Christ Carrying the Cross",
    "year": "1506",
    "city": "Venice",
    "country": "Italy",
    "location": "Scuola Grande di San Rocco",
    "kind": "museum",
    "attribution": "generally accepted",
    "status": "present",
    "medium": "Oil on canvas",
    "dimensions": "70 × 100 cm",
    "genre": "religious art",
    "image": "https://commons.wikimedia.org/wiki/Special:FilePath/Tiziano%20o%20giorgione%2C%20cristo%20portacroce.jpg?width=420",
    "wikipedia_en": "https://en.wikipedia.org/wiki/Christ_Carrying_the_Cross_(Titian)",
    "wikipedia_it": "https://it.wikipedia.org/wiki/Cristo_portacroce_(Tiziano)",
    "wikidata": "https://www.wikidata.org/wiki/Q3697665",
    "creation_place": "Venice",
    "creation_lat": 45.4408,
    "creation_lon": 12.3155,
    "_source": {
     "source": "Wikidata",
     "url": "https://www.wikidata.org/wiki/Q3697665",
     "retrieved_at": "2026-08-20"
    },
    "_overrides": {
     "creation": {
      "at": "2026-08-20",
      "source": "derived from start date + Caravaggio's documented itinerary (approximate)"
     }
    },
    "museum_id": "scuola-grande-di-san-rocco",
    "qid": "Q3697665",
    "wga_url": "https://www.wga.hu/html/t/tiziano/01_1510s/01carryi.html"
   }
  },
  {
   "type": "Feature",
   "geometry": {
    "type": "Point",
    "coordinates": [
     12.48023,
     41.89637
    ]
   },
   "properties": {
    "painter": "Giorgione",
    "title": "Double Portrait",
    "year": "1502",
    "city": "Rome",
    "country": "Italy",
    "location": "Museo di Palazzo Venezia",
    "kind": "museum",
    "attribution": "generally accepted",
    "status": "present",
    "medium": "Oil on canvas",
    "dimensions": "80 × 75 cm",
    "genre": "portrait",
    "image": "https://commons.wikimedia.org/wiki/Special:FilePath/Giorgione%20100.jpg?width=420",
    "wikipedia_it": "https://it.wikipedia.org/wiki/Doppio_ritratto_(Giorgione)",
    "wikidata": "https://www.wikidata.org/wiki/Q3714154",
    "creation_place": "Venice",
    "creation_lat": 45.4408,
    "creation_lon": 12.3155,
    "_source": {
     "source": "Wikidata",
     "url": "https://www.wikidata.org/wiki/Q3714154",
     "retrieved_at": "2026-08-20"
    },
    "_overrides": {
     "creation": {
      "at": "2026-08-20",
      "source": "derived from start date + Caravaggio's documented itinerary (approximate)"
     }
    },
    "museum_id": "museo-di-palazzo-venezia",
    "qid": "Q3714154"
   }
  },
  {
   "type": "Feature",
   "geometry": {
    "type": "Point",
    "coordinates": [
     11.92623,
     45.67132
    ]
   },
   "properties": {
    "painter": "Giorgione",
    "title": "Frieze of the Liberal and Mechanical Arts",
    "year": "1496",
    "city": "Castelfranco Veneto",
    "country": "Italy",
    "location": "Casa Giorgione",
    "kind": "museum",
    "attribution": "generally accepted",
    "status": "present",
    "medium": "Fresco painting",
    "dimensions": "77 × 1588 cm",
    "genre": "still life",
    "image": "https://commons.wikimedia.org/wiki/Special:FilePath/Giorgione%20035.jpg?width=420",
    "wikipedia_it": "https://it.wikipedia.org/wiki/Fregio_delle_arti_liberali_e_meccaniche",
    "wikidata": "https://www.wikidata.org/wiki/Q3752977",
    "_source": {
     "source": "Wikidata",
     "url": "https://www.wikidata.org/wiki/Q3752977",
     "retrieved_at": "2026-08-20"
    },
    "museum_id": "casa-giorgione",
    "qid": "Q3752977"
   }
  },
  {
   "type": "Feature",
   "geometry": {
    "type": "Point",
    "coordinates": [
     -77.02,
     38.8914
    ]
   },
   "properties": {
    "painter": "Giorgione",
    "title": "Giovanni Borgherini and His Tutor",
    "year": "1505",
    "city": "Washington",
    "country": "United States",
    "location": "National Gallery of Art",
    "kind": "museum",
    "attribution": "generally accepted",
    "status": "present",
    "medium": "Oil on canvas",
    "dimensions": "47 × 60.7 cm",
    "genre": "portrait",
    "image": "https://commons.wikimedia.org/wiki/Special:FilePath/Giorgione%20%28attr.%29%2C%20giovanni%20borgherini%20e%20il%20suo%20tutore.jpg?width=420",
    "wikipedia_en": "https://en.wikipedia.org/wiki/Giovanni_Borgherini_and_His_Tutor",
    "wikipedia_it": "https://it.wikipedia.org/wiki/Giovanni_Borgherini_col_maestro-astrologo",
    "wikidata": "https://www.wikidata.org/wiki/Q3766873",
    "creation_place": "Venice",
    "creation_lat": 45.4408,
    "creation_lon": 12.3155,
    "_source": {
     "source": "Wikidata",
     "url": "https://www.wikidata.org/wiki/Q3766873",
     "retrieved_at": "2026-08-20"
    },
    "_overrides": {
     "creation": {
      "at": "2026-08-20",
      "source": "derived from start date + Caravaggio's documented itinerary (approximate)"
     }
    },
    "museum_id": "national-gallery-of-art",
    "qid": "Q3766873"
   }
  },
  {
   "type": "Feature",
   "geometry": {
    "type": "Point",
    "coordinates": [
     30.3136,
     59.9406
    ]
   },
   "properties": {
    "painter": "Giorgione",
    "title": "Virgin and Child in a Landscape",
    "year": "1498",
    "city": "Saint Petersburg",
    "country": "Russia",
    "location": "Hermitage Museum",
    "kind": "museum",
    "attribution": "generally accepted",
    "status": "present",
    "medium": "Oil on panel",
    "dimensions": "44 × 36.5 cm",
    "genre": "religious art",
    "image": "https://commons.wikimedia.org/wiki/Special:FilePath/Giorgione%2C%20Virgin%20and%20Child%20in%20a%20Landscape.jpg?width=420",
    "wikipedia_it": "https://it.wikipedia.org/wiki/Madonna_col_Bambino_in_un_paesaggio",
    "wikidata": "https://www.wikidata.org/wiki/Q3842552",
    "_source": {
     "source": "Wikidata",
     "url": "https://www.wikidata.org/wiki/Q3842552",
     "retrieved_at": "2026-08-20"
    },
    "museum_id": "hermitage-museum",
    "qid": "Q3842552",
    "wga_url": "https://www.wga.hu/html/g/giorgion/religion/virgin_c.html"
   }
  },
  {
   "type": "Feature",
   "geometry": {
    "type": "Point",
    "coordinates": [
     12.32814,
     45.43108
    ]
   },
   "properties": {
    "painter": "Giorgione",
    "title": "Nude",
    "year": "1508",
    "city": "Venice",
    "country": "Italy",
    "location": "Gallerie dell'Accademia",
    "kind": "museum",
    "attribution": "generally accepted",
    "status": "present",
    "medium": "Fresco painting",
    "dimensions": "250 × 140 cm",
    "genre": "nude",
    "image": "https://commons.wikimedia.org/wiki/Special:FilePath/Giorgione%20-%20La%20Nuda%2C%201508%20ca.%2C%201034.jpg?width=420",
    "wikipedia_it": "https://it.wikipedia.org/wiki/Nuda_(Giorgione)",
    "wikidata": "https://www.wikidata.org/wiki/Q3879242",
    "creation_place": "Venice",
    "creation_lat": 45.4408,
    "creation_lon": 12.3155,
    "_source": {
     "source": "Wikidata",
     "url": "https://www.wikidata.org/wiki/Q3879242",
     "retrieved_at": "2026-08-20"
    },
    "_overrides": {
     "creation": {
      "at": "2026-08-20",
      "source": "derived from start date + Caravaggio's documented itinerary (approximate)"
     }
    },
    "museum_id": "gallerie-dell-accademia",
    "qid": "Q3879242"
   }
  },
  {
   "type": "Feature",
   "geometry": {
    "type": "Point",
    "coordinates": [
     11.25528,
     43.76833
    ]
   },
   "properties": {
    "painter": "Giorgione",
    "title": "The Test of Fire of Moses",
    "year": "1505",
    "city": "Florence",
    "country": "Italy",
    "location": "Uffizi Gallery",
    "kind": "museum",
    "attribution": "generally accepted",
    "status": "present",
    "medium": "Oil on panel",
    "dimensions": "89 × 72 cm",
    "genre": "religious art",
    "image": "https://commons.wikimedia.org/wiki/Special:FilePath/Giorgione%20-%20Mos%C3%A8%20alla%20prova%20del%20fuoco%20-%20Google%20Art%20Project.jpg?width=420",
    "wikipedia_en": "https://en.wikipedia.org/wiki/The_Test_of_Fire_of_Moses_(Giorgione)",
    "wikipedia_it": "https://it.wikipedia.org/wiki/Prova_di_Mos%C3%A8",
    "wikidata": "https://www.wikidata.org/wiki/Q3924389",
    "creation_place": "Venice",
    "creation_lat": 45.4408,
    "creation_lon": 12.3155,
    "_source": {
     "source": "Wikidata",
     "url": "https://www.wikidata.org/wiki/Q3924389",
     "retrieved_at": "2026-08-20"
    },
    "_overrides": {
     "creation": {
      "at": "2026-08-20",
      "source": "derived from start date + Caravaggio's documented itinerary (approximate)"
     }
    },
    "museum_id": "uffizi-gallery",
    "qid": "Q3924389",
    "wga_url": "https://www.wga.hu/html/g/giorgion/various/moses.html"
   }
  },
  {
   "type": "Feature",
   "geometry": {
    "type": "Point",
    "coordinates": [
     13.36472,
     52.50861
    ]
   },
   "properties": {
    "painter": "Giorgione",
    "title": "Giustiniani Portrait",
    "year": "1503",
    "city": "Bezirk Mitte",
    "country": "Germany",
    "location": "Gemäldegalerie Berlin",
    "kind": "museum",
    "attribution": "generally accepted",
    "status": "present",
    "medium": "Oil on canvas",
    "dimensions": "58 × 46 cm",
    "genre": "portrait",
    "image": "https://commons.wikimedia.org/wiki/Special:FilePath/Giorgione%20-%20Portrait%20of%20a%20young%20man%2C%2016th%20century%20-Gem%C3%A4ldegalerie%20Berlin.jpg?width=420",
    "wikipedia_en": "https://en.wikipedia.org/wiki/Giustiniani_Portrait",
    "wikipedia_it": "https://it.wikipedia.org/wiki/Ritratto_Giustiniani",
    "wikidata": "https://www.wikidata.org/wiki/Q3937389",
    "creation_place": "Venice",
    "creation_lat": 45.4408,
    "creation_lon": 12.3155,
    "_source": {
     "source": "Wikidata",
     "url": "https://www.wikidata.org/wiki/Q3937389",
     "retrieved_at": "2026-08-20"
    },
    "_overrides": {
     "creation": {
      "at": "2026-08-20",
      "source": "derived from start date + Caravaggio's documented itinerary (approximate)"
     }
    },
    "museum_id": "gemaldegalerie-berlin",
    "qid": "Q3937389",
    "wga_url": "https://www.wga.hu/html/g/giorgion/portrait/01youngm.html"
   }
  },
  {
   "type": "Feature",
   "geometry": {
    "type": "Point",
    "coordinates": [
     -117.15043,
     32.73216
    ]
   },
   "properties": {
    "painter": "Giorgione",
    "title": "Portrait of a Man",
    "year": "1508",
    "city": "San Diego",
    "country": "United States",
    "location": "San Diego Museum of Art",
    "kind": "museum",
    "attribution": "generally accepted",
    "status": "present",
    "medium": "Oil on panel",
    "dimensions": "30 × 26 cm",
    "genre": "portrait",
    "image": "https://commons.wikimedia.org/wiki/Special:FilePath/Giorgione%2C%20Portrait%20of%20a%20Man.jpg?width=420",
    "wikipedia_it": "https://it.wikipedia.org/wiki/Ritratto_d%27uomo_Terris",
    "wikidata": "https://www.wikidata.org/wiki/Q3937411",
    "creation_place": "Venice",
    "creation_lat": 45.4408,
    "creation_lon": 12.3155,
    "_source": {
     "source": "Wikidata",
     "url": "https://www.wikidata.org/wiki/Q3937411",
     "retrieved_at": "2026-08-20"
    },
    "_overrides": {
     "creation": {
      "at": "2026-08-20",
      "source": "derived from start date + Caravaggio's documented itinerary (approximate)"
     }
    },
    "museum_id": "san-diego-museum-of-art",
    "qid": "Q3937411",
    "wga_url": "https://www.wga.hu/html/g/giorgion/portrait/04portma.html"
   }
  },
  {
   "type": "Feature",
   "geometry": {
    "type": "Point",
    "coordinates": [
     16.3616,
     48.20388
    ]
   },
   "properties": {
    "painter": "Giorgione",
    "title": "Portrait of a Warrior",
    "year": "1500",
    "city": "Vienna",
    "country": "Austria",
    "location": "Kunsthistorisches Museum",
    "kind": "museum",
    "attribution": "generally accepted",
    "status": "present",
    "dimensions": "72 × 56.5 cm",
    "genre": "portrait",
    "image": "https://commons.wikimedia.org/wiki/Special:FilePath/Giorgio%20da%20Castelfranco%2C%20gen.%20Giorgione%2C%20Kunsthistorisches%20Museum%20Wien%2C%20Gem%C3%A4ldegalerie%20-%20Krieger%20-%20GG%201526%20-%20Kunsthistorisches%20Museum.jpg?width=420",
    "wikipedia_it": "https://it.wikipedia.org/wiki/Ritratto_d%27uomo_in_armi",
    "wikidata": "https://www.wikidata.org/wiki/Q3937417",
    "creation_place": "Venice",
    "creation_lat": 45.4408,
    "creation_lon": 12.3155,
    "_source": {
     "source": "Wikidata",
     "url": "https://www.wikidata.org/wiki/Q3937417",
     "retrieved_at": "2026-08-20"
    },
    "_overrides": {
     "creation": {
      "at": "2026-08-20",
      "source": "derived from start date + Caravaggio's documented itinerary (approximate)"
     }
    },
    "museum_id": "kunsthistorisches-museum",
    "qid": "Q3937417"
   }
  },
  {
   "type": "Feature",
   "geometry": {
    "type": "Point",
    "coordinates": [
     16.3616,
     48.20388
    ]
   },
   "properties": {
    "painter": "Giorgione",
    "title": "Portrait of Francesco Maria della Rovere",
    "year": "1502",
    "city": "Vienna",
    "country": "Austria",
    "location": "Kunsthistorisches Museum",
    "kind": "museum",
    "attribution": "generally accepted",
    "status": "present",
    "dimensions": "73 × 64 cm",
    "genre": "portrait",
    "image": "https://commons.wikimedia.org/wiki/Special:FilePath/Giorgione%20-%20Bildnis%20des%20Francesco%20Maria%20I.%20della%20Rovere%2C%20um%201502.jpg?width=420",
    "wikipedia_es": "https://es.wikipedia.org/wiki/Retrato_de_Francesco_Maria_della_Rovere_(Giorgione)",
    "wikipedia_en": "https://en.wikipedia.org/wiki/Portrait_of_Francesco_Maria_della_Rovere_(Giorgione)",
    "wikipedia_it": "https://it.wikipedia.org/wiki/Ritratto_di_Francesco_Maria_Della_Rovere_(Giorgione)",
    "wikidata": "https://www.wikidata.org/wiki/Q3937532",
    "creation_place": "Venice",
    "creation_lat": 45.4408,
    "creation_lon": 12.3155,
    "_source": {
     "source": "Wikidata",
     "url": "https://www.wikidata.org/wiki/Q3937532",
     "retrieved_at": "2026-08-20"
    },
    "_overrides": {
     "creation": {
      "at": "2026-08-20",
      "source": "derived from start date + Caravaggio's documented itinerary (approximate)"
     }
    },
    "museum_id": "kunsthistorisches-museum",
    "qid": "Q3937532"
   }
  },
  {
   "type": "Feature",
   "geometry": {
    "type": "Point",
    "coordinates": [
     11.25528,
     43.76833
    ]
   },
   "properties": {
    "painter": "Giorgione",
    "title": "Portrait of a soldier with his squire",
    "year": "1502",
    "city": "Florence",
    "country": "Italy",
    "location": "Uffizi Gallery",
    "kind": "museum",
    "attribution": "generally accepted",
    "status": "present",
    "medium": "Oil on canvas",
    "dimensions": "90 × 73 cm",
    "genre": "double portrait",
    "image": "https://commons.wikimedia.org/wiki/Special:FilePath/Giorgione%2C%20Portrait%20of%20Warrior%20with%20his%20Equerry.jpg?width=420",
    "wikipedia_it": "https://it.wikipedia.org/wiki/Ritratto_di_guerriero_con_scudiero",
    "wikidata": "https://www.wikidata.org/wiki/Q3937736",
    "creation_place": "Venice",
    "creation_lat": 45.4408,
    "creation_lon": 12.3155,
    "_source": {
     "source": "Wikidata",
     "url": "https://www.wikidata.org/wiki/Q3937736",
     "retrieved_at": "2026-08-20"
    },
    "_overrides": {
     "creation": {
      "at": "2026-08-20",
      "source": "derived from start date + Caravaggio's documented itinerary (approximate)"
     }
    },
    "museum_id": "uffizi-gallery",
    "qid": "Q3937736",
    "wga_url": "https://www.wga.hu/html/c/cavazzol/warrior.html"
   }
  },
  {
   "type": "Feature",
   "geometry": {
    "type": "Point",
    "coordinates": [
     -77.02,
     38.8914
    ]
   },
   "properties": {
    "painter": "Giorgione",
    "title": "Holy Family",
    "year": "1500",
    "city": "Washington",
    "country": "United States",
    "location": "National Gallery of Art",
    "kind": "museum",
    "attribution": "generally accepted",
    "status": "present",
    "medium": "Oil on panel",
    "dimensions": "37.3 × 45.6 cm",
    "genre": "religious art",
    "image": "https://commons.wikimedia.org/wiki/Special:FilePath/Giorgione%20-%20Sacra%20Famiglia%20Benson%20%28ca.%201500%29.jpg?width=420",
    "wikipedia_it": "https://it.wikipedia.org/wiki/Sacra_Famiglia_Benson",
    "wikidata": "https://www.wikidata.org/wiki/Q3944458",
    "creation_place": "Venice",
    "creation_lat": 45.4408,
    "creation_lon": 12.3155,
    "_source": {
     "source": "Wikidata",
     "url": "https://www.wikidata.org/wiki/Q3944458",
     "retrieved_at": "2026-08-20"
    },
    "_overrides": {
     "creation": {
      "at": "2026-08-20",
      "source": "derived from start date + Caravaggio's documented itinerary (approximate)"
     }
    },
    "museum_id": "national-gallery-of-art",
    "qid": "Q3944458",
    "wga_url": "https://www.wga.hu/html/g/giorgion/religion/01holyfa.html"
   }
  },
  {
   "type": "Feature",
   "geometry": {
    "type": "Point",
    "coordinates": [
     12.49214,
     41.91421
    ]
   },
   "properties": {
    "painter": "Giorgione",
    "title": "Suonatore di flauto",
    "year": "1508",
    "city": "Rome",
    "country": "Italy",
    "location": "Galleria Borghese",
    "kind": "museum",
    "attribution": "generally accepted",
    "status": "present",
    "medium": "Oil on canvas",
    "dimensions": "102 × 78 cm",
    "genre": "portrait",
    "image": "https://commons.wikimedia.org/wiki/Special:FilePath/Giorgione%2C%20suonatore%20di%20flauto%202.jpg?width=420",
    "wikipedia_it": "https://it.wikipedia.org/wiki/Suonatore_di_flauto",
    "wikidata": "https://www.wikidata.org/wiki/Q3977127",
    "creation_place": "Venice",
    "creation_lat": 45.4408,
    "creation_lon": 12.3155,
    "_source": {
     "source": "Wikidata",
     "url": "https://www.wikidata.org/wiki/Q3977127",
     "retrieved_at": "2026-08-20"
    },
    "_overrides": {
     "creation": {
      "at": "2026-08-20",
      "source": "derived from start date + Caravaggio's documented itinerary (approximate)"
     }
    },
    "museum_id": "galleria-borghese",
    "qid": "Q3977127"
   }
  },
  {
   "type": "Feature",
   "geometry": {
    "type": "Point",
    "coordinates": [
     11.25,
     43.7652
    ]
   },
   "properties": {
    "painter": "Giorgione",
    "title": "The Three Ages of Man",
    "year": "1504",
    "city": "Florence",
    "country": "Italy",
    "location": "Galleria Palatina",
    "kind": "museum",
    "attribution": "generally accepted",
    "status": "present",
    "medium": "Oil on panel",
    "dimensions": "62 × 77 cm",
    "genre": "allegory",
    "image": "https://commons.wikimedia.org/wiki/Special:FilePath/Giorgione%2C%20Three%20Ages.jpg?width=420",
    "wikipedia_en": "https://en.wikipedia.org/wiki/The_Three_Ages_of_Man_(Giorgione)",
    "wikipedia_it": "https://it.wikipedia.org/wiki/Tre_et%C3%A0_dell%27uomo",
    "wikidata": "https://www.wikidata.org/wiki/Q3998112",
    "creation_place": "Venice",
    "creation_lat": 45.4408,
    "creation_lon": 12.3155,
    "_source": {
     "source": "Wikidata",
     "url": "https://www.wikidata.org/wiki/Q3998112",
     "retrieved_at": "2026-08-20"
    },
    "_overrides": {
     "creation": {
      "at": "2026-08-20",
      "source": "derived from start date + Caravaggio's documented itinerary (approximate)"
     }
    },
    "museum_id": "galleria-palatina",
    "qid": "Q3998112",
    "wga_url": "https://www.wga.hu/html/g/giorgion/various/threeage.html"
   }
  },
  {
   "type": "Feature",
   "geometry": {
    "type": "Point",
    "coordinates": [
     8.21659,
     53.1362
    ]
   },
   "properties": {
    "painter": "Giorgione",
    "title": "Detroit Trio",
    "year": "1510",
    "city": "Oldenburg",
    "country": "Germany",
    "location": "Augusteum",
    "kind": "museum",
    "attribution": "generally accepted",
    "status": "present",
    "medium": "Oil on canvas",
    "dimensions": "84 × 69 cm",
    "genre": "portrait",
    "image": "https://commons.wikimedia.org/wiki/Special:FilePath/Titian%20-%20The%20Appeal%20-%2026.107%20-%20Detroit%20Institute%20of%20Arts.jpg?width=420",
    "wikipedia_en": "https://en.wikipedia.org/wiki/Detroit_Trio",
    "wikipedia_it": "https://it.wikipedia.org/wiki/Trio_di_Detroit",
    "wikidata": "https://www.wikidata.org/wiki/Q3998923",
    "creation_place": "Venice",
    "creation_lat": 45.4408,
    "creation_lon": 12.3155,
    "_source": {
     "source": "Wikidata",
     "url": "https://www.wikidata.org/wiki/Q3998923",
     "retrieved_at": "2026-08-20"
    },
    "_overrides": {
     "creation": {
      "at": "2026-08-20",
      "source": "derived from start date + Caravaggio's documented itinerary (approximate)"
     }
    },
    "museum_id": "augusteum",
    "qid": "Q3998923"
   }
  },
  {
   "type": "Feature",
   "geometry": {
    "type": "Point",
    "coordinates": [
     12.3248,
     45.4438
    ]
   },
   "properties": {
    "painter": "Giorgione",
    "title": "Old Woman",
    "year": "1506",
    "city": "Venice",
    "country": "Italy",
    "location": "Palazzo Priuli Manfrin",
    "kind": "museum",
    "attribution": "generally accepted",
    "status": "present",
    "medium": "Oil on canvas",
    "dimensions": "68 × 59 cm",
    "genre": "portrait",
    "image": "https://commons.wikimedia.org/wiki/Special:FilePath/Col%20tempo%20by%20Giorgione.jpg?width=420",
    "wikipedia_es": "https://es.wikipedia.org/wiki/Retrato_de_una_anciana_(Giorgione)",
    "wikipedia_en": "https://en.wikipedia.org/wiki/The_Old_Woman_(Giorgione)",
    "wikipedia_it": "https://it.wikipedia.org/wiki/Vecchia_(Giorgione)",
    "wikidata": "https://www.wikidata.org/wiki/Q4009159",
    "creation_place": "Venice",
    "creation_lat": 45.4408,
    "creation_lon": 12.3155,
    "_source": {
     "source": "Wikidata",
     "url": "https://www.wikidata.org/wiki/Q4009159",
     "retrieved_at": "2026-08-20"
    },
    "_overrides": {
     "creation": {
      "at": "2026-08-20",
      "source": "derived from start date + Caravaggio's documented itinerary (approximate)"
     }
    },
    "museum_id": "palazzo-priuli-manfrin",
    "qid": "Q4009159",
    "wga_url": "https://www.wga.hu/html/g/giorgion/portrait/03woman.html"
   }
  },
  {
   "type": "Feature",
   "geometry": {
    "type": "Point",
    "coordinates": [
     13.73466,
     51.05338
    ]
   },
   "properties": {
    "painter": "Giorgione",
    "title": "Sleeping Venus",
    "year": "1509",
    "city": "Dresden",
    "country": "Germany",
    "location": "Gemäldegalerie Alte Meister",
    "kind": "museum",
    "attribution": "generally accepted",
    "status": "present",
    "medium": "Oil on canvas",
    "dimensions": "108.5 × 175 cm",
    "genre": "mythological painting, nude",
    "image": "https://commons.wikimedia.org/wiki/Special:FilePath/Giorgione%20-%20Sleeping%20Venus%20-%20Google%20Art%20Project%202.jpg?width=420",
    "wikipedia_es": "https://es.wikipedia.org/wiki/Venus_dormida_(Giorgione)",
    "wikipedia_en": "https://en.wikipedia.org/wiki/Sleeping_Venus_(Giorgione)",
    "wikipedia_it": "https://it.wikipedia.org/wiki/Venere_dormiente",
    "wikidata": "https://www.wikidata.org/wiki/Q500812",
    "creation_place": "Venice",
    "creation_lat": 45.4408,
    "creation_lon": 12.3155,
    "_source": {
     "source": "Wikidata",
     "url": "https://www.wikidata.org/wiki/Q500812",
     "retrieved_at": "2026-08-20"
    },
    "_overrides": {
     "creation": {
      "at": "2026-08-20",
      "source": "derived from start date + Caravaggio's documented itinerary (approximate)"
     }
    },
    "museum_id": "gemaldegalerie-alte-meister",
    "qid": "Q500812",
    "wga_url": "https://www.wga.hu/html/g/giorgion/various/venus.html"
   }
  },
  {
   "type": "Feature",
   "geometry": {
    "type": "Point",
    "coordinates": [
     16.3616,
     48.20388
    ]
   },
   "properties": {
    "painter": "Giorgione",
    "title": "Laura",
    "year": "1506",
    "city": "Vienna",
    "country": "Austria",
    "location": "Kunsthistorisches Museum",
    "kind": "museum",
    "attribution": "generally accepted",
    "status": "present",
    "medium": "Oil on canvas",
    "dimensions": "410 × 336 cm",
    "genre": "portrait",
    "image": "https://commons.wikimedia.org/wiki/Special:FilePath/Giorgio%20da%20Castelfranco%2C%20gen.%20Giorgione%2C%20%2C%20Kunsthistorisches%20Museum%20Wien%2C%20Gem%C3%A4ldegalerie%20-%20Bildnis%20einer%20jungen%20Frau%20%28%22Laura%22%29%20-%20GG%2031%20-%20Kunsthistorisches%20Museum.jpg?width=420",
    "wikipedia_es": "https://es.wikipedia.org/wiki/Laura_(Giorgione)",
    "wikipedia_en": "https://en.wikipedia.org/wiki/Laura_(Giorgione)",
    "wikipedia_it": "https://it.wikipedia.org/wiki/Laura_(Giorgione)",
    "wikidata": "https://www.wikidata.org/wiki/Q595707",
    "creation_place": "Venice",
    "creation_lat": 45.4408,
    "creation_lon": 12.3155,
    "_source": {
     "source": "Wikidata",
     "url": "https://www.wikidata.org/wiki/Q595707",
     "retrieved_at": "2026-08-20"
    },
    "_overrides": {
     "creation": {
      "at": "2026-08-20",
      "source": "derived from start date + Caravaggio's documented itinerary (approximate)"
     }
    },
    "museum_id": "kunsthistorisches-museum",
    "qid": "Q595707",
    "wga_url": "https://www.wga.hu/html/g/giorgion/portrait/02laura.html"
   }
  },
  {
   "type": "Feature",
   "geometry": {
    "type": "Point",
    "coordinates": [
     16.3616,
     48.20388
    ]
   },
   "properties": {
    "painter": "Giorgione",
    "title": "The Three Philosophers",
    "year": "1500",
    "city": "Vienna",
    "country": "Austria",
    "location": "Kunsthistorisches Museum",
    "kind": "museum",
    "attribution": "generally accepted",
    "status": "present",
    "medium": "Oil on canvas",
    "dimensions": "125.5 × 146.2 cm",
    "genre": "landscape painting",
    "image": "https://commons.wikimedia.org/wiki/Special:FilePath/Giorgione%20-%20Three%20Philosophers%20-%20Google%20Art%20Project.jpg?width=420",
    "wikipedia_es": "https://es.wikipedia.org/wiki/Los_tres_fil%C3%B3sofos",
    "wikipedia_en": "https://en.wikipedia.org/wiki/The_Three_Philosophers",
    "wikipedia_it": "https://it.wikipedia.org/wiki/Tre_filosofi",
    "wikidata": "https://www.wikidata.org/wiki/Q877191",
    "creation_place": "Venice",
    "creation_lat": 45.4408,
    "creation_lon": 12.3155,
    "_source": {
     "source": "Wikidata",
     "url": "https://www.wikidata.org/wiki/Q877191",
     "retrieved_at": "2026-08-20"
    },
    "_overrides": {
     "creation": {
      "at": "2026-08-20",
      "source": "derived from start date + Caravaggio's documented itinerary (approximate)"
     }
    },
    "museum_id": "kunsthistorisches-museum",
    "qid": "Q877191",
    "wga_url": "https://www.wga.hu/html/g/giorgion/various/threephi.html"
   }
  },
  {
   "type": "Feature",
   "geometry": {
    "type": "Point",
    "coordinates": [
     12.32814,
     45.43108
    ]
   },
   "properties": {
    "painter": "Giorgione",
    "title": "The Tempest",
    "year": "1506",
    "city": "Venice",
    "country": "Italy",
    "location": "Gallerie dell'Accademia",
    "kind": "museum",
    "attribution": "generally accepted",
    "status": "present",
    "medium": "Oil on canvas",
    "dimensions": "82 × 73 cm",
    "genre": "landscape painting",
    "image": "https://commons.wikimedia.org/wiki/Special:FilePath/Giorgione%20-%20Das%20Gewitter.jpg?width=420",
    "wikipedia_es": "https://es.wikipedia.org/wiki/La_tempestad_(Giorgione)",
    "wikipedia_en": "https://en.wikipedia.org/wiki/The_Tempest_(Giorgione)",
    "wikipedia_it": "https://it.wikipedia.org/wiki/Tempesta_(Giorgione)",
    "wikidata": "https://www.wikidata.org/wiki/Q930137",
    "creation_place": "Venice",
    "creation_lat": 45.4408,
    "creation_lon": 12.3155,
    "_source": {
     "source": "Wikidata",
     "url": "https://www.wikidata.org/wiki/Q930137",
     "retrieved_at": "2026-08-20"
    },
    "_overrides": {
     "creation": {
      "at": "2026-08-20",
      "source": "derived from start date + Caravaggio's documented itinerary (approximate)"
     }
    },
    "museum_id": "gallerie-dell-accademia",
    "qid": "Q930137",
    "wga_url": "https://www.wga.hu/html/g/giorgion/tempest/tempest6.html"
   }
  }
 ]
}