{
 "type": "FeatureCollection",
 "_note": "Generated by scripts/build.py from Wikidata. Do not edit by hand — put manual fixes in the painter's overlay (data/overlay/*.json). Each feature carries _source (scraped base or manual addition) and, when edited, _overrides.",
 "features": [
  {
   "type": "Feature",
   "geometry": {
    "type": "Point",
    "coordinates": [
     11.263333,
     43.768056
    ]
   },
   "properties": {
    "painter": "Giotto",
    "title": "Coronation of Mary",
    "year": "1328",
    "city": "borough 1",
    "country": "Italy",
    "location": "Baroncelli Chapel",
    "kind": "church",
    "attribution": "attributed",
    "status": "present",
    "genre": "religious art",
    "wikidata": "https://www.wikidata.org/wiki/Q111041574",
    "creation_place": "Florence",
    "creation_lat": 43.7696,
    "creation_lon": 11.2558,
    "_source": {
     "source": "Wikidata",
     "url": "https://www.wikidata.org/wiki/Q111041574",
     "retrieved_at": "2026-08-19"
    },
    "_overrides": {
     "creation": {
      "at": "2026-08-19",
      "source": "derived from start date + Caravaggio's documented itinerary (approximate)"
     }
    },
    "museum_id": "baroncelli-chapel"
   }
  },
  {
   "type": "Feature",
   "geometry": {
    "type": "Point",
    "coordinates": [
     12.605566,
     43.074825
    ]
   },
   "properties": {
    "painter": "Giotto",
    "title": "Apoteosi di San Francesco",
    "year": "1334",
    "city": "Assisi",
    "country": "Italy",
    "location": "Lower Basilica of San Francesco",
    "kind": "church",
    "attribution": "attributed",
    "status": "present",
    "genre": "religious art",
    "image": "https://commons.wikimedia.org/wiki/Special:FilePath/Giotto%2C%20Lower%20Church%20Assisi%2C%20Franciscan%20Allegories-St%20Francis%20in%20Glory%2001.jpg?width=420",
    "wikidata": "https://www.wikidata.org/wiki/Q111042707",
    "creation_place": "Florence",
    "creation_lat": 43.7696,
    "creation_lon": 11.2558,
    "_source": {
     "source": "Wikidata",
     "url": "https://www.wikidata.org/wiki/Q111042707",
     "retrieved_at": "2026-08-19"
    },
    "_overrides": {
     "creation": {
      "at": "2026-08-19",
      "source": "derived from start date + Caravaggio's documented itinerary (approximate)"
     }
    },
    "museum_id": "lower-basilica-of-san-francesco"
   }
  },
  {
   "type": "Feature",
   "geometry": {
    "type": "Point",
    "coordinates": [
     11.256944,
     43.773056
    ]
   },
   "properties": {
    "painter": "Giotto",
    "title": "Polittico di Santa Reparata",
    "city": "Florence",
    "country": "Italy",
    "location": "Florence Cathedral",
    "kind": "church",
    "attribution": "generally accepted",
    "status": "present",
    "image": "https://commons.wikimedia.org/wiki/Special:FilePath/Giotto%20e%20bottega%20-%20Polittico%20di%20Santa%20Reparata%20B.jpg?width=420",
    "wikipedia_it": "https://it.wikipedia.org/wiki/Polittico_di_Santa_Reparata_(Giotto)",
    "wikidata": "https://www.wikidata.org/wiki/Q112045358",
    "_source": {
     "source": "Wikidata",
     "url": "https://www.wikidata.org/wiki/Q112045358",
     "retrieved_at": "2026-08-19"
    },
    "museum_id": "florence-cathedral"
   }
  },
  {
   "type": "Feature",
   "geometry": {
    "type": "Point",
    "coordinates": [
     7.24886,
     43.69454
    ]
   },
   "properties": {
    "painter": "Giotto",
    "title": "The Funeral of a Bishop Saint",
    "year": "1411",
    "city": "Nice",
    "country": "France",
    "location": "Musée des Beaux-Arts Jules Chéret",
    "kind": "museum",
    "attribution": "attributed",
    "status": "present",
    "medium": "Oil on panel",
    "dimensions": "44 × 20 cm",
    "image": "https://commons.wikimedia.org/wiki/Special:FilePath/Monaco%2C%20Lorenzo%20or%20Giotto%20%28attr.%29%20-%20Funeral%20of%20St.%20Augustinus%20-%20Mus%C3%A9e%20des%20Beaux-Arts%20de%20Nice.jpg?width=420",
    "wikidata": "https://www.wikidata.org/wiki/Q116626688",
    "_source": {
     "source": "Wikidata",
     "url": "https://www.wikidata.org/wiki/Q116626688",
     "retrieved_at": "2026-08-19"
    },
    "museum_id": "musee-des-beaux-arts-jules-cheret"
   }
  },
  {
   "type": "Feature",
   "geometry": {
    "type": "Point",
    "coordinates": [
     11.26274,
     43.76845
    ]
   },
   "properties": {
    "painter": "Giotto",
    "title": "Episodi della vita di Cristo",
    "city": "Florence",
    "country": "Italy",
    "location": "Basilica of Santa Croce",
    "kind": "church",
    "attribution": "attributed",
    "status": "present",
    "medium": "Panel",
    "wikidata": "https://www.wikidata.org/wiki/Q117803311",
    "_source": {
     "source": "Wikidata",
     "url": "https://www.wikidata.org/wiki/Q117803311",
     "retrieved_at": "2026-08-19"
    },
    "museum_id": "basilica-of-santa-croce"
   }
  },
  {
   "type": "Feature",
   "geometry": {
    "type": "Point",
    "coordinates": [
     11.26274,
     43.76845
    ]
   },
   "properties": {
    "painter": "Giotto",
    "title": "Episodi della vita di San Francesco d'Assisi",
    "city": "Florence",
    "country": "Italy",
    "location": "Basilica of Santa Croce",
    "kind": "church",
    "attribution": "attributed",
    "status": "present",
    "medium": "Panel",
    "wikidata": "https://www.wikidata.org/wiki/Q117803362",
    "_source": {
     "source": "Wikidata",
     "url": "https://www.wikidata.org/wiki/Q117803362",
     "retrieved_at": "2026-08-19"
    },
    "museum_id": "basilica-of-santa-croce"
   }
  },
  {
   "type": "Feature",
   "geometry": {
    "type": "Point",
    "coordinates": [
     12.45277,
     41.90573
    ]
   },
   "properties": {
    "painter": "Giotto",
    "title": "The Stefaneschi Triptych: Christ Enthroned",
    "year": "1330",
    "city": "Vatican City",
    "country": "Vatican City",
    "location": "Pinacoteca Vaticana",
    "kind": "museum",
    "attribution": "attributed",
    "status": "present",
    "medium": "Panel",
    "image": "https://commons.wikimedia.org/wiki/Special:FilePath/Giotto%20di%20Bondone%20-%20The%20Stefaneschi%20Triptych%20-%20Christ%20Enthroned%20-%20WGA09351.jpg?width=420",
    "wikidata": "https://www.wikidata.org/wiki/Q118495235",
    "creation_place": "Florence",
    "creation_lat": 43.7696,
    "creation_lon": 11.2558,
    "_source": {
     "source": "Wikidata",
     "url": "https://www.wikidata.org/wiki/Q118495235",
     "retrieved_at": "2026-08-19"
    },
    "_overrides": {
     "creation": {
      "at": "2026-08-19",
      "source": "derived from start date + Caravaggio's documented itinerary (approximate)"
     }
    },
    "museum_id": "pinacoteca-vaticana"
   }
  },
  {
   "type": "Feature",
   "geometry": {
    "type": "Point",
    "coordinates": [
     -1.26056,
     51.75556
    ]
   },
   "properties": {
    "painter": "Giotto",
    "title": "The Virgin and Child",
    "year": "1310",
    "city": "Oxford",
    "country": "United Kingdom",
    "location": "Ashmolean Museum",
    "kind": "museum",
    "attribution": "attributed",
    "status": "present",
    "dimensions": "28.5 × 19.7 cm",
    "genre": "religious art",
    "image": "https://commons.wikimedia.org/wiki/Special:FilePath/Giotto%20di%20Bondone%20%281266-1267-1337%29%20%28studio%20of%29%20-%20The%20Virgin%20and%20Child%20-%20WA1913.1%20-%20Ashmolean%20Museum.jpg?width=420",
    "wikidata": "https://www.wikidata.org/wiki/Q118591304",
    "creation_place": "Florence",
    "creation_lat": 43.7696,
    "creation_lon": 11.2558,
    "_source": {
     "source": "Wikidata",
     "url": "https://www.wikidata.org/wiki/Q118591304",
     "retrieved_at": "2026-08-19"
    },
    "_overrides": {
     "creation": {
      "at": "2026-08-19",
      "source": "derived from start date + Caravaggio's documented itinerary (approximate)"
     }
    },
    "museum_id": "ashmolean-museum"
   }
  },
  {
   "type": "Feature",
   "geometry": {
    "type": "Point",
    "coordinates": [
     -0.13389,
     51.52594
    ]
   },
   "properties": {
    "painter": "Giotto",
    "title": "Saint Francis Expelling the Devils",
    "city": "London Borough of Camden",
    "country": "United Kingdom",
    "location": "Wellcome Collection",
    "kind": "museum",
    "attribution": "attributed",
    "status": "present",
    "medium": "Oil on canvas",
    "dimensions": "53.5 × 49 cm",
    "image": "https://commons.wikimedia.org/wiki/Special:FilePath/Giotto%20di%20Bondone%20%281266-1267-1337%29%20%28after%29%20-%20Saint%20Francis%20Expelling%20the%20Devils%20-%2044869i%20-%20Wellcome%20Collection.jpg?width=420",
    "wikidata": "https://www.wikidata.org/wiki/Q119450066",
    "_source": {
     "source": "Wikidata",
     "url": "https://www.wikidata.org/wiki/Q119450066",
     "retrieved_at": "2026-08-19"
    },
    "museum_id": "wellcome-collection"
   }
  },
  {
   "type": "Feature",
   "geometry": {
    "type": "Point",
    "coordinates": [
     12.605566,
     43.074825
    ]
   },
   "properties": {
    "painter": "Giotto",
    "title": "Anbetung der Könige",
    "year": "1310",
    "city": "Assisi",
    "country": "Italy",
    "location": "Lower Basilica of San Francesco",
    "kind": "church",
    "attribution": "attributed",
    "status": "present",
    "medium": "Fresco",
    "genre": "religious art",
    "image": "https://commons.wikimedia.org/wiki/Special:FilePath/Adoration%20assisi.jpg?width=420",
    "wikidata": "https://www.wikidata.org/wiki/Q124305801",
    "creation_place": "Florence",
    "creation_lat": 43.7696,
    "creation_lon": 11.2558,
    "_source": {
     "source": "Wikidata",
     "url": "https://www.wikidata.org/wiki/Q124305801",
     "retrieved_at": "2026-08-19"
    },
    "_overrides": {
     "creation": {
      "at": "2026-08-19",
      "source": "derived from start date + Caravaggio's documented itinerary (approximate)"
     }
    },
    "museum_id": "lower-basilica-of-san-francesco"
   }
  },
  {
   "type": "Feature",
   "geometry": {
    "type": "Point",
    "coordinates": [
     12.605566,
     43.074825
    ]
   },
   "properties": {
    "painter": "Giotto",
    "title": "Scenes from the Life of Mary Magdalene: The Hermit Zosimus Giving a Cloak to Magdalene",
    "year": "1320",
    "city": "Assisi",
    "country": "Italy",
    "location": "Lower Basilica of San Francesco",
    "kind": "church",
    "attribution": "attributed",
    "status": "present",
    "medium": "Fresco",
    "image": "https://commons.wikimedia.org/wiki/Special:FilePath/Assisi%20zosimus.jpg?width=420",
    "wikidata": "https://www.wikidata.org/wiki/Q130609968",
    "creation_place": "Florence",
    "creation_lat": 43.7696,
    "creation_lon": 11.2558,
    "_source": {
     "source": "Wikidata",
     "url": "https://www.wikidata.org/wiki/Q130609968",
     "retrieved_at": "2026-08-19"
    },
    "_overrides": {
     "creation": {
      "at": "2026-08-19",
      "source": "derived from start date + Caravaggio's documented itinerary (approximate)"
     }
    },
    "museum_id": "lower-basilica-of-san-francesco"
   }
  },
  {
   "type": "Feature",
   "geometry": {
    "type": "Point",
    "coordinates": [
     4.07972,
     48.30111
    ]
   },
   "properties": {
    "painter": "Giotto",
    "title": "Calvary and Francis of Assisi",
    "year": "1315",
    "city": "Troyes",
    "country": "France",
    "location": "Musée des Beaux-Arts de Troyes",
    "kind": "museum",
    "attribution": "attributed",
    "status": "present",
    "medium": "Gold, poplar panel, tempera",
    "dimensions": "31 × 23 cm",
    "genre": "religious art",
    "image": "https://commons.wikimedia.org/wiki/Special:FilePath/Calvaire%20avec%20saint%20Fran%C3%A7ois%20d%27Assise%2C%20par%20Giotto.jpg?width=420",
    "wikidata": "https://www.wikidata.org/wiki/Q133504973",
    "creation_place": "Florence",
    "creation_lat": 43.7696,
    "creation_lon": 11.2558,
    "_source": {
     "source": "Wikidata",
     "url": "https://www.wikidata.org/wiki/Q133504973",
     "retrieved_at": "2026-08-19"
    },
    "_overrides": {
     "creation": {
      "at": "2026-08-19",
      "source": "derived from start date + Caravaggio's documented itinerary (approximate)"
     }
    },
    "museum_id": "musee-des-beaux-arts-de-troyes"
   }
  },
  {
   "type": "Feature",
   "geometry": {
    "type": "Point",
    "coordinates": [
     2.3358,
     48.8611
    ]
   },
   "properties": {
    "painter": "Giotto",
    "title": "Crucifixion",
    "year": "1330",
    "city": "Paris",
    "country": "France",
    "location": "Louvre",
    "kind": "museum",
    "attribution": "attributed",
    "status": "present",
    "medium": "Tempera",
    "dimensions": "136 × 118 cm",
    "genre": "religious art",
    "image": "https://commons.wikimedia.org/wiki/Special:FilePath/La%20Crucifixion%20-%20Atelier%20de%20Giotto%20-%20Mus%C3%A9e%20du%20Louvre%20Peintures%20RF%201999%2011.jpg?width=420",
    "wikidata": "https://www.wikidata.org/wiki/Q18609191",
    "creation_place": "Florence",
    "creation_lat": 43.7696,
    "creation_lon": 11.2558,
    "_source": {
     "source": "Wikidata",
     "url": "https://www.wikidata.org/wiki/Q18609191",
     "retrieved_at": "2026-08-19"
    },
    "_overrides": {
     "creation": {
      "at": "2026-08-19",
      "source": "derived from start date + Caravaggio's documented itinerary (approximate)"
     }
    },
    "museum_id": "louvre"
   }
  },
  {
   "type": "Feature",
   "geometry": {
    "type": "Point",
    "coordinates": [
     -73.9631,
     40.7794
    ]
   },
   "properties": {
    "painter": "Giotto",
    "title": "The Adoration of the Magi",
    "year": "1320",
    "city": "New York",
    "country": "United States",
    "location": "Metropolitan Museum of Art",
    "kind": "museum",
    "attribution": "attributed",
    "status": "present",
    "medium": "Panel",
    "dimensions": "45.1 × 43.8 cm",
    "genre": "religious art",
    "image": "https://commons.wikimedia.org/wiki/Special:FilePath/The%20Adoration%20of%20the%20Magi%20MET%20DT3.jpg?width=420",
    "wikidata": "https://www.wikidata.org/wiki/Q19911414",
    "creation_place": "Florence",
    "creation_lat": 43.7696,
    "creation_lon": 11.2558,
    "_source": {
     "source": "Wikidata",
     "url": "https://www.wikidata.org/wiki/Q19911414",
     "retrieved_at": "2026-08-19"
    },
    "_overrides": {
     "creation": {
      "at": "2026-08-19",
      "source": "derived from start date + Caravaggio's documented itinerary (approximate)"
     }
    },
    "museum_id": "metropolitan-museum-of-art"
   }
  },
  {
   "type": "Feature",
   "geometry": {
    "type": "Point",
    "coordinates": [
     11.25528,
     43.76833
    ]
   },
   "properties": {
    "painter": "Giotto",
    "title": "Madonna Enthroned",
    "year": "1300",
    "city": "Florence",
    "country": "Italy",
    "location": "Uffizi Gallery",
    "kind": "museum",
    "attribution": "generally accepted",
    "status": "present",
    "medium": "Panel",
    "dimensions": "325 × 204 cm",
    "genre": "religious art",
    "image": "https://commons.wikimedia.org/wiki/Special:FilePath/Madonna%20di%20Ognissanti%20by%20Giotto.jpg?width=420",
    "wikipedia_es": "https://es.wikipedia.org/wiki/Maest%C3%A0_di_Ognissanti",
    "wikipedia_en": "https://en.wikipedia.org/wiki/Ognissanti_Madonna",
    "wikipedia_it": "https://it.wikipedia.org/wiki/Maest%C3%A0_di_Ognissanti",
    "wikidata": "https://www.wikidata.org/wiki/Q2016193",
    "creation_place": "Florence",
    "creation_lat": 43.7696,
    "creation_lon": 11.2558,
    "_source": {
     "source": "Wikidata",
     "url": "https://www.wikidata.org/wiki/Q2016193",
     "retrieved_at": "2026-08-19"
    },
    "_overrides": {
     "creation": {
      "at": "2026-08-19",
      "source": "derived from start date + Caravaggio's documented itinerary (approximate)"
     }
    },
    "museum_id": "uffizi-gallery"
   }
  },
  {
   "type": "Feature",
   "geometry": {
    "type": "Point",
    "coordinates": [
     -71.09417,
     42.33944
    ]
   },
   "properties": {
    "painter": "Giotto",
    "title": "Virgin and Child Enthroned with Four Saints",
    "city": "Boston",
    "country": "United States",
    "location": "Museum of Fine Arts Boston",
    "kind": "museum",
    "attribution": "attributed",
    "status": "present",
    "dimensions": "46.4 × 34.9 cm",
    "genre": "religious art",
    "image": "https://commons.wikimedia.org/wiki/Special:FilePath/Giotto%20di%20Bondone%20%28Ambrogio%20Bondone%20Giotto%29%20-%20Virgin%20and%20Child%20Enthroned%20with%20Four%20Saints%20-%2003.566%20-%20Museum%20of%20Fine%20Arts.jpg?width=420",
    "wikidata": "https://www.wikidata.org/wiki/Q20539875",
    "_source": {
     "source": "Wikidata",
     "url": "https://www.wikidata.org/wiki/Q20539875",
     "retrieved_at": "2026-08-19"
    },
    "museum_id": "museum-of-fine-arts-boston"
   }
  },
  {
   "type": "Feature",
   "geometry": {
    "type": "Point",
    "coordinates": [
     -0.1283,
     51.5089
    ]
   },
   "properties": {
    "painter": "Giotto",
    "title": "Pentecost",
    "year": "1310",
    "city": "London",
    "country": "United Kingdom",
    "location": "National Gallery",
    "kind": "museum",
    "attribution": "attributed",
    "status": "present",
    "medium": "Wood",
    "dimensions": "45.5 × 44 cm",
    "genre": "religious art",
    "image": "https://commons.wikimedia.org/wiki/Special:FilePath/Giotto%20di%20Bondone%20-%20Pentecost%20-%20WGA09349.jpg?width=420",
    "wikidata": "https://www.wikidata.org/wiki/Q21804550",
    "creation_place": "Florence",
    "creation_lat": 43.7696,
    "creation_lon": 11.2558,
    "_source": {
     "source": "Wikidata",
     "url": "https://www.wikidata.org/wiki/Q21804550",
     "retrieved_at": "2026-08-19"
    },
    "_overrides": {
     "creation": {
      "at": "2026-08-19",
      "source": "derived from start date + Caravaggio's documented itinerary (approximate)"
     }
    },
    "museum_id": "national-gallery"
   }
  },
  {
   "type": "Feature",
   "geometry": {
    "type": "Point",
    "coordinates": [
     10.40675,
     43.71875
    ]
   },
   "properties": {
    "painter": "Giotto",
    "title": "St. Francis of Assisi Receiving the Stigmata",
    "year": "1297",
    "city": "Pisa",
    "country": "Italy",
    "location": "San Francesco",
    "kind": "church",
    "attribution": "generally accepted",
    "status": "present",
    "medium": "Gold, poplar panel, tempera",
    "dimensions": "313 × 163 cm",
    "genre": "religious art",
    "image": "https://commons.wikimedia.org/wiki/Special:FilePath/Saint%20Fran%C3%A7ois%20d%27Assise%20recevant%20les%20stigmates%20-%20Giotto%20-%20Mus%C3%A9e%20du%20Louvre%20Peintures%20INV%20309%20%3B%20MR%20253%20-%20detoure%20fond%20blanc.jpg?width=420",
    "wikipedia_en": "https://en.wikipedia.org/wiki/Saint_Francis_Receiving_the_Stigmata_(Giotto)",
    "wikipedia_it": "https://it.wikipedia.org/wiki/Stigmate_di_san_Francesco_(Giotto)",
    "wikidata": "https://www.wikidata.org/wiki/Q23904",
    "creation_place": "Florence",
    "creation_lat": 43.7696,
    "creation_lon": 11.2558,
    "_source": {
     "source": "Wikidata",
     "url": "https://www.wikidata.org/wiki/Q23904",
     "retrieved_at": "2026-08-19"
    },
    "_overrides": {
     "creation": {
      "at": "2026-08-19",
      "source": "derived from start date + Caravaggio's documented itinerary (approximate)"
     }
    },
    "museum_id": "san-francesco"
   }
  },
  {
   "type": "Feature",
   "geometry": {
    "type": "Point",
    "coordinates": [
     -71.05778,
     42.36028
    ]
   },
   "properties": {
    "painter": "Giotto",
    "title": "The Presentation of the Christ Child in the Temple",
    "year": "1320",
    "city": "Boston",
    "country": "United States",
    "location": "Isabella Stewart Gardner Museum",
    "kind": "museum",
    "attribution": "attributed",
    "status": "present",
    "dimensions": "44 × 43 cm",
    "genre": "religious art",
    "image": "https://commons.wikimedia.org/wiki/Special:FilePath/Giotto%20-%20The%20Presentation%20of%20the%20Christ%20Child%20in%20the%20Temple%20-%20P30w9%20-%20Isabella%20Stewart%20Gardner%20Museum.jpg?width=420",
    "wikidata": "https://www.wikidata.org/wiki/Q27016037",
    "creation_place": "Florence",
    "creation_lat": 43.7696,
    "creation_lon": 11.2558,
    "_source": {
     "source": "Wikidata",
     "url": "https://www.wikidata.org/wiki/Q27016037",
     "retrieved_at": "2026-08-19"
    },
    "_overrides": {
     "creation": {
      "at": "2026-08-19",
      "source": "derived from start date + Caravaggio's documented itinerary (approximate)"
     }
    },
    "museum_id": "isabella-stewart-gardner-museum"
   }
  },
  {
   "type": "Feature",
   "geometry": {
    "type": "Point",
    "coordinates": [
     11.57,
     48.14833
    ]
   },
   "properties": {
    "painter": "Giotto",
    "title": "The Last Supper",
    "year": "1450",
    "city": "Munich",
    "country": "Germany",
    "location": "Alte Pinakothek",
    "kind": "museum",
    "attribution": "attributed",
    "status": "present",
    "medium": "Panel",
    "dimensions": "42.5 × 43 cm",
    "genre": "religious art",
    "image": "https://commons.wikimedia.org/wiki/Special:FilePath/Giotto%20-%20The%20Last%20Supper.jpg?width=420",
    "wikidata": "https://www.wikidata.org/wiki/Q27016143",
    "_source": {
     "source": "Wikidata",
     "url": "https://www.wikidata.org/wiki/Q27016143",
     "retrieved_at": "2026-08-19"
    },
    "museum_id": "alte-pinakothek"
   }
  },
  {
   "type": "Feature",
   "geometry": {
    "type": "Point",
    "coordinates": [
     11.57178,
     48.14958
    ]
   },
   "properties": {
    "painter": "Giotto",
    "title": "Christ on the Cross",
    "year": "1308",
    "city": "Munich",
    "country": "Germany",
    "location": "Bavarian State Painting Collections",
    "kind": "museum",
    "attribution": "attributed",
    "status": "present",
    "medium": "Poplar panel, tempera",
    "dimensions": "45 × 43.7 cm",
    "genre": "religious art",
    "image": "https://commons.wikimedia.org/wiki/Special:FilePath/Giotto%20di%20Bondonde%20%281270-1337%29%20-%20Kreuzigung%20Christi%20-%20667%20-%20Bavarian%20State%20Painting%20Collections.jpg?width=420",
    "wikidata": "https://www.wikidata.org/wiki/Q27019831",
    "creation_place": "Florence",
    "creation_lat": 43.7696,
    "creation_lon": 11.2558,
    "_source": {
     "source": "Wikidata",
     "url": "https://www.wikidata.org/wiki/Q27019831",
     "retrieved_at": "2026-08-19"
    },
    "_overrides": {
     "creation": {
      "at": "2026-08-19",
      "source": "derived from start date + Caravaggio's documented itinerary (approximate)"
     }
    },
    "museum_id": "bavarian-state-painting-collections"
   }
  },
  {
   "type": "Feature",
   "geometry": {
    "type": "Point",
    "coordinates": [
     11.3151,
     43.7943
    ]
   },
   "properties": {
    "painter": "Giotto",
    "title": "The Entombment",
    "year": "1320",
    "city": "Florence",
    "country": "Italy",
    "location": "Harvard University Center for Italian Renaissance Studies",
    "kind": "museum",
    "attribution": "attributed",
    "status": "present",
    "medium": "Panel",
    "dimensions": "44.5 × 43 cm",
    "genre": "religious art",
    "image": "https://commons.wikimedia.org/wiki/Special:FilePath/Giotto%20di%20Bondone%20-%20Entombment%20-%20WGA09347.jpg?width=420",
    "wikidata": "https://www.wikidata.org/wiki/Q27019836",
    "creation_place": "Florence",
    "creation_lat": 43.7696,
    "creation_lon": 11.2558,
    "_source": {
     "source": "Wikidata",
     "url": "https://www.wikidata.org/wiki/Q27019836",
     "retrieved_at": "2026-08-19"
    },
    "_overrides": {
     "creation": {
      "at": "2026-08-19",
      "source": "derived from start date + Caravaggio's documented itinerary (approximate)"
     }
    },
    "museum_id": "harvard-university-center-for-italian-renaissance-studies"
   }
  },
  {
   "type": "Feature",
   "geometry": {
    "type": "Point",
    "coordinates": [
     11.57,
     48.14833
    ]
   },
   "properties": {
    "painter": "Giotto",
    "title": "The Descent into Limbo",
    "year": "1320",
    "city": "Munich",
    "country": "Germany",
    "location": "Alte Pinakothek",
    "kind": "museum",
    "attribution": "attributed",
    "status": "present",
    "medium": "Wood",
    "dimensions": "45.4 × 44 cm",
    "genre": "religious art",
    "image": "https://commons.wikimedia.org/wiki/Special:FilePath/Giotto%20di%20Bondone%20-%20Descent%20into%20Limbo%20-%20WGA09348.jpg?width=420",
    "wikidata": "https://www.wikidata.org/wiki/Q27019841",
    "creation_place": "Florence",
    "creation_lat": 43.7696,
    "creation_lon": 11.2558,
    "_source": {
     "source": "Wikidata",
     "url": "https://www.wikidata.org/wiki/Q27019841",
     "retrieved_at": "2026-08-19"
    },
    "_overrides": {
     "creation": {
      "at": "2026-08-19",
      "source": "derived from start date + Caravaggio's documented itinerary (approximate)"
     }
    },
    "museum_id": "alte-pinakothek"
   }
  },
  {
   "type": "Feature",
   "geometry": {
    "type": "Point",
    "coordinates": [
     12.60574,
     43.07475
    ]
   },
   "properties": {
    "painter": "Giotto",
    "title": "Ascension",
    "year": "1291",
    "city": "Assisi",
    "country": "Italy",
    "location": "Upper Basilica of San Francesco d'Assisi",
    "kind": "church",
    "attribution": "generally accepted",
    "status": "present",
    "medium": "Fresco",
    "dimensions": "500 × 400 cm",
    "genre": "religious art",
    "image": "https://commons.wikimedia.org/wiki/Special:FilePath/Giotto%20di%20Bondone%20-%20Ascension%20of%20Christ%20-%20WGA09156.jpg?width=420",
    "wikipedia_it": "https://it.wikipedia.org/wiki/Ascensione_(Assisi)",
    "wikidata": "https://www.wikidata.org/wiki/Q2866382",
    "creation_place": "Florence",
    "creation_lat": 43.7696,
    "creation_lon": 11.2558,
    "_source": {
     "source": "Wikidata",
     "url": "https://www.wikidata.org/wiki/Q2866382",
     "retrieved_at": "2026-08-19"
    },
    "_overrides": {
     "creation": {
      "at": "2026-08-19",
      "source": "derived from start date + Caravaggio's documented itinerary (approximate)"
     }
    },
    "museum_id": "upper-basilica-of-san-francesco-d-assisi"
   }
  },
  {
   "type": "Feature",
   "geometry": {
    "type": "Point",
    "coordinates": [
     -0.5778,
     44.837642
    ]
   },
   "properties": {
    "painter": "Giotto",
    "title": "Q29117133",
    "year": "1400",
    "city": "Bordeaux",
    "country": "France",
    "location": "Bordeaux Cathedral",
    "kind": "church",
    "attribution": "attributed",
    "status": "present",
    "medium": "Wood",
    "dimensions": "130 × 70 cm",
    "genre": "religious art",
    "image": "https://commons.wikimedia.org/wiki/Special:FilePath/Bordeaux%20-%20Tr%C3%A9sor%20de%20la%20Cath%C3%A9drale%20Saint-Andr%C3%A9%2035.jpg?width=420",
    "wikidata": "https://www.wikidata.org/wiki/Q29117133",
    "_source": {
     "source": "Wikidata",
     "url": "https://www.wikidata.org/wiki/Q29117133",
     "retrieved_at": "2026-08-19"
    },
    "museum_id": "bordeaux-cathedral"
   }
  },
  {
   "type": "Feature",
   "geometry": {
    "type": "Point",
    "coordinates": [
     12.60574,
     43.07475
    ]
   },
   "properties": {
    "painter": "Giotto",
    "title": "Scenes from the New Testament: Lamentation",
    "year": "1291",
    "city": "Assisi",
    "country": "Italy",
    "location": "Upper Basilica of San Francesco d'Assisi",
    "kind": "church",
    "attribution": "generally accepted",
    "status": "present",
    "medium": "Fresco",
    "dimensions": "300 × 300 cm",
    "genre": "religious art",
    "image": "https://commons.wikimedia.org/wiki/Special:FilePath/Giotto%20di%20Bondone%20-%20Scenes%20from%20the%20New%20Testament%20-%20Lamentation%20-%20WGA09159.jpg?width=420",
    "wikipedia_it": "https://it.wikipedia.org/wiki/Deposizione_dalla_croce_(Assisi)",
    "wikidata": "https://www.wikidata.org/wiki/Q3044873",
    "creation_place": "Florence",
    "creation_lat": 43.7696,
    "creation_lon": 11.2558,
    "_source": {
     "source": "Wikidata",
     "url": "https://www.wikidata.org/wiki/Q3044873",
     "retrieved_at": "2026-08-19"
    },
    "_overrides": {
     "creation": {
      "at": "2026-08-19",
      "source": "derived from start date + Caravaggio's documented itinerary (approximate)"
     }
    },
    "museum_id": "upper-basilica-of-san-francesco-d-assisi"
   }
  },
  {
   "type": "Feature",
   "geometry": {
    "type": "Point",
    "coordinates": [
     12.60574,
     43.07475
    ]
   },
   "properties": {
    "painter": "Giotto",
    "title": "Joseph in the well",
    "year": "1291",
    "city": "Assisi",
    "country": "Italy",
    "location": "Upper Basilica of San Francesco d'Assisi",
    "kind": "church",
    "attribution": "generally accepted",
    "status": "present",
    "medium": "Fresco",
    "dimensions": "300 × 300 cm",
    "genre": "religious art",
    "image": "https://commons.wikimedia.org/wiki/Special:FilePath/Maestro%20di%20isacco%2C%20giuseppe%20venduto%20dai%20fratelli%202.jpg?width=420",
    "wikipedia_it": "https://it.wikipedia.org/wiki/Giuseppe_calato_nel_pozzo",
    "wikidata": "https://www.wikidata.org/wiki/Q3185885",
    "creation_place": "Florence",
    "creation_lat": 43.7696,
    "creation_lon": 11.2558,
    "_source": {
     "source": "Wikidata",
     "url": "https://www.wikidata.org/wiki/Q3185885",
     "retrieved_at": "2026-08-19"
    },
    "_overrides": {
     "creation": {
      "at": "2026-08-19",
      "source": "derived from start date + Caravaggio's documented itinerary (approximate)"
     }
    },
    "museum_id": "upper-basilica-of-san-francesco-d-assisi"
   }
  },
  {
   "type": "Feature",
   "geometry": {
    "type": "Point",
    "coordinates": [
     11.38739,
     43.95368
    ]
   },
   "properties": {
    "painter": "Giotto",
    "title": "Madonna of Borgo San Lorenzo",
    "year": "1290",
    "city": "Borgo San Lorenzo",
    "country": "Italy",
    "location": "Pieve di San Lorenzo",
    "kind": "museum",
    "attribution": "generally accepted",
    "status": "present",
    "dimensions": "81.5 × 41 cm",
    "genre": "religious art",
    "image": "https://commons.wikimedia.org/wiki/Special:FilePath/Giotto%20%28attr.%29%2C%20madonna%20di%20borgo%20san%20lorenzo%2C%201290%20ca.jpg?width=420",
    "wikipedia_it": "https://it.wikipedia.org/wiki/Madonna_di_Borgo_San_Lorenzo",
    "wikidata": "https://www.wikidata.org/wiki/Q3276168",
    "creation_place": "Florence",
    "creation_lat": 43.7696,
    "creation_lon": 11.2558,
    "_source": {
     "source": "Wikidata",
     "url": "https://www.wikidata.org/wiki/Q3276168",
     "retrieved_at": "2026-08-19"
    },
    "_overrides": {
     "creation": {
      "at": "2026-08-19",
      "source": "derived from start date + Caravaggio's documented itinerary (approximate)"
     }
    },
    "museum_id": "pieve-di-san-lorenzo"
   }
  },
  {
   "type": "Feature",
   "geometry": {
    "type": "Point",
    "coordinates": [
     11.2542,
     43.7687
    ]
   },
   "properties": {
    "painter": "Giotto",
    "title": "Madonna and Child of San Giorgio alla Costa",
    "year": "1295",
    "city": "Florence",
    "country": "Italy",
    "location": "Museo diocesano di Santo Stefano al Ponte",
    "kind": "museum",
    "attribution": "generally accepted",
    "status": "present",
    "medium": "Panel",
    "dimensions": "180 × 90 cm",
    "genre": "religious art",
    "image": "https://commons.wikimedia.org/wiki/Special:FilePath/Madonna%20di%20san%20giorgio%20alla%20costa.jpg?width=420",
    "wikipedia_it": "https://it.wikipedia.org/wiki/Madonna_di_San_Giorgio_alla_Costa",
    "wikidata": "https://www.wikidata.org/wiki/Q3276171",
    "creation_place": "Florence",
    "creation_lat": 43.7696,
    "creation_lon": 11.2558,
    "_source": {
     "source": "Wikidata",
     "url": "https://www.wikidata.org/wiki/Q3276171",
     "retrieved_at": "2026-08-19"
    },
    "_overrides": {
     "creation": {
      "at": "2026-08-19",
      "source": "derived from start date + Caravaggio's documented itinerary (approximate)"
     }
    },
    "museum_id": "museo-diocesano-di-santo-stefano-al-ponte"
   }
  },
  {
   "type": "Feature",
   "geometry": {
    "type": "Point",
    "coordinates": [
     12.60574,
     43.07475
    ]
   },
   "properties": {
    "painter": "Giotto",
    "title": "Madonna with the laughing Child",
    "year": "1291",
    "city": "Assisi",
    "country": "Italy",
    "location": "Upper Basilica of San Francesco d'Assisi",
    "kind": "church",
    "attribution": "generally accepted",
    "status": "present",
    "dimensions": "110 × 110 cm",
    "genre": "religious art",
    "image": "https://commons.wikimedia.org/wiki/Special:FilePath/Giotto%2C%20madonna%20col%20bambino%20ridente%2C%20assisi.jpg?width=420",
    "wikipedia_it": "https://it.wikipedia.org/wiki/Madonna_col_Bambino_ridente",
    "wikidata": "https://www.wikidata.org/wiki/Q3276180",
    "creation_place": "Florence",
    "creation_lat": 43.7696,
    "creation_lon": 11.2558,
    "_source": {
     "source": "Wikidata",
     "url": "https://www.wikidata.org/wiki/Q3276180",
     "retrieved_at": "2026-08-19"
    },
    "_overrides": {
     "creation": {
      "at": "2026-08-19",
      "source": "derived from start date + Caravaggio's documented itinerary (approximate)"
     }
    },
    "museum_id": "upper-basilica-of-san-francesco-d-assisi"
   }
  },
  {
   "type": "Feature",
   "geometry": {
    "type": "Point",
    "coordinates": [
     12.60574,
     43.07475
    ]
   },
   "properties": {
    "painter": "Giotto",
    "title": "St Peter",
    "year": "1291",
    "city": "Assisi",
    "country": "Italy",
    "location": "Upper Basilica of San Francesco d'Assisi",
    "kind": "church",
    "attribution": "generally accepted",
    "status": "present",
    "medium": "Fresco",
    "dimensions": "50 × 50 cm",
    "genre": "religious art",
    "image": "https://commons.wikimedia.org/wiki/Special:FilePath/Giotto%20di%20Bondone%20-%20St%20Peter%201%20-%20WGA09157.jpg?width=420",
    "wikipedia_it": "https://it.wikipedia.org/wiki/San_Pietro_(Assisi)",
    "wikidata": "https://www.wikidata.org/wiki/Q3464027",
    "creation_place": "Florence",
    "creation_lat": 43.7696,
    "creation_lon": 11.2558,
    "_source": {
     "source": "Wikidata",
     "url": "https://www.wikidata.org/wiki/Q3464027",
     "retrieved_at": "2026-08-19"
    },
    "_overrides": {
     "creation": {
      "at": "2026-08-19",
      "source": "derived from start date + Caravaggio's documented itinerary (approximate)"
     }
    },
    "museum_id": "upper-basilica-of-san-francesco-d-assisi"
   }
  },
  {
   "type": "Feature",
   "geometry": {
    "type": "Point",
    "coordinates": [
     12.60574,
     43.07475
    ]
   },
   "properties": {
    "painter": "Giotto",
    "title": "St Paul",
    "year": "1291",
    "city": "Assisi",
    "country": "Italy",
    "location": "Upper Basilica of San Francesco d'Assisi",
    "kind": "church",
    "attribution": "generally accepted",
    "status": "present",
    "medium": "Fresco",
    "dimensions": "50 × 50 cm",
    "genre": "religious art",
    "image": "https://commons.wikimedia.org/wiki/Special:FilePath/Giotto%20di%20Bondone%20-%20St%20Paul%201%20-%20WGA09158.jpg?width=420",
    "wikipedia_it": "https://it.wikipedia.org/wiki/San_Paolo_(Assisi)",
    "wikidata": "https://www.wikidata.org/wiki/Q3471589",
    "creation_place": "Florence",
    "creation_lat": 43.7696,
    "creation_lon": 11.2558,
    "_source": {
     "source": "Wikidata",
     "url": "https://www.wikidata.org/wiki/Q3471589",
     "retrieved_at": "2026-08-19"
    },
    "_overrides": {
     "creation": {
      "at": "2026-08-19",
      "source": "derived from start date + Caravaggio's documented itinerary (approximate)"
     }
    },
    "museum_id": "upper-basilica-of-san-francesco-d-assisi"
   }
  },
  {
   "type": "Feature",
   "geometry": {
    "type": "Point",
    "coordinates": [
     11.25941,
     43.76752
    ]
   },
   "properties": {
    "painter": "Giotto",
    "title": "Saint Stephen",
    "year": "1320",
    "city": "Florence",
    "country": "Italy",
    "location": "Museo Horne",
    "kind": "museum",
    "attribution": "generally accepted",
    "status": "present",
    "medium": "Panel",
    "dimensions": "84 × 54 cm",
    "genre": "religious art",
    "image": "https://commons.wikimedia.org/wiki/Special:FilePath/Giotto.%20saint-stephen-1320-25%20Florence%2C%20Museo%20Horne.jpg?width=420",
    "wikipedia_en": "https://en.wikipedia.org/wiki/Saint_Stephen_(Giotto)",
    "wikipedia_it": "https://it.wikipedia.org/wiki/Santo_Stefano_(Giotto)",
    "wikidata": "https://www.wikidata.org/wiki/Q3472935",
    "creation_place": "Florence",
    "creation_lat": 43.7696,
    "creation_lon": 11.2558,
    "_source": {
     "source": "Wikidata",
     "url": "https://www.wikidata.org/wiki/Q3472935",
     "retrieved_at": "2026-08-19"
    },
    "_overrides": {
     "creation": {
      "at": "2026-08-19",
      "source": "derived from start date + Caravaggio's documented itinerary (approximate)"
     }
    },
    "museum_id": "museo-horne"
   }
  },
  {
   "type": "Feature",
   "geometry": {
    "type": "Point",
    "coordinates": [
     12.605566,
     43.074825
    ]
   },
   "properties": {
    "painter": "Giotto",
    "title": "Franciscan allegories",
    "year": "1334",
    "city": "Assisi",
    "country": "Italy",
    "location": "Lower Basilica of San Francesco",
    "kind": "church",
    "attribution": "generally accepted",
    "status": "present",
    "medium": "Fresco",
    "genre": "religious art",
    "image": "https://commons.wikimedia.org/wiki/Special:FilePath/Giotto%2C%20Lower%20Church%20Assisi%2C%20Franciscan%20Allegories%2001.jpg?width=420",
    "wikipedia_it": "https://it.wikipedia.org/wiki/Allegorie_francescane",
    "wikidata": "https://www.wikidata.org/wiki/Q3612428",
    "creation_place": "Florence",
    "creation_lat": 43.7696,
    "creation_lon": 11.2558,
    "_source": {
     "source": "Wikidata",
     "url": "https://www.wikidata.org/wiki/Q3612428",
     "retrieved_at": "2026-08-19"
    },
    "_overrides": {
     "creation": {
      "at": "2026-08-19",
      "source": "derived from start date + Caravaggio's documented itinerary (approximate)"
     }
    },
    "museum_id": "lower-basilica-of-san-francesco"
   }
  },
  {
   "type": "Feature",
   "geometry": {
    "type": "Point",
    "coordinates": [
     12.506156,
     41.885906
    ]
   },
   "properties": {
    "painter": "Giotto",
    "title": "Boniface VIII declaring the Jubilee Year of 1300",
    "year": "1300",
    "city": "Rome",
    "country": "Italy",
    "location": "Archbasilica of St. John Lateran",
    "kind": "church",
    "attribution": "generally accepted",
    "status": "present",
    "dimensions": "110 × 110 cm",
    "genre": "portrait",
    "image": "https://commons.wikimedia.org/wiki/Special:FilePath/Giotto%2C%20bonifacio%20VIII%20proclama%20il%20giubileo%20del%201300%2C%20frammento%2002.jpg?width=420",
    "wikipedia_es": "https://es.wikipedia.org/wiki/Bonifacio_VIII_proclama_el_jubileo_de_1300",
    "wikipedia_it": "https://it.wikipedia.org/wiki/Bonifacio_VIII_indice_il_giubileo_del_1300",
    "wikidata": "https://www.wikidata.org/wiki/Q3642142",
    "creation_place": "Florence",
    "creation_lat": 43.7696,
    "creation_lon": 11.2558,
    "_source": {
     "source": "Wikidata",
     "url": "https://www.wikidata.org/wiki/Q3642142",
     "retrieved_at": "2026-08-19"
    },
    "_overrides": {
     "creation": {
      "at": "2026-08-19",
      "source": "derived from start date + Caravaggio's documented itinerary (approximate)"
     }
    },
    "museum_id": "archbasilica-of-st-john-lateran"
   }
  },
  {
   "type": "Feature",
   "geometry": {
    "type": "Point",
    "coordinates": [
     13.36472,
     52.50861
    ]
   },
   "properties": {
    "painter": "Giotto",
    "title": "The Crucifixion of Christ",
    "year": "1317",
    "city": "Bezirk Mitte",
    "country": "Germany",
    "location": "Gemäldegalerie Berlin",
    "kind": "museum",
    "attribution": "generally accepted",
    "status": "present",
    "medium": "Poplar panel, tempera",
    "dimensions": "59.7 × 36.2 cm",
    "genre": "religious art",
    "image": "https://commons.wikimedia.org/wiki/Special:FilePath/Die%20Kreuzigung%20Christi%20-%20Gem%C3%A4ldegalerie%20Berlin%20-%203817331.jpg?width=420",
    "wikipedia_en": "https://en.wikipedia.org/wiki/Berlin_Crucifixion",
    "wikipedia_it": "https://it.wikipedia.org/wiki/Crocifissione_di_Berlino",
    "wikidata": "https://www.wikidata.org/wiki/Q3698217",
    "creation_place": "Florence",
    "creation_lat": 43.7696,
    "creation_lon": 11.2558,
    "_source": {
     "source": "Wikidata",
     "url": "https://www.wikidata.org/wiki/Q3698217",
     "retrieved_at": "2026-08-19"
    },
    "_overrides": {
     "creation": {
      "at": "2026-08-19",
      "source": "derived from start date + Caravaggio's documented itinerary (approximate)"
     }
    },
    "museum_id": "gemaldegalerie-berlin"
   }
  },
  {
   "type": "Feature",
   "geometry": {
    "type": "Point",
    "coordinates": [
     2,
     47
    ]
   },
   "properties": {
    "painter": "Giotto",
    "title": "Crucifixion of Strasbourg",
    "year": "1315",
    "city": "France",
    "country": "France",
    "location": "Musée des Beaux-Arts de Strasbourg",
    "kind": "museum",
    "attribution": "generally accepted",
    "status": "present",
    "medium": "Oil on panel",
    "dimensions": "45.3 × 32.7 cm",
    "genre": "religious art",
    "image": "https://commons.wikimedia.org/wiki/Special:FilePath/Giotto.%20Crucifiction.%201330s.%20Mus%C3%A9e%20des%20Beaux-Arts%2C%20Strasbourg.jpg?width=420",
    "wikipedia_en": "https://en.wikipedia.org/wiki/Strasbourg_Crucifixion",
    "wikipedia_it": "https://it.wikipedia.org/wiki/Crocifissione_di_Strasburgo",
    "wikidata": "https://www.wikidata.org/wiki/Q3698227",
    "creation_place": "Florence",
    "creation_lat": 43.7696,
    "creation_lon": 11.2558,
    "_source": {
     "source": "Wikidata",
     "url": "https://www.wikidata.org/wiki/Q3698227",
     "retrieved_at": "2026-08-19"
    },
    "_overrides": {
     "creation": {
      "at": "2026-08-19",
      "source": "derived from start date + Caravaggio's documented itinerary (approximate)"
     }
    },
    "museum_id": "musee-des-beaux-arts-de-strasbourg"
   }
  },
  {
   "type": "Feature",
   "geometry": {
    "type": "Point",
    "coordinates": [
     13.36472,
     52.50861
    ]
   },
   "properties": {
    "painter": "Giotto",
    "title": "Death of the Virgin",
    "year": "1310",
    "city": "Bezirk Mitte",
    "country": "Germany",
    "location": "Gemäldegalerie Berlin",
    "kind": "museum",
    "attribution": "generally accepted",
    "status": "present",
    "medium": "Poplar panel, tempera",
    "dimensions": "75 × 179 cm",
    "genre": "religious art",
    "image": "https://commons.wikimedia.org/wiki/Special:FilePath/Giotto%20-%20The%20Entombment%20of%20Mary%20-%20Google%20Art%20Project.jpg?width=420",
    "wikipedia_it": "https://it.wikipedia.org/wiki/Dormitio_Virginis_(Giotto)",
    "wikidata": "https://www.wikidata.org/wiki/Q3714311",
    "creation_place": "Florence",
    "creation_lat": 43.7696,
    "creation_lon": 11.2558,
    "_source": {
     "source": "Wikidata",
     "url": "https://www.wikidata.org/wiki/Q3714311",
     "retrieved_at": "2026-08-19"
    },
    "_overrides": {
     "creation": {
      "at": "2026-08-19",
      "source": "derived from start date + Caravaggio's documented itinerary (approximate)"
     }
    },
    "museum_id": "gemaldegalerie-berlin"
   }
  },
  {
   "type": "Feature",
   "geometry": {
    "type": "Point",
    "coordinates": [
     -117.15043,
     32.73216
    ]
   },
   "properties": {
    "painter": "Giotto",
    "title": "Giotto, eternal and angels, perhaps cornice of the baroncelli altarpiece",
    "year": "1328",
    "city": "San Diego",
    "country": "United States",
    "location": "San Diego Museum of Art",
    "kind": "museum",
    "attribution": "generally accepted",
    "status": "present",
    "medium": "Panel",
    "dimensions": "76.2 × 71.1 cm",
    "genre": "religious art",
    "image": "https://commons.wikimedia.org/wiki/Special:FilePath/Giotto%2C%20eterno%20e%20angeli%2C%20forse%20cimasa%20del%20polittico%20baroncelli%2C%20san%20diego%2C%20fine%20arts%20gallery.jpg?width=420",
    "wikipedia_it": "https://it.wikipedia.org/wiki/Eterno_e_angeli",
    "wikidata": "https://www.wikidata.org/wiki/Q3733688",
    "creation_place": "Florence",
    "creation_lat": 43.7696,
    "creation_lon": 11.2558,
    "_source": {
     "source": "Wikidata",
     "url": "https://www.wikidata.org/wiki/Q3733688",
     "retrieved_at": "2026-08-19"
    },
    "_overrides": {
     "creation": {
      "at": "2026-08-19",
      "source": "derived from start date + Caravaggio's documented itinerary (approximate)"
     }
    },
    "museum_id": "san-diego-museum-of-art"
   }
  },
  {
   "type": "Feature",
   "geometry": {
    "type": "Point",
    "coordinates": [
     11.3151,
     43.7943
    ]
   },
   "properties": {
    "painter": "Giotto",
    "title": "Franciscan brother",
    "year": "1300",
    "city": "Florence",
    "country": "Italy",
    "location": "Harvard University Center for Italian Renaissance Studies",
    "kind": "museum",
    "attribution": "generally accepted",
    "status": "present",
    "dimensions": "54 × 39 cm",
    "genre": "religious art",
    "image": "https://commons.wikimedia.org/wiki/Special:FilePath/Giotto%2C%20frate%20francescano%2C%20villa%20i%20tatti.jpg?width=420",
    "wikipedia_it": "https://it.wikipedia.org/wiki/Frate_francescano_(Giotto)",
    "wikidata": "https://www.wikidata.org/wiki/Q3752350",
    "creation_place": "Florence",
    "creation_lat": 43.7696,
    "creation_lon": 11.2558,
    "_source": {
     "source": "Wikidata",
     "url": "https://www.wikidata.org/wiki/Q3752350",
     "retrieved_at": "2026-08-19"
    },
    "_overrides": {
     "creation": {
      "at": "2026-08-19",
      "source": "derived from start date + Caravaggio's documented itinerary (approximate)"
     }
    },
    "museum_id": "harvard-university-center-for-italian-renaissance-studies"
   }
  },
  {
   "type": "Feature",
   "geometry": {
    "type": "Point",
    "coordinates": [
     -77.02,
     38.8914
    ]
   },
   "properties": {
    "painter": "Giotto",
    "title": "Madonna with the Child",
    "year": "1325",
    "city": "Washington",
    "country": "United States",
    "location": "National Gallery of Art",
    "kind": "museum",
    "attribution": "generally accepted",
    "status": "present",
    "medium": "Panel",
    "dimensions": "85.5 × 62 cm",
    "genre": "religious art",
    "image": "https://commons.wikimedia.org/wiki/Special:FilePath/Giotto%20di%20Bondone%20086.jpg?width=420",
    "wikipedia_it": "https://it.wikipedia.org/wiki/Madonna_col_Bambino_(Giotto)",
    "wikidata": "https://www.wikidata.org/wiki/Q3842479",
    "creation_place": "Florence",
    "creation_lat": 43.7696,
    "creation_lon": 11.2558,
    "_source": {
     "source": "Wikidata",
     "url": "https://www.wikidata.org/wiki/Q3842479",
     "retrieved_at": "2026-08-19"
    },
    "_overrides": {
     "creation": {
      "at": "2026-08-19",
      "source": "derived from start date + Caravaggio's documented itinerary (approximate)"
     }
    },
    "museum_id": "national-gallery-of-art"
   }
  },
  {
   "type": "Feature",
   "geometry": {
    "type": "Point",
    "coordinates": [
     11.263333,
     43.768056
    ]
   },
   "properties": {
    "painter": "Giotto",
    "title": "Baroncelli Polyptych",
    "year": "1320-1328",
    "city": "borough 1",
    "country": "Italy",
    "location": "Baroncelli Chapel",
    "kind": "church",
    "attribution": "generally accepted",
    "status": "present",
    "medium": "Panel",
    "dimensions": "185 × 323 cm",
    "genre": "religious art",
    "image": "https://commons.wikimedia.org/wiki/Special:FilePath/Baroncelli%20Polyptych%20c.1334%20Baroncelli%20Chapel%2C%20Santa%20Croce%2C%20Florence%20185x323cm..jpg?width=420",
    "wikipedia_es": "https://es.wikipedia.org/wiki/Pol%C3%ADptico_Baroncelli",
    "wikipedia_it": "https://it.wikipedia.org/wiki/Polittico_Baroncelli",
    "wikidata": "https://www.wikidata.org/wiki/Q3907474",
    "creation_place": "Florence",
    "creation_lat": 43.7696,
    "creation_lon": 11.2558,
    "_source": {
     "source": "Wikidata",
     "url": "https://www.wikidata.org/wiki/Q3907474",
     "retrieved_at": "2026-08-19"
    },
    "_overrides": {
     "creation": {
      "at": "2026-08-19",
      "source": "derived from start date + Caravaggio's documented itinerary (approximate)"
     }
    },
    "museum_id": "baroncelli-chapel"
   }
  },
  {
   "type": "Feature",
   "geometry": {
    "type": "Point",
    "coordinates": [
     11.25528,
     43.76833
    ]
   },
   "properties": {
    "painter": "Giotto",
    "title": "Badia Polyptych",
    "year": "1300",
    "city": "Florence",
    "country": "Italy",
    "location": "Uffizi Gallery",
    "kind": "museum",
    "attribution": "generally accepted",
    "status": "present",
    "medium": "Panel",
    "dimensions": "91 × 334 cm",
    "genre": "religious art",
    "image": "https://commons.wikimedia.org/wiki/Special:FilePath/Galer%C3%ADa%20Uffizi%2C%20Florencia%2C%20Italia%2C%202022-09-18%2C%20DD%2023.jpg?width=420",
    "wikipedia_en": "https://en.wikipedia.org/wiki/Badia_Polyptych",
    "wikipedia_it": "https://it.wikipedia.org/wiki/Polittico_di_Badia",
    "wikidata": "https://www.wikidata.org/wiki/Q3907498",
    "creation_place": "Florence",
    "creation_lat": 43.7696,
    "creation_lon": 11.2558,
    "_source": {
     "source": "Wikidata",
     "url": "https://www.wikidata.org/wiki/Q3907498",
     "retrieved_at": "2026-08-19"
    },
    "_overrides": {
     "creation": {
      "at": "2026-08-19",
      "source": "derived from start date + Caravaggio's documented itinerary (approximate)"
     }
    },
    "museum_id": "uffizi-gallery"
   }
  },
  {
   "type": "Feature",
   "geometry": {
    "type": "Point",
    "coordinates": [
     11.35333,
     44.49778
    ]
   },
   "properties": {
    "painter": "Giotto",
    "title": "Bologna Polyptych",
    "year": "1333",
    "city": "Bologna",
    "country": "Italy",
    "location": "Pinacoteca Nazionale di Bologna",
    "kind": "museum",
    "attribution": "generally accepted",
    "status": "present",
    "medium": "Panel",
    "dimensions": "91 × 340 cm",
    "genre": "religious art",
    "image": "https://commons.wikimedia.org/wiki/Special:FilePath/Giotto.%20Polyptych.%201330-35.%2091x340cm.%20Pinacoteca%2C%20Bologna..jpg?width=420",
    "wikipedia_en": "https://en.wikipedia.org/wiki/Bologna_Polyptych",
    "wikipedia_it": "https://it.wikipedia.org/wiki/Polittico_di_Bologna",
    "wikidata": "https://www.wikidata.org/wiki/Q3907499",
    "creation_place": "Florence",
    "creation_lat": 43.7696,
    "creation_lon": 11.2558,
    "_source": {
     "source": "Wikidata",
     "url": "https://www.wikidata.org/wiki/Q3907499",
     "retrieved_at": "2026-08-19"
    },
    "_overrides": {
     "creation": {
      "at": "2026-08-19",
      "source": "derived from start date + Caravaggio's documented itinerary (approximate)"
     }
    },
    "museum_id": "pinacoteca-nazionale-di-bologna"
   }
  },
  {
   "type": "Feature",
   "geometry": {
    "type": "Point",
    "coordinates": [
     2.68611,
     49.1475
    ]
   },
   "properties": {
    "painter": "Giotto",
    "title": "St. John the Evangelist",
    "year": "1320",
    "city": "Fontaine-Chaalis",
    "country": "France",
    "location": "Royal Abbey of Our Lady of Chaalis",
    "kind": "museum",
    "attribution": "generally accepted",
    "status": "present",
    "medium": "Panel",
    "dimensions": "128.5 × 54.7 cm",
    "genre": "religious art",
    "image": "https://commons.wikimedia.org/wiki/Special:FilePath/Giotto%20-%20Saint%20Jean%20L%27Evang%C3%A9liste%20-%20Chaalis.jpg?width=420",
    "wikipedia_it": "https://it.wikipedia.org/wiki/San_Giovanni_Evangelista_(Giotto)",
    "wikidata": "https://www.wikidata.org/wiki/Q3947257",
    "creation_place": "Florence",
    "creation_lat": 43.7696,
    "creation_lon": 11.2558,
    "_source": {
     "source": "Wikidata",
     "url": "https://www.wikidata.org/wiki/Q3947257",
     "retrieved_at": "2026-08-19"
    },
    "_overrides": {
     "creation": {
      "at": "2026-08-19",
      "source": "derived from start date + Caravaggio's documented itinerary (approximate)"
     }
    },
    "museum_id": "royal-abbey-of-our-lady-of-chaalis"
   }
  },
  {
   "type": "Feature",
   "geometry": {
    "type": "Point",
    "coordinates": [
     2.68611,
     49.1475
    ]
   },
   "properties": {
    "painter": "Giotto",
    "title": "Saint Lawrence",
    "year": "1320",
    "city": "Fontaine-Chaalis",
    "country": "France",
    "location": "Royal Abbey of Our Lady of Chaalis",
    "kind": "museum",
    "attribution": "generally accepted",
    "status": "present",
    "medium": "Panel",
    "dimensions": "81 × 55 cm",
    "genre": "religious art",
    "image": "https://commons.wikimedia.org/wiki/Special:FilePath/Giotto-st-lawrence-1320s-abbaye-royale-de-chaalis-musc3a9e-jacquemart-andrc3a9-paris.jpg?width=420",
    "wikipedia_it": "https://it.wikipedia.org/wiki/San_Lorenzo_(Giotto)",
    "wikidata": "https://www.wikidata.org/wiki/Q3947484",
    "creation_place": "Florence",
    "creation_lat": 43.7696,
    "creation_lon": 11.2558,
    "_source": {
     "source": "Wikidata",
     "url": "https://www.wikidata.org/wiki/Q3947484",
     "retrieved_at": "2026-08-19"
    },
    "_overrides": {
     "creation": {
      "at": "2026-08-19",
      "source": "derived from start date + Caravaggio's documented itinerary (approximate)"
     }
    },
    "museum_id": "royal-abbey-of-our-lady-of-chaalis"
   }
  },
  {
   "type": "Feature",
   "geometry": {
    "type": "Point",
    "coordinates": [
     11.2589,
     43.7769
    ]
   },
   "properties": {
    "painter": "Giotto",
    "title": "Shepherd Head",
    "year": "1315",
    "city": "Florence",
    "country": "Italy",
    "location": "Galleria dell'Accademia",
    "kind": "museum",
    "attribution": "generally accepted",
    "status": "present",
    "dimensions": "250 × 135 cm",
    "genre": "portrait",
    "image": "https://commons.wikimedia.org/wiki/Special:FilePath/Giotto%2C%20frammento%20dalla%20badia%20fiorentina.jpg?width=420",
    "wikipedia_it": "https://it.wikipedia.org/wiki/Testa_di_pastore",
    "wikidata": "https://www.wikidata.org/wiki/Q3985186",
    "creation_place": "Florence",
    "creation_lat": 43.7696,
    "creation_lon": 11.2558,
    "_source": {
     "source": "Wikidata",
     "url": "https://www.wikidata.org/wiki/Q3985186",
     "retrieved_at": "2026-08-19"
    },
    "_overrides": {
     "creation": {
      "at": "2026-08-19",
      "source": "derived from start date + Caravaggio's documented itinerary (approximate)"
     }
    },
    "museum_id": "galleria-dell-accademia"
   }
  },
  {
   "type": "Feature",
   "geometry": {
    "type": "Point",
    "coordinates": [
     11.879536,
     45.411818
    ]
   },
   "properties": {
    "painter": "Giotto",
    "title": "The Virgin of the Annunciation",
    "year": "1306",
    "city": "Padua",
    "country": "Italy",
    "location": "Scrovegni Chapel",
    "kind": "church",
    "attribution": "attributed",
    "status": "present",
    "medium": "Fresco",
    "dimensions": "150 × 195 cm",
    "genre": "religious art",
    "image": "https://commons.wikimedia.org/wiki/Special:FilePath/Giotto%20di%20Bondone%20-%20No.%2015%20Annunciation%20-%20The%20Virgin%20Receiving%20the%20Message%20-%20WGA09191.jpg?width=420",
    "wikidata": "https://www.wikidata.org/wiki/Q61989282",
    "creation_place": "Florence",
    "creation_lat": 43.7696,
    "creation_lon": 11.2558,
    "_source": {
     "source": "Wikidata",
     "url": "https://www.wikidata.org/wiki/Q61989282",
     "retrieved_at": "2026-08-19"
    },
    "_overrides": {
     "creation": {
      "at": "2026-08-19",
      "source": "derived from start date + Caravaggio's documented itinerary (approximate)"
     }
    },
    "museum_id": "scrovegni-chapel"
   }
  },
  {
   "type": "Feature",
   "geometry": {
    "type": "Point",
    "coordinates": [
     12.605566,
     43.074825
    ]
   },
   "properties": {
    "painter": "Giotto",
    "title": "The Visitation",
    "year": "1310",
    "city": "Assisi",
    "country": "Italy",
    "location": "Lower Basilica of San Francesco",
    "kind": "church",
    "attribution": "attributed",
    "status": "present",
    "medium": "Fresco",
    "genre": "religious art",
    "image": "https://commons.wikimedia.org/wiki/Special:FilePath/Giotto%2C%20Lower%20Church%20Assisi%2C%20The%20Visitation%2001.jpg?width=420",
    "wikidata": "https://www.wikidata.org/wiki/Q63294333",
    "creation_place": "Florence",
    "creation_lat": 43.7696,
    "creation_lon": 11.2558,
    "_source": {
     "source": "Wikidata",
     "url": "https://www.wikidata.org/wiki/Q63294333",
     "retrieved_at": "2026-08-19"
    },
    "_overrides": {
     "creation": {
      "at": "2026-08-19",
      "source": "derived from start date + Caravaggio's documented itinerary (approximate)"
     }
    },
    "museum_id": "lower-basilica-of-san-francesco"
   }
  },
  {
   "type": "Feature",
   "geometry": {
    "type": "Point",
    "coordinates": [
     11.879536,
     45.411818
    ]
   },
   "properties": {
    "painter": "Giotto",
    "title": "Visitation",
    "year": "1306",
    "city": "Padua",
    "country": "Italy",
    "location": "Scrovegni Chapel",
    "kind": "church",
    "attribution": "generally accepted",
    "status": "present",
    "medium": "Fresco",
    "dimensions": "150 × 140 cm",
    "genre": "religious art",
    "image": "https://commons.wikimedia.org/wiki/Special:FilePath/Giotto%20di%20Bondone%20-%20No.%2016%20Scenes%20from%20the%20Life%20of%20the%20Virgin%20-%207.%20Visitation%20-%20WGA09192.jpg?width=420",
    "wikipedia_it": "https://it.wikipedia.org/wiki/Visitazione_(Giotto)",
    "wikidata": "https://www.wikidata.org/wiki/Q734197",
    "creation_place": "Florence",
    "creation_lat": 43.7696,
    "creation_lon": 11.2558,
    "_source": {
     "source": "Wikidata",
     "url": "https://www.wikidata.org/wiki/Q734197",
     "retrieved_at": "2026-08-19"
    },
    "_overrides": {
     "creation": {
      "at": "2026-08-19",
      "source": "derived from start date + Caravaggio's documented itinerary (approximate)"
     }
    },
    "museum_id": "scrovegni-chapel"
   }
  }
 ]
}