{
 "type": "FeatureCollection",
 "_note": "Generated by scripts/build.py from Wikidata. Do not edit by hand — put manual fixes in the painter's overlay (data/overlay/*.json). Each feature carries _source (scraped base or manual addition) and, when edited, _overrides.",
 "features": [
  {
   "type": "Feature",
   "geometry": {
    "type": "Point",
    "coordinates": [
     -117.15043,
     32.73216
    ]
   },
   "properties": {
    "painter": "Francesco Guardi",
    "title": "The Grand Canal with the Rialto Bridge from the South",
    "year": "1775",
    "city": "San Diego",
    "country": "United States",
    "location": "San Diego Museum of Art",
    "kind": "museum",
    "attribution": "generally accepted",
    "status": "present",
    "medium": "Oil on canvas",
    "dimensions": "54.6 × 85.1 cm",
    "genre": "landscape painting",
    "image": "https://commons.wikimedia.org/wiki/Special:FilePath/The%20Grand%20Canal%20with%20the%20Rialto%20Bridge%20Francesco%20Guardi%20SDMA.jpg?width=420",
    "wikipedia_en": "https://en.wikipedia.org/wiki/The_Grand_Canal_with_the_Rialto_Bridge_from_the_South",
    "wikidata": "https://www.wikidata.org/wiki/Q104390567",
    "creation_place": "Venice",
    "creation_lat": 45.4408,
    "creation_lon": 12.3155,
    "_source": {
     "source": "Wikidata",
     "url": "https://www.wikidata.org/wiki/Q104390567",
     "retrieved_at": "2026-08-23"
    },
    "_overrides": {
     "creation": {
      "at": "2026-08-23",
      "source": "derived from start date + Caravaggio's documented itinerary (approximate)"
     }
    },
    "museum_id": "san-diego-museum-of-art",
    "qid": "Q104390567"
   }
  },
  {
   "type": "Feature",
   "geometry": {
    "type": "Point",
    "coordinates": [
     13.36472,
     52.50861
    ]
   },
   "properties": {
    "painter": "Francesco Guardi",
    "title": "Venice Hot-Air Balloon Rising",
    "year": "1784",
    "city": "Bezirk Mitte",
    "country": "Germany",
    "location": "Gemäldegalerie Berlin",
    "kind": "museum",
    "attribution": "attributed",
    "status": "present",
    "medium": "Oil on canvas",
    "dimensions": "66 × 51 cm",
    "image": "https://commons.wikimedia.org/wiki/Special:FilePath/Francesco%20Guardi%20004.jpg?width=420",
    "wikidata": "https://www.wikidata.org/wiki/Q107438377",
    "creation_place": "Venice",
    "creation_lat": 45.4408,
    "creation_lon": 12.3155,
    "_source": {
     "source": "Wikidata",
     "url": "https://www.wikidata.org/wiki/Q107438377",
     "retrieved_at": "2026-08-23"
    },
    "_overrides": {
     "creation": {
      "at": "2026-08-23",
      "source": "derived from start date + Caravaggio's documented itinerary (approximate)"
     }
    },
    "museum_id": "gemaldegalerie-berlin",
    "qid": "Q107438377",
    "wga_url": "https://www.wga.hu/html/g/guardi/francesc/4/guard405.html"
   }
  },
  {
   "type": "Feature",
   "geometry": {
    "type": "Point",
    "coordinates": [
     -9.15417,
     38.73667
    ]
   },
   "properties": {
    "painter": "Francesco Guardi",
    "title": "Regatta on the Grand Canal",
    "year": "1777",
    "city": "Lisbon",
    "country": "Portugal",
    "location": "Calouste Gulbenkian Museum",
    "kind": "museum",
    "attribution": "attributed",
    "status": "present",
    "medium": "Oil on canvas",
    "image": "https://commons.wikimedia.org/wiki/Special:FilePath/Regata%20sul%20Canal%20Grande%20%28c.1777%29%20-%20Francesco%20Guardi%20-%20Calouste%20Gulbenkian%20Museum%2C%20Lisbona%20Inv.%20391.jpg?width=420",
    "wikidata": "https://www.wikidata.org/wiki/Q111033879",
    "creation_place": "Venice",
    "creation_lat": 45.4408,
    "creation_lon": 12.3155,
    "_source": {
     "source": "Wikidata",
     "url": "https://www.wikidata.org/wiki/Q111033879",
     "retrieved_at": "2026-08-23"
    },
    "_overrides": {
     "creation": {
      "at": "2026-08-23",
      "source": "derived from start date + Caravaggio's documented itinerary (approximate)"
     }
    },
    "museum_id": "calouste-gulbenkian-museum",
    "qid": "Q111033879"
   }
  },
  {
   "type": "Feature",
   "geometry": {
    "type": "Point",
    "coordinates": [
     12.32435,
     45.43409
    ]
   },
   "properties": {
    "painter": "Francesco Guardi",
    "title": "The Parlor of the Nuns at San Zaccaria",
    "year": "1750",
    "city": "Venice",
    "country": "Italy",
    "location": "Ca' Rezzonico",
    "kind": "museum",
    "attribution": "attributed",
    "status": "present",
    "medium": "Oil on canvas",
    "dimensions": "108 × 208 cm",
    "image": "https://commons.wikimedia.org/wiki/Special:FilePath/Ca%27%20Rezzonico%20-%20Il%20Parlatorio%20delle%20monache%20di%20San%20Zaccaria%20-%20Francesco%20Guardi.jpg?width=420",
    "wikidata": "https://www.wikidata.org/wiki/Q111593419",
    "creation_place": "Venice",
    "creation_lat": 45.4408,
    "creation_lon": 12.3155,
    "_source": {
     "source": "Wikidata",
     "url": "https://www.wikidata.org/wiki/Q111593419",
     "retrieved_at": "2026-08-23"
    },
    "_overrides": {
     "creation": {
      "at": "2026-08-23",
      "source": "derived from start date + Caravaggio's documented itinerary (approximate)"
     }
    },
    "museum_id": "ca-rezzonico",
    "qid": "Q111593419"
   }
  },
  {
   "type": "Feature",
   "geometry": {
    "type": "Point",
    "coordinates": [
     10.9216,
     44.6485
    ]
   },
   "properties": {
    "painter": "Francesco Guardi",
    "title": "Il bacino di San Marco verso l'Isola di San Giorgio",
    "year": "1750",
    "city": "Modena",
    "country": "Italy",
    "location": "Galleria Estense",
    "kind": "museum",
    "attribution": "generally accepted",
    "status": "present",
    "medium": "Oil on canvas",
    "image": "https://commons.wikimedia.org/wiki/Special:FilePath/Francesco%20Guardi%20-%20L%27Isola%20di%20San%20Giorgio.jpg?width=420",
    "wikipedia_it": "https://it.wikipedia.org/wiki/Il_bacino_di_San_Marco_verso_l%27Isola_di_San_Giorgio",
    "wikidata": "https://www.wikidata.org/wiki/Q112220511",
    "creation_place": "Venice",
    "creation_lat": 45.4408,
    "creation_lon": 12.3155,
    "_source": {
     "source": "Wikidata",
     "url": "https://www.wikidata.org/wiki/Q112220511",
     "retrieved_at": "2026-08-23"
    },
    "_overrides": {
     "creation": {
      "at": "2026-08-23",
      "source": "derived from start date + Caravaggio's documented itinerary (approximate)"
     }
    },
    "museum_id": "galleria-estense",
    "qid": "Q112220511"
   }
  },
  {
   "type": "Feature",
   "geometry": {
    "type": "Point",
    "coordinates": [
     11.57,
     48.14833
    ]
   },
   "properties": {
    "painter": "Francesco Guardi",
    "title": "Fire in the Oil Depot at San Marcuola",
    "year": "1790",
    "city": "Munich",
    "country": "Germany",
    "location": "Alte Pinakothek",
    "kind": "museum",
    "attribution": "generally accepted",
    "status": "present",
    "medium": "Oil on canvas",
    "dimensions": "42.5 × 62.2 cm",
    "genre": "Veduta",
    "image": "https://commons.wikimedia.org/wiki/Special:FilePath/Francesco%20Guardi%20-%20Fire%20in%20the%20Oil%20Depot%20at%20San%20Marcuola%20-%20WGA10884.jpg?width=420",
    "wikipedia_en": "https://en.wikipedia.org/wiki/Fire_in_the_Oil_Depot_at_San_Marcuola",
    "wikipedia_it": "https://it.wikipedia.org/wiki/Incendio_nel_quartiere_di_San_Marcuola",
    "wikidata": "https://www.wikidata.org/wiki/Q114196467",
    "creation_place": "Venice",
    "creation_lat": 45.4408,
    "creation_lon": 12.3155,
    "_source": {
     "source": "Wikidata",
     "url": "https://www.wikidata.org/wiki/Q114196467",
     "retrieved_at": "2026-08-23"
    },
    "_overrides": {
     "creation": {
      "at": "2026-08-23",
      "source": "derived from start date + Caravaggio's documented itinerary (approximate)"
     }
    },
    "museum_id": "alte-pinakothek",
    "qid": "Q114196467"
   }
  },
  {
   "type": "Feature",
   "geometry": {
    "type": "Point",
    "coordinates": [
     9.19158,
     45.46866
    ]
   },
   "properties": {
    "painter": "Francesco Guardi",
    "title": "Gondolas on the Lagoon",
    "year": "1765",
    "city": "Milan",
    "country": "Italy",
    "location": "Museo Poldi Pezzoli",
    "kind": "museum",
    "attribution": "attributed",
    "status": "present",
    "medium": "Oil on canvas",
    "dimensions": "31 × 42 cm",
    "genre": "Veduta",
    "image": "https://commons.wikimedia.org/wiki/Special:FilePath/Francesco%20Guardi%20-%20Gondolas%20on%20the%20Lagoon%20%28Grey%20Lagoon%29%20-%20Google%20Art%20Project.jpg?width=420",
    "wikidata": "https://www.wikidata.org/wiki/Q11701074",
    "creation_place": "Venice",
    "creation_lat": 45.4408,
    "creation_lon": 12.3155,
    "_source": {
     "source": "Wikidata",
     "url": "https://www.wikidata.org/wiki/Q11701074",
     "retrieved_at": "2026-08-23"
    },
    "_overrides": {
     "creation": {
      "at": "2026-08-23",
      "source": "derived from start date + Caravaggio's documented itinerary (approximate)"
     }
    },
    "museum_id": "museo-poldi-pezzoli",
    "qid": "Q11701074",
    "wga_url": "https://www.wga.hu/html/g/guardi/francesc/2/guard219.html"
   }
  },
  {
   "type": "Feature",
   "geometry": {
    "type": "Point",
    "coordinates": [
     2.14306,
     43.92917
    ]
   },
   "properties": {
    "painter": "Francesco Guardi",
    "title": "Santa Maria della Salute church in Venice",
    "city": "Albi",
    "country": "France",
    "location": "Musée Toulouse-Lautrec",
    "kind": "museum",
    "attribution": "attributed",
    "status": "present",
    "medium": "Oil on canvas",
    "image": "https://commons.wikimedia.org/wiki/Special:FilePath/%28Albi%29%20L%27%C3%A9glise%20Santa%20Maria%20della%20Salute%20%C3%A0%20Venise%20-%20Francesco%20Guardi%20-%20Coll%20cardinal%20de%20Bernis.%20MTL.inv.AA.P25.jpg?width=420",
    "wikidata": "https://www.wikidata.org/wiki/Q118179898",
    "_source": {
     "source": "Wikidata",
     "url": "https://www.wikidata.org/wiki/Q118179898",
     "retrieved_at": "2026-08-23"
    },
    "museum_id": "musee-toulouse-lautrec",
    "qid": "Q118179898"
   }
  },
  {
   "type": "Feature",
   "geometry": {
    "type": "Point",
    "coordinates": [
     12.32814,
     45.43108
    ]
   },
   "properties": {
    "painter": "Francesco Guardi",
    "title": "Island of Ancona",
    "city": "Venice",
    "country": "Italy",
    "location": "Gallerie dell'Accademia",
    "kind": "museum",
    "attribution": "attributed",
    "status": "present",
    "medium": "Oil on canvas",
    "dimensions": "32 × 51 cm",
    "image": "https://commons.wikimedia.org/wiki/Special:FilePath/%28Venice%29%20The%20Island%20of%20Anconeta%20by%20Francesco%20Guardi%20-%20Gallerie%20Accademia.jpg?width=420",
    "wikidata": "https://www.wikidata.org/wiki/Q120884892",
    "_source": {
     "source": "Wikidata",
     "url": "https://www.wikidata.org/wiki/Q120884892",
     "retrieved_at": "2026-08-23"
    },
    "museum_id": "gallerie-dell-accademia",
    "qid": "Q120884892"
   }
  },
  {
   "type": "Feature",
   "geometry": {
    "type": "Point",
    "coordinates": [
     -9.15417,
     38.73667
    ]
   },
   "properties": {
    "painter": "Francesco Guardi",
    "title": "The Feast of the Ascension in St Mark’s Square",
    "year": "1775",
    "city": "Lisbon",
    "country": "Portugal",
    "location": "Calouste Gulbenkian Museum",
    "kind": "museum",
    "attribution": "attributed",
    "status": "present",
    "dimensions": "48 × 78 cm",
    "genre": "genre art, landscape painting",
    "image": "https://commons.wikimedia.org/wiki/Special:FilePath/Francesco%20guardi%2C%20la%20festa%20dell%27ascensione%20in%20piazza%20s.%20marco%2C%20venezia%201775%20ca.jpg?width=420",
    "wikidata": "https://www.wikidata.org/wiki/Q124467141",
    "creation_place": "Venice",
    "creation_lat": 45.4408,
    "creation_lon": 12.3155,
    "_source": {
     "source": "Wikidata",
     "url": "https://www.wikidata.org/wiki/Q124467141",
     "retrieved_at": "2026-08-23"
    },
    "_overrides": {
     "creation": {
      "at": "2026-08-23",
      "source": "derived from start date + Caravaggio's documented itinerary (approximate)"
     }
    },
    "museum_id": "calouste-gulbenkian-museum",
    "qid": "Q124467141"
   }
  },
  {
   "type": "Feature",
   "geometry": {
    "type": "Point",
    "coordinates": [
     -9.15417,
     38.73667
    ]
   },
   "properties": {
    "painter": "Francesco Guardi",
    "title": "View of the pier with the Ducal Palace",
    "year": "1780",
    "city": "Lisbon",
    "country": "Portugal",
    "location": "Calouste Gulbenkian Museum",
    "kind": "museum",
    "attribution": "attributed",
    "status": "present",
    "image": "https://commons.wikimedia.org/wiki/Special:FilePath/Francesco%20guardi%2C%20vista%20del%20molo%20con%20il%20palazzo%20ducale%2C%20venezia%201780-90%20ca.jpg?width=420",
    "wikidata": "https://www.wikidata.org/wiki/Q124467774",
    "creation_place": "Venice",
    "creation_lat": 45.4408,
    "creation_lon": 12.3155,
    "_source": {
     "source": "Wikidata",
     "url": "https://www.wikidata.org/wiki/Q124467774",
     "retrieved_at": "2026-08-23"
    },
    "_overrides": {
     "creation": {
      "at": "2026-08-23",
      "source": "derived from start date + Caravaggio's documented itinerary (approximate)"
     }
    },
    "museum_id": "calouste-gulbenkian-museum",
    "qid": "Q124467774"
   }
  },
  {
   "type": "Feature",
   "geometry": {
    "type": "Point",
    "coordinates": [
     -9.15417,
     38.73667
    ]
   },
   "properties": {
    "painter": "Francesco Guardi",
    "title": "Q124470688",
    "year": "1790",
    "city": "Lisbon",
    "country": "Portugal",
    "location": "Calouste Gulbenkian Museum",
    "kind": "museum",
    "attribution": "attributed",
    "status": "present",
    "dimensions": "19.5 × 16.5 cm",
    "genre": "landscape painting",
    "image": "https://commons.wikimedia.org/wiki/Special:FilePath/Francesco%20guardi%2C%20l%27isola%20di%20san%20giorgio%20maggiore%2C%20venezia%201790%20ca.jpg?width=420",
    "wikidata": "https://www.wikidata.org/wiki/Q124470688",
    "creation_place": "Venice",
    "creation_lat": 45.4408,
    "creation_lon": 12.3155,
    "_source": {
     "source": "Wikidata",
     "url": "https://www.wikidata.org/wiki/Q124470688",
     "retrieved_at": "2026-08-23"
    },
    "_overrides": {
     "creation": {
      "at": "2026-08-23",
      "source": "derived from start date + Caravaggio's documented itinerary (approximate)"
     }
    },
    "museum_id": "calouste-gulbenkian-museum",
    "qid": "Q124470688"
   }
  },
  {
   "type": "Feature",
   "geometry": {
    "type": "Point",
    "coordinates": [
     -9.15417,
     38.73667
    ]
   },
   "properties": {
    "painter": "Francesco Guardi",
    "title": "Q124470768",
    "year": "1770",
    "city": "Lisbon",
    "country": "Portugal",
    "location": "Calouste Gulbenkian Museum",
    "kind": "museum",
    "attribution": "attributed",
    "status": "present",
    "genre": "landscape painting",
    "image": "https://commons.wikimedia.org/wiki/Special:FilePath/Francesco%20guardi%2C%20il%20canale%20della%20giudecca%20e%20la%20chiesa%20di%20santa%20marta%2C%20venezia%201770-80%20ca.jpg?width=420",
    "wikidata": "https://www.wikidata.org/wiki/Q124470768",
    "creation_place": "Venice",
    "creation_lat": 45.4408,
    "creation_lon": 12.3155,
    "_source": {
     "source": "Wikidata",
     "url": "https://www.wikidata.org/wiki/Q124470768",
     "retrieved_at": "2026-08-23"
    },
    "_overrides": {
     "creation": {
      "at": "2026-08-23",
      "source": "derived from start date + Caravaggio's documented itinerary (approximate)"
     }
    },
    "museum_id": "calouste-gulbenkian-museum",
    "qid": "Q124470768"
   }
  },
  {
   "type": "Feature",
   "geometry": {
    "type": "Point",
    "coordinates": [
     -9.15417,
     38.73667
    ]
   },
   "properties": {
    "painter": "Francesco Guardi",
    "title": "Q124470966",
    "year": "1780",
    "city": "Lisbon",
    "country": "Portugal",
    "location": "Calouste Gulbenkian Museum",
    "kind": "museum",
    "attribution": "attributed",
    "status": "present",
    "genre": "landscape painting",
    "image": "https://commons.wikimedia.org/wiki/Special:FilePath/Francesco%20guardi%2C%20il%20gran%20canale%20al%20ponte%20di%20rialto%2C%20venezia%201780-90%20ca.jpg?width=420",
    "wikidata": "https://www.wikidata.org/wiki/Q124470966",
    "creation_place": "Venice",
    "creation_lat": 45.4408,
    "creation_lon": 12.3155,
    "_source": {
     "source": "Wikidata",
     "url": "https://www.wikidata.org/wiki/Q124470966",
     "retrieved_at": "2026-08-23"
    },
    "_overrides": {
     "creation": {
      "at": "2026-08-23",
      "source": "derived from start date + Caravaggio's documented itinerary (approximate)"
     }
    },
    "museum_id": "calouste-gulbenkian-museum",
    "qid": "Q124470966"
   }
  },
  {
   "type": "Feature",
   "geometry": {
    "type": "Point",
    "coordinates": [
     -9.15417,
     38.73667
    ]
   },
   "properties": {
    "painter": "Francesco Guardi",
    "title": "Q124471109",
    "year": "1770",
    "city": "Lisbon",
    "country": "Portugal",
    "location": "Calouste Gulbenkian Museum",
    "kind": "museum",
    "attribution": "attributed",
    "status": "present",
    "genre": "landscape painting",
    "image": "https://commons.wikimedia.org/wiki/Special:FilePath/Francesco%20guardi%2C%20il%20ponte%20di%20rialto%20secondo%20il%20progetto%20di%20palladio%2C%20venezia%201770%20ca.jpg?width=420",
    "wikidata": "https://www.wikidata.org/wiki/Q124471109",
    "creation_place": "Venice",
    "creation_lat": 45.4408,
    "creation_lon": 12.3155,
    "_source": {
     "source": "Wikidata",
     "url": "https://www.wikidata.org/wiki/Q124471109",
     "retrieved_at": "2026-08-23"
    },
    "_overrides": {
     "creation": {
      "at": "2026-08-23",
      "source": "derived from start date + Caravaggio's documented itinerary (approximate)"
     }
    },
    "museum_id": "calouste-gulbenkian-museum",
    "qid": "Q124471109"
   }
  },
  {
   "type": "Feature",
   "geometry": {
    "type": "Point",
    "coordinates": [
     12.25055,
     45.66703
    ]
   },
   "properties": {
    "painter": "Francesco Guardi",
    "title": "View from the pier of the dock with the island of San Giorgio giore",
    "year": "1742",
    "city": "Treviso",
    "country": "Italy",
    "location": "Complesso di santa Caterina",
    "kind": "museum",
    "attribution": "attributed",
    "status": "present",
    "medium": "Oil on canvas",
    "image": "https://commons.wikimedia.org/wiki/Special:FilePath/%28Treviso%29%20Veduta%20dal%20molo%20del%20bacino%20con%20l%27isola%20di%20San%20Giorgio%20maggiore%20-%20Francesco%20Guardi%20-%20Treviso%2C%20Museo%20Civico.jpg?width=420",
    "wikidata": "https://www.wikidata.org/wiki/Q133284125",
    "creation_place": "Venice",
    "creation_lat": 45.4408,
    "creation_lon": 12.3155,
    "_source": {
     "source": "Wikidata",
     "url": "https://www.wikidata.org/wiki/Q133284125",
     "retrieved_at": "2026-08-23"
    },
    "_overrides": {
     "creation": {
      "at": "2026-08-23",
      "source": "derived from start date + Caravaggio's documented itinerary (approximate)"
     }
    },
    "museum_id": "complesso-di-santa-caterina",
    "qid": "Q133284125"
   }
  },
  {
   "type": "Feature",
   "geometry": {
    "type": "Point",
    "coordinates": [
     1.446,
     43.601
    ]
   },
   "properties": {
    "painter": "Francesco Guardi",
    "title": "The Rialto-Bridge in Venice",
    "year": "1760",
    "city": "Toulouse",
    "country": "France",
    "location": "Musée des Augustins",
    "kind": "museum",
    "attribution": "attributed",
    "status": "present",
    "medium": "Oil on canvas",
    "dimensions": "62 × 93 cm",
    "genre": "Veduta",
    "image": "https://commons.wikimedia.org/wiki/Special:FilePath/Guardi%20Pont%20Rialto%20%282004%201%20311%29.jpg?width=420",
    "wikidata": "https://www.wikidata.org/wiki/Q17582479",
    "creation_place": "Venice",
    "creation_lat": 45.4408,
    "creation_lon": 12.3155,
    "_source": {
     "source": "Wikidata",
     "url": "https://www.wikidata.org/wiki/Q17582479",
     "retrieved_at": "2026-08-23"
    },
    "_overrides": {
     "creation": {
      "at": "2026-08-23",
      "source": "derived from start date + Caravaggio's documented itinerary (approximate)"
     }
    },
    "museum_id": "musee-des-augustins",
    "qid": "Q17582479"
   }
  },
  {
   "type": "Feature",
   "geometry": {
    "type": "Point",
    "coordinates": [
     2.3358,
     48.8611
    ]
   },
   "properties": {
    "painter": "Francesco Guardi",
    "title": "The Doge at the Basilica of La Salute",
    "year": "1775",
    "country": "France",
    "location": "Louvre",
    "kind": "museum",
    "attribution": "attributed",
    "status": "present",
    "medium": "Oil on canvas",
    "dimensions": "67 × 100.5 cm",
    "genre": "Veduta",
    "image": "https://commons.wikimedia.org/wiki/Special:FilePath/Francesco%20Guardi%20-%20The%20Doge%20at%20the%20Basilica%20of%20La%20Salute%20-%20WGA10849.jpg?width=420",
    "wikidata": "https://www.wikidata.org/wiki/Q18573858",
    "creation_place": "Venice",
    "creation_lat": 45.4408,
    "creation_lon": 12.3155,
    "_source": {
     "source": "Wikidata",
     "url": "https://www.wikidata.org/wiki/Q18573858",
     "retrieved_at": "2026-08-23"
    },
    "_overrides": {
     "creation": {
      "at": "2026-08-23",
      "source": "derived from start date + Caravaggio's documented itinerary (approximate)"
     }
    },
    "museum_id": "louvre",
    "city": "Paris",
    "qid": "Q18573858",
    "wga_url": "https://www.wga.hu/html/g/guardi/francesc/2/guard211.html"
   }
  },
  {
   "type": "Feature",
   "geometry": {
    "type": "Point",
    "coordinates": [
     2.3358,
     48.8611
    ]
   },
   "properties": {
    "painter": "Francesco Guardi",
    "title": "Carnival Thursday on the Piazzetta",
    "year": "1775",
    "country": "France",
    "location": "Louvre",
    "kind": "museum",
    "attribution": "attributed",
    "status": "present",
    "medium": "Oil on canvas",
    "dimensions": "67 × 100 cm",
    "genre": "Veduta",
    "image": "https://commons.wikimedia.org/wiki/Special:FilePath/Francesco%20Guardi%20-%20Carnival%20Thursday%20on%20the%20Piazzetta%20-%20WGA10852.jpg?width=420",
    "wikidata": "https://www.wikidata.org/wiki/Q18573860",
    "creation_place": "Venice",
    "creation_lat": 45.4408,
    "creation_lon": 12.3155,
    "_source": {
     "source": "Wikidata",
     "url": "https://www.wikidata.org/wiki/Q18573860",
     "retrieved_at": "2026-08-23"
    },
    "_overrides": {
     "creation": {
      "at": "2026-08-23",
      "source": "derived from start date + Caravaggio's documented itinerary (approximate)"
     }
    },
    "museum_id": "louvre",
    "city": "Paris",
    "qid": "Q18573860",
    "wga_url": "https://www.wga.hu/html/g/guardi/francesc/2/guard214.html"
   }
  },
  {
   "type": "Feature",
   "geometry": {
    "type": "Point",
    "coordinates": [
     2.3358,
     48.8611
    ]
   },
   "properties": {
    "painter": "Francesco Guardi",
    "title": "The Coronation of the Doge",
    "year": "1775",
    "country": "France",
    "location": "Louvre",
    "kind": "museum",
    "attribution": "attributed",
    "status": "present",
    "medium": "Oil on canvas",
    "dimensions": "67 × 101 cm",
    "genre": "Veduta",
    "image": "https://commons.wikimedia.org/wiki/Special:FilePath/Francesco%20Guardi%20-%20The%20Coronation%20of%20the%20Doge%20-%20WGA10851.jpg?width=420",
    "wikidata": "https://www.wikidata.org/wiki/Q18573863",
    "creation_place": "Venice",
    "creation_lat": 45.4408,
    "creation_lon": 12.3155,
    "_source": {
     "source": "Wikidata",
     "url": "https://www.wikidata.org/wiki/Q18573863",
     "retrieved_at": "2026-08-23"
    },
    "_overrides": {
     "creation": {
      "at": "2026-08-23",
      "source": "derived from start date + Caravaggio's documented itinerary (approximate)"
     }
    },
    "museum_id": "louvre",
    "city": "Paris",
    "qid": "Q18573863",
    "wga_url": "https://www.wga.hu/html/g/guardi/francesc/2/guard213.html"
   }
  },
  {
   "type": "Feature",
   "geometry": {
    "type": "Point",
    "coordinates": [
     2.3358,
     48.8611
    ]
   },
   "properties": {
    "painter": "Francesco Guardi",
    "title": "The Procesion of the Doge at San Zaccaria",
    "year": "1775",
    "country": "France",
    "location": "Louvre",
    "kind": "museum",
    "attribution": "attributed",
    "status": "present",
    "medium": "Oil on canvas",
    "dimensions": "67.5 × 101 cm",
    "genre": "Veduta",
    "image": "https://commons.wikimedia.org/wiki/Special:FilePath/Francesco%20Guardi%20035.jpg?width=420",
    "wikidata": "https://www.wikidata.org/wiki/Q18573864",
    "creation_place": "Venice",
    "creation_lat": 45.4408,
    "creation_lon": 12.3155,
    "_source": {
     "source": "Wikidata",
     "url": "https://www.wikidata.org/wiki/Q18573864",
     "retrieved_at": "2026-08-23"
    },
    "_overrides": {
     "creation": {
      "at": "2026-08-23",
      "source": "derived from start date + Caravaggio's documented itinerary (approximate)"
     }
    },
    "museum_id": "louvre",
    "city": "Paris",
    "qid": "Q18573864"
   }
  },
  {
   "type": "Feature",
   "geometry": {
    "type": "Point",
    "coordinates": [
     2.3358,
     48.8611
    ]
   },
   "properties": {
    "painter": "Francesco Guardi",
    "title": "Audience Granted by the Doge",
    "year": "1775",
    "country": "France",
    "location": "Louvre",
    "kind": "museum",
    "attribution": "attributed",
    "status": "present",
    "medium": "Oil on canvas",
    "dimensions": "67 × 101 cm",
    "image": "https://commons.wikimedia.org/wiki/Special:FilePath/Francesco%20Guardi%20-%20Audience%20Granted%20by%20the%20Doge%20-%20WGA10848.jpg?width=420",
    "wikidata": "https://www.wikidata.org/wiki/Q18573867",
    "creation_place": "Venice",
    "creation_lat": 45.4408,
    "creation_lon": 12.3155,
    "_source": {
     "source": "Wikidata",
     "url": "https://www.wikidata.org/wiki/Q18573867",
     "retrieved_at": "2026-08-23"
    },
    "_overrides": {
     "creation": {
      "at": "2026-08-23",
      "source": "derived from start date + Caravaggio's documented itinerary (approximate)"
     }
    },
    "museum_id": "louvre",
    "city": "Paris",
    "qid": "Q18573867",
    "wga_url": "https://www.wga.hu/html/g/guardi/francesc/2/guard210.html"
   }
  },
  {
   "type": "Feature",
   "geometry": {
    "type": "Point",
    "coordinates": [
     2.3358,
     48.8611
    ]
   },
   "properties": {
    "painter": "Francesco Guardi",
    "title": "Campo of Santi Giovanni et Paolo, with the Scuola di San Marco in Venice",
    "year": "1760",
    "country": "France",
    "location": "Louvre",
    "kind": "museum",
    "attribution": "attributed",
    "status": "present",
    "medium": "Oil on canvas",
    "dimensions": "74 × 122 cm",
    "image": "https://commons.wikimedia.org/wiki/Special:FilePath/Francesco%20Guardi%20022.jpg?width=420",
    "wikidata": "https://www.wikidata.org/wiki/Q18573869",
    "creation_place": "Venice",
    "creation_lat": 45.4408,
    "creation_lon": 12.3155,
    "_source": {
     "source": "Wikidata",
     "url": "https://www.wikidata.org/wiki/Q18573869",
     "retrieved_at": "2026-08-23"
    },
    "_overrides": {
     "creation": {
      "at": "2026-08-23",
      "source": "derived from start date + Caravaggio's documented itinerary (approximate)"
     }
    },
    "museum_id": "louvre",
    "city": "Paris",
    "qid": "Q18573869",
    "wga_url": "https://www.wga.hu/html/g/guardi/francesc/2/guard201.html"
   }
  },
  {
   "type": "Feature",
   "geometry": {
    "type": "Point",
    "coordinates": [
     2.3358,
     48.8611
    ]
   },
   "properties": {
    "painter": "Francesco Guardi",
    "title": "The Doge's Palace from the Bacino di San Marco",
    "year": "1780",
    "country": "France",
    "location": "Louvre",
    "kind": "museum",
    "attribution": "attributed",
    "status": "present",
    "medium": "Oil on canvas",
    "dimensions": "42.5 × 68 cm",
    "genre": "Veduta",
    "image": "https://commons.wikimedia.org/wiki/Special:FilePath/Guardi%20-%20Le%20Palais%20des%20Doges%20de%20Venise%20vu%20du%20bassin%20de%20Saint-Marc%2C%201775%20-%201800%2C%20RF%201949%206.jpg?width=420",
    "wikidata": "https://www.wikidata.org/wiki/Q18573871",
    "creation_place": "Venice",
    "creation_lat": 45.4408,
    "creation_lon": 12.3155,
    "_source": {
     "source": "Wikidata",
     "url": "https://www.wikidata.org/wiki/Q18573871",
     "retrieved_at": "2026-08-23"
    },
    "_overrides": {
     "creation": {
      "at": "2026-08-23",
      "source": "derived from start date + Caravaggio's documented itinerary (approximate)"
     }
    },
    "museum_id": "louvre",
    "city": "Paris",
    "qid": "Q18573871"
   }
  },
  {
   "type": "Feature",
   "geometry": {
    "type": "Point",
    "coordinates": [
     2.3358,
     48.8611
    ]
   },
   "properties": {
    "painter": "Francesco Guardi",
    "title": "The Doge in the Bucentaur at San Nicolò di Lido on Ascension Day",
    "year": "1775",
    "country": "France",
    "location": "Louvre",
    "kind": "museum",
    "attribution": "attributed",
    "status": "present",
    "medium": "Oil on canvas",
    "dimensions": "67 × 101 cm",
    "image": "https://commons.wikimedia.org/wiki/Special:FilePath/Guardi%20-%20Le%20Doge%20sur%20le%20Bucentaure%2C%20%C3%A0%20San%20Niccol%C3%B2%20di%20Lido%20%C3%A0%20Venise%2C%20le%20jour%20de%20l%27Ascension%2C%20vers%201770%20-%201780%2C%20INV%20319.jpg?width=420",
    "wikidata": "https://www.wikidata.org/wiki/Q18619597",
    "creation_place": "Venice",
    "creation_lat": 45.4408,
    "creation_lon": 12.3155,
    "_source": {
     "source": "Wikidata",
     "url": "https://www.wikidata.org/wiki/Q18619597",
     "retrieved_at": "2026-08-23"
    },
    "_overrides": {
     "creation": {
      "at": "2026-08-23",
      "source": "derived from start date + Caravaggio's documented itinerary (approximate)"
     }
    },
    "museum_id": "louvre",
    "city": "Paris",
    "qid": "Q18619597",
    "wga_url": "https://www.wga.hu/html/g/guardi/francesc/2/guard212.html"
   }
  },
  {
   "type": "Feature",
   "geometry": {
    "type": "Point",
    "coordinates": [
     9.6758,
     45.7042
    ]
   },
   "properties": {
    "painter": "Francesco Guardi",
    "title": "Fantasy Arch with Human Figures",
    "year": "1770",
    "city": "Bergamo",
    "country": "Italy",
    "location": "Accademia Carrara",
    "kind": "museum",
    "attribution": "generally accepted",
    "status": "present",
    "medium": "Oil on canvas",
    "dimensions": "39 × 26 cm",
    "genre": "capriccio",
    "image": "https://commons.wikimedia.org/wiki/Special:FilePath/Francesco%20Guardi%20048.jpg?width=420",
    "wikipedia_it": "https://it.wikipedia.org/wiki/Arco_fantastico_con_figure_umane",
    "wikidata": "https://www.wikidata.org/wiki/Q19686394",
    "creation_place": "Venice",
    "creation_lat": 45.4408,
    "creation_lon": 12.3155,
    "_source": {
     "source": "Wikidata",
     "url": "https://www.wikidata.org/wiki/Q19686394",
     "retrieved_at": "2026-08-23"
    },
    "_overrides": {
     "creation": {
      "at": "2026-08-23",
      "source": "derived from start date + Caravaggio's documented itinerary (approximate)"
     }
    },
    "museum_id": "accademia-carrara",
    "qid": "Q19686394"
   }
  },
  {
   "type": "Feature",
   "geometry": {
    "type": "Point",
    "coordinates": [
     10.98778,
     45.44
    ]
   },
   "properties": {
    "painter": "Francesco Guardi",
    "title": "Capriccio: Ruins of an Arch and Farmhouses by a Lagoon",
    "year": "1780",
    "city": "Verona",
    "country": "Italy",
    "location": "Castelvecchio Museum",
    "kind": "museum",
    "attribution": "attributed",
    "status": "present",
    "medium": "Oil on canvas",
    "dimensions": "33 × 51 cm",
    "genre": "capriccio",
    "image": "https://commons.wikimedia.org/wiki/Special:FilePath/Francesco%20Guardi%20019.jpg?width=420",
    "wikidata": "https://www.wikidata.org/wiki/Q19686407",
    "creation_place": "Venice",
    "creation_lat": 45.4408,
    "creation_lon": 12.3155,
    "_source": {
     "source": "Wikidata",
     "url": "https://www.wikidata.org/wiki/Q19686407",
     "retrieved_at": "2026-08-23"
    },
    "_overrides": {
     "creation": {
      "at": "2026-08-23",
      "source": "derived from start date + Caravaggio's documented itinerary (approximate)"
     }
    },
    "museum_id": "castelvecchio-museum",
    "qid": "Q19686407"
   }
  },
  {
   "type": "Feature",
   "geometry": {
    "type": "Point",
    "coordinates": [
     -73.9672,
     40.7711
    ]
   },
   "properties": {
    "painter": "Francesco Guardi",
    "title": "Regatta in Venice",
    "year": "1770",
    "city": "New York",
    "country": "United States",
    "location": "Frick Collection",
    "kind": "museum",
    "attribution": "generally accepted",
    "status": "present",
    "medium": "Oil on canvas",
    "dimensions": "48.6 × 78.4 cm",
    "genre": "Veduta",
    "image": "https://commons.wikimedia.org/wiki/Special:FilePath/Guardi%2C%20Francesco%20-%20Regatta%20in%20Venice%20-%20Frick%20Collection.jpg?width=420",
    "wikipedia_en": "https://en.wikipedia.org/wiki/Regatta_in_Venice",
    "wikidata": "https://www.wikidata.org/wiki/Q19857299",
    "creation_place": "Venice",
    "creation_lat": 45.4408,
    "creation_lon": 12.3155,
    "_source": {
     "source": "Wikidata",
     "url": "https://www.wikidata.org/wiki/Q19857299",
     "retrieved_at": "2026-08-23"
    },
    "_overrides": {
     "creation": {
      "at": "2026-08-23",
      "source": "derived from start date + Caravaggio's documented itinerary (approximate)"
     }
    },
    "museum_id": "frick-collection",
    "qid": "Q19857299"
   }
  },
  {
   "type": "Feature",
   "geometry": {
    "type": "Point",
    "coordinates": [
     -73.9672,
     40.7711
    ]
   },
   "properties": {
    "painter": "Francesco Guardi",
    "title": "View of the Cannaregio Canal in Venice",
    "year": "1770",
    "city": "New York",
    "country": "United States",
    "location": "Frick Collection",
    "kind": "museum",
    "attribution": "generally accepted",
    "status": "present",
    "medium": "Oil on canvas",
    "dimensions": "48.9 × 77.5 cm",
    "genre": "cityscape",
    "image": "https://commons.wikimedia.org/wiki/Special:FilePath/Guardi%20-%20View%20of%20the%20Cannaregio%20Canal%20in%20Venice%2C%20ca.%201770%2C%201984.1.179.jpg?width=420",
    "wikipedia_en": "https://en.wikipedia.org/wiki/View_of_the_Cannaregio_Canal",
    "wikidata": "https://www.wikidata.org/wiki/Q19857300",
    "creation_place": "Venice",
    "creation_lat": 45.4408,
    "creation_lon": 12.3155,
    "_source": {
     "source": "Wikidata",
     "url": "https://www.wikidata.org/wiki/Q19857300",
     "retrieved_at": "2026-08-23"
    },
    "_overrides": {
     "creation": {
      "at": "2026-08-23",
      "source": "derived from start date + Caravaggio's documented itinerary (approximate)"
     }
    },
    "museum_id": "frick-collection",
    "qid": "Q19857300"
   }
  },
  {
   "type": "Feature",
   "geometry": {
    "type": "Point",
    "coordinates": [
     -73.9631,
     40.7794
    ]
   },
   "properties": {
    "painter": "Francesco Guardi",
    "title": "Venice from the Bacino di San Marco",
    "year": "1765",
    "city": "New York",
    "country": "United States",
    "location": "Metropolitan Museum of Art",
    "kind": "museum",
    "attribution": "attributed",
    "status": "present",
    "medium": "Oil on canvas",
    "dimensions": "121.9 × 152.4 cm",
    "image": "https://commons.wikimedia.org/wiki/Special:FilePath/Francesco%20Guardi%20-%20The%20Molo%20and%20the%20Riva%20degli%20Schiavoni%20from%20the%20Bacino%20di%20San%20Marco%20-%20WGA10841.jpg?width=420",
    "wikidata": "https://www.wikidata.org/wiki/Q19911939",
    "creation_place": "Venice",
    "creation_lat": 45.4408,
    "creation_lon": 12.3155,
    "_source": {
     "source": "Wikidata",
     "url": "https://www.wikidata.org/wiki/Q19911939",
     "retrieved_at": "2026-08-23"
    },
    "_overrides": {
     "creation": {
      "at": "2026-08-23",
      "source": "derived from start date + Caravaggio's documented itinerary (approximate)"
     }
    },
    "museum_id": "metropolitan-museum-of-art",
    "qid": "Q19911939",
    "wga_url": "https://www.wga.hu/html/g/guardi/francesc/2/guard203.html"
   }
  },
  {
   "type": "Feature",
   "geometry": {
    "type": "Point",
    "coordinates": [
     -73.9631,
     40.7794
    ]
   },
   "properties": {
    "painter": "Francesco Guardi",
    "title": "Piazza San Marco",
    "year": "1768",
    "city": "New York",
    "country": "United States",
    "location": "Metropolitan Museum of Art",
    "kind": "museum",
    "attribution": "attributed",
    "status": "present",
    "medium": "Oil on canvas",
    "dimensions": "68.9 × 85.7 cm",
    "image": "https://commons.wikimedia.org/wiki/Special:FilePath/Piazza%20San%20Marco%20MET%20DT1384.jpg?width=420",
    "wikidata": "https://www.wikidata.org/wiki/Q19912041",
    "creation_place": "Venice",
    "creation_lat": 45.4408,
    "creation_lon": 12.3155,
    "_source": {
     "source": "Wikidata",
     "url": "https://www.wikidata.org/wiki/Q19912041",
     "retrieved_at": "2026-08-23"
    },
    "_overrides": {
     "creation": {
      "at": "2026-08-23",
      "source": "derived from start date + Caravaggio's documented itinerary (approximate)"
     }
    },
    "museum_id": "metropolitan-museum-of-art",
    "qid": "Q19912041"
   }
  },
  {
   "type": "Feature",
   "geometry": {
    "type": "Point",
    "coordinates": [
     12.32814,
     45.43108
    ]
   },
   "properties": {
    "painter": "Francesco Guardi",
    "title": "St Mark’s Basin with the Island of San Giorgio and the Giudecca",
    "year": "1770",
    "city": "Venice",
    "country": "Italy",
    "location": "Gallerie dell'Accademia",
    "kind": "museum",
    "attribution": "attributed",
    "status": "present",
    "medium": "Oil on canvas",
    "dimensions": "69 × 94 cm",
    "image": "https://commons.wikimedia.org/wiki/Special:FilePath/%28Venice%29%20St%20Mark%E2%80%99s%20Basin%20with%20the%20Island%20of%20San%20Giorgio%20and%20the%20Giudecca%20-%20Francesco%20Guardi.jpg?width=420",
    "wikidata": "https://www.wikidata.org/wiki/Q20074560",
    "creation_place": "Venice",
    "creation_lat": 45.4408,
    "creation_lon": 12.3155,
    "_source": {
     "source": "Wikidata",
     "url": "https://www.wikidata.org/wiki/Q20074560",
     "retrieved_at": "2026-08-23"
    },
    "_overrides": {
     "creation": {
      "at": "2026-08-23",
      "source": "derived from start date + Caravaggio's documented itinerary (approximate)"
     }
    },
    "museum_id": "gallerie-dell-accademia",
    "qid": "Q20074560",
    "wga_url": "https://www.wga.hu/html/g/guardi/francesc/3/guard300.html"
   }
  },
  {
   "type": "Feature",
   "geometry": {
    "type": "Point",
    "coordinates": [
     12.32814,
     45.43108
    ]
   },
   "properties": {
    "painter": "Francesco Guardi",
    "title": "Fire in the San Marcuola Oil Depot",
    "year": "1789",
    "city": "Venice",
    "country": "Italy",
    "location": "Gallerie dell'Accademia",
    "kind": "museum",
    "attribution": "attributed",
    "status": "present",
    "medium": "Oil on canvas",
    "dimensions": "32 × 51 cm",
    "image": "https://commons.wikimedia.org/wiki/Special:FilePath/%28Venice%29%20Fire%20in%20the%20oil%20warehouses%20at%20San%20Marcuola%20by%20Francesco%20Guardi%20-%20Gallerie%20Accademia.jpg?width=420",
    "wikidata": "https://www.wikidata.org/wiki/Q20091419",
    "creation_place": "Venice",
    "creation_lat": 45.4408,
    "creation_lon": 12.3155,
    "_source": {
     "source": "Wikidata",
     "url": "https://www.wikidata.org/wiki/Q20091419",
     "retrieved_at": "2026-08-23"
    },
    "_overrides": {
     "creation": {
      "at": "2026-08-23",
      "source": "derived from start date + Caravaggio's documented itinerary (approximate)"
     }
    },
    "museum_id": "gallerie-dell-accademia",
    "qid": "Q20091419",
    "wga_url": "https://www.wga.hu/html/g/guardi/francesc/4/guard410.html"
   }
  },
  {
   "type": "Feature",
   "geometry": {
    "type": "Point",
    "coordinates": [
     -77.02,
     38.8914
    ]
   },
   "properties": {
    "painter": "Francesco Guardi",
    "title": "Fanciful View of the Castel Sant'Angelo, Rome",
    "year": "1785",
    "city": "Washington",
    "country": "United States",
    "location": "National Gallery of Art",
    "kind": "museum",
    "attribution": "attributed",
    "status": "present",
    "medium": "Oil on canvas",
    "dimensions": "46.8 × 76.3 cm",
    "genre": "landscape painting",
    "image": "https://commons.wikimedia.org/wiki/Special:FilePath/Francesco%20Guardi%2C%20Fanciful%20View%20of%20the%20Castel%20Sant%27Angelo%2C%20Rome%2C%20c.%201785%2C%20NGA%2043596.jpg?width=420",
    "wikidata": "https://www.wikidata.org/wiki/Q20179306",
    "creation_place": "Venice",
    "creation_lat": 45.4408,
    "creation_lon": 12.3155,
    "_source": {
     "source": "Wikidata",
     "url": "https://www.wikidata.org/wiki/Q20179306",
     "retrieved_at": "2026-08-23"
    },
    "_overrides": {
     "creation": {
      "at": "2026-08-23",
      "source": "derived from start date + Caravaggio's documented itinerary (approximate)"
     }
    },
    "museum_id": "national-gallery-of-art",
    "qid": "Q20179306"
   }
  },
  {
   "type": "Feature",
   "geometry": {
    "type": "Point",
    "coordinates": [
     -75.181,
     39.966
    ]
   },
   "properties": {
    "painter": "Francesco Guardi",
    "title": "The Meeting of Pope Pius VI and Doge Paolo Renier at San Giorgio in Alga",
    "year": "1782",
    "city": "Philadelphia",
    "country": "United States",
    "location": "Philadelphia Museum of Art",
    "kind": "museum",
    "attribution": "attributed",
    "status": "present",
    "medium": "Oil on canvas",
    "dimensions": "71.1 × 81.3 cm",
    "image": "https://commons.wikimedia.org/wiki/Special:FilePath/Guardi%20-%20The%20Meeting%20of%20Pope%20Pius%20VI%20and%20Doge%20Paolo%20Renier%20at%20San%20Giorgio%20in%20Alga%2C%201782%2C%20E1924-3-49.jpg?width=420",
    "wikidata": "https://www.wikidata.org/wiki/Q20809098",
    "creation_place": "Venice",
    "creation_lat": 45.4408,
    "creation_lon": 12.3155,
    "_source": {
     "source": "Wikidata",
     "url": "https://www.wikidata.org/wiki/Q20809098",
     "retrieved_at": "2026-08-23"
    },
    "_overrides": {
     "creation": {
      "at": "2026-08-23",
      "source": "derived from start date + Caravaggio's documented itinerary (approximate)"
     }
    },
    "museum_id": "philadelphia-museum-of-art",
    "qid": "Q20809098"
   }
  },
  {
   "type": "Feature",
   "geometry": {
    "type": "Point",
    "coordinates": [
     30.3136,
     59.9406
    ]
   },
   "properties": {
    "painter": "Francesco Guardi",
    "title": "View of the Island of San Giorgio Maggiore",
    "year": "1770",
    "city": "Saint Petersburg",
    "country": "Russia",
    "location": "Hermitage Museum",
    "kind": "museum",
    "attribution": "attributed",
    "status": "present",
    "medium": "Oil on canvas",
    "dimensions": "43 × 61 cm",
    "image": "https://commons.wikimedia.org/wiki/Special:FilePath/Francesco%20Guardi%20-%20View%20of%20the%20Island%20of%20San%20Giorgio%20Maggiore%20-%20WGA10872.jpg?width=420",
    "wikidata": "https://www.wikidata.org/wiki/Q21740557",
    "creation_place": "Venice",
    "creation_lat": 45.4408,
    "creation_lon": 12.3155,
    "_source": {
     "source": "Wikidata",
     "url": "https://www.wikidata.org/wiki/Q21740557",
     "retrieved_at": "2026-08-23"
    },
    "_overrides": {
     "creation": {
      "at": "2026-08-23",
      "source": "derived from start date + Caravaggio's documented itinerary (approximate)"
     }
    },
    "museum_id": "hermitage-museum",
    "qid": "Q21740557",
    "wga_url": "https://www.wga.hu/html/g/guardi/francesc/3/guard313.html"
   }
  },
  {
   "type": "Feature",
   "geometry": {
    "type": "Point",
    "coordinates": [
     21.02472,
     52.23167
    ]
   },
   "properties": {
    "painter": "Francesco Guardi",
    "title": "Palace steps",
    "year": "1770",
    "city": "Śródmieście",
    "country": "Poland",
    "location": "National Museum in Warsaw",
    "kind": "museum",
    "attribution": "attributed",
    "status": "present",
    "medium": "Oil on canvas",
    "dimensions": "32.8 × 25.8 cm",
    "genre": "interior view",
    "image": "https://commons.wikimedia.org/wiki/Special:FilePath/Guardi%20Palace%20steps.jpg?width=420",
    "wikidata": "https://www.wikidata.org/wiki/Q22988777",
    "creation_place": "Venice",
    "creation_lat": 45.4408,
    "creation_lon": 12.3155,
    "_source": {
     "source": "Wikidata",
     "url": "https://www.wikidata.org/wiki/Q22988777",
     "retrieved_at": "2026-08-23"
    },
    "_overrides": {
     "creation": {
      "at": "2026-08-23",
      "source": "derived from start date + Caravaggio's documented itinerary (approximate)"
     }
    },
    "museum_id": "national-museum-in-warsaw",
    "qid": "Q22988777"
   }
  },
  {
   "type": "Feature",
   "geometry": {
    "type": "Point",
    "coordinates": [
     2.3358,
     48.8611
    ]
   },
   "properties": {
    "painter": "Francesco Guardi",
    "title": "The Doge Alvise IV. Mocenigo on the Bucentaur near the Riva di Sant'Elena",
    "year": "1770",
    "country": "France",
    "location": "Louvre",
    "kind": "museum",
    "attribution": "generally accepted",
    "status": "present",
    "medium": "Oil on canvas",
    "dimensions": "66 × 101 cm",
    "genre": "Veduta, marine art",
    "image": "https://commons.wikimedia.org/wiki/Special:FilePath/Guardi%20-%20Le%20D%C3%A9part%20du%20Bucentaure%20vers%20le%20Lido%20de%20Venise%2C%20le%20jour%20de%20l%27Ascension%2C%20vers%201770%20-%201780%2C%20INV%2020009.jpg?width=420",
    "wikipedia_en": "https://en.wikipedia.org/wiki/The_Doge_on_the_Bucintoro_near_the_Riva_di_Sant%27Elena",
    "wikipedia_it": "https://it.wikipedia.org/wiki/Partenza_del_Bucintoro_per_san_Nicol%C3%B2_di_Lido_il_giorno_dell%27Ascensione",
    "wikidata": "https://www.wikidata.org/wiki/Q23908",
    "creation_place": "Venice",
    "creation_lat": 45.4408,
    "creation_lon": 12.3155,
    "_source": {
     "source": "Wikidata",
     "url": "https://www.wikidata.org/wiki/Q23908",
     "retrieved_at": "2026-08-23"
    },
    "_overrides": {
     "creation": {
      "at": "2026-08-23",
      "source": "derived from start date + Caravaggio's documented itinerary (approximate)"
     }
    },
    "museum_id": "louvre",
    "city": "Paris",
    "qid": "Q23908",
    "wga_url": "https://www.wga.hu/html/g/guardi/francesc/2/guard217.html"
   }
  },
  {
   "type": "Feature",
   "geometry": {
    "type": "Point",
    "coordinates": [
     16.3616,
     48.20388
    ]
   },
   "properties": {
    "painter": "Francesco Guardi",
    "title": "Miracle of a dominican Saint (Gonzalo di Amarante?)",
    "year": "1763-1765",
    "city": "Vienna",
    "country": "Austria",
    "location": "Kunsthistorisches Museum",
    "kind": "museum",
    "attribution": "generally accepted",
    "status": "present",
    "medium": "Oil on canvas",
    "dimensions": "122 × 172 cm",
    "image": "https://commons.wikimedia.org/wiki/Special:FilePath/Francesco%20Guardi%2C%20Kunsthistorisches%20Museum%20Wien%2C%20Gem%C3%A4ldegalerie%20-%20Wunder%20eines%20Dominikanerheiligen%20%28Hl.%20Gonzalo%20di%20Amarante%29%20-%20GG%206811%20-%20Kunsthistorisches%20Museum.jpg?width=420",
    "wikipedia_en": "https://en.wikipedia.org/wiki/Miracle_of_a_Dominican_Saint",
    "wikipedia_it": "https://it.wikipedia.org/wiki/Miracolo_di_un_santo_domenicano",
    "wikidata": "https://www.wikidata.org/wiki/Q25442921",
    "creation_place": "Venice",
    "creation_lat": 45.4408,
    "creation_lon": 12.3155,
    "_source": {
     "source": "Wikidata",
     "url": "https://www.wikidata.org/wiki/Q25442921",
     "retrieved_at": "2026-08-23"
    },
    "_overrides": {
     "creation": {
      "at": "2026-08-23",
      "source": "derived from start date + Caravaggio's documented itinerary (approximate)"
     }
    },
    "museum_id": "kunsthistorisches-museum",
    "qid": "Q25442921"
   }
  },
  {
   "type": "Feature",
   "geometry": {
    "type": "Point",
    "coordinates": [
     30.3136,
     59.9406
    ]
   },
   "properties": {
    "painter": "Francesco Guardi",
    "title": "Landscape",
    "year": "1780",
    "city": "Saint Petersburg",
    "country": "Russia",
    "location": "Hermitage Museum",
    "kind": "museum",
    "attribution": "attributed",
    "status": "present",
    "medium": "Oil on canvas",
    "dimensions": "120 × 156 cm",
    "genre": "landscape painting",
    "image": "https://commons.wikimedia.org/wiki/Special:FilePath/Francesco%20Guardi%20-%20Landscape%20-%20WGA10876.jpg?width=420",
    "wikidata": "https://www.wikidata.org/wiki/Q27970726",
    "creation_place": "Venice",
    "creation_lat": 45.4408,
    "creation_lon": 12.3155,
    "_source": {
     "source": "Wikidata",
     "url": "https://www.wikidata.org/wiki/Q27970726",
     "retrieved_at": "2026-08-23"
    },
    "_overrides": {
     "creation": {
      "at": "2026-08-23",
      "source": "derived from start date + Caravaggio's documented itinerary (approximate)"
     }
    },
    "museum_id": "hermitage-museum",
    "qid": "Q27970726",
    "wga_url": "https://www.wga.hu/html/g/guardi/francesc/4/guard401.html"
   }
  },
  {
   "type": "Feature",
   "geometry": {
    "type": "Point",
    "coordinates": [
     11.57,
     48.14833
    ]
   },
   "properties": {
    "painter": "Francesco Guardi",
    "title": "Venetian Gala Concert",
    "year": "1782",
    "city": "Munich",
    "country": "Germany",
    "location": "Alte Pinakothek",
    "kind": "museum",
    "attribution": "generally accepted",
    "status": "present",
    "medium": "Oil on canvas",
    "dimensions": "67.7 × 90.5 cm",
    "image": "https://commons.wikimedia.org/wiki/Special:FilePath/Francesco%20Guardi%20052.jpg?width=420",
    "wikipedia_it": "https://it.wikipedia.org/wiki/Concerto_di_dame_al_Casino_dei_Filarmonici",
    "wikidata": "https://www.wikidata.org/wiki/Q29474644",
    "creation_place": "Venice",
    "creation_lat": 45.4408,
    "creation_lon": 12.3155,
    "_source": {
     "source": "Wikidata",
     "url": "https://www.wikidata.org/wiki/Q29474644",
     "retrieved_at": "2026-08-23"
    },
    "_overrides": {
     "creation": {
      "at": "2026-08-23",
      "source": "derived from start date + Caravaggio's documented itinerary (approximate)"
     }
    },
    "museum_id": "alte-pinakothek",
    "qid": "Q29474644",
    "wga_url": "https://www.wga.hu/html/g/guardi/francesc/4/guard402.html"
   }
  }
 ]
}