{
 "type": "FeatureCollection",
 "_note": "Generated by scripts/build.py from Wikidata. Do not edit by hand — put manual fixes in the painter's overlay (data/overlay/*.json). Each feature carries _source (scraped base or manual addition) and, when edited, _overrides.",
 "features": [
  {
   "type": "Feature",
   "geometry": {
    "type": "Point",
    "coordinates": [
     9.171111,
     45.465833
    ]
   },
   "properties": {
    "painter": "Leonardo da Vinci",
    "title": "Three lunettes above the Last Supper",
    "city": "Milan",
    "country": "Italy",
    "location": "Santa Maria delle Grazie",
    "kind": "church",
    "attribution": "generally accepted",
    "notable": false,
    "status": "present",
    "image": "https://commons.wikimedia.org/wiki/Special:FilePath/Three%20lunettes%20above%20the%20Last%20Supper.jpg?width=420",
    "wikidata": "https://www.wikidata.org/wiki/Q105338178",
    "_source": {
     "source": "Wikidata",
     "url": "https://www.wikidata.org/wiki/Q105338178",
     "retrieved_at": "2026-08-18"
    }
   }
  },
  {
   "type": "Feature",
   "geometry": {
    "type": "Point",
    "coordinates": [
     11.255278,
     43.768333
    ]
   },
   "properties": {
    "painter": "Leonardo da Vinci",
    "title": "The Baptism of Christ",
    "year": "1470",
    "city": "Florence",
    "country": "Italy",
    "location": "Uffizi Gallery",
    "kind": "museum",
    "attribution": "generally accepted",
    "notable": true,
    "status": "present",
    "medium": "Oil on panel",
    "dimensions": "177 × 151 cm",
    "genre": "religious art",
    "image": "https://commons.wikimedia.org/wiki/Special:FilePath/Verrocchio%20and%20Leonardo%2C%20Baptism%20of%20Christ%2C%20c1470-75%2C%20Uffizi.jpg?width=420",
    "wikipedia_es": "https://es.wikipedia.org/wiki/Bautismo_de_Cristo_(Verrocchio)",
    "wikipedia_en": "https://en.wikipedia.org/wiki/The_Baptism_of_Christ_(Verrocchio_and_Leonardo)",
    "wikipedia_it": "https://it.wikipedia.org/wiki/Battesimo_di_Cristo_(Verrocchio_e_Leonardo)",
    "wikidata": "https://www.wikidata.org/wiki/Q1059211",
    "creation_place": "Florence",
    "creation_lat": 43.7696,
    "creation_lon": 11.2558,
    "_source": {
     "source": "Wikidata",
     "url": "https://www.wikidata.org/wiki/Q1059211",
     "retrieved_at": "2026-08-18"
    },
    "_overrides": {
     "creation": {
      "at": "2026-08-18",
      "source": "derived from start date + Caravaggio's documented itinerary (approximate)"
     }
    }
   }
  },
  {
   "type": "Feature",
   "geometry": {
    "type": "Point",
    "coordinates": [
     30.313611,
     59.940556
    ]
   },
   "properties": {
    "painter": "Leonardo da Vinci",
    "title": "Benois Madonna",
    "year": "1480",
    "city": "Saint Petersburg",
    "country": "Russia",
    "location": "Hermitage Museum",
    "kind": "museum",
    "attribution": "generally accepted",
    "notable": true,
    "status": "present",
    "medium": "Oil on panel",
    "dimensions": "49.5 × 33 cm",
    "genre": "religious art",
    "image": "https://commons.wikimedia.org/wiki/Special:FilePath/Leonardo%2C%20Madonna%20Benois.JPG?width=420",
    "wikipedia_es": "https://es.wikipedia.org/wiki/Madona_Benois",
    "wikipedia_en": "https://en.wikipedia.org/wiki/Benois_Madonna",
    "wikipedia_it": "https://it.wikipedia.org/wiki/Madonna_Benois",
    "wikidata": "https://www.wikidata.org/wiki/Q1142058",
    "creation_place": "Florence",
    "creation_lat": 43.7696,
    "creation_lon": 11.2558,
    "_source": {
     "source": "Wikidata",
     "url": "https://www.wikidata.org/wiki/Q1142058",
     "retrieved_at": "2026-08-18"
    },
    "_overrides": {
     "creation": {
      "at": "2026-08-18",
      "source": "derived from start date + Caravaggio's documented itinerary (approximate)"
     }
    }
   }
  },
  {
   "type": "Feature",
   "geometry": {
    "type": "Point",
    "coordinates": [
     2.335833,
     48.861111
    ]
   },
   "properties": {
    "painter": "Leonardo da Vinci",
    "title": "Virgin of the Rocks",
    "year": "1482",
    "country": "France",
    "location": "Department of Paintings of the Louvre",
    "kind": "museum",
    "attribution": "generally accepted",
    "notable": true,
    "status": "present",
    "medium": "Oil on panel",
    "dimensions": "199 × 122 cm",
    "genre": "religious art",
    "image": "https://commons.wikimedia.org/wiki/Special:FilePath/Leonardo%20Da%20Vinci%20-%20Vergine%20delle%20Rocce%20%28Louvre%29.jpg?width=420",
    "wikipedia_it": "https://it.wikipedia.org/wiki/Vergine_delle_Rocce_(Parigi)",
    "wikidata": "https://www.wikidata.org/wiki/Q11935346",
    "creation_place": "Milan",
    "creation_lat": 45.4642,
    "creation_lon": 9.19,
    "_source": {
     "source": "Wikidata",
     "url": "https://www.wikidata.org/wiki/Q11935346",
     "retrieved_at": "2026-08-18"
    },
    "_overrides": {
     "creation": {
      "at": "2026-08-18",
      "source": "derived from start date + Caravaggio's documented itinerary (approximate)"
     }
    }
   }
  },
  {
   "type": "Feature",
   "geometry": {
    "type": "Point",
    "coordinates": [
     -1.26056,
     51.75556
    ]
   },
   "properties": {
    "painter": "Leonardo da Vinci",
    "title": "Saint John the Baptist",
    "city": "Oxford",
    "country": "United Kingdom",
    "location": "Ashmolean Museum",
    "kind": "museum",
    "attribution": "generally accepted",
    "notable": false,
    "status": "present",
    "medium": "Oil on panel",
    "dimensions": "75 × 53.4 cm",
    "genre": "religious art",
    "image": "https://commons.wikimedia.org/wiki/Special:FilePath/Leonardo%20da%20Vinci%20%281452-1519%29%20%28studio%20of%29%20-%20St%20John%20the%20Baptist%20-%20WA1937.102%20-%20Ashmolean%20Museum.jpg?width=420",
    "wikidata": "https://www.wikidata.org/wiki/Q119499276",
    "_source": {
     "source": "Wikidata",
     "url": "https://www.wikidata.org/wiki/Q119499276",
     "retrieved_at": "2026-08-18"
    }
   }
  },
  {
   "type": "Feature",
   "geometry": {
    "type": "Point",
    "coordinates": [
     -1.25585,
     51.7502
    ]
   },
   "properties": {
    "painter": "Leonardo da Vinci",
    "title": "The Virgin with the Child, with Cherries and a Cherry Tree in the Background",
    "city": "Oxford",
    "country": "United Kingdom",
    "location": "Christ Church",
    "kind": "museum",
    "attribution": "generally accepted",
    "notable": false,
    "status": "present",
    "medium": "Oil on panel",
    "dimensions": "86 × 65.9 cm",
    "image": "https://commons.wikimedia.org/wiki/Special:FilePath/Leonardo%20da%20Vinci%20%281452-1519%29%20%28school%20of%29%20-%20The%20Virgin%20with%20the%20Child%2C%20with%20Cherries%20and%20a%20Cherry%20Tree%20in%20the%20Background%20-%20JBS%2054%20-%20Christ%20Church.jpg?width=420",
    "wikidata": "https://www.wikidata.org/wiki/Q119840740",
    "_source": {
     "source": "Wikidata",
     "url": "https://www.wikidata.org/wiki/Q119840740",
     "retrieved_at": "2026-08-18"
    }
   }
  },
  {
   "type": "Feature",
   "geometry": {
    "type": "Point",
    "coordinates": [
     -1.252018,
     51.755982
    ]
   },
   "properties": {
    "painter": "Leonardo da Vinci",
    "title": "The Last Supper",
    "city": "Oxford",
    "country": "United Kingdom",
    "location": "Harris Manchester College",
    "kind": "museum",
    "attribution": "generally accepted",
    "notable": false,
    "status": "present",
    "medium": "Oil on canvas",
    "dimensions": "61 × 138.5 cm",
    "genre": "religious art",
    "image": "https://commons.wikimedia.org/wiki/Special:FilePath/Leonardo%20da%20Vinci%20%281452-1519%29%20%28copy%20after%29%20-%20The%20Last%20Supper%20-%20PCF31%20-%20Harris%20Manchester%20College.jpg?width=420",
    "wikidata": "https://www.wikidata.org/wiki/Q119891464",
    "_source": {
     "source": "Wikidata",
     "url": "https://www.wikidata.org/wiki/Q119891464",
     "retrieved_at": "2026-08-18"
    }
   }
  },
  {
   "type": "Feature",
   "geometry": {
    "type": "Point",
    "coordinates": [
     11.255278,
     43.768333
    ]
   },
   "properties": {
    "painter": "Leonardo da Vinci",
    "title": "Annunciation",
    "year": "1472",
    "city": "Florence",
    "country": "Italy",
    "location": "Uffizi Gallery",
    "kind": "museum",
    "attribution": "generally accepted",
    "notable": true,
    "status": "present",
    "medium": "Oil on panel",
    "dimensions": "90 × 222 cm",
    "genre": "religious art",
    "image": "https://commons.wikimedia.org/wiki/Special:FilePath/Annunciation%20%28Leonardo%29%20%28cropped%29.jpg?width=420",
    "wikipedia_es": "https://es.wikipedia.org/wiki/Anunciaci%C3%B3n_(Leonardo,_Uffizi)",
    "wikipedia_en": "https://en.wikipedia.org/wiki/Annunciation_(Leonardo)",
    "wikipedia_it": "https://it.wikipedia.org/wiki/Annunciazione_(Leonardo)",
    "wikidata": "https://www.wikidata.org/wiki/Q1217213",
    "creation_place": "Florence",
    "creation_lat": 43.7696,
    "creation_lon": 11.2558,
    "_source": {
     "source": "Wikidata",
     "url": "https://www.wikidata.org/wiki/Q1217213",
     "retrieved_at": "2026-08-18"
    },
    "_overrides": {
     "creation": {
      "at": "2026-08-18",
      "source": "derived from start date + Caravaggio's documented itinerary (approximate)"
     }
    }
   }
  },
  {
   "type": "Feature",
   "geometry": {
    "type": "Point",
    "coordinates": [
     -118.443662,
     34.059468
    ]
   },
   "properties": {
    "painter": "Leonardo da Vinci",
    "title": "Madonna and Child with Saint Anne in a Landscape",
    "year": "1508",
    "city": "Los Angeles",
    "country": "United States",
    "location": "Hammer Museum",
    "kind": "museum",
    "attribution": "generally accepted",
    "notable": false,
    "status": "present",
    "medium": "Oil on panel",
    "genre": "religious art",
    "image": "https://commons.wikimedia.org/wiki/Special:FilePath/Madonna%20and%20Child%20with%20Saint%20Anne%20in%20a%20Landscape%2C%20Worshop%20of%20Leonardo%20da%20Vinci%2C%20Possibly%20by%20Gian%20Giacomo%20Caprotti%20%28Getty%20Center%29%20-%20no%20frame.jpg?width=420",
    "wikidata": "https://www.wikidata.org/wiki/Q123838188",
    "creation_place": "Florence",
    "creation_lat": 43.7696,
    "creation_lon": 11.2558,
    "_source": {
     "source": "Wikidata",
     "url": "https://www.wikidata.org/wiki/Q123838188",
     "retrieved_at": "2026-08-18"
    },
    "_overrides": {
     "creation": {
      "at": "2026-08-18",
      "source": "derived from start date + Caravaggio's documented itinerary (approximate)"
     }
    }
   }
  },
  {
   "type": "Feature",
   "geometry": {
    "type": "Point",
    "coordinates": [
     2.3354,
     48.8601
    ]
   },
   "properties": {
    "painter": "Leonardo da Vinci",
    "title": "Mona Lisa",
    "year": "1503",
    "city": "Paris",
    "country": "France",
    "location": "Salle des États, Louvre",
    "kind": "museum",
    "attribution": "generally accepted",
    "notable": true,
    "status": "present",
    "medium": "Oil paint, poplar panel",
    "dimensions": "79.4 × 53.4 cm",
    "genre": "portrait",
    "image": "https://commons.wikimedia.org/wiki/Special:FilePath/Mona%20Lisa%2C%20by%20Leonardo%20da%20Vinci%2C%20from%20C2RMF%20natural%20color.jpg?width=420",
    "wikipedia_es": "https://es.wikipedia.org/wiki/La_Gioconda",
    "wikipedia_en": "https://en.wikipedia.org/wiki/Mona_Lisa",
    "wikipedia_it": "https://it.wikipedia.org/wiki/Gioconda",
    "wikidata": "https://www.wikidata.org/wiki/Q12418",
    "creation_place": "Florence",
    "creation_lat": 43.7696,
    "creation_lon": 11.2558,
    "_source": {
     "source": "Wikidata",
     "url": "https://www.wikidata.org/wiki/Q12418",
     "retrieved_at": "2026-08-18"
    },
    "_overrides": {
     "creation": {
      "at": "2026-08-18",
      "source": "derived from start date + Caravaggio's documented itinerary (approximate)"
     }
    }
   }
  },
  {
   "type": "Feature",
   "geometry": {
    "type": "Point",
    "coordinates": [
     -77.02,
     38.891389
    ]
   },
   "properties": {
    "painter": "Leonardo da Vinci",
    "title": "Ginevra de' Benci",
    "year": "1476",
    "city": "Washington, D.C.",
    "country": "United States",
    "location": "National Gallery of Art",
    "kind": "museum",
    "attribution": "generally accepted",
    "notable": true,
    "status": "present",
    "medium": "Oil on panel",
    "dimensions": "38.8 × 36.7 cm",
    "genre": "portrait",
    "image": "https://commons.wikimedia.org/wiki/Special:FilePath/Ginevra%20de%27%20Benci%20-%20National%20Gallery%20of%20Art.jpg?width=420",
    "wikipedia_es": "https://es.wikipedia.org/wiki/Retrato_de_Ginebra_de_Benci",
    "wikipedia_en": "https://en.wikipedia.org/wiki/Ginevra_de%27_Benci",
    "wikipedia_it": "https://it.wikipedia.org/wiki/Ritratto_di_Ginevra_de%27_Benci",
    "wikidata": "https://www.wikidata.org/wiki/Q1267893",
    "creation_place": "Florence",
    "creation_lat": 43.7696,
    "creation_lon": 11.2558,
    "_source": {
     "source": "Wikidata",
     "url": "https://www.wikidata.org/wiki/Q1267893",
     "retrieved_at": "2026-08-18"
    },
    "_overrides": {
     "creation": {
      "at": "2026-08-18",
      "source": "derived from start date + Caravaggio's documented itinerary (approximate)"
     }
    }
   }
  },
  {
   "type": "Feature",
   "geometry": {
    "type": "Point",
    "coordinates": [
     9.171111,
     45.465833
    ]
   },
   "properties": {
    "painter": "Leonardo da Vinci",
    "title": "The Last Supper",
    "year": "1490",
    "city": "Milan",
    "country": "Italy",
    "location": "Santa Maria delle Grazie",
    "kind": "church",
    "attribution": "generally accepted",
    "notable": true,
    "status": "present",
    "medium": "Gesso, tempera",
    "dimensions": "700 × 880 cm",
    "genre": "religious art",
    "image": "https://commons.wikimedia.org/wiki/Special:FilePath/Leonardo%20da%20Vinci%20%281452-1519%29%20-%20The%20Last%20Supper%20%281495-1498%29.jpg?width=420",
    "wikipedia_es": "https://es.wikipedia.org/wiki/La_%C3%BAltima_cena_(Leonardo_da_Vinci)",
    "wikipedia_en": "https://en.wikipedia.org/wiki/The_Last_Supper_(Leonardo)",
    "wikipedia_it": "https://it.wikipedia.org/wiki/Ultima_Cena_(Leonardo)",
    "wikidata": "https://www.wikidata.org/wiki/Q128910",
    "creation_place": "Milan",
    "creation_lat": 45.4642,
    "creation_lon": 9.19,
    "_source": {
     "source": "Wikidata",
     "url": "https://www.wikidata.org/wiki/Q128910",
     "retrieved_at": "2026-08-18"
    },
    "_overrides": {
     "creation": {
      "at": "2026-08-18",
      "source": "derived from start date + Caravaggio's documented itinerary (approximate)"
     }
    }
   }
  },
  {
   "type": "Feature",
   "geometry": {
    "type": "Point",
    "coordinates": [
     9.185788,
     45.463479
    ]
   },
   "properties": {
    "painter": "Leonardo da Vinci",
    "title": "Codex Atlanticus (F0033)",
    "year": "1485",
    "city": "Milan",
    "country": "Italy",
    "location": "Biblioteca Ambrosiana",
    "kind": "museum",
    "attribution": "generally accepted",
    "notable": false,
    "status": "present",
    "image": "https://commons.wikimedia.org/wiki/Special:FilePath/Leonardo%20da%20Vinci%20-%20Ambrosiana-Codice-Atlantico-Codex-Atlanticus-f-33-recto.jpg?width=420",
    "wikidata": "https://www.wikidata.org/wiki/Q131414918",
    "creation_place": "Milan",
    "creation_lat": 45.4642,
    "creation_lon": 9.19,
    "_source": {
     "source": "Wikidata",
     "url": "https://www.wikidata.org/wiki/Q131414918",
     "retrieved_at": "2026-08-18"
    },
    "_overrides": {
     "creation": {
      "at": "2026-08-18",
      "source": "derived from start date + Caravaggio's documented itinerary (approximate)"
     }
    }
   }
  },
  {
   "type": "Feature",
   "geometry": {
    "type": "Point",
    "coordinates": [
     30.313611,
     59.940556
    ]
   },
   "properties": {
    "painter": "Leonardo da Vinci",
    "title": "Madonna Litta",
    "year": "1490",
    "city": "Saint Petersburg",
    "country": "Russia",
    "location": "Hermitage Museum",
    "kind": "museum",
    "attribution": "generally accepted",
    "notable": true,
    "status": "present",
    "medium": "Panel",
    "dimensions": "42 × 33 cm",
    "genre": "religious art",
    "image": "https://commons.wikimedia.org/wiki/Special:FilePath/Leonardo%20da%20Vinci%20attributed%20-%20Madonna%20Litta.jpg?width=420",
    "wikipedia_es": "https://es.wikipedia.org/wiki/Madonna_Litta",
    "wikipedia_en": "https://en.wikipedia.org/wiki/Madonna_Litta",
    "wikipedia_it": "https://it.wikipedia.org/wiki/Madonna_Litta",
    "wikidata": "https://www.wikidata.org/wiki/Q1327676",
    "creation_place": "Milan",
    "creation_lat": 45.4642,
    "creation_lon": 9.19,
    "_source": {
     "source": "Wikidata",
     "url": "https://www.wikidata.org/wiki/Q1327676",
     "retrieved_at": "2026-08-18"
    },
    "_overrides": {
     "creation": {
      "at": "2026-08-18",
      "source": "derived from start date + Caravaggio's documented itinerary (approximate)"
     }
    }
   }
  },
  {
   "type": "Feature",
   "geometry": {
    "type": "Point",
    "coordinates": [
     11.255278,
     43.768333
    ]
   },
   "properties": {
    "painter": "Leonardo da Vinci",
    "title": "Adoration of the Magi",
    "year": "1482",
    "city": "Florence",
    "country": "Italy",
    "location": "Uffizi Gallery",
    "kind": "museum",
    "attribution": "generally accepted",
    "notable": true,
    "status": "present",
    "medium": "Oil on panel",
    "dimensions": "243 × 246 cm",
    "genre": "religious art",
    "image": "https://commons.wikimedia.org/wiki/Special:FilePath/Leonardo%20da%20Vinci%2C%20Adoration%2C%20c1481%2C%20Uffizi.jpg?width=420",
    "wikipedia_es": "https://es.wikipedia.org/wiki/Adoraci%C3%B3n_de_los_Magos_(Leonardo)",
    "wikipedia_en": "https://en.wikipedia.org/wiki/Adoration_of_the_Magi_(Leonardo)",
    "wikipedia_it": "https://it.wikipedia.org/wiki/Adorazione_dei_Magi_(Leonardo)",
    "wikidata": "https://www.wikidata.org/wiki/Q1638622",
    "creation_place": "Milan",
    "creation_lat": 45.4642,
    "creation_lon": 9.19,
    "_source": {
     "source": "Wikidata",
     "url": "https://www.wikidata.org/wiki/Q1638622",
     "retrieved_at": "2026-08-18"
    },
    "_overrides": {
     "creation": {
      "at": "2026-08-18",
      "source": "derived from start date + Caravaggio's documented itinerary (approximate)"
     }
    }
   }
  },
  {
   "type": "Feature",
   "geometry": {
    "type": "Point",
    "coordinates": [
     54.40001,
     24.533
    ]
   },
   "properties": {
    "painter": "Leonardo da Vinci",
    "title": "Salvator Mundi",
    "year": "1500",
    "city": "Abu Dhabi",
    "country": "United Arab Emirates",
    "location": "Louvre Abu Dhabi",
    "kind": "museum",
    "attribution": "generally accepted",
    "notable": true,
    "status": "present",
    "medium": "Q2453469, oil paint, walnut panel",
    "dimensions": "65.7 × 45.4 cm",
    "genre": "religious art",
    "image": "https://commons.wikimedia.org/wiki/Special:FilePath/Leonardo%20da%20Vinci%2C%20Salvator%20Mundi%2C%20c.1500%2C%20oil%20on%20walnut%2C%2045.4%20%C3%97%2065.6%20cm.jpg?width=420",
    "wikipedia_es": "https://es.wikipedia.org/wiki/Salvator_Mundi_(Leonardo_da_Vinci)",
    "wikipedia_en": "https://en.wikipedia.org/wiki/Salvator_Mundi_(painting)",
    "wikipedia_it": "https://it.wikipedia.org/wiki/Salvator_mundi_(Leonardo)",
    "wikidata": "https://www.wikidata.org/wiki/Q1892745",
    "creation_place": "Florence",
    "creation_lat": 43.7696,
    "creation_lon": 11.2558,
    "_source": {
     "source": "Wikidata",
     "url": "https://www.wikidata.org/wiki/Q1892745",
     "retrieved_at": "2026-08-18"
    },
    "_overrides": {
     "creation": {
      "at": "2026-08-18",
      "source": "derived from start date + Caravaggio's documented itinerary (approximate)"
     }
    }
   }
  },
  {
   "type": "Feature",
   "geometry": {
    "type": "Point",
    "coordinates": [
     -77.02,
     38.891389
    ]
   },
   "properties": {
    "painter": "Leonardo da Vinci",
    "title": "Wreath of Laurel, Palm, and Juniper with a Scroll inscribed Virtutem Forma Decorat [reverse]",
    "year": "1474",
    "city": "Washington, D.C.",
    "country": "United States",
    "location": "National Gallery of Art",
    "kind": "museum",
    "attribution": "generally accepted",
    "notable": false,
    "status": "present",
    "medium": "Oil on panel",
    "dimensions": "42.7 × 37 cm",
    "image": "https://commons.wikimedia.org/wiki/Special:FilePath/Leonardo%20da%20Vinci%20-%20Wreath%20of%20Laurel%2C%20Palm%2C%20and%20Juniper%20with%20a%20Scroll%20inscribed%20Virtutem%20Forum%20Decorat%20%28reverse%29%20-%20Google%20Art%20Project.jpg?width=420",
    "wikidata": "https://www.wikidata.org/wiki/Q20174114",
    "creation_place": "Florence",
    "creation_lat": 43.7696,
    "creation_lon": 11.2558,
    "_source": {
     "source": "Wikidata",
     "url": "https://www.wikidata.org/wiki/Q20174114",
     "retrieved_at": "2026-08-18"
    },
    "_overrides": {
     "creation": {
      "at": "2026-08-18",
      "source": "derived from start date + Caravaggio's documented itinerary (approximate)"
     }
    }
   }
  },
  {
   "type": "Feature",
   "geometry": {
    "type": "Point",
    "coordinates": [
     11.256379,
     43.768997
    ]
   },
   "properties": {
    "painter": "Leonardo da Vinci",
    "title": "The Battle of Anghiari",
    "year": "1503",
    "city": "Florence",
    "country": "Italy",
    "location": "Gabinetto dei disegni e delle stampe",
    "kind": "museum",
    "attribution": "generally accepted",
    "notable": true,
    "status": "present",
    "medium": "Fresco",
    "genre": "battle painting, history painting",
    "image": "https://commons.wikimedia.org/wiki/Special:FilePath/Peter%20Paul%20Ruben%27s%20copy%20of%20the%20lost%20Battle%20of%20Anghiari.jpg?width=420",
    "wikipedia_es": "https://es.wikipedia.org/wiki/La_batalla_de_Anghiari_(Leonardo)",
    "wikipedia_en": "https://en.wikipedia.org/wiki/The_Battle_of_Anghiari_(Leonardo)",
    "wikipedia_it": "https://it.wikipedia.org/wiki/Battaglia_di_Anghiari_(Leonardo)",
    "wikidata": "https://www.wikidata.org/wiki/Q2045726",
    "creation_place": "Florence",
    "creation_lat": 43.7696,
    "creation_lon": 11.2558,
    "_source": {
     "source": "Wikidata",
     "url": "https://www.wikidata.org/wiki/Q2045726",
     "retrieved_at": "2026-08-18"
    },
    "_overrides": {
     "creation": {
      "at": "2026-08-18",
      "source": "derived from start date + Caravaggio's documented itinerary (approximate)"
     }
    }
   }
  },
  {
   "type": "Feature",
   "geometry": {
    "type": "Point",
    "coordinates": [
     4.473341,
     51.914215
    ]
   },
   "properties": {
    "painter": "Leonardo da Vinci",
    "title": "Leda and the Swan",
    "year": "1510",
    "city": "Rotterdam",
    "country": "Netherlands",
    "location": "Museum Boijmans Van Beuningen",
    "kind": "museum",
    "attribution": "generally accepted",
    "notable": true,
    "status": "present",
    "medium": "Oil on panel",
    "genre": "mythological painting, nude",
    "image": "https://commons.wikimedia.org/wiki/Special:FilePath/Study%20for%20the%20Kneeling%20Leda.jpg?width=420",
    "wikipedia_es": "https://es.wikipedia.org/wiki/Leda_y_el_cisne_(Leonardo)",
    "wikipedia_en": "https://en.wikipedia.org/wiki/Leda_and_the_Swan_(Leonardo)",
    "wikipedia_it": "https://it.wikipedia.org/wiki/Leda_col_cigno",
    "wikidata": "https://www.wikidata.org/wiki/Q2308934",
    "creation_place": "Milan",
    "creation_lat": 45.4642,
    "creation_lon": 9.19,
    "_source": {
     "source": "Wikidata",
     "url": "https://www.wikidata.org/wiki/Q2308934",
     "retrieved_at": "2026-08-18"
    },
    "_overrides": {
     "creation": {
      "at": "2026-08-18",
      "source": "derived from start date + Caravaggio's documented itinerary (approximate)"
     }
    }
   }
  },
  {
   "type": "Feature",
   "geometry": {
    "type": "Point",
    "coordinates": [
     9.185952,
     45.46378
    ]
   },
   "properties": {
    "painter": "Leonardo da Vinci",
    "title": "Portrait of a Musician",
    "year": "1485",
    "city": "Milan",
    "country": "Italy",
    "location": "Pinacoteca Ambrosiana",
    "kind": "museum",
    "attribution": "generally accepted",
    "notable": true,
    "status": "present",
    "medium": "Oil on panel",
    "dimensions": "43 × 31 cm",
    "genre": "portrait",
    "image": "https://commons.wikimedia.org/wiki/Special:FilePath/Leonardo%20da%20Vinci%20-%20Portrait%20of%20a%20Musician%20-%20Pinacoteca%20Ambrosiana.jpg?width=420",
    "wikipedia_es": "https://es.wikipedia.org/wiki/Retrato_de_un_m%C3%BAsico",
    "wikipedia_en": "https://en.wikipedia.org/wiki/Portrait_of_a_Musician",
    "wikipedia_it": "https://it.wikipedia.org/wiki/Ritratto_di_musico",
    "wikidata": "https://www.wikidata.org/wiki/Q2338404",
    "creation_place": "Milan",
    "creation_lat": 45.4642,
    "creation_lon": 9.19,
    "_source": {
     "source": "Wikidata",
     "url": "https://www.wikidata.org/wiki/Q2338404",
     "retrieved_at": "2026-08-18"
    },
    "_overrides": {
     "creation": {
      "at": "2026-08-18",
      "source": "derived from start date + Caravaggio's documented itinerary (approximate)"
     }
    }
   }
  },
  {
   "type": "Feature",
   "geometry": {
    "type": "Point",
    "coordinates": [
     11.255278,
     43.768333
    ]
   },
   "properties": {
    "painter": "Leonardo da Vinci",
    "title": "Tavola Doria",
    "year": "1503",
    "city": "Florence",
    "country": "Italy",
    "location": "Uffizi Gallery",
    "kind": "museum",
    "attribution": "generally accepted",
    "notable": true,
    "status": "present",
    "medium": "Oil paint, poplar panel",
    "dimensions": "86 × 115 cm",
    "genre": "history painting",
    "image": "https://commons.wikimedia.org/wiki/Special:FilePath/La%20Battaglia%20di%20Anghiari%20di%20Leonardo.jpg?width=420",
    "wikipedia_es": "https://es.wikipedia.org/wiki/Tavola_Doria",
    "wikipedia_en": "https://en.wikipedia.org/wiki/Tavola_Doria",
    "wikipedia_it": "https://it.wikipedia.org/wiki/Tavola_Doria",
    "wikidata": "https://www.wikidata.org/wiki/Q2397593",
    "creation_place": "Florence",
    "creation_lat": 43.7696,
    "creation_lon": 11.2558,
    "_source": {
     "source": "Wikidata",
     "url": "https://www.wikidata.org/wiki/Q2397593",
     "retrieved_at": "2026-08-18"
    },
    "_overrides": {
     "creation": {
      "at": "2026-08-18",
      "source": "derived from start date + Caravaggio's documented itinerary (approximate)"
     }
    }
   }
  },
  {
   "type": "Feature",
   "geometry": {
    "type": "Point",
    "coordinates": [
     -3.808705,
     55.273651
    ]
   },
   "properties": {
    "painter": "Leonardo da Vinci",
    "title": "Madonna of the Yarnwinder",
    "year": "1501",
    "city": "Dumfries and Galloway",
    "country": "United Kingdom",
    "location": "Drumlanrig Castle",
    "kind": "museum",
    "attribution": "generally accepted",
    "notable": false,
    "status": "present",
    "medium": "Oil on panel",
    "dimensions": "48.3 × 36.9 cm",
    "genre": "religious art",
    "image": "https://commons.wikimedia.org/wiki/Special:FilePath/Leonardo%20da%20Vinci%2C%20Madonna%20of%20the%20Yarnwinder%2C%20Buccleuch%20version.jpg?width=420",
    "wikidata": "https://www.wikidata.org/wiki/Q27970282",
    "creation_place": "Florence",
    "creation_lat": 43.7696,
    "creation_lon": 11.2558,
    "_source": {
     "source": "Wikidata",
     "url": "https://www.wikidata.org/wiki/Q27970282",
     "retrieved_at": "2026-08-18"
    },
    "_overrides": {
     "creation": {
      "at": "2026-08-18",
      "source": "derived from start date + Caravaggio's documented itinerary (approximate)"
     }
    }
   }
  },
  {
   "type": "Feature",
   "geometry": {
    "type": "Point",
    "coordinates": [
     11.255278,
     43.768333
    ]
   },
   "properties": {
    "painter": "Leonardo da Vinci",
    "title": "Annunciation",
    "year": "1475-1478",
    "city": "Florence",
    "country": "Italy",
    "location": "Uffizi Gallery",
    "kind": "museum",
    "attribution": "generally accepted",
    "notable": true,
    "status": "present",
    "medium": "Oil on panel",
    "dimensions": "16 × 60 cm",
    "genre": "religious art",
    "image": "https://commons.wikimedia.org/wiki/Special:FilePath/L%27Annonciation%2C%20by%20Leonardo%20da%20Vinci%2C%20from%20C2RMF%20retouched.jpg?width=420",
    "wikipedia_es": "https://es.wikipedia.org/wiki/Anunciaci%C3%B3n_(Leonardo,_Louvre)",
    "wikipedia_it": "https://it.wikipedia.org/wiki/Annunciazione_598",
    "wikidata": "https://www.wikidata.org/wiki/Q3618186",
    "creation_place": "Florence",
    "creation_lat": 43.7696,
    "creation_lon": 11.2558,
    "_source": {
     "source": "Wikidata",
     "url": "https://www.wikidata.org/wiki/Q3618186",
     "retrieved_at": "2026-08-18"
    },
    "_overrides": {
     "creation": {
      "at": "2026-08-18",
      "source": "derived from start date + Caravaggio's documented itinerary (approximate)"
     }
    }
   }
  },
  {
   "type": "Feature",
   "geometry": {
    "type": "Point",
    "coordinates": [
     9.179693,
     45.471005
    ]
   },
   "properties": {
    "painter": "Leonardo da Vinci",
    "title": "Sala delle Asse",
    "year": "1498",
    "city": "Milan",
    "country": "Italy",
    "location": "Sforza Castle",
    "kind": "museum",
    "attribution": "generally accepted",
    "notable": true,
    "status": "present",
    "image": "https://commons.wikimedia.org/wiki/Special:FilePath/6.2%201980-1990%20Saporetti%20angolo%20sud.jpg?width=420",
    "wikipedia_en": "https://en.wikipedia.org/wiki/Sala_delle_Asse",
    "wikipedia_it": "https://it.wikipedia.org/wiki/Sala_delle_Asse",
    "wikidata": "https://www.wikidata.org/wiki/Q3800774",
    "creation_place": "Milan",
    "creation_lat": 45.4642,
    "creation_lon": 9.19,
    "_source": {
     "source": "Wikidata",
     "url": "https://www.wikidata.org/wiki/Q3800774",
     "retrieved_at": "2026-08-18"
    },
    "_overrides": {
     "creation": {
      "at": "2026-08-18",
      "source": "derived from start date + Caravaggio's documented itinerary (approximate)"
     }
    }
   }
  },
  {
   "type": "Feature",
   "geometry": {
    "type": "Point",
    "coordinates": [
     11.255278,
     43.768333
    ]
   },
   "properties": {
    "painter": "Leonardo da Vinci",
    "title": "Leda and the Swan",
    "year": "1505",
    "city": "Florence",
    "country": "Italy",
    "location": "Uffizi Gallery",
    "kind": "museum",
    "attribution": "generally accepted",
    "notable": true,
    "status": "present",
    "dimensions": "130 × 77.5 cm",
    "genre": "mythological painting",
    "image": "https://commons.wikimedia.org/wiki/Special:FilePath/Leda%20Melzi%20Uffizi.jpg?width=420",
    "wikipedia_es": "https://es.wikipedia.org/wiki/Leda_y_el_cisne_(Uffizi)",
    "wikipedia_en": "https://en.wikipedia.org/wiki/Leda_and_the_Swan_(Uffizi)",
    "wikipedia_it": "https://it.wikipedia.org/wiki/Leda_col_cigno_(Uffizi)",
    "wikidata": "https://www.wikidata.org/wiki/Q3829345",
    "creation_place": "Florence",
    "creation_lat": 43.7696,
    "creation_lon": 11.2558,
    "_source": {
     "source": "Wikidata",
     "url": "https://www.wikidata.org/wiki/Q3829345",
     "retrieved_at": "2026-08-18"
    },
    "_overrides": {
     "creation": {
      "at": "2026-08-18",
      "source": "derived from start date + Caravaggio's documented itinerary (approximate)"
     }
    }
   }
  },
  {
   "type": "Feature",
   "geometry": {
    "type": "Point",
    "coordinates": [
     9.171111,
     45.465833
    ]
   },
   "properties": {
    "painter": "Leonardo da Vinci",
    "title": "Sforza Family portraits in Santa Maria delle Grazie by Leonardo da Vinci",
    "year": "1497",
    "city": "Milan",
    "country": "Italy",
    "location": "Santa Maria delle Grazie",
    "kind": "church",
    "attribution": "generally accepted",
    "notable": true,
    "status": "present",
    "genre": "portrait",
    "image": "https://commons.wikimedia.org/wiki/Special:FilePath/Leonardo%20da%20vinci%2C%20Ritratti%20dei%20duchi%20di%20Milano%20con%20i%20figli.jpg?width=420",
    "wikipedia_it": "https://it.wikipedia.org/wiki/Ritratti_dei_duchi_di_Milano_con_i_figli",
    "wikidata": "https://www.wikidata.org/wiki/Q3937378",
    "creation_place": "Milan",
    "creation_lat": 45.4642,
    "creation_lon": 9.19,
    "_source": {
     "source": "Wikidata",
     "url": "https://www.wikidata.org/wiki/Q3937378",
     "retrieved_at": "2026-08-18"
    },
    "_overrides": {
     "creation": {
      "at": "2026-08-18",
      "source": "derived from start date + Caravaggio's documented itinerary (approximate)"
     }
    }
   }
  },
  {
   "type": "Feature",
   "geometry": {
    "type": "Point",
    "coordinates": [
     9.187815,
     45.471955
    ]
   },
   "properties": {
    "painter": "Leonardo da Vinci",
    "title": "Head of Christ",
    "year": "1494",
    "city": "Milan",
    "country": "Italy",
    "location": "Pinacoteca di Brera",
    "kind": "museum",
    "attribution": "generally accepted",
    "notable": true,
    "status": "present",
    "medium": "Red chalk",
    "dimensions": "40 × 32 cm",
    "genre": "religious art",
    "image": "https://commons.wikimedia.org/wiki/Special:FilePath/Leonardo%2C%20testa%20di%20cristo%2C%201494%20circa%2C%20pinacoteca%20di%20brera.jpg?width=420",
    "wikipedia_en": "https://en.wikipedia.org/wiki/Head_of_Christ_(Leonardo)",
    "wikipedia_it": "https://it.wikipedia.org/wiki/Testa_di_Cristo",
    "wikidata": "https://www.wikidata.org/wiki/Q3985169",
    "creation_place": "Milan",
    "creation_lat": 45.4642,
    "creation_lon": 9.19,
    "_source": {
     "source": "Wikidata",
     "url": "https://www.wikidata.org/wiki/Q3985169",
     "retrieved_at": "2026-08-18"
    },
    "_overrides": {
     "creation": {
      "at": "2026-08-18",
      "source": "derived from start date + Caravaggio's documented itinerary (approximate)"
     }
    }
   }
  },
  {
   "type": "Feature",
   "geometry": {
    "type": "Point",
    "coordinates": [
     -0.128333,
     51.508889
    ]
   },
   "properties": {
    "painter": "Leonardo da Vinci",
    "title": "Virgin of the Rocks",
    "year": "1494-1500",
    "city": "London",
    "country": "United Kingdom",
    "location": "National Gallery",
    "kind": "museum",
    "attribution": "generally accepted",
    "notable": true,
    "status": "present",
    "medium": "Oil paint, poplar panel",
    "dimensions": "189.5 × 120 cm",
    "genre": "religious art",
    "image": "https://commons.wikimedia.org/wiki/Special:FilePath/Leonardo%20da%20Vinci%20Virgin%20of%20the%20Rocks%20%28National%20Gallery%20London%29.jpg?width=420",
    "wikipedia_it": "https://it.wikipedia.org/wiki/Vergine_delle_Rocce_(Londra)",
    "wikidata": "https://www.wikidata.org/wiki/Q4009972",
    "creation_place": "Milan",
    "creation_lat": 45.4642,
    "creation_lon": 9.19,
    "_source": {
     "source": "Wikidata",
     "url": "https://www.wikidata.org/wiki/Q4009972",
     "retrieved_at": "2026-08-18"
    },
    "_overrides": {
     "creation": {
      "at": "2026-08-18",
      "source": "derived from start date + Caravaggio's documented itinerary (approximate)"
     }
    }
   }
  },
  {
   "type": "Feature",
   "geometry": {
    "type": "Point",
    "coordinates": [
     19.939967,
     50.064641
    ]
   },
   "properties": {
    "painter": "Leonardo da Vinci",
    "title": "Lady with an Ermine",
    "year": "1490",
    "city": "Kraków",
    "country": "Poland",
    "location": "Czartoryski Museum",
    "kind": "museum",
    "attribution": "generally accepted",
    "notable": true,
    "status": "present",
    "medium": "Oil on panel",
    "dimensions": "54 × 39 cm",
    "genre": "portrait",
    "image": "https://commons.wikimedia.org/wiki/Special:FilePath/Lady%20with%20an%20Ermine%20-%20Leonardo%20da%20Vinci%20-%20Google%20Art%20Project.jpg?width=420",
    "wikipedia_es": "https://es.wikipedia.org/wiki/La_dama_del_armi%C3%B1o",
    "wikipedia_en": "https://en.wikipedia.org/wiki/Lady_with_an_Ermine",
    "wikipedia_it": "https://it.wikipedia.org/wiki/Dama_con_l%27ermellino",
    "wikidata": "https://www.wikidata.org/wiki/Q474338",
    "creation_place": "Milan",
    "creation_lat": 45.4642,
    "creation_lon": 9.19,
    "_source": {
     "source": "Wikidata",
     "url": "https://www.wikidata.org/wiki/Q474338",
     "retrieved_at": "2026-08-18"
    },
    "_overrides": {
     "creation": {
      "at": "2026-08-18",
      "source": "derived from start date + Caravaggio's documented itinerary (approximate)"
     }
    }
   }
  },
  {
   "type": "Feature",
   "geometry": {
    "type": "Point",
    "coordinates": [
     -73.963333,
     40.779444
    ]
   },
   "properties": {
    "painter": "Leonardo da Vinci",
    "title": "Madonna of the Yarnwinder",
    "year": "1510",
    "city": "Manhattan",
    "country": "United States",
    "location": "Metropolitan Museum of Art",
    "kind": "museum",
    "attribution": "generally accepted",
    "notable": false,
    "status": "present",
    "medium": "Oil on panel",
    "dimensions": "50.2 × 36.4 cm",
    "genre": "religious art",
    "image": "https://commons.wikimedia.org/wiki/Special:FilePath/Madonna%20of%20the%20Yarnwinder.jpg?width=420",
    "wikidata": "https://www.wikidata.org/wiki/Q56280397",
    "creation_place": "Milan",
    "creation_lat": 45.4642,
    "creation_lon": 9.19,
    "_source": {
     "source": "Wikidata",
     "url": "https://www.wikidata.org/wiki/Q56280397",
     "retrieved_at": "2026-08-18"
    },
    "_overrides": {
     "creation": {
      "at": "2026-08-18",
      "source": "derived from start date + Caravaggio's documented itinerary (approximate)"
     }
    }
   }
  },
  {
   "type": "Feature",
   "geometry": {
    "type": "Point",
    "coordinates": [
     2.335833,
     48.861111
    ]
   },
   "properties": {
    "painter": "Leonardo da Vinci",
    "title": "The Virgin and Child with Saint Anne",
    "year": "1511",
    "country": "France",
    "location": "Department of Paintings of the Louvre",
    "kind": "museum",
    "attribution": "generally accepted",
    "notable": true,
    "status": "present",
    "medium": "Oil paint, poplar panel",
    "dimensions": "168 × 130 cm",
    "genre": "religious art",
    "image": "https://commons.wikimedia.org/wiki/Special:FilePath/Sainte%20Anne%20Leonard.jpg?width=420",
    "wikipedia_es": "https://es.wikipedia.org/wiki/La_Virgen,_el_Ni%C3%B1o_Jes%C3%BAs_y_Santa_Ana",
    "wikipedia_en": "https://en.wikipedia.org/wiki/The_Virgin_and_Child_with_Saint_Anne_(Leonardo)",
    "wikipedia_it": "https://it.wikipedia.org/wiki/Sant%27Anna,_la_Vergine_e_il_Bambino_con_l%27agnellino",
    "wikidata": "https://www.wikidata.org/wiki/Q563727",
    "creation_place": "Milan",
    "creation_lat": 45.4642,
    "creation_lon": 9.19,
    "_source": {
     "source": "Wikidata",
     "url": "https://www.wikidata.org/wiki/Q563727",
     "retrieved_at": "2026-08-18"
    },
    "_overrides": {
     "creation": {
      "at": "2026-08-18",
      "source": "derived from start date + Caravaggio's documented itinerary (approximate)"
     }
    }
   }
  },
  {
   "type": "Feature",
   "geometry": {
    "type": "Point",
    "coordinates": [
     2.335833,
     48.861111
    ]
   },
   "properties": {
    "painter": "Leonardo da Vinci",
    "title": "La Belle Ferronnière",
    "year": "1495",
    "country": "France",
    "location": "Department of Paintings of the Louvre",
    "kind": "museum",
    "attribution": "generally accepted",
    "notable": true,
    "status": "present",
    "medium": "Oil on panel",
    "dimensions": "63 × 45 cm",
    "genre": "portrait",
    "image": "https://commons.wikimedia.org/wiki/Special:FilePath/La%20Belle%20Ferroni%C3%A8re%20-%20Google%20Arts.jpg?width=420",
    "wikipedia_es": "https://es.wikipedia.org/wiki/La_Belle_Ferroni%C3%A8re",
    "wikipedia_en": "https://en.wikipedia.org/wiki/La_Belle_Ferronni%C3%A8re",
    "wikipedia_it": "https://it.wikipedia.org/wiki/Belle_Ferronni%C3%A8re",
    "wikidata": "https://www.wikidata.org/wiki/Q656434",
    "creation_place": "Milan",
    "creation_lat": 45.4642,
    "creation_lon": 9.19,
    "_source": {
     "source": "Wikidata",
     "url": "https://www.wikidata.org/wiki/Q656434",
     "retrieved_at": "2026-08-18"
    },
    "_overrides": {
     "creation": {
      "at": "2026-08-18",
      "source": "derived from start date + Caravaggio's documented itinerary (approximate)"
     }
    }
   }
  },
  {
   "type": "Feature",
   "geometry": {
    "type": "Point",
    "coordinates": [
     15.916085,
     40.667472
    ]
   },
   "properties": {
    "painter": "Leonardo da Vinci",
    "title": "Lucan portrait of Leonardo da Vinci",
    "year": "1505",
    "city": "Vaglio Basilicata",
    "country": "Italy",
    "location": "Museum of the Ancient People of Lucania",
    "kind": "museum",
    "attribution": "generally accepted",
    "notable": true,
    "status": "present",
    "medium": "Wood",
    "dimensions": "44 × 60 cm",
    "genre": "portrait, self-portrait",
    "image": "https://commons.wikimedia.org/wiki/Special:FilePath/Leonardo%20da%20Vinci%20LUCAN%20self-portrait%20REVERSE.jpg?width=420",
    "wikipedia_es": "https://es.wikipedia.org/wiki/Tavola_Lucana_(Leonardo)",
    "wikipedia_en": "https://en.wikipedia.org/wiki/Lucan_portrait_of_Leonardo_da_Vinci",
    "wikipedia_it": "https://it.wikipedia.org/wiki/Ritratto_lucano",
    "wikidata": "https://www.wikidata.org/wiki/Q6696013",
    "creation_place": "Florence",
    "creation_lat": 43.7696,
    "creation_lon": 11.2558,
    "_source": {
     "source": "Wikidata",
     "url": "https://www.wikidata.org/wiki/Q6696013",
     "retrieved_at": "2026-08-18"
    },
    "_overrides": {
     "creation": {
      "at": "2026-08-18",
      "source": "derived from start date + Caravaggio's documented itinerary (approximate)"
     }
    }
   }
  },
  {
   "type": "Feature",
   "geometry": {
    "type": "Point",
    "coordinates": [
     11.571776,
     48.149583
    ]
   },
   "properties": {
    "painter": "Leonardo da Vinci",
    "title": "Madonna of the Carnation",
    "year": "1475",
    "city": "Munich",
    "country": "Germany",
    "location": "Bavarian State Painting Collections",
    "kind": "museum",
    "attribution": "generally accepted",
    "notable": true,
    "status": "present",
    "medium": "Oil on panel",
    "dimensions": "62 × 47.5 cm",
    "genre": "portrait, religious art",
    "image": "https://commons.wikimedia.org/wiki/Special:FilePath/LEONARDO-DA-VINCI%20-%20MADONNA-MIT-DER-NELKE-7779%20917154%20BSTGS.jpg?width=420",
    "wikipedia_es": "https://es.wikipedia.org/wiki/Virgen_del_clavel",
    "wikipedia_en": "https://en.wikipedia.org/wiki/Madonna_of_the_Carnation",
    "wikipedia_it": "https://it.wikipedia.org/wiki/Madonna_del_Garofano",
    "wikidata": "https://www.wikidata.org/wiki/Q698015",
    "creation_place": "Florence",
    "creation_lat": 43.7696,
    "creation_lon": 11.2558,
    "_source": {
     "source": "Wikidata",
     "url": "https://www.wikidata.org/wiki/Q698015",
     "retrieved_at": "2026-08-18"
    },
    "_overrides": {
     "creation": {
      "at": "2026-08-18",
      "source": "derived from start date + Caravaggio's documented itinerary (approximate)"
     }
    }
   }
  },
  {
   "type": "Feature",
   "geometry": {
    "type": "Point",
    "coordinates": [
     2.335833,
     48.861111
    ]
   },
   "properties": {
    "painter": "Leonardo da Vinci",
    "title": "Saint John the Baptist",
    "year": "1514",
    "city": "Saint-Germain-l'Auxerrois",
    "country": "France",
    "location": "Louvre Museum",
    "kind": "museum",
    "attribution": "generally accepted",
    "notable": true,
    "status": "present",
    "medium": "Oil on panel",
    "dimensions": "69 × 57 cm",
    "genre": "religious art",
    "image": "https://commons.wikimedia.org/wiki/Special:FilePath/Leonardo%20da%20Vinci%20-%20Saint%20John%20the%20Baptist%20C2RMF%20retouched.jpg?width=420",
    "wikipedia_es": "https://es.wikipedia.org/wiki/San_Juan_Bautista_(Leonardo)",
    "wikipedia_en": "https://en.wikipedia.org/wiki/Saint_John_the_Baptist_(Leonardo)",
    "wikipedia_it": "https://it.wikipedia.org/wiki/San_Giovanni_Battista_(Leonardo)",
    "wikidata": "https://www.wikidata.org/wiki/Q783215",
    "creation_place": "Rome",
    "creation_lat": 41.9028,
    "creation_lon": 12.4964,
    "_source": {
     "source": "Wikidata",
     "url": "https://www.wikidata.org/wiki/Q783215",
     "retrieved_at": "2026-08-18"
    },
    "_overrides": {
     "creation": {
      "at": "2026-08-18",
      "source": "derived from start date + Caravaggio's documented itinerary (approximate)"
     }
    }
   }
  },
  {
   "type": "Feature",
   "geometry": {
    "type": "Point",
    "coordinates": [
     -71.802222,
     42.273056
    ]
   },
   "properties": {
    "painter": "Leonardo da Vinci",
    "title": "A Miracle of Saint Donatus of Arezzo",
    "year": "1477",
    "city": "Worcester",
    "country": "United States",
    "location": "Museo de Arte de Worcester",
    "kind": "museum",
    "attribution": "generally accepted",
    "notable": false,
    "status": "present",
    "image": "https://commons.wikimedia.org/wiki/Special:FilePath/Attributed%20to%20Leonardo%20da%20Vinci%20and%20Lorenzo%20di%20Credi%20A%20Miracle%20of%20Saint%20Donatus%20of%20Arezzo%201475-1479.jpg?width=420",
    "wikidata": "https://www.wikidata.org/wiki/Q79052262",
    "creation_place": "Florence",
    "creation_lat": 43.7696,
    "creation_lon": 11.2558,
    "_source": {
     "source": "Wikidata",
     "url": "https://www.wikidata.org/wiki/Q79052262",
     "retrieved_at": "2026-08-18"
    },
    "_overrides": {
     "creation": {
      "at": "2026-08-18",
      "source": "derived from start date + Caravaggio's documented itinerary (approximate)"
     }
    }
   }
  },
  {
   "type": "Feature",
   "geometry": {
    "type": "Point",
    "coordinates": [
     10.325861,
     44.804722
    ]
   },
   "properties": {
    "painter": "Leonardo da Vinci",
    "title": "Head of a Woman",
    "year": "1500",
    "city": "Parma",
    "country": "Italy",
    "location": "Galleria nazionale di Parma",
    "kind": "museum",
    "attribution": "generally accepted",
    "notable": true,
    "status": "present",
    "medium": "Oil on panel",
    "dimensions": "24.6 × 21 cm",
    "genre": "portrait",
    "image": "https://commons.wikimedia.org/wiki/Special:FilePath/Lascapigliata.jpg?width=420",
    "wikipedia_es": "https://es.wikipedia.org/wiki/Cabeza_de_muchacha_(Leonardo)",
    "wikipedia_en": "https://en.wikipedia.org/wiki/La_Scapigliata",
    "wikipedia_it": "https://it.wikipedia.org/wiki/La_Scapigliata",
    "wikidata": "https://www.wikidata.org/wiki/Q797902",
    "creation_place": "Florence",
    "creation_lat": 43.7696,
    "creation_lon": 11.2558,
    "_source": {
     "source": "Wikidata",
     "url": "https://www.wikidata.org/wiki/Q797902",
     "retrieved_at": "2026-08-18"
    },
    "_overrides": {
     "creation": {
      "at": "2026-08-18",
      "source": "derived from start date + Caravaggio's documented itinerary (approximate)"
     }
    }
   }
  },
  {
   "type": "Feature",
   "geometry": {
    "type": "Point",
    "coordinates": [
     12.45277,
     41.90573
    ]
   },
   "properties": {
    "painter": "Leonardo da Vinci",
    "title": "Saint Jerome in the Wilderness",
    "year": "1480",
    "city": "Vatican City",
    "country": "Vatican City",
    "location": "Pinacoteca Vaticana",
    "kind": "museum",
    "attribution": "generally accepted",
    "notable": true,
    "status": "present",
    "medium": "Oil on panel",
    "dimensions": "103 × 75 cm",
    "genre": "religious art",
    "image": "https://commons.wikimedia.org/wiki/Special:FilePath/Leonardo%20da%20Vinci%20%E2%80%94%20Jerome.jpg?width=420",
    "wikipedia_es": "https://es.wikipedia.org/wiki/San_Jer%C3%B3nimo_(Leonardo)",
    "wikipedia_en": "https://en.wikipedia.org/wiki/Saint_Jerome_in_the_Wilderness_(Leonardo)",
    "wikipedia_it": "https://it.wikipedia.org/wiki/San_Girolamo_(Leonardo)",
    "wikidata": "https://www.wikidata.org/wiki/Q972196",
    "creation_place": "Florence",
    "creation_lat": 43.7696,
    "creation_lon": 11.2558,
    "_source": {
     "source": "Wikidata",
     "url": "https://www.wikidata.org/wiki/Q972196",
     "retrieved_at": "2026-08-18"
    },
    "_overrides": {
     "creation": {
      "at": "2026-08-18",
      "source": "derived from start date + Caravaggio's documented itinerary (approximate)"
     }
    }
   }
  }
 ]
}