{
 "type": "FeatureCollection",
 "_note": "Masaccio — hand-authored (no Wikipedia list article). ~12 principal works.",
 "features": [
  {
   "type": "Feature",
   "geometry": {
    "type": "Point",
    "coordinates": [
     11.243,
     43.7679
    ]
   },
   "properties": {
    "painter": "Masaccio",
    "title": "The Tribute Money",
    "year": "c. 1425",
    "city": "Florence",
    "country": "Italy",
    "location": "Brancacci Chapel, Santa Maria del Carmine",
    "kind": "church",
    "attribution": "generally accepted",
    "medium": "Fresco",
    "notable": true,
    "creation_place": "Florence",
    "creation_lat": 43.7696,
    "creation_lon": 11.2558,
    "museum_id": "brancacci-chapel-santa-maria-del-carmine"
   }
  },
  {
   "type": "Feature",
   "geometry": {
    "type": "Point",
    "coordinates": [
     11.243,
     43.7679
    ]
   },
   "properties": {
    "painter": "Masaccio",
    "title": "Expulsion from the Garden of Eden",
    "year": "c. 1425",
    "city": "Florence",
    "country": "Italy",
    "location": "Brancacci Chapel, Santa Maria del Carmine",
    "kind": "church",
    "attribution": "generally accepted",
    "medium": "Fresco",
    "notable": true,
    "creation_place": "Florence",
    "creation_lat": 43.7696,
    "creation_lon": 11.2558,
    "museum_id": "brancacci-chapel-santa-maria-del-carmine"
   }
  },
  {
   "type": "Feature",
   "geometry": {
    "type": "Point",
    "coordinates": [
     11.2497,
     43.7746
    ]
   },
   "properties": {
    "painter": "Masaccio",
    "title": "Holy Trinity",
    "year": "c. 1427",
    "city": "Florence",
    "country": "Italy",
    "location": "Santa Maria Novella",
    "kind": "church",
    "attribution": "generally accepted",
    "medium": "Fresco",
    "notable": true,
    "creation_place": "Florence",
    "creation_lat": 43.7696,
    "creation_lon": 11.2558,
    "museum_id": "santa-maria-novella"
   }
  },
  {
   "type": "Feature",
   "geometry": {
    "type": "Point",
    "coordinates": [
     11.25528,
     43.76833
    ]
   },
   "properties": {
    "painter": "Masaccio",
    "title": "Madonna and Child with Saint Anne",
    "year": "c. 1424",
    "city": "Florence",
    "country": "Italy",
    "location": "Uffizi Gallery",
    "kind": "museum",
    "attribution": "generally accepted",
    "medium": "Tempera on panel",
    "notable": true,
    "creation_place": "Florence",
    "creation_lat": 43.7696,
    "creation_lon": 11.2558,
    "museum_id": "uffizi-gallery"
   }
  },
  {
   "type": "Feature",
   "geometry": {
    "type": "Point",
    "coordinates": [
     11.53,
     43.69
    ]
   },
   "properties": {
    "painter": "Masaccio",
    "title": "San Giovenale Triptych",
    "year": "1422",
    "city": "Reggello",
    "country": "Italy",
    "location": "Museo Masaccio d'arte sacra",
    "kind": "museum",
    "attribution": "generally accepted",
    "medium": "Tempera on panel",
    "notable": true,
    "creation_place": "Florence",
    "creation_lat": 43.7696,
    "creation_lon": 11.2558,
    "museum_id": "museo-masaccio-d-arte-sacra"
   }
  },
  {
   "type": "Feature",
   "geometry": {
    "type": "Point",
    "coordinates": [
     -0.1283,
     51.5089
    ]
   },
   "properties": {
    "painter": "Masaccio",
    "title": "Virgin and Child (Pisa Altarpiece)",
    "year": "1426",
    "city": "London",
    "country": "United Kingdom",
    "location": "National Gallery",
    "kind": "museum",
    "attribution": "generally accepted",
    "medium": "Tempera on panel",
    "notable": true,
    "creation_place": "Pisa",
    "creation_lat": 43.7228,
    "creation_lon": 10.4017,
    "museum_id": "national-gallery"
   }
  },
  {
   "type": "Feature",
   "geometry": {
    "type": "Point",
    "coordinates": [
     14.25053,
     40.86701
    ]
   },
   "properties": {
    "painter": "Masaccio",
    "title": "Crucifixion (Pisa Altarpiece)",
    "year": "1426",
    "city": "Naples",
    "country": "Italy",
    "location": "Museo di Capodimonte",
    "kind": "museum",
    "attribution": "generally accepted",
    "medium": "Tempera on panel",
    "notable": true,
    "creation_place": "Pisa",
    "creation_lat": 43.7228,
    "creation_lon": 10.4017,
    "museum_id": "museo-di-capodimonte"
   }
  },
  {
   "type": "Feature",
   "geometry": {
    "type": "Point",
    "coordinates": [
     10.4055,
     43.7175
    ]
   },
   "properties": {
    "painter": "Masaccio",
    "title": "Saints Paul (Pisa Altarpiece)",
    "year": "1426",
    "city": "Pisa",
    "country": "Italy",
    "location": "Museo Nazionale di San Matteo",
    "kind": "museum",
    "attribution": "generally accepted",
    "medium": "Tempera on panel",
    "notable": true,
    "creation_place": "Pisa",
    "creation_lat": 43.7228,
    "creation_lon": 10.4017,
    "museum_id": "museo-nazionale-di-san-matteo"
   }
  },
  {
   "type": "Feature",
   "geometry": {
    "type": "Point",
    "coordinates": [
     -118.4741,
     34.078
    ]
   },
   "properties": {
    "painter": "Masaccio",
    "title": "Saint Andrew (Pisa Altarpiece)",
    "year": "1426",
    "city": "Los Angeles",
    "country": "United States",
    "location": "J. Paul Getty Museum",
    "kind": "museum",
    "attribution": "generally accepted",
    "medium": "Tempera on panel",
    "notable": true,
    "creation_place": "Pisa",
    "creation_lat": 43.7228,
    "creation_lon": 10.4017,
    "museum_id": "j-paul-getty-museum"
   }
  },
  {
   "type": "Feature",
   "geometry": {
    "type": "Point",
    "coordinates": [
     13.3647,
     52.5086
    ]
   },
   "properties": {
    "painter": "Masaccio",
    "title": "Adoration of the Magi (Pisa Altarpiece)",
    "year": "1426",
    "city": "Berlin",
    "country": "Germany",
    "location": "Gemäldegalerie",
    "kind": "museum",
    "attribution": "generally accepted",
    "medium": "Tempera on panel",
    "notable": true,
    "creation_place": "Pisa",
    "creation_lat": 43.7228,
    "creation_lon": 10.4017,
    "museum_id": "gemaldegalerie"
   }
  },
  {
   "type": "Feature",
   "geometry": {
    "type": "Point",
    "coordinates": [
     -71.05778,
     42.36028
    ]
   },
   "properties": {
    "painter": "Masaccio",
    "title": "Portrait of a Young Man",
    "year": "c. 1425",
    "city": "Boston",
    "country": "United States",
    "location": "Isabella Stewart Gardner Museum",
    "kind": "museum",
    "attribution": "generally accepted",
    "medium": "Tempera on panel",
    "notable": true,
    "creation_place": "Florence",
    "creation_lat": 43.7696,
    "creation_lon": 11.2558,
    "museum_id": "isabella-stewart-gardner-museum"
   }
  },
  {
   "type": "Feature",
   "geometry": {
    "type": "Point",
    "coordinates": [
     -0.1283,
     51.5089
    ]
   },
   "properties": {
    "painter": "Masaccio",
    "title": "Saints Jerome and John the Baptist",
    "year": "c. 1428",
    "city": "London",
    "country": "United Kingdom",
    "location": "National Gallery",
    "kind": "museum",
    "attribution": "generally accepted",
    "medium": "Tempera on panel",
    "notable": true,
    "creation_place": "Rome",
    "creation_lat": 41.9028,
    "creation_lon": 12.4964,
    "museum_id": "national-gallery"
   }
  }
 ]
}