{
 "type": "FeatureCollection",
 "_note": "Generated by scripts/build.py from Wikidata. Do not edit by hand — put manual fixes in the painter's overlay (data/overlay/*.json). Each feature carries _source (scraped base or manual addition) and, when edited, _overrides.",
 "features": [
  {
   "type": "Feature",
   "geometry": {
    "type": "Point",
    "coordinates": [
     12.454433,
     41.902956
    ]
   },
   "properties": {
    "painter": "Michelangelo",
    "title": "Drunkenness of Noah",
    "year": "1509",
    "city": "Vatican City",
    "country": "Vatican City",
    "location": "Sistine Chapel",
    "kind": "church",
    "attribution": "attributed",
    "status": "present",
    "medium": "Fresco",
    "dimensions": "170 × 260 cm",
    "image": "https://commons.wikimedia.org/wiki/Special:FilePath/Michelangelo%20drunken%20Noah.jpg?width=420",
    "wikidata": "https://www.wikidata.org/wiki/Q116621556",
    "creation_place": "Rome",
    "creation_lat": 41.9028,
    "creation_lon": 12.4964,
    "_source": {
     "source": "Wikidata",
     "url": "https://www.wikidata.org/wiki/Q116621556",
     "retrieved_at": "2026-08-23"
    },
    "_overrides": {
     "creation": {
      "at": "2026-08-23",
      "source": "derived from start date + Caravaggio's documented itinerary (approximate)"
     }
    },
    "museum_id": "sistine-chapel",
    "qid": "Q116621556",
    "wga_url": "https://www.wga.hu/html/m/michelan/3sistina/1genesis/1drunken/01_3ce1.html"
   }
  },
  {
   "type": "Feature",
   "geometry": {
    "type": "Point",
    "coordinates": [
     -0.1283,
     51.5089
    ]
   },
   "properties": {
    "painter": "Michelangelo",
    "title": "The Entombment",
    "year": "1500-1510",
    "city": "London",
    "country": "United Kingdom",
    "location": "National Gallery",
    "kind": "museum",
    "attribution": "generally accepted",
    "status": "present",
    "medium": "Oil on panel",
    "dimensions": "161.7 × 149.9 cm",
    "genre": "religious art",
    "image": "https://commons.wikimedia.org/wiki/Special:FilePath/Entombment%20Michelangelo.jpg?width=420",
    "wikipedia_es": "https://es.wikipedia.org/wiki/Santo_Entierro_(Miguel_%C3%81ngel)",
    "wikipedia_en": "https://en.wikipedia.org/wiki/The_Entombment_(Michelangelo)",
    "wikipedia_it": "https://it.wikipedia.org/wiki/Deposizione_di_Cristo_nel_sepolcro",
    "wikidata": "https://www.wikidata.org/wiki/Q1213160",
    "creation_place": "Florence",
    "creation_lat": 43.7696,
    "creation_lon": 11.2558,
    "_source": {
     "source": "Wikidata",
     "url": "https://www.wikidata.org/wiki/Q1213160",
     "retrieved_at": "2026-08-23"
    },
    "_overrides": {
     "creation": {
      "at": "2026-08-23",
      "source": "derived from start date + Caravaggio's documented itinerary (approximate)"
     }
    },
    "museum_id": "national-gallery",
    "qid": "Q1213160",
    "wga_url": "https://www.wga.hu/html/m/michelan/2paintin/2entombm.html"
   }
  },
  {
   "type": "Feature",
   "geometry": {
    "type": "Point",
    "coordinates": [
     -1.26056,
     51.75556
    ]
   },
   "properties": {
    "painter": "Michelangelo",
    "title": "The Holy Family with Saint John the Baptist",
    "year": "1540",
    "city": "Oxford",
    "country": "United Kingdom",
    "location": "Ashmolean Museum",
    "kind": "museum",
    "attribution": "attributed",
    "status": "present",
    "genre": "religious art",
    "image": "https://commons.wikimedia.org/wiki/Special:FilePath/Heilige%20Familie%20mit%20dem%20Johannesknaben%20%28Ashmolean%20Museum%29.jpg?width=420",
    "wikidata": "https://www.wikidata.org/wiki/Q1213320",
    "creation_place": "Rome",
    "creation_lat": 41.9028,
    "creation_lon": 12.4964,
    "_source": {
     "source": "Wikidata",
     "url": "https://www.wikidata.org/wiki/Q1213320",
     "retrieved_at": "2026-08-23"
    },
    "_overrides": {
     "creation": {
      "at": "2026-08-23",
      "source": "derived from start date + Caravaggio's documented itinerary (approximate)"
     }
    },
    "museum_id": "ashmolean-museum",
    "qid": "Q1213320"
   }
  },
  {
   "type": "Feature",
   "geometry": {
    "type": "Point",
    "coordinates": [
     11.25528,
     43.76833
    ]
   },
   "properties": {
    "painter": "Michelangelo",
    "title": "Doni Tondo",
    "year": "1500",
    "city": "Florence",
    "country": "Italy",
    "location": "Uffizi Gallery",
    "kind": "museum",
    "attribution": "generally accepted",
    "status": "present",
    "medium": "Oil on panel",
    "genre": "religious art",
    "image": "https://commons.wikimedia.org/wiki/Special:FilePath/Tondo%20Doni%202015.png?width=420",
    "wikipedia_es": "https://es.wikipedia.org/wiki/Tondo_Doni",
    "wikipedia_en": "https://en.wikipedia.org/wiki/Doni_Tondo",
    "wikipedia_it": "https://it.wikipedia.org/wiki/Tondo_Doni",
    "wikidata": "https://www.wikidata.org/wiki/Q1473546",
    "creation_place": "Florence",
    "creation_lat": 43.7696,
    "creation_lon": 11.2558,
    "_source": {
     "source": "Wikidata",
     "url": "https://www.wikidata.org/wiki/Q1473546",
     "retrieved_at": "2026-08-23"
    },
    "_overrides": {
     "creation": {
      "at": "2026-08-23",
      "source": "derived from start date + Caravaggio's documented itinerary (approximate)"
     }
    },
    "museum_id": "uffizi-gallery",
    "qid": "Q1473546",
    "wga_url": "https://www.wga.hu/html/m/michelan/2paintin/1donitox.html"
   }
  },
  {
   "type": "Feature",
   "geometry": {
    "type": "Point",
    "coordinates": [
     -0.1283,
     51.5089
    ]
   },
   "properties": {
    "painter": "Michelangelo",
    "title": "Manchester Madonna",
    "year": "1494",
    "city": "London",
    "country": "United Kingdom",
    "location": "National Gallery",
    "kind": "museum",
    "attribution": "generally accepted",
    "status": "present",
    "medium": "Panel",
    "dimensions": "105 × 77 cm",
    "genre": "religious art",
    "image": "https://commons.wikimedia.org/wiki/Special:FilePath/MICHELANGELO%20-%20Manchester%20Madonna%20adjusted.JPG?width=420",
    "wikipedia_es": "https://es.wikipedia.org/wiki/Madonna_de_Manchester",
    "wikipedia_en": "https://en.wikipedia.org/wiki/Manchester_Madonna",
    "wikipedia_it": "https://it.wikipedia.org/wiki/Madonna_di_Manchester",
    "wikidata": "https://www.wikidata.org/wiki/Q1684762",
    "creation_place": "Florence",
    "creation_lat": 43.7696,
    "creation_lon": 11.2558,
    "_source": {
     "source": "Wikidata",
     "url": "https://www.wikidata.org/wiki/Q1684762",
     "retrieved_at": "2026-08-23"
    },
    "_overrides": {
     "creation": {
      "at": "2026-08-23",
      "source": "derived from start date + Caravaggio's documented itinerary (approximate)"
     }
    },
    "museum_id": "national-gallery",
    "qid": "Q1684762",
    "wga_url": "https://www.wga.hu/html/m/michelan/2paintin/1virgin.html"
   }
  },
  {
   "type": "Feature",
   "geometry": {
    "type": "Point",
    "coordinates": [
     -97.365,
     32.74861
    ]
   },
   "properties": {
    "painter": "Michelangelo",
    "title": "The Torment of Saint Anthony",
    "year": "1487",
    "city": "Fort Worth",
    "country": "United States",
    "location": "Museo d'arte Kimbell",
    "kind": "museum",
    "attribution": "generally accepted",
    "status": "present",
    "medium": "Oil paint",
    "dimensions": "470 × 337 cm",
    "genre": "religious art",
    "image": "https://commons.wikimedia.org/wiki/Special:FilePath/Michelangelo%20Buonarroti%20-%20The%20Torment%20of%20Saint%20Anthony%20-%20Google%20Art%20Project.jpg?width=420",
    "wikipedia_es": "https://es.wikipedia.org/wiki/Tentaci%C3%B3n_de_san_Antonio_(Miguel_%C3%81ngel)",
    "wikipedia_en": "https://en.wikipedia.org/wiki/The_Torment_of_Saint_Anthony",
    "wikipedia_it": "https://it.wikipedia.org/wiki/Tormento_di_sant%27Antonio",
    "wikidata": "https://www.wikidata.org/wiki/Q2327759",
    "_source": {
     "source": "Wikidata",
     "url": "https://www.wikidata.org/wiki/Q2327759",
     "retrieved_at": "2026-08-23"
    },
    "museum_id": "museo-d-arte-kimbell",
    "qid": "Q2327759"
   }
  },
  {
   "type": "Feature",
   "geometry": {
    "type": "Point",
    "coordinates": [
     12.4544,
     41.9064
    ]
   },
   "properties": {
    "painter": "Michelangelo",
    "title": "Aminadab",
    "year": "1511",
    "city": "Vatican City",
    "country": "Vatican City",
    "location": "Vatican Museums",
    "kind": "museum",
    "attribution": "generally accepted",
    "status": "present",
    "medium": "Fresco",
    "dimensions": "215 × 430 cm",
    "genre": "religious art",
    "image": "https://commons.wikimedia.org/wiki/Special:FilePath/Michelangelo%2C%20lunetta%2C%20Amminadab%2001.jpg?width=420",
    "wikipedia_it": "https://it.wikipedia.org/wiki/Aminadab",
    "wikidata": "https://www.wikidata.org/wiki/Q3614330",
    "creation_place": "Rome",
    "creation_lat": 41.9028,
    "creation_lon": 12.4964,
    "_source": {
     "source": "Wikidata",
     "url": "https://www.wikidata.org/wiki/Q3614330",
     "retrieved_at": "2026-08-23"
    },
    "_overrides": {
     "creation": {
      "at": "2026-08-23",
      "source": "derived from start date + Caravaggio's documented itinerary (approximate)"
     }
    },
    "museum_id": "vatican-museums",
    "qid": "Q3614330",
    "wga_url": "https://www.wga.hu/html/m/michelan/3sistina/6lunette/14/lu14ami.html"
   }
  },
  {
   "type": "Feature",
   "geometry": {
    "type": "Point",
    "coordinates": [
     12.454433,
     41.902956
    ]
   },
   "properties": {
    "painter": "Michelangelo",
    "title": "The Creation of the Sun, Moon and Planets",
    "year": "1511",
    "city": "Vatican City",
    "country": "Vatican City",
    "location": "Sistine Chapel",
    "kind": "church",
    "attribution": "generally accepted",
    "status": "present",
    "medium": "Fresco",
    "dimensions": "280 × 570 cm",
    "genre": "religious art",
    "image": "https://commons.wikimedia.org/wiki/Special:FilePath/Michelangelo%2C%20Creation%20of%20the%20Sun%2C%20Moon%2C%20and%20Plants%2001.jpg?width=420",
    "wikipedia_es": "https://es.wikipedia.org/wiki/Creaci%C3%B3n_de_los_astros_y_las_plantas",
    "wikipedia_en": "https://en.wikipedia.org/wiki/The_Creation_of_the_Sun,_Moon,_and_Plants",
    "wikipedia_it": "https://it.wikipedia.org/wiki/Creazione_degli_astri_e_delle_piante",
    "wikidata": "https://www.wikidata.org/wiki/Q3696827",
    "creation_place": "Rome",
    "creation_lat": 41.9028,
    "creation_lon": 12.4964,
    "_source": {
     "source": "Wikidata",
     "url": "https://www.wikidata.org/wiki/Q3696827",
     "retrieved_at": "2026-08-23"
    },
    "_overrides": {
     "creation": {
      "at": "2026-08-23",
      "source": "derived from start date + Caravaggio's documented itinerary (approximate)"
     }
    },
    "museum_id": "sistine-chapel",
    "qid": "Q3696827",
    "wga_url": "https://www.wga.hu/html/m/michelan/3sistina/1genesis/8plants/08_3ce8.html"
   }
  },
  {
   "type": "Feature",
   "geometry": {
    "type": "Point",
    "coordinates": [
     12.454433,
     41.902956
    ]
   },
   "properties": {
    "painter": "Michelangelo",
    "title": "The Creation of Eve",
    "year": "1511",
    "city": "Vatican City",
    "country": "Vatican City",
    "location": "Sistine Chapel",
    "kind": "church",
    "attribution": "generally accepted",
    "status": "present",
    "medium": "Fresco",
    "dimensions": "170 × 260 cm",
    "genre": "nude, religious art",
    "image": "https://commons.wikimedia.org/wiki/Special:FilePath/Michelangelo%2C%20Creation%20of%20Eve%2001.jpg?width=420",
    "wikipedia_es": "https://es.wikipedia.org/wiki/La_creaci%C3%B3n_de_Eva_(Miguel_%C3%81ngel)",
    "wikipedia_it": "https://it.wikipedia.org/wiki/Creazione_di_Eva_(Michelangelo)",
    "wikidata": "https://www.wikidata.org/wiki/Q3696835",
    "creation_place": "Rome",
    "creation_lat": 41.9028,
    "creation_lon": 12.4964,
    "_source": {
     "source": "Wikidata",
     "url": "https://www.wikidata.org/wiki/Q3696835",
     "retrieved_at": "2026-08-23"
    },
    "_overrides": {
     "creation": {
      "at": "2026-08-23",
      "source": "derived from start date + Caravaggio's documented itinerary (approximate)"
     }
    },
    "museum_id": "sistine-chapel",
    "qid": "Q3696835",
    "wga_url": "https://www.wga.hu/html/m/michelan/3sistina/1genesis/5eve/05_3ce5.html"
   }
  },
  {
   "type": "Feature",
   "geometry": {
    "type": "Point",
    "coordinates": [
     12.454433,
     41.902956
    ]
   },
   "properties": {
    "painter": "Michelangelo",
    "title": "The Deluge",
    "year": "1508-1509",
    "city": "Vatican City",
    "country": "Vatican City",
    "location": "Sistine Chapel",
    "kind": "church",
    "attribution": "generally accepted",
    "status": "present",
    "medium": "Fresco, oil paint",
    "genre": "religious art",
    "image": "https://commons.wikimedia.org/wiki/Special:FilePath/El%20Diluvio.jpg?width=420",
    "wikipedia_es": "https://es.wikipedia.org/wiki/El_diluvio_universal_(Miguel_%C3%81ngel)",
    "wikipedia_it": "https://it.wikipedia.org/wiki/Diluvio_universale_(Michelangelo)",
    "wikidata": "https://www.wikidata.org/wiki/Q3707697",
    "creation_place": "Rome",
    "creation_lat": 41.9028,
    "creation_lon": 12.4964,
    "_source": {
     "source": "Wikidata",
     "url": "https://www.wikidata.org/wiki/Q3707697",
     "retrieved_at": "2026-08-23"
    },
    "_overrides": {
     "creation": {
      "at": "2026-08-23",
      "source": "derived from start date + Caravaggio's documented itinerary (approximate)"
     }
    },
    "museum_id": "sistine-chapel",
    "qid": "Q3707697",
    "wga_url": "https://www.wga.hu/html/m/michelan/3sistina/1genesis/2flood/02_3ce2.html"
   }
  },
  {
   "type": "Feature",
   "geometry": {
    "type": "Point",
    "coordinates": [
     12.454433,
     41.902956
    ]
   },
   "properties": {
    "painter": "Michelangelo",
    "title": "Prophet Ezekiel",
    "year": "1511",
    "city": "Vatican City",
    "country": "Vatican City",
    "location": "Sistine Chapel",
    "kind": "church",
    "attribution": "generally accepted",
    "status": "present",
    "medium": "Fresco",
    "dimensions": "355 × 380 cm",
    "genre": "religious art",
    "image": "https://commons.wikimedia.org/wiki/Special:FilePath/Michelangelo%2C%20profeti%2C%20Ezekiel%2001.jpg?width=420",
    "wikipedia_es": "https://es.wikipedia.org/wiki/Ezequiel_(Miguel_%C3%81ngel)",
    "wikipedia_it": "https://it.wikipedia.org/wiki/Ezechiele_(Michelangelo)",
    "wikidata": "https://www.wikidata.org/wiki/Q3736323",
    "creation_place": "Rome",
    "creation_lat": 41.9028,
    "creation_lon": 12.4964,
    "_source": {
     "source": "Wikidata",
     "url": "https://www.wikidata.org/wiki/Q3736323",
     "retrieved_at": "2026-08-23"
    },
    "_overrides": {
     "creation": {
      "at": "2026-08-23",
      "source": "derived from start date + Caravaggio's documented itinerary (approximate)"
     }
    },
    "museum_id": "sistine-chapel",
    "qid": "Q3736323",
    "wga_url": "https://www.wga.hu/html/m/michelan/3sistina/3prophet/05_1pr4a.html"
   }
  },
  {
   "type": "Feature",
   "geometry": {
    "type": "Point",
    "coordinates": [
     12.454433,
     41.902956
    ]
   },
   "properties": {
    "painter": "Michelangelo",
    "title": "Judith and Holofernes",
    "year": "1508",
    "city": "Vatican City",
    "country": "Vatican City",
    "location": "Sistine Chapel",
    "kind": "church",
    "attribution": "generally accepted",
    "status": "present",
    "medium": "Fresco",
    "dimensions": "570 × 970 cm",
    "genre": "religious art",
    "image": "https://commons.wikimedia.org/wiki/Special:FilePath/Judith%20and%20Holofernes%20%28Michelangelo%29.jpg?width=420",
    "wikipedia_it": "https://it.wikipedia.org/wiki/Giuditta_e_Oloferne_(Michelangelo)",
    "wikidata": "https://www.wikidata.org/wiki/Q3769181",
    "creation_place": "Rome",
    "creation_lat": 41.9028,
    "creation_lon": 12.4964,
    "_source": {
     "source": "Wikidata",
     "url": "https://www.wikidata.org/wiki/Q3769181",
     "retrieved_at": "2026-08-23"
    },
    "_overrides": {
     "creation": {
      "at": "2026-08-23",
      "source": "derived from start date + Caravaggio's documented itinerary (approximate)"
     }
    },
    "museum_id": "sistine-chapel",
    "qid": "Q3769181"
   }
  },
  {
   "type": "Feature",
   "geometry": {
    "type": "Point",
    "coordinates": [
     12.4544,
     41.9064
    ]
   },
   "properties": {
    "painter": "Michelangelo",
    "title": "Jesse, David and Solomon",
    "year": "1511",
    "city": "Vatican City",
    "country": "Vatican City",
    "location": "Vatican Museums",
    "kind": "museum",
    "attribution": "generally accepted",
    "status": "present",
    "medium": "Fresco",
    "dimensions": "215 × 430 cm",
    "genre": "religious art",
    "image": "https://commons.wikimedia.org/wiki/Special:FilePath/Michelangelo%2C%20lunetta%2C%20Jesse%20-%20David%20-%20Solomon%2001.jpg?width=420",
    "wikipedia_it": "https://it.wikipedia.org/wiki/Iesse,_Davide_e_Salomone",
    "wikidata": "https://www.wikidata.org/wiki/Q3792087",
    "creation_place": "Rome",
    "creation_lat": 41.9028,
    "creation_lon": 12.4964,
    "_source": {
     "source": "Wikidata",
     "url": "https://www.wikidata.org/wiki/Q3792087",
     "retrieved_at": "2026-08-23"
    },
    "_overrides": {
     "creation": {
      "at": "2026-08-23",
      "source": "derived from start date + Caravaggio's documented itinerary (approximate)"
     }
    },
    "museum_id": "vatican-museums",
    "qid": "Q3792087",
    "wga_url": "https://www.wga.hu/html/m/michelan/3sistina/6lunette/11/lu11ies.html"
   }
  },
  {
   "type": "Feature",
   "geometry": {
    "type": "Point",
    "coordinates": [
     12.4544,
     41.9064
    ]
   },
   "properties": {
    "painter": "Michelangelo",
    "title": "Nahshon",
    "year": "1511",
    "city": "Vatican City",
    "country": "Vatican City",
    "location": "Vatican Museums",
    "kind": "museum",
    "attribution": "generally accepted",
    "status": "present",
    "medium": "Fresco",
    "genre": "religious art",
    "image": "https://commons.wikimedia.org/wiki/Special:FilePath/Michelangelo%20Sistine%20Chapel%20ceiling%20-%20Naason%20restored.jpg?width=420",
    "wikipedia_it": "https://it.wikipedia.org/wiki/Naasson",
    "wikidata": "https://www.wikidata.org/wiki/Q3869770",
    "creation_place": "Rome",
    "creation_lat": 41.9028,
    "creation_lon": 12.4964,
    "_source": {
     "source": "Wikidata",
     "url": "https://www.wikidata.org/wiki/Q3869770",
     "retrieved_at": "2026-08-23"
    },
    "_overrides": {
     "creation": {
      "at": "2026-08-23",
      "source": "derived from start date + Caravaggio's documented itinerary (approximate)"
     }
    },
    "museum_id": "vatican-museums",
    "qid": "Q3869770",
    "wga_url": "https://www.wga.hu/html/m/michelan/3sistina/6lunette/13/lu13naa.html"
   }
  },
  {
   "type": "Feature",
   "geometry": {
    "type": "Point",
    "coordinates": [
     12.4544,
     41.9064
    ]
   },
   "properties": {
    "painter": "Michelangelo",
    "title": "Uzziah, Jotham and Ahaz",
    "year": "1508",
    "city": "Vatican City",
    "country": "Vatican City",
    "location": "Vatican Museums",
    "kind": "museum",
    "attribution": "generally accepted",
    "status": "present",
    "medium": "Fresco",
    "dimensions": "215 × 430 cm",
    "genre": "religious art",
    "image": "https://commons.wikimedia.org/wiki/Special:FilePath/Michelangelo%2C%20lunetta%2C%20Uzziah%20-%20Jotham%20-%20Ahaz%2001.jpg?width=420",
    "wikipedia_it": "https://it.wikipedia.org/wiki/Ozia,_Ioatam_e_Acaz",
    "wikidata": "https://www.wikidata.org/wiki/Q3887821",
    "creation_place": "Rome",
    "creation_lat": 41.9028,
    "creation_lon": 12.4964,
    "_source": {
     "source": "Wikidata",
     "url": "https://www.wikidata.org/wiki/Q3887821",
     "retrieved_at": "2026-08-23"
    },
    "_overrides": {
     "creation": {
      "at": "2026-08-23",
      "source": "derived from start date + Caravaggio's documented itinerary (approximate)"
     }
    },
    "museum_id": "vatican-museums",
    "qid": "Q3887821",
    "wga_url": "https://www.wga.hu/html/m/michelan/3sistina/6lunette/08/lu08ozi.html"
   }
  },
  {
   "type": "Feature",
   "geometry": {
    "type": "Point",
    "coordinates": [
     12.454433,
     41.902956
    ]
   },
   "properties": {
    "painter": "Michelangelo",
    "title": "The Punishment of Haman",
    "year": "1511",
    "city": "Vatican City",
    "country": "Vatican City",
    "location": "Sistine Chapel",
    "kind": "church",
    "attribution": "generally accepted",
    "status": "present",
    "medium": "Fresco",
    "dimensions": "585 × 985 cm",
    "genre": "religious art",
    "image": "https://commons.wikimedia.org/wiki/Special:FilePath/Michelangelo%2C%20Punishment%20of%20Haman%2001.jpg?width=420",
    "wikipedia_it": "https://it.wikipedia.org/wiki/Punizione_di_Aman",
    "wikidata": "https://www.wikidata.org/wiki/Q3925593",
    "creation_place": "Rome",
    "creation_lat": 41.9028,
    "creation_lon": 12.4964,
    "_source": {
     "source": "Wikidata",
     "url": "https://www.wikidata.org/wiki/Q3925593",
     "retrieved_at": "2026-08-23"
    },
    "_overrides": {
     "creation": {
      "at": "2026-08-23",
      "source": "derived from start date + Caravaggio's documented itinerary (approximate)"
     }
    },
    "museum_id": "sistine-chapel",
    "qid": "Q3925593",
    "wga_url": "https://www.wga.hu/html/m/michelan/3sistina/5spandre/10_1pe3.html"
   }
  },
  {
   "type": "Feature",
   "geometry": {
    "type": "Point",
    "coordinates": [
     12.4544,
     41.9064
    ]
   },
   "properties": {
    "painter": "Michelangelo",
    "title": "Sistine Chapel lunettes - Rehoboam, Abijah",
    "year": "1511",
    "city": "Vatican City",
    "country": "Vatican City",
    "location": "Vatican Museums",
    "kind": "museum",
    "attribution": "generally accepted",
    "status": "present",
    "medium": "Fresco",
    "dimensions": "215 × 430 cm",
    "genre": "religious art",
    "image": "https://commons.wikimedia.org/wiki/Special:FilePath/Michelangelo%2C%20lunetta%2C%20Rehoboam%20-%20Abijah%2001.jpg?width=420",
    "wikipedia_it": "https://it.wikipedia.org/wiki/Roboamo_e_Abia",
    "wikidata": "https://www.wikidata.org/wiki/Q3939302",
    "creation_place": "Rome",
    "creation_lat": 41.9028,
    "creation_lon": 12.4964,
    "_source": {
     "source": "Wikidata",
     "url": "https://www.wikidata.org/wiki/Q3939302",
     "retrieved_at": "2026-08-23"
    },
    "_overrides": {
     "creation": {
      "at": "2026-08-23",
      "source": "derived from start date + Caravaggio's documented itinerary (approximate)"
     }
    },
    "museum_id": "vatican-museums",
    "qid": "Q3939302",
    "wga_url": "https://www.wga.hu/html/m/michelan/3sistina/6lunette/10/lu10rob.html"
   }
  },
  {
   "type": "Feature",
   "geometry": {
    "type": "Point",
    "coordinates": [
     12.454433,
     41.902956
    ]
   },
   "properties": {
    "painter": "Michelangelo",
    "title": "The Sacrifice of Noah",
    "year": "1508",
    "city": "Vatican City",
    "country": "Vatican City",
    "location": "Sistine Chapel",
    "kind": "church",
    "attribution": "generally accepted",
    "status": "present",
    "medium": "Fresco",
    "dimensions": "170 × 260 cm",
    "genre": "religious art",
    "image": "https://commons.wikimedia.org/wiki/Special:FilePath/Michelangelo%2C%20Sacrifice%20of%20Noah%2001.jpg?width=420",
    "wikipedia_es": "https://es.wikipedia.org/wiki/El_sacrificio_de_No%C3%A9",
    "wikipedia_it": "https://it.wikipedia.org/wiki/Sacrificio_di_No%C3%A8",
    "wikidata": "https://www.wikidata.org/wiki/Q3944655",
    "creation_place": "Rome",
    "creation_lat": 41.9028,
    "creation_lon": 12.4964,
    "_source": {
     "source": "Wikidata",
     "url": "https://www.wikidata.org/wiki/Q3944655",
     "retrieved_at": "2026-08-23"
    },
    "_overrides": {
     "creation": {
      "at": "2026-08-23",
      "source": "derived from start date + Caravaggio's documented itinerary (approximate)"
     }
    },
    "museum_id": "sistine-chapel",
    "qid": "Q3944655",
    "wga_url": "https://www.wga.hu/html/m/michelan/3sistina/1genesis/3sacrifi/03_3ce3.html"
   }
  },
  {
   "type": "Feature",
   "geometry": {
    "type": "Point",
    "coordinates": [
     12.4544,
     41.9064
    ]
   },
   "properties": {
    "painter": "Michelangelo",
    "title": "Salmon, Boaz, Obed",
    "year": "1511",
    "city": "Vatican City",
    "country": "Vatican City",
    "location": "Vatican Museums",
    "kind": "museum",
    "attribution": "generally accepted",
    "status": "present",
    "medium": "Fresco",
    "dimensions": "215 × 430 cm",
    "genre": "religious art",
    "image": "https://commons.wikimedia.org/wiki/Special:FilePath/Michelangelo%2C%20lunetta%2C%20Salmon%20-%20Boaz%20-%20Obed%2001.jpg?width=420",
    "wikipedia_it": "https://it.wikipedia.org/wiki/Salm%C3%B2n,_Booz_e_Obed",
    "wikidata": "https://www.wikidata.org/wiki/Q3945680",
    "creation_place": "Rome",
    "creation_lat": 41.9028,
    "creation_lon": 12.4964,
    "_source": {
     "source": "Wikidata",
     "url": "https://www.wikidata.org/wiki/Q3945680",
     "retrieved_at": "2026-08-23"
    },
    "_overrides": {
     "creation": {
      "at": "2026-08-23",
      "source": "derived from start date + Caravaggio's documented itinerary (approximate)"
     }
    },
    "museum_id": "vatican-museums",
    "qid": "Q3945680",
    "wga_url": "https://www.wga.hu/html/m/michelan/3sistina/6lunette/12/lu12sal.html"
   }
  },
  {
   "type": "Feature",
   "geometry": {
    "type": "Point",
    "coordinates": [
     12.454433,
     41.902956
    ]
   },
   "properties": {
    "painter": "Michelangelo",
    "title": "The Separation of the Earth and Waters",
    "year": "1511",
    "city": "Vatican City",
    "country": "Vatican City",
    "location": "Sistine Chapel",
    "kind": "church",
    "attribution": "generally accepted",
    "status": "present",
    "medium": "Fresco",
    "dimensions": "155 × 270 cm",
    "genre": "religious art",
    "image": "https://commons.wikimedia.org/wiki/Special:FilePath/Sistine%20Chapel%20ceiling%2C%20Creation%20of%20Adam.jpg?width=420",
    "wikipedia_es": "https://es.wikipedia.org/wiki/Separaci%C3%B3n_de_las_aguas_y_la_tierra",
    "wikipedia_it": "https://it.wikipedia.org/wiki/Separazione_della_terra_dalle_acque",
    "wikidata": "https://www.wikidata.org/wiki/Q3955632",
    "creation_place": "Rome",
    "creation_lat": 41.9028,
    "creation_lon": 12.4964,
    "_source": {
     "source": "Wikidata",
     "url": "https://www.wikidata.org/wiki/Q3955632",
     "retrieved_at": "2026-08-23"
    },
    "_overrides": {
     "creation": {
      "at": "2026-08-23",
      "source": "derived from start date + Caravaggio's documented itinerary (approximate)"
     }
    },
    "museum_id": "sistine-chapel",
    "qid": "Q3955632",
    "wga_url": "https://www.wga.hu/html/m/michelan/3sistina/1genesis/7earth/07_3ce7.html"
   }
  },
  {
   "type": "Feature",
   "geometry": {
    "type": "Point",
    "coordinates": [
     12.454433,
     41.902956
    ]
   },
   "properties": {
    "painter": "Michelangelo",
    "title": "Separation of Light from Darkness",
    "year": "1512",
    "city": "Vatican City",
    "country": "Vatican City",
    "location": "Sistine Chapel",
    "kind": "church",
    "attribution": "generally accepted",
    "status": "present",
    "medium": "Fresco",
    "dimensions": "180 × 260 cm",
    "genre": "religious art",
    "image": "https://commons.wikimedia.org/wiki/Special:FilePath/Dividing%20Light%20from%20Darkness.jpg?width=420",
    "wikipedia_es": "https://es.wikipedia.org/wiki/Separaci%C3%B3n_de_la_luz_de_la_oscuridad",
    "wikipedia_en": "https://en.wikipedia.org/wiki/Separation_of_Light_from_Darkness",
    "wikipedia_it": "https://it.wikipedia.org/wiki/Separazione_della_luce_dalle_tenebre",
    "wikidata": "https://www.wikidata.org/wiki/Q3955636",
    "creation_place": "Rome",
    "creation_lat": 41.9028,
    "creation_lon": 12.4964,
    "_source": {
     "source": "Wikidata",
     "url": "https://www.wikidata.org/wiki/Q3955636",
     "retrieved_at": "2026-08-23"
    },
    "_overrides": {
     "creation": {
      "at": "2026-08-23",
      "source": "derived from start date + Caravaggio's documented itinerary (approximate)"
     }
    },
    "museum_id": "sistine-chapel",
    "qid": "Q3955636"
   }
  },
  {
   "type": "Feature",
   "geometry": {
    "type": "Point",
    "coordinates": [
     12.454433,
     41.902956
    ]
   },
   "properties": {
    "painter": "Michelangelo",
    "title": "The Brazen Serpent",
    "year": "1511",
    "city": "Vatican City",
    "country": "Vatican City",
    "location": "Sistine Chapel",
    "kind": "church",
    "attribution": "generally accepted",
    "status": "present",
    "medium": "Fresco",
    "dimensions": "585 × 985 cm",
    "genre": "religious art",
    "image": "https://commons.wikimedia.org/wiki/Special:FilePath/Michelangelo%2C%20Brazen%20Serpent%2002.jpg?width=420",
    "wikipedia_it": "https://it.wikipedia.org/wiki/Serpente_di_bronzo_(Michelangelo)",
    "wikidata": "https://www.wikidata.org/wiki/Q3957934",
    "creation_place": "Rome",
    "creation_lat": 41.9028,
    "creation_lon": 12.4964,
    "_source": {
     "source": "Wikidata",
     "url": "https://www.wikidata.org/wiki/Q3957934",
     "retrieved_at": "2026-08-23"
    },
    "_overrides": {
     "creation": {
      "at": "2026-08-23",
      "source": "derived from start date + Caravaggio's documented itinerary (approximate)"
     }
    },
    "museum_id": "sistine-chapel",
    "qid": "Q3957934",
    "wga_url": "https://www.wga.hu/html/m/michelan/3sistina/5spandre/10_4pe4b.html"
   }
  },
  {
   "type": "Feature",
   "geometry": {
    "type": "Point",
    "coordinates": [
     12.454433,
     41.902956
    ]
   },
   "properties": {
    "painter": "Michelangelo",
    "title": "Cumaean Sibyl",
    "year": "1511",
    "city": "Vatican City",
    "country": "Vatican City",
    "location": "Sistine Chapel",
    "kind": "church",
    "attribution": "generally accepted",
    "status": "present",
    "medium": "Fresco",
    "dimensions": "375 × 380 cm",
    "genre": "mythological painting",
    "image": "https://commons.wikimedia.org/wiki/Special:FilePath/CumaeanSibylByMichelangelo.jpg?width=420",
    "wikipedia_es": "https://es.wikipedia.org/wiki/Sibila_Cumana_(Miguel_%C3%81ngel)",
    "wikipedia_it": "https://it.wikipedia.org/wiki/Sibilla_Cumana_(Michelangelo)",
    "wikidata": "https://www.wikidata.org/wiki/Q3960003",
    "creation_place": "Rome",
    "creation_lat": 41.9028,
    "creation_lon": 12.4964,
    "_source": {
     "source": "Wikidata",
     "url": "https://www.wikidata.org/wiki/Q3960003",
     "retrieved_at": "2026-08-23"
    },
    "_overrides": {
     "creation": {
      "at": "2026-08-23",
      "source": "derived from start date + Caravaggio's documented itinerary (approximate)"
     }
    },
    "museum_id": "sistine-chapel",
    "qid": "Q3960003",
    "wga_url": "https://www.wga.hu/html/m/michelan/3sistina/4sibyls/05_6si3.html"
   }
  },
  {
   "type": "Feature",
   "geometry": {
    "type": "Point",
    "coordinates": [
     12.454433,
     41.902956
    ]
   },
   "properties": {
    "painter": "Michelangelo",
    "title": "Erythraean Sibyl",
    "year": "1508",
    "city": "Vatican City",
    "country": "Vatican City",
    "location": "Sistine Chapel",
    "kind": "church",
    "attribution": "generally accepted",
    "status": "present",
    "dimensions": "360 × 380 cm",
    "genre": "mythological painting",
    "image": "https://commons.wikimedia.org/wiki/Special:FilePath/Erythraean.jpg?width=420",
    "wikipedia_es": "https://es.wikipedia.org/wiki/Sibila_Eritrea_(Miguel_%C3%81ngel)",
    "wikipedia_it": "https://it.wikipedia.org/wiki/Sibilla_Eritrea_(Michelangelo)",
    "wikidata": "https://www.wikidata.org/wiki/Q3960006",
    "creation_place": "Rome",
    "creation_lat": 41.9028,
    "creation_lon": 12.4964,
    "_source": {
     "source": "Wikidata",
     "url": "https://www.wikidata.org/wiki/Q3960006",
     "retrieved_at": "2026-08-23"
    },
    "_overrides": {
     "creation": {
      "at": "2026-08-23",
      "source": "derived from start date + Caravaggio's documented itinerary (approximate)"
     }
    },
    "museum_id": "sistine-chapel",
    "qid": "Q3960006"
   }
  },
  {
   "type": "Feature",
   "geometry": {
    "type": "Point",
    "coordinates": [
     12.454433,
     41.902956
    ]
   },
   "properties": {
    "painter": "Michelangelo",
    "title": "Libyan Sibyl",
    "year": "1512",
    "city": "Vatican City",
    "country": "Vatican City",
    "location": "Sistine Chapel",
    "kind": "church",
    "attribution": "generally accepted",
    "status": "present",
    "medium": "Fresco",
    "dimensions": "395 × 380 cm",
    "genre": "mythological painting",
    "image": "https://commons.wikimedia.org/wiki/Special:FilePath/Sibila%20L%C3%ADbica.jpg?width=420",
    "wikipedia_es": "https://es.wikipedia.org/wiki/Sibila_L%C3%ADbica_(Miguel_%C3%81ngel)",
    "wikipedia_it": "https://it.wikipedia.org/wiki/Sibilla_Libica_(Michelangelo)",
    "wikidata": "https://www.wikidata.org/wiki/Q3960008",
    "creation_place": "Rome",
    "creation_lat": 41.9028,
    "creation_lon": 12.4964,
    "_source": {
     "source": "Wikidata",
     "url": "https://www.wikidata.org/wiki/Q3960008",
     "retrieved_at": "2026-08-23"
    },
    "_overrides": {
     "creation": {
      "at": "2026-08-23",
      "source": "derived from start date + Caravaggio's documented itinerary (approximate)"
     }
    },
    "museum_id": "sistine-chapel",
    "qid": "Q3960008",
    "wga_url": "https://www.wga.hu/html/m/michelan/3sistina/4sibyls/09_7si5.html"
   }
  },
  {
   "type": "Feature",
   "geometry": {
    "type": "Point",
    "coordinates": [
     12.454433,
     41.902956
    ]
   },
   "properties": {
    "painter": "Michelangelo",
    "title": "Sistine Chapel ceiling - Persian Sibyl",
    "year": "1511",
    "city": "Vatican City",
    "country": "Vatican City",
    "location": "Sistine Chapel",
    "kind": "church",
    "attribution": "generally accepted",
    "status": "present",
    "medium": "Fresco",
    "dimensions": "400 × 380 cm",
    "genre": "mythological painting",
    "image": "https://commons.wikimedia.org/wiki/Special:FilePath/Perzsa.jpg?width=420",
    "wikipedia_es": "https://es.wikipedia.org/wiki/Sibila_P%C3%A9rsica_(Miguel_%C3%81ngel)",
    "wikipedia_it": "https://it.wikipedia.org/wiki/Sibilla_Persica_(Michelangelo)",
    "wikidata": "https://www.wikidata.org/wiki/Q3960012",
    "creation_place": "Rome",
    "creation_lat": 41.9028,
    "creation_lon": 12.4964,
    "_source": {
     "source": "Wikidata",
     "url": "https://www.wikidata.org/wiki/Q3960012",
     "retrieved_at": "2026-08-23"
    },
    "_overrides": {
     "creation": {
      "at": "2026-08-23",
      "source": "derived from start date + Caravaggio's documented itinerary (approximate)"
     }
    },
    "museum_id": "sistine-chapel",
    "qid": "Q3960012",
    "wga_url": "https://www.wga.hu/html/m/michelan/3sistina/4sibyls/07_1si4.html"
   }
  },
  {
   "type": "Feature",
   "geometry": {
    "type": "Point",
    "coordinates": [
     12.454433,
     41.902956
    ]
   },
   "properties": {
    "painter": "Michelangelo",
    "title": "The Ancestors of Christ: Josias, Jeconiah and Shealtiel",
    "year": "1508",
    "city": "Vatican City",
    "country": "Vatican City",
    "location": "Sistine Chapel",
    "kind": "church",
    "attribution": "generally accepted",
    "status": "present",
    "medium": "Fresco",
    "dimensions": "245 × 340 cm",
    "genre": "religious art",
    "image": "https://commons.wikimedia.org/wiki/Special:FilePath/Michelangelo%2C%20antenati%20di%20cristo%2C%2002.jpg?width=420",
    "wikipedia_it": "https://it.wikipedia.org/wiki/Vela_sopra_Giosia,_Ieconia_e_Salatiel",
    "wikidata": "https://www.wikidata.org/wiki/Q4009315",
    "creation_place": "Rome",
    "creation_lat": 41.9028,
    "creation_lon": 12.4964,
    "_source": {
     "source": "Wikidata",
     "url": "https://www.wikidata.org/wiki/Q4009315",
     "retrieved_at": "2026-08-23"
    },
    "_overrides": {
     "creation": {
      "at": "2026-08-23",
      "source": "derived from start date + Caravaggio's documented itinerary (approximate)"
     }
    },
    "museum_id": "sistine-chapel",
    "qid": "Q4009315",
    "wga_url": "https://www.wga.hu/html/m/michelan/3sistina/7triangl/02_4sp2f.html"
   }
  },
  {
   "type": "Feature",
   "geometry": {
    "type": "Point",
    "coordinates": [
     12.454433,
     41.902956
    ]
   },
   "properties": {
    "painter": "Michelangelo",
    "title": "The Ancestors of Christ: Hezekiah, Manasseh and Ahaz",
    "year": "1510",
    "city": "Vatican City",
    "country": "Vatican City",
    "location": "Sistine Chapel",
    "kind": "church",
    "attribution": "generally accepted",
    "status": "present",
    "medium": "Fresco",
    "dimensions": "245 × 340 cm",
    "genre": "religious art",
    "image": "https://commons.wikimedia.org/wiki/Special:FilePath/Michelangelo%2C%20antenati%20di%20cristo%2C%2004.jpg?width=420",
    "wikipedia_it": "https://it.wikipedia.org/wiki/Vela_sopra_Ezechia,_Manasse_e_Amon",
    "wikidata": "https://www.wikidata.org/wiki/Q4009316",
    "creation_place": "Rome",
    "creation_lat": 41.9028,
    "creation_lon": 12.4964,
    "_source": {
     "source": "Wikidata",
     "url": "https://www.wikidata.org/wiki/Q4009316",
     "retrieved_at": "2026-08-23"
    },
    "_overrides": {
     "creation": {
      "at": "2026-08-23",
      "source": "derived from start date + Caravaggio's documented itinerary (approximate)"
     }
    },
    "museum_id": "sistine-chapel",
    "qid": "Q4009316",
    "wga_url": "https://www.wga.hu/html/m/michelan/3sistina/7triangl/04_4sp4f.html"
   }
  },
  {
   "type": "Feature",
   "geometry": {
    "type": "Point",
    "coordinates": [
     12.454433,
     41.902956
    ]
   },
   "properties": {
    "painter": "Michelangelo",
    "title": "Ancestors of Christ: David and Solomon",
    "year": "1511",
    "city": "Vatican City",
    "country": "Vatican City",
    "location": "Sistine Chapel",
    "kind": "church",
    "attribution": "generally accepted",
    "status": "present",
    "medium": "Fresco",
    "dimensions": "240 × 340 cm",
    "genre": "religious art",
    "image": "https://commons.wikimedia.org/wiki/Special:FilePath/Jesse%20Spandrel.jpg?width=420",
    "wikipedia_it": "https://it.wikipedia.org/wiki/Vela_sopra_Iesse,_Davide_e_Salomone",
    "wikidata": "https://www.wikidata.org/wiki/Q4009319",
    "creation_place": "Rome",
    "creation_lat": 41.9028,
    "creation_lon": 12.4964,
    "_source": {
     "source": "Wikidata",
     "url": "https://www.wikidata.org/wiki/Q4009319",
     "retrieved_at": "2026-08-23"
    },
    "_overrides": {
     "creation": {
      "at": "2026-08-23",
      "source": "derived from start date + Caravaggio's documented itinerary (approximate)"
     }
    },
    "museum_id": "sistine-chapel",
    "qid": "Q4009319",
    "wga_url": "https://www.wga.hu/html/m/michelan/3sistina/7triangl/08_4sp8f.html"
   }
  },
  {
   "type": "Feature",
   "geometry": {
    "type": "Point",
    "coordinates": [
     12.454433,
     41.902956
    ]
   },
   "properties": {
    "painter": "Michelangelo",
    "title": "The Ancestors of Christ: Uzziah,  Jotham and Ahaz",
    "year": "1510",
    "city": "Vatican City",
    "country": "Vatican City",
    "location": "Sistine Chapel",
    "kind": "church",
    "attribution": "generally accepted",
    "status": "present",
    "medium": "Fresco",
    "dimensions": "245 × 340 cm",
    "genre": "religious art",
    "image": "https://commons.wikimedia.org/wiki/Special:FilePath/Michelangelo%2C%20antenati%20di%20cristo%2C%2003.jpg?width=420",
    "wikipedia_it": "https://it.wikipedia.org/wiki/Vela_sopra_Ozia,_Ioatam_e_Acaz",
    "wikidata": "https://www.wikidata.org/wiki/Q4009320",
    "creation_place": "Rome",
    "creation_lat": 41.9028,
    "creation_lon": 12.4964,
    "_source": {
     "source": "Wikidata",
     "url": "https://www.wikidata.org/wiki/Q4009320",
     "retrieved_at": "2026-08-23"
    },
    "_overrides": {
     "creation": {
      "at": "2026-08-23",
      "source": "derived from start date + Caravaggio's documented itinerary (approximate)"
     }
    },
    "museum_id": "sistine-chapel",
    "qid": "Q4009320",
    "wga_url": "https://www.wga.hu/html/m/michelan/3sistina/7triangl/04_1sp3f.html"
   }
  },
  {
   "type": "Feature",
   "geometry": {
    "type": "Point",
    "coordinates": [
     12.454433,
     41.902956
    ]
   },
   "properties": {
    "painter": "Michelangelo",
    "title": "The Ancestors of Christ: Rehoboam and Abijah",
    "year": "1511",
    "city": "Vatican City",
    "country": "Vatican City",
    "location": "Sistine Chapel",
    "kind": "church",
    "attribution": "generally accepted",
    "status": "present",
    "medium": "Fresco",
    "dimensions": "245 × 340 cm",
    "image": "https://commons.wikimedia.org/wiki/Special:FilePath/Michelangelo%2C%20antenati%20di%20cristo%2C%2005.jpg?width=420",
    "wikipedia_it": "https://it.wikipedia.org/wiki/Vela_sopra_Roboamo_e_Abia",
    "wikidata": "https://www.wikidata.org/wiki/Q4009321",
    "creation_place": "Rome",
    "creation_lat": 41.9028,
    "creation_lon": 12.4964,
    "_source": {
     "source": "Wikidata",
     "url": "https://www.wikidata.org/wiki/Q4009321",
     "retrieved_at": "2026-08-23"
    },
    "_overrides": {
     "creation": {
      "at": "2026-08-23",
      "source": "derived from start date + Caravaggio's documented itinerary (approximate)"
     }
    },
    "museum_id": "sistine-chapel",
    "qid": "Q4009321",
    "wga_url": "https://www.wga.hu/html/m/michelan/3sistina/7triangl/06_1sp5f.html"
   }
  },
  {
   "type": "Feature",
   "geometry": {
    "type": "Point",
    "coordinates": [
     12.454433,
     41.902956
    ]
   },
   "properties": {
    "painter": "Michelangelo",
    "title": "The Ancestors of Christ: Salmon, Boaz and Obed",
    "year": "1511",
    "city": "Vatican City",
    "country": "Vatican City",
    "location": "Sistine Chapel",
    "kind": "church",
    "attribution": "generally accepted",
    "status": "present",
    "medium": "Fresco",
    "dimensions": "245 × 340 cm",
    "image": "https://commons.wikimedia.org/wiki/Special:FilePath/Michelangelo%2C%20antenati%20di%20cristo%2C%2007.jpg?width=420",
    "wikipedia_it": "https://it.wikipedia.org/wiki/Vela_sopra_Salm%C3%B2n,_Booz_e_Obed",
    "wikidata": "https://www.wikidata.org/wiki/Q4009322",
    "creation_place": "Rome",
    "creation_lat": 41.9028,
    "creation_lon": 12.4964,
    "_source": {
     "source": "Wikidata",
     "url": "https://www.wikidata.org/wiki/Q4009322",
     "retrieved_at": "2026-08-23"
    },
    "_overrides": {
     "creation": {
      "at": "2026-08-23",
      "source": "derived from start date + Caravaggio's documented itinerary (approximate)"
     }
    },
    "museum_id": "sistine-chapel",
    "qid": "Q4009322",
    "wga_url": "https://www.wga.hu/html/m/michelan/3sistina/7triangl/08_1sp7f.html"
   }
  },
  {
   "type": "Feature",
   "geometry": {
    "type": "Point",
    "coordinates": [
     12.45443,
     41.90296
    ]
   },
   "properties": {
    "painter": "Michelangelo",
    "title": "The Ancestors of Christ: Zerubbabel, Abiud and Eliakim",
    "year": "1508",
    "city": "Vatican City",
    "country": "Vatican City",
    "location": "Sistine Chapel",
    "kind": "museum",
    "attribution": "generally accepted",
    "status": "present",
    "medium": "Fresco",
    "dimensions": "245 × 340 cm",
    "genre": "religious art",
    "image": "https://commons.wikimedia.org/wiki/Special:FilePath/Michelangelo%2C%20antenati%20di%20cristo%2C%2001.jpg?width=420",
    "wikipedia_it": "https://it.wikipedia.org/wiki/Vela_sopra_Zorobabele,_Abiud_ed_Eliachim",
    "wikidata": "https://www.wikidata.org/wiki/Q4009323",
    "creation_place": "Rome",
    "creation_lat": 41.9028,
    "creation_lon": 12.4964,
    "_source": {
     "source": "Wikidata",
     "url": "https://www.wikidata.org/wiki/Q4009323",
     "retrieved_at": "2026-08-23"
    },
    "_overrides": {
     "creation": {
      "at": "2026-08-23",
      "source": "derived from start date + Caravaggio's documented itinerary (approximate)"
     }
    },
    "museum_id": "sistine-chapel",
    "qid": "Q4009323",
    "wga_url": "https://www.wga.hu/html/m/michelan/3sistina/7triangl/02_1sp1f.html"
   }
  },
  {
   "type": "Feature",
   "geometry": {
    "type": "Point",
    "coordinates": [
     12.454433,
     41.902956
    ]
   },
   "properties": {
    "painter": "Michelangelo",
    "title": "Prophet Zechariah",
    "year": "1508",
    "city": "Vatican City",
    "country": "Vatican City",
    "location": "Sistine Chapel",
    "kind": "church",
    "attribution": "generally accepted",
    "status": "present",
    "medium": "Fresco",
    "dimensions": "360 × 390 cm",
    "genre": "religious art",
    "image": "https://commons.wikimedia.org/wiki/Special:FilePath/Michelangelo%2C%20profeti%2C%20Zechariah%2001.jpg?width=420",
    "wikipedia_es": "https://es.wikipedia.org/wiki/Zacar%C3%ADas_(Miguel_%C3%81ngel)",
    "wikipedia_it": "https://it.wikipedia.org/wiki/Zaccaria_(Michelangelo)",
    "wikidata": "https://www.wikidata.org/wiki/Q4023582",
    "creation_place": "Rome",
    "creation_lat": 41.9028,
    "creation_lon": 12.4964,
    "_source": {
     "source": "Wikidata",
     "url": "https://www.wikidata.org/wiki/Q4023582",
     "retrieved_at": "2026-08-23"
    },
    "_overrides": {
     "creation": {
      "at": "2026-08-23",
      "source": "derived from start date + Caravaggio's documented itinerary (approximate)"
     }
    },
    "museum_id": "sistine-chapel",
    "qid": "Q4023582",
    "wga_url": "https://www.wga.hu/html/m/michelan/3sistina/3prophet/00_3pr1.html"
   }
  },
  {
   "type": "Feature",
   "geometry": {
    "type": "Point",
    "coordinates": [
     12.4544,
     41.9064
    ]
   },
   "properties": {
    "painter": "Michelangelo",
    "title": "Zerubbabel, Abiud and Eliakim",
    "year": "1508",
    "city": "Vatican City",
    "country": "Vatican City",
    "location": "Vatican Museums",
    "kind": "museum",
    "attribution": "generally accepted",
    "status": "present",
    "medium": "Fresco",
    "dimensions": "215 × 430 cm",
    "genre": "religious art",
    "image": "https://commons.wikimedia.org/wiki/Special:FilePath/Michelangelo%2C%20lunetta%2C%20Zerubbabel%20-%20Abiud%20-%20Eliakim%2001.jpg?width=420",
    "wikipedia_it": "https://it.wikipedia.org/wiki/Zorobabele,_Abiud_ed_Eliachim",
    "wikidata": "https://www.wikidata.org/wiki/Q4024821",
    "creation_place": "Rome",
    "creation_lat": 41.9028,
    "creation_lon": 12.4964,
    "_source": {
     "source": "Wikidata",
     "url": "https://www.wikidata.org/wiki/Q4024821",
     "retrieved_at": "2026-08-23"
    },
    "_overrides": {
     "creation": {
      "at": "2026-08-23",
      "source": "derived from start date + Caravaggio's documented itinerary (approximate)"
     }
    },
    "museum_id": "vatican-museums",
    "qid": "Q4024821",
    "wga_url": "https://www.wga.hu/html/m/michelan/3sistina/6lunette/05/lu05zer.html"
   }
  }
 ]
}