{
 "type": "FeatureCollection",
 "_note": "Generated by scripts/build.py from Wikidata. Do not edit by hand — put manual fixes in the painter's overlay (data/overlay/*.json). Each feature carries _source (scraped base or manual addition) and, when edited, _overrides.",
 "features": [
  {
   "type": "Feature",
   "geometry": {
    "type": "Point",
    "coordinates": [
     -3.22784,
     55.95092
    ]
   },
   "properties": {
    "painter": "Joan Miró",
    "title": "Maternity",
    "year": "1924",
    "city": "Edinburgh",
    "country": "United Kingdom",
    "location": "Scottish National Gallery of Modern Art",
    "kind": "museum",
    "attribution": "attributed",
    "status": "present",
    "medium": "Oil on canvas",
    "dimensions": "92.1 × 73.1 cm",
    "wikidata": "https://www.wikidata.org/wiki/Q10327313",
    "_source": {
     "source": "Wikidata",
     "url": "https://www.wikidata.org/wiki/Q10327313",
     "retrieved_at": "2026-08-23"
    },
    "_overrides": {
     "creation": {
      "at": "2026-08-23",
      "source": "derived from start date + Caravaggio's documented itinerary (approximate)"
     }
    },
    "museum_id": "scottish-national-gallery-of-modern-art",
    "qid": "Q10327313"
   }
  },
  {
   "type": "Feature",
   "geometry": {
    "type": "Point",
    "coordinates": [
     -77.02,
     38.8914
    ]
   },
   "properties": {
    "painter": "Joan Miró",
    "title": "The Farm",
    "year": "1920",
    "city": "Washington",
    "country": "United States",
    "location": "National Gallery of Art",
    "kind": "museum",
    "attribution": "generally accepted",
    "status": "present",
    "medium": "Oil on canvas",
    "dimensions": "123.8 × 141.3 cm",
    "wikipedia_es": "https://es.wikipedia.org/wiki/La_mas%C3%ADa_(Mir%C3%B3)",
    "wikipedia_en": "https://en.wikipedia.org/wiki/The_Farm_(Mir%C3%B3)",
    "wikipedia_it": "https://it.wikipedia.org/wiki/La_fattoria_(Mir%C3%B2)",
    "wikidata": "https://www.wikidata.org/wiki/Q1192436",
    "creation_place": "Barcelona",
    "creation_lat": 41.3874,
    "creation_lon": 2.1686,
    "_source": {
     "source": "Wikidata",
     "url": "https://www.wikidata.org/wiki/Q1192436",
     "retrieved_at": "2026-08-23"
    },
    "_overrides": {
     "creation": {
      "at": "2026-08-23",
      "source": "derived from start date + Caravaggio's documented itinerary (approximate)"
     }
    },
    "museum_id": "national-gallery-of-art",
    "qid": "Q1192436"
   }
  },
  {
   "type": "Feature",
   "geometry": {
    "type": "Point",
    "coordinates": [
     -75.181,
     39.966
    ]
   },
   "properties": {
    "painter": "Joan Miró",
    "title": "Dog Barking at the Moon",
    "year": "1926",
    "city": "Philadelphia",
    "country": "United States",
    "location": "Philadelphia Museum of Art",
    "kind": "museum",
    "attribution": "generally accepted",
    "status": "present",
    "medium": "Oil on canvas",
    "dimensions": "73 × 92.1 cm",
    "wikipedia_en": "https://en.wikipedia.org/wiki/Dog_Barking_at_the_Moon",
    "wikidata": "https://www.wikidata.org/wiki/Q11924520",
    "_source": {
     "source": "Wikidata",
     "url": "https://www.wikidata.org/wiki/Q11924520",
     "retrieved_at": "2026-08-23"
    },
    "_overrides": {
     "creation": {
      "at": "2026-08-23",
      "source": "derived from start date + Caravaggio's documented itinerary (approximate)"
     }
    },
    "museum_id": "philadelphia-museum-of-art",
    "qid": "Q11924520"
   }
  },
  {
   "type": "Feature",
   "geometry": {
    "type": "Point",
    "coordinates": [
     12.33154,
     45.43082
    ]
   },
   "properties": {
    "painter": "Joan Miró",
    "title": "Painting (1925)",
    "year": "1925",
    "city": "Venice",
    "country": "Italy",
    "location": "Peggy Guggenheim Collection",
    "kind": "museum",
    "attribution": "attributed",
    "status": "present",
    "dimensions": "114.5 × 145.7 cm",
    "wikidata": "https://www.wikidata.org/wiki/Q12034968",
    "_source": {
     "source": "Wikidata",
     "url": "https://www.wikidata.org/wiki/Q12034968",
     "retrieved_at": "2026-08-23"
    },
    "_overrides": {
     "creation": {
      "at": "2026-08-23",
      "source": "derived from start date + Caravaggio's documented itinerary (approximate)"
     }
    },
    "museum_id": "peggy-guggenheim-collection",
    "qid": "Q12034968"
   }
  },
  {
   "type": "Feature",
   "geometry": {
    "type": "Point",
    "coordinates": [
     -96.80889,
     32.77917
    ]
   },
   "properties": {
    "painter": "Joan Miró",
    "title": "Queen Louise of Prussia",
    "year": "1929",
    "city": "Dallas",
    "country": "United States",
    "location": "Meadows Museum",
    "kind": "museum",
    "attribution": "attributed",
    "status": "present",
    "medium": "Oil on canvas",
    "dimensions": "82.6 × 101 cm",
    "genre": "portrait",
    "wikidata": "https://www.wikidata.org/wiki/Q121484785",
    "_source": {
     "source": "Wikidata",
     "url": "https://www.wikidata.org/wiki/Q121484785",
     "retrieved_at": "2026-08-23"
    },
    "_overrides": {
     "creation": {
      "at": "2026-08-23",
      "source": "derived from start date + Caravaggio's documented itinerary (approximate)"
     }
    },
    "museum_id": "meadows-museum",
    "qid": "Q121484785"
   }
  },
  {
   "type": "Feature",
   "geometry": {
    "type": "Point",
    "coordinates": [
     -73.9775,
     40.7617
    ]
   },
   "properties": {
    "painter": "Joan Miró",
    "title": "Still Life with Old Shoe",
    "year": "1937",
    "city": "New York",
    "country": "United States",
    "location": "Museum of Modern Art",
    "kind": "museum",
    "attribution": "generally accepted",
    "status": "present",
    "medium": "Oil paint",
    "dimensions": "32 × 46 cm",
    "genre": "still life",
    "wikipedia_es": "https://es.wikipedia.org/wiki/Bodeg%C3%B3n_con_zapato_viejo",
    "wikipedia_en": "https://en.wikipedia.org/wiki/Still_Life_with_Old_Shoe",
    "wikipedia_it": "https://it.wikipedia.org/wiki/Natura_morta_del_sabatot",
    "wikidata": "https://www.wikidata.org/wiki/Q1781689",
    "_source": {
     "source": "Wikidata",
     "url": "https://www.wikidata.org/wiki/Q1781689",
     "retrieved_at": "2026-08-23"
    },
    "_overrides": {
     "creation": {
      "at": "2026-08-23",
      "source": "derived from start date + Caravaggio's documented itinerary (approximate)"
     }
    },
    "museum_id": "museum-of-modern-art",
    "qid": "Q1781689"
   }
  },
  {
   "type": "Feature",
   "geometry": {
    "type": "Point",
    "coordinates": [
     -99.2046,
     19.4407
    ]
   },
   "properties": {
    "painter": "Joan Miró",
    "title": "Composition (1934)",
    "year": "1934",
    "city": "Mexico City",
    "country": "Mexico",
    "location": "Museo Soumaya",
    "kind": "museum",
    "attribution": "generally accepted",
    "status": "present",
    "dimensions": "37.1 × 24 cm",
    "wikipedia_es": "https://es.wikipedia.org/wiki/Composici%C3%B3n_(Mir%C3%B3)",
    "wikidata": "https://www.wikidata.org/wiki/Q18203224",
    "_source": {
     "source": "Wikidata",
     "url": "https://www.wikidata.org/wiki/Q18203224",
     "retrieved_at": "2026-08-23"
    },
    "_overrides": {
     "creation": {
      "at": "2026-08-23",
      "source": "derived from start date + Caravaggio's documented itinerary (approximate)"
     }
    },
    "museum_id": "museo-soumaya",
    "qid": "Q18203224"
   }
  },
  {
   "type": "Feature",
   "geometry": {
    "type": "Point",
    "coordinates": [
     2.35224,
     48.86064
    ]
   },
   "properties": {
    "painter": "Joan Miró",
    "title": "Interior",
    "year": "1923",
    "city": "Quartier Saint-Merri",
    "country": "France",
    "location": "Centre Georges Pompidou",
    "kind": "museum",
    "attribution": "attributed",
    "status": "present",
    "medium": "Oil on canvas",
    "dimensions": "81 × 65.5 cm",
    "genre": "interior view",
    "wikidata": "https://www.wikidata.org/wiki/Q18719626",
    "_source": {
     "source": "Wikidata",
     "url": "https://www.wikidata.org/wiki/Q18719626",
     "retrieved_at": "2026-08-23"
    },
    "_overrides": {
     "creation": {
      "at": "2026-08-23",
      "source": "derived from start date + Caravaggio's documented itinerary (approximate)"
     }
    },
    "museum_id": "centre-georges-pompidou",
    "qid": "Q18719626"
   }
  },
  {
   "type": "Feature",
   "geometry": {
    "type": "Point",
    "coordinates": [
     2.16,
     41.36861
    ]
   },
   "properties": {
    "painter": "Joan Miró",
    "title": "Portrait of a Girl",
    "year": "1919",
    "city": "Montjuïc",
    "country": "Spain",
    "location": "Fundació Joan Miró",
    "kind": "museum",
    "attribution": "attributed",
    "status": "present",
    "genre": "portrait",
    "wikidata": "https://www.wikidata.org/wiki/Q18719671",
    "creation_place": "Barcelona",
    "creation_lat": 41.3874,
    "creation_lon": 2.1686,
    "_source": {
     "source": "Wikidata",
     "url": "https://www.wikidata.org/wiki/Q18719671",
     "retrieved_at": "2026-08-23"
    },
    "_overrides": {
     "creation": {
      "at": "2026-08-23",
      "source": "derived from start date + Caravaggio's documented itinerary (approximate)"
     }
    },
    "museum_id": "fundacio-joan-miro",
    "qid": "Q18719671"
   }
  },
  {
   "type": "Feature",
   "geometry": {
    "type": "Point",
    "coordinates": [
     2.16,
     41.36861
    ]
   },
   "properties": {
    "painter": "Joan Miró",
    "title": "May 1968",
    "year": "1968",
    "city": "Montjuïc",
    "country": "Spain",
    "location": "Fundació Joan Miró",
    "kind": "museum",
    "attribution": "generally accepted",
    "status": "present",
    "medium": "Oil on canvas",
    "dimensions": "200 × 200 cm",
    "wikipedia_es": "https://es.wikipedia.org/wiki/Mayo_1968",
    "wikipedia_en": "https://en.wikipedia.org/wiki/May_1968_(Mir%C3%B3)",
    "wikidata": "https://www.wikidata.org/wiki/Q1885116",
    "_source": {
     "source": "Wikidata",
     "url": "https://www.wikidata.org/wiki/Q1885116",
     "retrieved_at": "2026-08-23"
    },
    "_overrides": {
     "creation": {
      "at": "2026-08-23",
      "source": "derived from start date + Caravaggio's documented itinerary (approximate)"
     }
    },
    "museum_id": "fundacio-joan-miro",
    "qid": "Q1885116"
   }
  },
  {
   "type": "Feature",
   "geometry": {
    "type": "Point",
    "coordinates": [
     2.16,
     41.36861
    ]
   },
   "properties": {
    "painter": "Joan Miró",
    "title": "Tornaveu de l'auditori de la Fundació Joan Miró",
    "year": "1975",
    "city": "Montjuïc",
    "country": "Spain",
    "location": "Fundació Joan Miró",
    "kind": "museum",
    "attribution": "attributed",
    "status": "present",
    "dimensions": "470 × 600 cm",
    "wikidata": "https://www.wikidata.org/wiki/Q19257618",
    "_source": {
     "source": "Wikidata",
     "url": "https://www.wikidata.org/wiki/Q19257618",
     "retrieved_at": "2026-08-23"
    },
    "_overrides": {
     "creation": {
      "at": "2026-08-23",
      "source": "derived from start date + Caravaggio's documented itinerary (approximate)"
     }
    },
    "museum_id": "fundacio-joan-miro",
    "qid": "Q19257618"
   }
  },
  {
   "type": "Feature",
   "geometry": {
    "type": "Point",
    "coordinates": [
     -73.9775,
     40.7617
    ]
   },
   "properties": {
    "painter": "Joan Miró",
    "title": "Still Life II",
    "year": "1922",
    "city": "New York",
    "country": "United States",
    "location": "Museum of Modern Art",
    "kind": "museum",
    "attribution": "attributed",
    "status": "present",
    "medium": "Oil on canvas",
    "dimensions": "381 × 457 cm",
    "genre": "still life",
    "wikidata": "https://www.wikidata.org/wiki/Q19883846",
    "_source": {
     "source": "Wikidata",
     "url": "https://www.wikidata.org/wiki/Q19883846",
     "retrieved_at": "2026-08-23"
    },
    "_overrides": {
     "creation": {
      "at": "2026-08-23",
      "source": "derived from start date + Caravaggio's documented itinerary (approximate)"
     }
    },
    "museum_id": "museum-of-modern-art",
    "qid": "Q19883846"
   }
  },
  {
   "type": "Feature",
   "geometry": {
    "type": "Point",
    "coordinates": [
     -73.9775,
     40.7617
    ]
   },
   "properties": {
    "painter": "Joan Miró",
    "title": "Person Throwing a Stone at a Bird",
    "year": "1926",
    "city": "New York",
    "country": "United States",
    "location": "Museum of Modern Art",
    "kind": "museum",
    "attribution": "attributed",
    "status": "present",
    "medium": "Oil on canvas",
    "dimensions": "73.7 × 92.1 cm",
    "wikidata": "https://www.wikidata.org/wiki/Q19883939",
    "_source": {
     "source": "Wikidata",
     "url": "https://www.wikidata.org/wiki/Q19883939",
     "retrieved_at": "2026-08-23"
    },
    "_overrides": {
     "creation": {
      "at": "2026-08-23",
      "source": "derived from start date + Caravaggio's documented itinerary (approximate)"
     }
    },
    "museum_id": "museum-of-modern-art",
    "qid": "Q19883939"
   }
  },
  {
   "type": "Feature",
   "geometry": {
    "type": "Point",
    "coordinates": [
     -73.9775,
     40.7617
    ]
   },
   "properties": {
    "painter": "Joan Miró",
    "title": "Hirondelle Amour",
    "year": "1958",
    "city": "New York",
    "country": "United States",
    "location": "Museum of Modern Art",
    "kind": "museum",
    "attribution": "attributed",
    "status": "present",
    "medium": "Oil on canvas",
    "dimensions": "199.3 × 247.6 cm",
    "wikidata": "https://www.wikidata.org/wiki/Q19884203",
    "_source": {
     "source": "Wikidata",
     "url": "https://www.wikidata.org/wiki/Q19884203",
     "retrieved_at": "2026-08-23"
    },
    "_overrides": {
     "creation": {
      "at": "2026-08-23",
      "source": "derived from start date + Caravaggio's documented itinerary (approximate)"
     }
    },
    "museum_id": "museum-of-modern-art",
    "qid": "Q19884203"
   }
  },
  {
   "type": "Feature",
   "geometry": {
    "type": "Point",
    "coordinates": [
     -73.9631,
     40.7794
    ]
   },
   "properties": {
    "painter": "Joan Miró",
    "title": "Photo: This Is the Color of My Dreams",
    "year": "1925",
    "city": "New York",
    "country": "United States",
    "location": "Metropolitan Museum of Art",
    "kind": "museum",
    "attribution": "attributed",
    "status": "present",
    "medium": "Oil on canvas",
    "dimensions": "96.5 × 129.5 cm",
    "wikidata": "https://www.wikidata.org/wiki/Q19917545",
    "_source": {
     "source": "Wikidata",
     "url": "https://www.wikidata.org/wiki/Q19917545",
     "retrieved_at": "2026-08-23"
    },
    "_overrides": {
     "creation": {
      "at": "2026-08-23",
      "source": "derived from start date + Caravaggio's documented itinerary (approximate)"
     }
    },
    "museum_id": "metropolitan-museum-of-art",
    "qid": "Q19917545"
   }
  },
  {
   "type": "Feature",
   "geometry": {
    "type": "Point",
    "coordinates": [
     2.32687,
     48.85676
    ]
   },
   "properties": {
    "painter": "Joan Miró",
    "title": "Nord-Sud",
    "year": "1917",
    "city": "Paris",
    "country": "Spain",
    "location": "Galerie Maeght",
    "kind": "museum",
    "attribution": "attributed",
    "status": "present",
    "medium": "Oil on canvas",
    "dimensions": "62 × 70 cm",
    "genre": "still life",
    "wikidata": "https://www.wikidata.org/wiki/Q1997425",
    "creation_place": "Barcelona",
    "creation_lat": 41.3874,
    "creation_lon": 2.1686,
    "_source": {
     "source": "Wikidata",
     "url": "https://www.wikidata.org/wiki/Q1997425",
     "retrieved_at": "2026-08-23"
    },
    "_overrides": {
     "creation": {
      "at": "2026-08-23",
      "source": "derived from start date + Caravaggio's documented itinerary (approximate)"
     }
    },
    "museum_id": "galerie-maeght",
    "qid": "Q1997425"
   }
  },
  {
   "type": "Feature",
   "geometry": {
    "type": "Point",
    "coordinates": [
     -3.694,
     40.40857
    ]
   },
   "properties": {
    "painter": "Joan Miró",
    "title": "House with Palm Tree",
    "year": "1918",
    "city": "Madrid",
    "country": "Spain",
    "location": "Museo Nacional Centro de Arte Reina Sofía",
    "kind": "museum",
    "attribution": "attributed",
    "status": "present",
    "medium": "Oil on canvas",
    "dimensions": "65 × 73 cm",
    "genre": "landscape painting",
    "wikidata": "https://www.wikidata.org/wiki/Q20100865",
    "creation_place": "Barcelona",
    "creation_lat": 41.3874,
    "creation_lon": 2.1686,
    "_source": {
     "source": "Wikidata",
     "url": "https://www.wikidata.org/wiki/Q20100865",
     "retrieved_at": "2026-08-23"
    },
    "_overrides": {
     "creation": {
      "at": "2026-08-23",
      "source": "derived from start date + Caravaggio's documented itinerary (approximate)"
     }
    },
    "museum_id": "museo-nacional-centro-de-arte-reina-sofia",
    "qid": "Q20100865"
   }
  },
  {
   "type": "Feature",
   "geometry": {
    "type": "Point",
    "coordinates": [
     -75.181,
     39.966
    ]
   },
   "properties": {
    "painter": "Joan Miró",
    "title": "Horse, Pipe, and Red Flower",
    "year": "1920",
    "city": "Philadelphia",
    "country": "United States",
    "location": "Philadelphia Museum of Art",
    "kind": "museum",
    "attribution": "attributed",
    "status": "present",
    "medium": "Oil on canvas",
    "dimensions": "82.6 × 74.9 cm",
    "genre": "still life",
    "wikidata": "https://www.wikidata.org/wiki/Q20816658",
    "creation_place": "Barcelona",
    "creation_lat": 41.3874,
    "creation_lon": 2.1686,
    "_source": {
     "source": "Wikidata",
     "url": "https://www.wikidata.org/wiki/Q20816658",
     "retrieved_at": "2026-08-23"
    },
    "_overrides": {
     "creation": {
      "at": "2026-08-23",
      "source": "derived from start date + Caravaggio's documented itinerary (approximate)"
     }
    },
    "museum_id": "philadelphia-museum-of-art",
    "qid": "Q20816658"
   }
  },
  {
   "type": "Feature",
   "geometry": {
    "type": "Point",
    "coordinates": [
     -3.69493,
     40.41604
    ]
   },
   "properties": {
    "painter": "Joan Miró",
    "title": "Catalan Peasant with a Guitar",
    "year": "1924",
    "city": "Madrid",
    "country": "Spain",
    "location": "Thyssen-Bornemisza Museum",
    "kind": "museum",
    "attribution": "attributed",
    "status": "present",
    "medium": "Oil on canvas",
    "dimensions": "147 × 114 cm",
    "genre": "portrait",
    "wikidata": "https://www.wikidata.org/wiki/Q21711958",
    "_source": {
     "source": "Wikidata",
     "url": "https://www.wikidata.org/wiki/Q21711958",
     "retrieved_at": "2026-08-23"
    },
    "_overrides": {
     "creation": {
      "at": "2026-08-23",
      "source": "derived from start date + Caravaggio's documented itinerary (approximate)"
     }
    },
    "museum_id": "thyssen-bornemisza-museum",
    "qid": "Q21711958"
   }
  },
  {
   "type": "Feature",
   "geometry": {
    "type": "Point",
    "coordinates": [
     2.16,
     41.36861
    ]
   },
   "properties": {
    "painter": "Joan Miró",
    "title": "Q21815341",
    "year": "1940",
    "city": "Montjuïc",
    "country": "Spain",
    "location": "Fundació Joan Miró",
    "kind": "museum",
    "attribution": "attributed",
    "status": "present",
    "medium": "Paper",
    "dimensions": "38 × 46 cm",
    "wikidata": "https://www.wikidata.org/wiki/Q21815341",
    "_source": {
     "source": "Wikidata",
     "url": "https://www.wikidata.org/wiki/Q21815341",
     "retrieved_at": "2026-08-23"
    },
    "_overrides": {
     "creation": {
      "at": "2026-08-23",
      "source": "derived from start date + Caravaggio's documented itinerary (approximate)"
     }
    },
    "museum_id": "fundacio-joan-miro",
    "qid": "Q21815341"
   }
  },
  {
   "type": "Feature",
   "geometry": {
    "type": "Point",
    "coordinates": [
     2.16,
     41.36861
    ]
   },
   "properties": {
    "painter": "Joan Miró",
    "title": "Painting (1943)",
    "year": "1943",
    "city": "Montjuïc",
    "country": "Spain",
    "location": "Fundació Joan Miró",
    "kind": "museum",
    "attribution": "attributed",
    "status": "present",
    "wikidata": "https://www.wikidata.org/wiki/Q21872977",
    "_source": {
     "source": "Wikidata",
     "url": "https://www.wikidata.org/wiki/Q21872977",
     "retrieved_at": "2026-08-23"
    },
    "_overrides": {
     "creation": {
      "at": "2026-08-23",
      "source": "derived from start date + Caravaggio's documented itinerary (approximate)"
     }
    },
    "museum_id": "fundacio-joan-miro",
    "qid": "Q21872977"
   }
  },
  {
   "type": "Feature",
   "geometry": {
    "type": "Point",
    "coordinates": [
     2.16,
     41.36861
    ]
   },
   "properties": {
    "painter": "Joan Miró",
    "title": "Q23758808",
    "year": "1924",
    "city": "Montjuïc",
    "country": "Spain",
    "location": "Fundació Joan Miró",
    "kind": "museum",
    "attribution": "attributed",
    "status": "present",
    "medium": "Oil paint",
    "dimensions": "113 × 89.5 cm",
    "wikidata": "https://www.wikidata.org/wiki/Q23758808",
    "_source": {
     "source": "Wikidata",
     "url": "https://www.wikidata.org/wiki/Q23758808",
     "retrieved_at": "2026-08-23"
    },
    "_overrides": {
     "creation": {
      "at": "2026-08-23",
      "source": "derived from start date + Caravaggio's documented itinerary (approximate)"
     }
    },
    "museum_id": "fundacio-joan-miro",
    "qid": "Q23758808"
   }
  },
  {
   "type": "Feature",
   "geometry": {
    "type": "Point",
    "coordinates": [
     2.16,
     41.36861
    ]
   },
   "properties": {
    "painter": "Joan Miró",
    "title": "Q24042347",
    "year": "1968",
    "city": "Montjuïc",
    "country": "Spain",
    "location": "Fundació Joan Miró",
    "kind": "museum",
    "attribution": "attributed",
    "status": "present",
    "dimensions": "174 × 260 cm",
    "wikidata": "https://www.wikidata.org/wiki/Q24042347",
    "_source": {
     "source": "Wikidata",
     "url": "https://www.wikidata.org/wiki/Q24042347",
     "retrieved_at": "2026-08-23"
    },
    "_overrides": {
     "creation": {
      "at": "2026-08-23",
      "source": "derived from start date + Caravaggio's documented itinerary (approximate)"
     }
    },
    "museum_id": "fundacio-joan-miro",
    "qid": "Q24042347"
   }
  },
  {
   "type": "Feature",
   "geometry": {
    "type": "Point",
    "coordinates": [
     2.16,
     41.36861
    ]
   },
   "properties": {
    "painter": "Joan Miró",
    "title": "Painting (The White Glove)",
    "year": "1925",
    "city": "Montjuïc",
    "country": "Spain",
    "location": "Fundació Joan Miró",
    "kind": "museum",
    "attribution": "attributed",
    "status": "present",
    "wikidata": "https://www.wikidata.org/wiki/Q24042349",
    "_source": {
     "source": "Wikidata",
     "url": "https://www.wikidata.org/wiki/Q24042349",
     "retrieved_at": "2026-08-23"
    },
    "_overrides": {
     "creation": {
      "at": "2026-08-23",
      "source": "derived from start date + Caravaggio's documented itinerary (approximate)"
     }
    },
    "museum_id": "fundacio-joan-miro",
    "qid": "Q24042349"
   }
  },
  {
   "type": "Feature",
   "geometry": {
    "type": "Point",
    "coordinates": [
     2.16,
     41.36861
    ]
   },
   "properties": {
    "painter": "Joan Miró",
    "title": "Self-portrait",
    "year": "1937",
    "city": "Montjuïc",
    "country": "Spain",
    "location": "Fundació Joan Miró",
    "kind": "museum",
    "attribution": "attributed",
    "status": "present",
    "genre": "self-portrait",
    "wikidata": "https://www.wikidata.org/wiki/Q24042350",
    "_source": {
     "source": "Wikidata",
     "url": "https://www.wikidata.org/wiki/Q24042350",
     "retrieved_at": "2026-08-23"
    },
    "_overrides": {
     "creation": {
      "at": "2026-08-23",
      "source": "derived from start date + Caravaggio's documented itinerary (approximate)"
     }
    },
    "museum_id": "fundacio-joan-miro",
    "qid": "Q24042350"
   }
  },
  {
   "type": "Feature",
   "geometry": {
    "type": "Point",
    "coordinates": [
     2.16,
     41.36861
    ]
   },
   "properties": {
    "painter": "Joan Miró",
    "title": "Woman Dreaming of Escape",
    "year": "1945",
    "city": "Montjuïc",
    "country": "Spain",
    "location": "Fundació Joan Miró",
    "kind": "museum",
    "attribution": "attributed",
    "status": "present",
    "medium": "Oil on canvas",
    "dimensions": "130 × 162 cm",
    "wikidata": "https://www.wikidata.org/wiki/Q24042351",
    "_source": {
     "source": "Wikidata",
     "url": "https://www.wikidata.org/wiki/Q24042351",
     "retrieved_at": "2026-08-23"
    },
    "_overrides": {
     "creation": {
      "at": "2026-08-23",
      "source": "derived from start date + Caravaggio's documented itinerary (approximate)"
     }
    },
    "museum_id": "fundacio-joan-miro",
    "qid": "Q24042351"
   }
  },
  {
   "type": "Feature",
   "geometry": {
    "type": "Point",
    "coordinates": [
     2.16,
     41.36861
    ]
   },
   "properties": {
    "painter": "Joan Miró",
    "title": "Siurana, el poble",
    "year": "1917",
    "city": "Montjuïc",
    "country": "Spain",
    "location": "Fundació Joan Miró",
    "kind": "museum",
    "attribution": "attributed",
    "status": "present",
    "dimensions": "49 × 39 cm",
    "wikidata": "https://www.wikidata.org/wiki/Q24042353",
    "creation_place": "Barcelona",
    "creation_lat": 41.3874,
    "creation_lon": 2.1686,
    "_source": {
     "source": "Wikidata",
     "url": "https://www.wikidata.org/wiki/Q24042353",
     "retrieved_at": "2026-08-23"
    },
    "_overrides": {
     "creation": {
      "at": "2026-08-23",
      "source": "derived from start date + Caravaggio's documented itinerary (approximate)"
     }
    },
    "museum_id": "fundacio-joan-miro",
    "qid": "Q24042353"
   }
  },
  {
   "type": "Feature",
   "geometry": {
    "type": "Point",
    "coordinates": [
     2.16,
     41.36861
    ]
   },
   "properties": {
    "painter": "Joan Miró",
    "title": "Q24042354",
    "year": "1919",
    "city": "Montjuïc",
    "country": "Spain",
    "location": "Fundació Joan Miró",
    "kind": "museum",
    "attribution": "attributed",
    "status": "present",
    "medium": "Oil on canvas",
    "dimensions": "73 × 60 cm",
    "genre": "landscape painting",
    "wikidata": "https://www.wikidata.org/wiki/Q24042354",
    "creation_place": "Barcelona",
    "creation_lat": 41.3874,
    "creation_lon": 2.1686,
    "_source": {
     "source": "Wikidata",
     "url": "https://www.wikidata.org/wiki/Q24042354",
     "retrieved_at": "2026-08-23"
    },
    "_overrides": {
     "creation": {
      "at": "2026-08-23",
      "source": "derived from start date + Caravaggio's documented itinerary (approximate)"
     }
    },
    "museum_id": "fundacio-joan-miro",
    "qid": "Q24042354"
   }
  },
  {
   "type": "Feature",
   "geometry": {
    "type": "Point",
    "coordinates": [
     2.16,
     41.36861
    ]
   },
   "properties": {
    "painter": "Joan Miró",
    "title": "Q24042356",
    "year": "1968",
    "city": "Montjuïc",
    "country": "Spain",
    "location": "Fundació Joan Miró",
    "kind": "museum",
    "attribution": "attributed",
    "status": "present",
    "dimensions": "336 × 336 cm",
    "wikidata": "https://www.wikidata.org/wiki/Q24042356",
    "_source": {
     "source": "Wikidata",
     "url": "https://www.wikidata.org/wiki/Q24042356",
     "retrieved_at": "2026-08-23"
    },
    "_overrides": {
     "creation": {
      "at": "2026-08-23",
      "source": "derived from start date + Caravaggio's documented itinerary (approximate)"
     }
    },
    "museum_id": "fundacio-joan-miro",
    "qid": "Q24042356"
   }
  },
  {
   "type": "Feature",
   "geometry": {
    "type": "Point",
    "coordinates": [
     2.16,
     41.36861
    ]
   },
   "properties": {
    "painter": "Joan Miró",
    "title": "Drop of water on pink snow",
    "year": "1968",
    "city": "Montjuïc",
    "country": "Spain",
    "location": "Fundació Joan Miró",
    "kind": "museum",
    "attribution": "attributed",
    "status": "present",
    "dimensions": "195 × 130 cm",
    "wikidata": "https://www.wikidata.org/wiki/Q24042357",
    "_source": {
     "source": "Wikidata",
     "url": "https://www.wikidata.org/wiki/Q24042357",
     "retrieved_at": "2026-08-23"
    },
    "_overrides": {
     "creation": {
      "at": "2026-08-23",
      "source": "derived from start date + Caravaggio's documented itinerary (approximate)"
     }
    },
    "museum_id": "fundacio-joan-miro",
    "qid": "Q24042357"
   }
  },
  {
   "type": "Feature",
   "geometry": {
    "type": "Point",
    "coordinates": [
     2.16,
     41.36861
    ]
   },
   "properties": {
    "painter": "Joan Miró",
    "title": "Landscape of Mont-roig",
    "year": "1916",
    "city": "Montjuïc",
    "country": "Spain",
    "location": "Fundació Joan Miró",
    "kind": "museum",
    "attribution": "attributed",
    "status": "present",
    "dimensions": "38 × 46 cm",
    "wikidata": "https://www.wikidata.org/wiki/Q24042363",
    "creation_place": "Barcelona",
    "creation_lat": 41.3874,
    "creation_lon": 2.1686,
    "_source": {
     "source": "Wikidata",
     "url": "https://www.wikidata.org/wiki/Q24042363",
     "retrieved_at": "2026-08-23"
    },
    "_overrides": {
     "creation": {
      "at": "2026-08-23",
      "source": "derived from start date + Caravaggio's documented itinerary (approximate)"
     }
    },
    "museum_id": "fundacio-joan-miro",
    "qid": "Q24042363"
   }
  },
  {
   "type": "Feature",
   "geometry": {
    "type": "Point",
    "coordinates": [
     2.16,
     41.36861
    ]
   },
   "properties": {
    "painter": "Joan Miró",
    "title": "Prades, a Street",
    "year": "1917",
    "city": "Montjuïc",
    "country": "Spain",
    "location": "Fundació Joan Miró",
    "kind": "museum",
    "attribution": "attributed",
    "status": "present",
    "wikidata": "https://www.wikidata.org/wiki/Q24042364",
    "creation_place": "Barcelona",
    "creation_lat": 41.3874,
    "creation_lon": 2.1686,
    "_source": {
     "source": "Wikidata",
     "url": "https://www.wikidata.org/wiki/Q24042364",
     "retrieved_at": "2026-08-23"
    },
    "_overrides": {
     "creation": {
      "at": "2026-08-23",
      "source": "derived from start date + Caravaggio's documented itinerary (approximate)"
     }
    },
    "museum_id": "fundacio-joan-miro",
    "qid": "Q24042364"
   }
  },
  {
   "type": "Feature",
   "geometry": {
    "type": "Point",
    "coordinates": [
     2.16,
     41.36861
    ]
   },
   "properties": {
    "painter": "Joan Miró",
    "title": "Hands flying off toward the constellations",
    "year": "1974",
    "city": "Montjuïc",
    "country": "Spain",
    "location": "Fundació Joan Miró",
    "kind": "museum",
    "attribution": "generally accepted",
    "status": "present",
    "medium": "Canvas",
    "dimensions": "260 × 681 cm",
    "wikipedia_es": "https://es.wikipedia.org/wiki/Manos_volando_hacia_las_constelaciones",
    "wikipedia_en": "https://en.wikipedia.org/wiki/Hands_Flying_off_Toward_the_Constellations",
    "wikidata": "https://www.wikidata.org/wiki/Q2600797",
    "_source": {
     "source": "Wikidata",
     "url": "https://www.wikidata.org/wiki/Q2600797",
     "retrieved_at": "2026-08-23"
    },
    "_overrides": {
     "creation": {
      "at": "2026-08-23",
      "source": "derived from start date + Caravaggio's documented itinerary (approximate)"
     }
    },
    "museum_id": "fundacio-joan-miro",
    "qid": "Q2600797"
   }
  },
  {
   "type": "Feature",
   "geometry": {
    "type": "Point",
    "coordinates": [
     -3.694,
     40.40857
    ]
   },
   "properties": {
    "painter": "Joan Miró",
    "title": "Pastorale",
    "year": "1923",
    "city": "Madrid",
    "country": "Spain",
    "location": "Museo Nacional Centro de Arte Reina Sofía",
    "kind": "museum",
    "attribution": "attributed",
    "status": "present",
    "medium": "Oil on canvas",
    "dimensions": "60 × 92 cm",
    "genre": "pastoral",
    "wikidata": "https://www.wikidata.org/wiki/Q27665046",
    "_source": {
     "source": "Wikidata",
     "url": "https://www.wikidata.org/wiki/Q27665046",
     "retrieved_at": "2026-08-23"
    },
    "_overrides": {
     "creation": {
      "at": "2026-08-23",
      "source": "derived from start date + Caravaggio's documented itinerary (approximate)"
     }
    },
    "museum_id": "museo-nacional-centro-de-arte-reina-sofia",
    "qid": "Q27665046"
   }
  },
  {
   "type": "Feature",
   "geometry": {
    "type": "Point",
    "coordinates": [
     -3.694,
     40.40857
    ]
   },
   "properties": {
    "painter": "Joan Miró",
    "title": "Painting (The Red Spot)",
    "year": "1925",
    "city": "Madrid",
    "country": "Spain",
    "location": "Museo Nacional Centro de Arte Reina Sofía",
    "kind": "museum",
    "attribution": "attributed",
    "status": "present",
    "medium": "Oil on canvas",
    "dimensions": "146 × 114 cm",
    "wikidata": "https://www.wikidata.org/wiki/Q27665111",
    "_source": {
     "source": "Wikidata",
     "url": "https://www.wikidata.org/wiki/Q27665111",
     "retrieved_at": "2026-08-23"
    },
    "_overrides": {
     "creation": {
      "at": "2026-08-23",
      "source": "derived from start date + Caravaggio's documented itinerary (approximate)"
     }
    },
    "museum_id": "museo-nacional-centro-de-arte-reina-sofia",
    "qid": "Q27665111"
   }
  },
  {
   "type": "Feature",
   "geometry": {
    "type": "Point",
    "coordinates": [
     -3.694,
     40.40857
    ]
   },
   "properties": {
    "painter": "Joan Miró",
    "title": "Woman, Bird and Star (Homage to Picasso)",
    "year": "1973",
    "city": "Madrid",
    "country": "Spain",
    "location": "Museo Nacional Centro de Arte Reina Sofía",
    "kind": "museum",
    "attribution": "generally accepted",
    "status": "present",
    "medium": "Oil on canvas",
    "dimensions": "245 × 170 cm",
    "wikipedia_es": "https://es.wikipedia.org/wiki/Mujer,_p%C3%A1jaro,_estrella_(Homenaje_a_Pablo_Picasso)",
    "wikipedia_en": "https://en.wikipedia.org/wiki/Woman,_Bird,_Star_(Homage_to_Pablo_Picasso)",
    "wikidata": "https://www.wikidata.org/wiki/Q27665400",
    "_source": {
     "source": "Wikidata",
     "url": "https://www.wikidata.org/wiki/Q27665400",
     "retrieved_at": "2026-08-23"
    },
    "_overrides": {
     "creation": {
      "at": "2026-08-23",
      "source": "derived from start date + Caravaggio's documented itinerary (approximate)"
     }
    },
    "museum_id": "museo-nacional-centro-de-arte-reina-sofia",
    "qid": "Q27665400"
   }
  },
  {
   "type": "Feature",
   "geometry": {
    "type": "Point",
    "coordinates": [
     -0.12779,
     51.49106
    ]
   },
   "properties": {
    "painter": "Joan Miró",
    "title": "Head of a Catalan Peasant",
    "year": "1925",
    "city": "London",
    "country": "United Kingdom",
    "location": "Tate",
    "kind": "museum",
    "attribution": "attributed",
    "status": "present",
    "medium": "Oil on canvas",
    "dimensions": "92 × 73 cm",
    "genre": "figurative painting, portrait",
    "wikidata": "https://www.wikidata.org/wiki/Q27955494",
    "_source": {
     "source": "Wikidata",
     "url": "https://www.wikidata.org/wiki/Q27955494",
     "retrieved_at": "2026-08-23"
    },
    "_overrides": {
     "creation": {
      "at": "2026-08-23",
      "source": "derived from start date + Caravaggio's documented itinerary (approximate)"
     }
    },
    "museum_id": "tate",
    "qid": "Q27955494"
   }
  },
  {
   "type": "Feature",
   "geometry": {
    "type": "Point",
    "coordinates": [
     -0.12779,
     51.49106
    ]
   },
   "properties": {
    "painter": "Joan Miró",
    "title": "A Star Caresses the Breast of a Negress (Painting Poem)",
    "year": "1938",
    "city": "London",
    "country": "United Kingdom",
    "location": "Tate",
    "kind": "museum",
    "attribution": "attributed",
    "status": "present",
    "medium": "Oil on canvas",
    "dimensions": "129.5 × 194.3 cm",
    "wikidata": "https://www.wikidata.org/wiki/Q28552989",
    "_source": {
     "source": "Wikidata",
     "url": "https://www.wikidata.org/wiki/Q28552989",
     "retrieved_at": "2026-08-23"
    },
    "_overrides": {
     "creation": {
      "at": "2026-08-23",
      "source": "derived from start date + Caravaggio's documented itinerary (approximate)"
     }
    },
    "museum_id": "tate",
    "qid": "Q28552989"
   }
  },
  {
   "type": "Feature",
   "geometry": {
    "type": "Point",
    "coordinates": [
     2.36244,
     48.85973
    ]
   },
   "properties": {
    "painter": "Joan Miró",
    "title": "Q2872713",
    "year": "1919",
    "city": "Paris",
    "country": "France",
    "location": "Musée Picasso",
    "kind": "museum",
    "attribution": "attributed",
    "status": "present",
    "medium": "Oil on canvas",
    "genre": "self-portrait",
    "wikidata": "https://www.wikidata.org/wiki/Q2872713",
    "creation_place": "Barcelona",
    "creation_lat": 41.3874,
    "creation_lon": 2.1686,
    "_source": {
     "source": "Wikidata",
     "url": "https://www.wikidata.org/wiki/Q2872713",
     "retrieved_at": "2026-08-23"
    },
    "_overrides": {
     "creation": {
      "at": "2026-08-23",
      "source": "derived from start date + Caravaggio's documented itinerary (approximate)"
     }
    },
    "museum_id": "musee-picasso",
    "qid": "Q2872713"
   }
  },
  {
   "type": "Feature",
   "geometry": {
    "type": "Point",
    "coordinates": [
     7.44344,
     46.95092
    ]
   },
   "properties": {
    "painter": "Joan Miró",
    "title": "Composition",
    "year": "1933",
    "city": "Bern",
    "country": "Switzerland",
    "location": "Kunstmuseum und Kunsthistorisches Seminar (building)",
    "kind": "museum",
    "attribution": "attributed",
    "status": "present",
    "medium": "Oil on canvas",
    "dimensions": "130.5 × 163 cm",
    "wikidata": "https://www.wikidata.org/wiki/Q2990626",
    "_source": {
     "source": "Wikidata",
     "url": "https://www.wikidata.org/wiki/Q2990626",
     "retrieved_at": "2026-08-23"
    },
    "_overrides": {
     "creation": {
      "at": "2026-08-23",
      "source": "derived from start date + Caravaggio's documented itinerary (approximate)"
     }
    },
    "museum_id": "kunstmuseum-und-kunsthistorisches-seminar-building",
    "qid": "Q2990626"
   }
  },
  {
   "type": "Feature",
   "geometry": {
    "type": "Point",
    "coordinates": [
     3.15034,
     50.63744
    ]
   },
   "properties": {
    "painter": "Joan Miró",
    "title": "Composition",
    "year": "1933",
    "city": "Villeneuve-d'Ascq",
    "country": "France",
    "location": "LaM (Lille Métropole musée d'art moderne, d'art contemporain et d'art brut)",
    "kind": "museum",
    "attribution": "attributed",
    "status": "present",
    "dimensions": "96.5 × 130 cm",
    "wikidata": "https://www.wikidata.org/wiki/Q2990627",
    "_source": {
     "source": "Wikidata",
     "url": "https://www.wikidata.org/wiki/Q2990627",
     "retrieved_at": "2026-08-23"
    },
    "_overrides": {
     "creation": {
      "at": "2026-08-23",
      "source": "derived from start date + Caravaggio's documented itinerary (approximate)"
     }
    },
    "museum_id": "lam-lille-metropole-musee-d-art-moderne-d-art-contemporain-e",
    "qid": "Q2990627"
   }
  },
  {
   "type": "Feature",
   "geometry": {
    "type": "Point",
    "coordinates": [
     2.35224,
     48.86064
    ]
   },
   "properties": {
    "painter": "Joan Miró",
    "title": "Portrait of a Dancer",
    "year": "1928",
    "city": "Quartier Saint-Merri",
    "country": "France",
    "location": "Centre Georges Pompidou",
    "kind": "museum",
    "attribution": "generally accepted",
    "status": "present",
    "medium": "Cardboard, feather",
    "dimensions": "100 × 80 cm",
    "genre": "abstract art",
    "wikipedia_es": "https://es.wikipedia.org/wiki/Bailarina_espa%C3%B1ola_(Joan_Mir%C3%B3)",
    "wikidata": "https://www.wikidata.org/wiki/Q3015694",
    "_source": {
     "source": "Wikidata",
     "url": "https://www.wikidata.org/wiki/Q3015694",
     "retrieved_at": "2026-08-23"
    },
    "_overrides": {
     "creation": {
      "at": "2026-08-23",
      "source": "derived from start date + Caravaggio's documented itinerary (approximate)"
     }
    },
    "museum_id": "centre-georges-pompidou",
    "qid": "Q3015694"
   }
  },
  {
   "type": "Feature",
   "geometry": {
    "type": "Point",
    "coordinates": [
     -3.694,
     40.40857
    ]
   },
   "properties": {
    "painter": "Joan Miró",
    "title": "Caracol, mujer, flor, estrella",
    "year": "1934",
    "city": "Madrid",
    "country": "Spain",
    "location": "Museo Nacional Centro de Arte Reina Sofía",
    "kind": "museum",
    "attribution": "attributed",
    "status": "present",
    "medium": "Oil on canvas",
    "dimensions": "195 × 172 cm",
    "wikidata": "https://www.wikidata.org/wiki/Q3057881",
    "_source": {
     "source": "Wikidata",
     "url": "https://www.wikidata.org/wiki/Q3057881",
     "retrieved_at": "2026-08-23"
    },
    "_overrides": {
     "creation": {
      "at": "2026-08-23",
      "source": "derived from start date + Caravaggio's documented itinerary (approximate)"
     }
    },
    "museum_id": "museo-nacional-centro-de-arte-reina-sofia",
    "qid": "Q3057881"
   }
  },
  {
   "type": "Feature",
   "geometry": {
    "type": "Point",
    "coordinates": [
     2.16,
     41.36861
    ]
   },
   "properties": {
    "painter": "Joan Miró",
    "title": "Man and Woman in Front of a Pile of Excrement",
    "year": "1935",
    "city": "Montjuïc",
    "country": "Spain",
    "location": "Fundació Joan Miró",
    "kind": "museum",
    "attribution": "generally accepted",
    "status": "present",
    "medium": "Oil on copper",
    "dimensions": "23 × 32 cm",
    "wikipedia_en": "https://en.wikipedia.org/wiki/Man_and_Woman_in_Front_of_a_Pile_of_Excrement",
    "wikidata": "https://www.wikidata.org/wiki/Q3069475",
    "_source": {
     "source": "Wikidata",
     "url": "https://www.wikidata.org/wiki/Q3069475",
     "retrieved_at": "2026-08-23"
    },
    "_overrides": {
     "creation": {
      "at": "2026-08-23",
      "source": "derived from start date + Caravaggio's documented itinerary (approximate)"
     }
    },
    "museum_id": "fundacio-joan-miro",
    "qid": "Q3069475"
   }
  },
  {
   "type": "Feature",
   "geometry": {
    "type": "Point",
    "coordinates": [
     2.16,
     41.36861
    ]
   },
   "properties": {
    "painter": "Joan Miró",
    "title": "Q3073307",
    "year": "1932",
    "city": "Montjuïc",
    "country": "Spain",
    "location": "Fundació Joan Miró",
    "kind": "museum",
    "attribution": "attributed",
    "status": "present",
    "medium": "Cardboard, oil paint",
    "dimensions": "41 × 32 cm",
    "wikidata": "https://www.wikidata.org/wiki/Q3073307",
    "_source": {
     "source": "Wikidata",
     "url": "https://www.wikidata.org/wiki/Q3073307",
     "retrieved_at": "2026-08-23"
    },
    "_overrides": {
     "creation": {
      "at": "2026-08-23",
      "source": "derived from start date + Caravaggio's documented itinerary (approximate)"
     }
    },
    "museum_id": "fundacio-joan-miro",
    "qid": "Q3073307"
   }
  },
  {
   "type": "Feature",
   "geometry": {
    "type": "Point",
    "coordinates": [
     2.16,
     41.36861
    ]
   },
   "properties": {
    "painter": "Joan Miró",
    "title": "Q3204597",
    "year": "1967",
    "city": "Montjuïc",
    "country": "Spain",
    "location": "Fundació Joan Miró",
    "kind": "museum",
    "attribution": "attributed",
    "status": "present",
    "medium": "Canvas",
    "dimensions": "205 × 173 cm",
    "wikidata": "https://www.wikidata.org/wiki/Q3204597",
    "_source": {
     "source": "Wikidata",
     "url": "https://www.wikidata.org/wiki/Q3204597",
     "retrieved_at": "2026-08-23"
    },
    "_overrides": {
     "creation": {
      "at": "2026-08-23",
      "source": "derived from start date + Caravaggio's documented itinerary (approximate)"
     }
    },
    "museum_id": "fundacio-joan-miro",
    "qid": "Q3204597"
   }
  },
  {
   "type": "Feature",
   "geometry": {
    "type": "Point",
    "coordinates": [
     2.35224,
     48.86064
    ]
   },
   "properties": {
    "painter": "Joan Miró",
    "title": "Q3207901",
    "year": "1945",
    "city": "Quartier Saint-Merri",
    "country": "France",
    "location": "Centre Georges Pompidou",
    "kind": "museum",
    "attribution": "attributed",
    "status": "present",
    "medium": "Oil on canvas",
    "dimensions": "114 × 144 cm",
    "wikidata": "https://www.wikidata.org/wiki/Q3207901",
    "_source": {
     "source": "Wikidata",
     "url": "https://www.wikidata.org/wiki/Q3207901",
     "retrieved_at": "2026-08-23"
    },
    "_overrides": {
     "creation": {
      "at": "2026-08-23",
      "source": "derived from start date + Caravaggio's documented itinerary (approximate)"
     }
    },
    "museum_id": "centre-georges-pompidou",
    "qid": "Q3207901"
   }
  },
  {
   "type": "Feature",
   "geometry": {
    "type": "Point",
    "coordinates": [
     -73.9775,
     40.7617
    ]
   },
   "properties": {
    "painter": "Joan Miró",
    "title": "The Birth of the World",
    "year": "1925",
    "city": "New York",
    "country": "United States",
    "location": "Museum of Modern Art",
    "kind": "museum",
    "attribution": "generally accepted",
    "status": "present",
    "medium": "Oil on canvas",
    "dimensions": "250.8 × 200 cm",
    "wikipedia_en": "https://en.wikipedia.org/wiki/The_Birth_of_the_World",
    "wikidata": "https://www.wikidata.org/wiki/Q3211044",
    "_source": {
     "source": "Wikidata",
     "url": "https://www.wikidata.org/wiki/Q3211044",
     "retrieved_at": "2026-08-23"
    },
    "_overrides": {
     "creation": {
      "at": "2026-08-23",
      "source": "derived from start date + Caravaggio's documented itinerary (approximate)"
     }
    },
    "museum_id": "museum-of-modern-art",
    "qid": "Q3211044"
   }
  },
  {
   "type": "Feature",
   "geometry": {
    "type": "Point",
    "coordinates": [
     -77.02297,
     38.88816
    ]
   },
   "properties": {
    "painter": "Joan Miró",
    "title": "Painting (Circus Horse)",
    "year": "1927",
    "city": "Washington, D.C.",
    "country": "United States",
    "location": "Hirshhorn Museum and Sculpture Garden",
    "kind": "museum",
    "attribution": "attributed",
    "status": "present",
    "medium": "Hessian, oil paint, pencil",
    "dimensions": "195 × 280.2 cm",
    "wikidata": "https://www.wikidata.org/wiki/Q3221194",
    "_source": {
     "source": "Wikidata",
     "url": "https://www.wikidata.org/wiki/Q3221194",
     "retrieved_at": "2026-08-23"
    },
    "_overrides": {
     "creation": {
      "at": "2026-08-23",
      "source": "derived from start date + Caravaggio's documented itinerary (approximate)"
     }
    },
    "museum_id": "hirshhorn-museum-and-sculpture-garden",
    "qid": "Q3221194"
   }
  },
  {
   "type": "Feature",
   "geometry": {
    "type": "Point",
    "coordinates": [
     -73.9775,
     40.7617
    ]
   },
   "properties": {
    "painter": "Joan Miró",
    "title": "The Hunter (Catalan Landscape)",
    "year": "1923-1924",
    "city": "New York",
    "country": "United States",
    "location": "Museum of Modern Art",
    "kind": "museum",
    "attribution": "attributed",
    "status": "present",
    "medium": "Oil on canvas",
    "wikidata": "https://www.wikidata.org/wiki/Q3373688",
    "_source": {
     "source": "Wikidata",
     "url": "https://www.wikidata.org/wiki/Q3373688",
     "retrieved_at": "2026-08-23"
    },
    "_overrides": {
     "creation": {
      "at": "2026-08-23",
      "source": "derived from start date + Caravaggio's documented itinerary (approximate)"
     }
    },
    "museum_id": "museum-of-modern-art",
    "qid": "Q3373688"
   }
  },
  {
   "type": "Feature",
   "geometry": {
    "type": "Point",
    "coordinates": [
     -95.39861,
     29.73722
    ]
   },
   "properties": {
    "painter": "Joan Miró",
    "title": "Painting (The Magic of Color)",
    "year": "1930",
    "city": "Houston",
    "country": "United States",
    "location": "Menil Collection",
    "kind": "museum",
    "attribution": "attributed",
    "status": "present",
    "medium": "Oil on canvas",
    "dimensions": "150.2 × 225.1 cm",
    "genre": "abstract art",
    "wikidata": "https://www.wikidata.org/wiki/Q3374338",
    "_source": {
     "source": "Wikidata",
     "url": "https://www.wikidata.org/wiki/Q3374338",
     "retrieved_at": "2026-08-23"
    },
    "_overrides": {
     "creation": {
      "at": "2026-08-23",
      "source": "derived from start date + Caravaggio's documented itinerary (approximate)"
     }
    },
    "museum_id": "menil-collection",
    "qid": "Q3374338"
   }
  },
  {
   "type": "Feature",
   "geometry": {
    "type": "Point",
    "coordinates": [
     7.6511,
     47.5881
    ]
   },
   "properties": {
    "painter": "Joan Miró",
    "title": "Painting (1930)",
    "year": "1930",
    "city": "Riehen",
    "country": "Switzerland",
    "location": "Beyeler Foundation",
    "kind": "museum",
    "attribution": "attributed",
    "status": "present",
    "dimensions": "231 × 150.2 cm",
    "wikidata": "https://www.wikidata.org/wiki/Q3374342",
    "_source": {
     "source": "Wikidata",
     "url": "https://www.wikidata.org/wiki/Q3374342",
     "retrieved_at": "2026-08-23"
    },
    "_overrides": {
     "creation": {
      "at": "2026-08-23",
      "source": "derived from start date + Caravaggio's documented itinerary (approximate)"
     }
    },
    "museum_id": "beyeler-foundation",
    "qid": "Q3374342"
   }
  },
  {
   "type": "Feature",
   "geometry": {
    "type": "Point",
    "coordinates": [
     2.36244,
     48.85973
    ]
   },
   "properties": {
    "painter": "Joan Miró",
    "title": "Portrait of a Spanish Dancer",
    "year": "1921",
    "city": "Paris",
    "country": "France",
    "location": "Musée Picasso",
    "kind": "museum",
    "attribution": "attributed",
    "status": "present",
    "genre": "portrait",
    "wikidata": "https://www.wikidata.org/wiki/Q3399406",
    "_source": {
     "source": "Wikidata",
     "url": "https://www.wikidata.org/wiki/Q3399406",
     "retrieved_at": "2026-08-23"
    },
    "_overrides": {
     "creation": {
      "at": "2026-08-23",
      "source": "derived from start date + Caravaggio's documented itinerary (approximate)"
     }
    },
    "museum_id": "musee-picasso",
    "qid": "Q3399406"
   }
  },
  {
   "type": "Feature",
   "geometry": {
    "type": "Point",
    "coordinates": [
     2.18898,
     41.388
    ]
   },
   "properties": {
    "painter": "Joan Miró",
    "title": "Dona",
    "year": "1978",
    "city": "Sant Pere, Santa Caterina i la Ribera",
    "country": "Spain",
    "location": "Palace of the Parliament of Catalonia",
    "kind": "museum",
    "attribution": "attributed",
    "status": "present",
    "medium": "Acrylic paint",
    "dimensions": "129.5 × 96.5 cm",
    "image": "https://commons.wikimedia.org/wiki/Special:FilePath/Interior%20Palau%20del%20Parlament%20de%20Catalunya%201.JPG?width=420",
    "wikidata": "https://www.wikidata.org/wiki/Q51954576",
    "_source": {
     "source": "Wikidata",
     "url": "https://www.wikidata.org/wiki/Q51954576",
     "retrieved_at": "2026-08-23"
    },
    "_overrides": {
     "creation": {
      "at": "2026-08-23",
      "source": "derived from start date + Caravaggio's documented itinerary (approximate)"
     }
    },
    "museum_id": "palace-of-the-parliament-of-catalonia",
    "qid": "Q51954576"
   }
  },
  {
   "type": "Feature",
   "geometry": {
    "type": "Point",
    "coordinates": [
     2.16,
     41.36861
    ]
   },
   "properties": {
    "painter": "Joan Miró",
    "title": "Chapel of Sant Joan d'Horta",
    "year": "1917",
    "city": "Montjuïc",
    "country": "Spain",
    "location": "Fundació Joan Miró",
    "kind": "museum",
    "attribution": "attributed",
    "status": "present",
    "medium": "Oil paint",
    "dimensions": "52 × 57 cm",
    "genre": "Noucentisme",
    "wikidata": "https://www.wikidata.org/wiki/Q56229834",
    "creation_place": "Barcelona",
    "creation_lat": 41.3874,
    "creation_lon": 2.1686,
    "_source": {
     "source": "Wikidata",
     "url": "https://www.wikidata.org/wiki/Q56229834",
     "retrieved_at": "2026-08-23"
    },
    "_overrides": {
     "creation": {
      "at": "2026-08-23",
      "source": "derived from start date + Caravaggio's documented itinerary (approximate)"
     }
    },
    "museum_id": "fundacio-joan-miro",
    "qid": "Q56229834"
   }
  },
  {
   "type": "Feature",
   "geometry": {
    "type": "Point",
    "coordinates": [
     2.16,
     41.36861
    ]
   },
   "properties": {
    "painter": "Joan Miró",
    "title": "Mont-Roig Beach",
    "year": "1917",
    "city": "Montjuïc",
    "country": "Spain",
    "location": "Fundació Joan Miró",
    "kind": "museum",
    "attribution": "attributed",
    "status": "present",
    "medium": "Oil paint",
    "dimensions": "37.3 × 45.6 cm",
    "genre": "Noucentisme",
    "wikidata": "https://www.wikidata.org/wiki/Q56229913",
    "creation_place": "Barcelona",
    "creation_lat": 41.3874,
    "creation_lon": 2.1686,
    "_source": {
     "source": "Wikidata",
     "url": "https://www.wikidata.org/wiki/Q56229913",
     "retrieved_at": "2026-08-23"
    },
    "_overrides": {
     "creation": {
      "at": "2026-08-23",
      "source": "derived from start date + Caravaggio's documented itinerary (approximate)"
     }
    },
    "museum_id": "fundacio-joan-miro",
    "qid": "Q56229913"
   }
  },
  {
   "type": "Feature",
   "geometry": {
    "type": "Point",
    "coordinates": [
     2.35224,
     48.86064
    ]
   },
   "properties": {
    "painter": "Joan Miró",
    "title": "Q60150109",
    "year": "1925",
    "city": "Quartier Saint-Merri",
    "country": "France",
    "location": "Centre Georges Pompidou",
    "kind": "museum",
    "attribution": "attributed",
    "status": "present",
    "medium": "Oil on canvas",
    "dimensions": "113 × 146 cm",
    "wikidata": "https://www.wikidata.org/wiki/Q60150109",
    "_source": {
     "source": "Wikidata",
     "url": "https://www.wikidata.org/wiki/Q60150109",
     "retrieved_at": "2026-08-23"
    },
    "_overrides": {
     "creation": {
      "at": "2026-08-23",
      "source": "derived from start date + Caravaggio's documented itinerary (approximate)"
     }
    },
    "museum_id": "centre-georges-pompidou",
    "qid": "Q60150109"
   }
  },
  {
   "type": "Feature",
   "geometry": {
    "type": "Point",
    "coordinates": [
     3.15034,
     50.63744
    ]
   },
   "properties": {
    "painter": "Joan Miró",
    "title": "Q60452850",
    "year": "1927",
    "city": "Villeneuve-d'Ascq",
    "country": "France",
    "location": "LaM (Lille Métropole musée d'art moderne, d'art contemporain et d'art brut)",
    "kind": "museum",
    "attribution": "attributed",
    "status": "present",
    "medium": "Oil on canvas",
    "dimensions": "129 × 97 cm",
    "wikidata": "https://www.wikidata.org/wiki/Q60452850",
    "_source": {
     "source": "Wikidata",
     "url": "https://www.wikidata.org/wiki/Q60452850",
     "retrieved_at": "2026-08-23"
    },
    "_overrides": {
     "creation": {
      "at": "2026-08-23",
      "source": "derived from start date + Caravaggio's documented itinerary (approximate)"
     }
    },
    "museum_id": "lam-lille-metropole-musee-d-art-moderne-d-art-contemporain-e",
    "qid": "Q60452850"
   }
  },
  {
   "type": "Feature",
   "geometry": {
    "type": "Point",
    "coordinates": [
     7.42,
     43.73111
    ]
   },
   "properties": {
    "painter": "Joan Miró",
    "title": "Painting (head)",
    "year": "1927",
    "country": "Monaco",
    "location": "Monaco",
    "kind": "museum",
    "attribution": "attributed",
    "status": "present",
    "medium": "Oil on canvas",
    "dimensions": "151 × 118 cm",
    "wikidata": "https://www.wikidata.org/wiki/Q61520711",
    "_source": {
     "source": "Wikidata",
     "url": "https://www.wikidata.org/wiki/Q61520711",
     "retrieved_at": "2026-08-23"
    },
    "_overrides": {
     "creation": {
      "at": "2026-08-23",
      "source": "derived from start date + Caravaggio's documented itinerary (approximate)"
     }
    },
    "museum_id": "monaco",
    "qid": "Q61520711"
   }
  },
  {
   "type": "Feature",
   "geometry": {
    "type": "Point",
    "coordinates": [
     2.35222,
     48.85667
    ]
   },
   "properties": {
    "painter": "Joan Miró",
    "title": "The Trap",
    "year": "1924",
    "city": "Grand Paris",
    "country": "France",
    "location": "Paris",
    "kind": "museum",
    "attribution": "attributed",
    "status": "present",
    "medium": "Oil on canvas",
    "dimensions": "92 × 32 cm",
    "wikidata": "https://www.wikidata.org/wiki/Q61529931",
    "_source": {
     "source": "Wikidata",
     "url": "https://www.wikidata.org/wiki/Q61529931",
     "retrieved_at": "2026-08-23"
    },
    "_overrides": {
     "creation": {
      "at": "2026-08-23",
      "source": "derived from start date + Caravaggio's documented itinerary (approximate)"
     }
    },
    "museum_id": "paris",
    "qid": "Q61529931"
   }
  },
  {
   "type": "Feature",
   "geometry": {
    "type": "Point",
    "coordinates": [
     18.08469,
     59.32605
    ]
   },
   "properties": {
    "painter": "Joan Miró",
    "title": "Vegetable Garden with Donkey",
    "year": "1918",
    "city": "Stockholm Municipality",
    "country": "Sweden",
    "location": "Moderna Museet",
    "kind": "museum",
    "attribution": "attributed",
    "status": "present",
    "medium": "Oil on canvas",
    "dimensions": "64 × 70 cm",
    "genre": "landscape painting",
    "wikidata": "https://www.wikidata.org/wiki/Q61564828",
    "creation_place": "Barcelona",
    "creation_lat": 41.3874,
    "creation_lon": 2.1686,
    "_source": {
     "source": "Wikidata",
     "url": "https://www.wikidata.org/wiki/Q61564828",
     "retrieved_at": "2026-08-23"
    },
    "_overrides": {
     "creation": {
      "at": "2026-08-23",
      "source": "derived from start date + Caravaggio's documented itinerary (approximate)"
     }
    },
    "museum_id": "moderna-museet",
    "qid": "Q61564828"
   }
  },
  {
   "type": "Feature",
   "geometry": {
    "type": "Point",
    "coordinates": [
     2.35224,
     48.86064
    ]
   },
   "properties": {
    "painter": "Joan Miró",
    "title": "Q61566230",
    "year": "1925",
    "city": "Quartier Saint-Merri",
    "country": "France",
    "location": "Centre Georges Pompidou",
    "kind": "museum",
    "attribution": "attributed",
    "status": "present",
    "medium": "Oil on canvas",
    "dimensions": "195 × 129.2 cm",
    "wikidata": "https://www.wikidata.org/wiki/Q61566230",
    "_source": {
     "source": "Wikidata",
     "url": "https://www.wikidata.org/wiki/Q61566230",
     "retrieved_at": "2026-08-23"
    },
    "_overrides": {
     "creation": {
      "at": "2026-08-23",
      "source": "derived from start date + Caravaggio's documented itinerary (approximate)"
     }
    },
    "museum_id": "centre-georges-pompidou",
    "qid": "Q61566230"
   }
  },
  {
   "type": "Feature",
   "geometry": {
    "type": "Point",
    "coordinates": [
     130.37951,
     33.58383
    ]
   },
   "properties": {
    "painter": "Joan Miró",
    "title": "Dancer Listening to Organ in a Gothic Cathedral",
    "year": "1945",
    "city": "Ōhorikōen",
    "country": "Japan",
    "location": "Fukuoka Art Museum",
    "kind": "museum",
    "attribution": "attributed",
    "status": "present",
    "medium": "Oil on canvas",
    "dimensions": "197.1 × 130.6 cm",
    "wikidata": "https://www.wikidata.org/wiki/Q61568860",
    "_source": {
     "source": "Wikidata",
     "url": "https://www.wikidata.org/wiki/Q61568860",
     "retrieved_at": "2026-08-23"
    },
    "_overrides": {
     "creation": {
      "at": "2026-08-23",
      "source": "derived from start date + Caravaggio's documented itinerary (approximate)"
     }
    },
    "museum_id": "fukuoka-art-museum",
    "qid": "Q61568860"
   }
  },
  {
   "type": "Feature",
   "geometry": {
    "type": "Point",
    "coordinates": [
     -90.29444,
     38.63944
    ]
   },
   "properties": {
    "painter": "Joan Miró",
    "title": "Standing Nude",
    "year": "1918",
    "city": "St",
    "country": "United States",
    "location": "Saint Louis Art Museum",
    "kind": "museum",
    "attribution": "attributed",
    "status": "present",
    "medium": "Oil on canvas",
    "dimensions": "152.4 × 120.3 cm",
    "genre": "nude",
    "wikidata": "https://www.wikidata.org/wiki/Q61570137",
    "creation_place": "Barcelona",
    "creation_lat": 41.3874,
    "creation_lon": 2.1686,
    "_source": {
     "source": "Wikidata",
     "url": "https://www.wikidata.org/wiki/Q61570137",
     "retrieved_at": "2026-08-23"
    },
    "_overrides": {
     "creation": {
      "at": "2026-08-23",
      "source": "derived from start date + Caravaggio's documented itinerary (approximate)"
     }
    },
    "museum_id": "saint-louis-art-museum",
    "qid": "Q61570137"
   }
  },
  {
   "type": "Feature",
   "geometry": {
    "type": "Point",
    "coordinates": [
     7.6511,
     47.5881
    ]
   },
   "properties": {
    "painter": "Joan Miró",
    "title": "Q61573928",
    "year": "1927",
    "city": "Riehen",
    "country": "Switzerland",
    "location": "Beyeler Foundation",
    "kind": "museum",
    "attribution": "attributed",
    "status": "present",
    "medium": "Oil on canvas",
    "dimensions": "131 × 196.5 cm",
    "genre": "landscape painting",
    "wikidata": "https://www.wikidata.org/wiki/Q61573928",
    "_source": {
     "source": "Wikidata",
     "url": "https://www.wikidata.org/wiki/Q61573928",
     "retrieved_at": "2026-08-23"
    },
    "_overrides": {
     "creation": {
      "at": "2026-08-23",
      "source": "derived from start date + Caravaggio's documented itinerary (approximate)"
     }
    },
    "museum_id": "beyeler-foundation",
    "qid": "Q61573928"
   }
  },
  {
   "type": "Feature",
   "geometry": {
    "type": "Point",
    "coordinates": [
     2.16,
     41.36861
    ]
   },
   "properties": {
    "painter": "Joan Miró",
    "title": "Woman in front of the sun I",
    "year": "1974",
    "city": "Montjuïc",
    "country": "Spain",
    "location": "Fundació Joan Miró",
    "kind": "museum",
    "attribution": "attributed",
    "status": "present",
    "medium": "Canvas",
    "dimensions": "258.5 × 194 cm",
    "wikidata": "https://www.wikidata.org/wiki/Q61581549",
    "_source": {
     "source": "Wikidata",
     "url": "https://www.wikidata.org/wiki/Q61581549",
     "retrieved_at": "2026-08-23"
    },
    "_overrides": {
     "creation": {
      "at": "2026-08-23",
      "source": "derived from start date + Caravaggio's documented itinerary (approximate)"
     }
    },
    "museum_id": "fundacio-joan-miro",
    "qid": "Q61581549"
   }
  },
  {
   "type": "Feature",
   "geometry": {
    "type": "Point",
    "coordinates": [
     2.60917,
     39.555
    ]
   },
   "properties": {
    "painter": "Joan Miró",
    "title": "Q61581829",
    "year": "1973",
    "city": "Cala Major",
    "country": "Spain",
    "location": "Fundació Miró Mallorca",
    "kind": "museum",
    "attribution": "attributed",
    "status": "present",
    "medium": "Oil on canvas",
    "dimensions": "270 × 355 cm",
    "wikidata": "https://www.wikidata.org/wiki/Q61581829",
    "_source": {
     "source": "Wikidata",
     "url": "https://www.wikidata.org/wiki/Q61581829",
     "retrieved_at": "2026-08-23"
    },
    "_overrides": {
     "creation": {
      "at": "2026-08-23",
      "source": "derived from start date + Caravaggio's documented itinerary (approximate)"
     }
    },
    "museum_id": "fundacio-miro-mallorca",
    "qid": "Q61581829"
   }
  },
  {
   "type": "Feature",
   "geometry": {
    "type": "Point",
    "coordinates": [
     -0.1275,
     51.50722
    ]
   },
   "properties": {
    "painter": "Joan Miró",
    "title": "Q61585393",
    "year": "1925-1964",
    "city": "Greater London",
    "country": "United Kingdom",
    "location": "London",
    "kind": "museum",
    "attribution": "attributed",
    "status": "present",
    "medium": "Oil on canvas",
    "dimensions": "88.8 × 116.4 cm",
    "genre": "landscape painting",
    "wikidata": "https://www.wikidata.org/wiki/Q61585393",
    "_source": {
     "source": "Wikidata",
     "url": "https://www.wikidata.org/wiki/Q61585393",
     "retrieved_at": "2026-08-23"
    },
    "_overrides": {
     "creation": {
      "at": "2026-08-23",
      "source": "derived from start date + Caravaggio's documented itinerary (approximate)"
     }
    },
    "museum_id": "london",
    "qid": "Q61585393"
   }
  },
  {
   "type": "Feature",
   "geometry": {
    "type": "Point",
    "coordinates": [
     7.59417,
     47.55417
    ]
   },
   "properties": {
    "painter": "Joan Miró",
    "title": "The Gentleman",
    "year": "1924",
    "city": "Basel",
    "country": "Switzerland",
    "location": "Kunstmuseum Basel",
    "kind": "museum",
    "attribution": "attributed",
    "status": "present",
    "medium": "Oil on canvas",
    "dimensions": "52.5 × 46.5 cm",
    "genre": "portrait",
    "wikidata": "https://www.wikidata.org/wiki/Q61721900",
    "_source": {
     "source": "Wikidata",
     "url": "https://www.wikidata.org/wiki/Q61721900",
     "retrieved_at": "2026-08-23"
    },
    "_overrides": {
     "creation": {
      "at": "2026-08-23",
      "source": "derived from start date + Caravaggio's documented itinerary (approximate)"
     }
    },
    "museum_id": "kunstmuseum-basel",
    "qid": "Q61721900"
   }
  },
  {
   "type": "Feature",
   "geometry": {
    "type": "Point",
    "coordinates": [
     -74.00611,
     40.71278
    ]
   },
   "properties": {
    "painter": "Joan Miró",
    "title": "The Kiss",
    "year": "1924",
    "city": "New York",
    "country": "United States",
    "location": "New York City",
    "kind": "museum",
    "attribution": "attributed",
    "status": "present",
    "medium": "Oil on canvas",
    "dimensions": "73 × 92 cm",
    "wikidata": "https://www.wikidata.org/wiki/Q61721947",
    "_source": {
     "source": "Wikidata",
     "url": "https://www.wikidata.org/wiki/Q61721947",
     "retrieved_at": "2026-08-23"
    },
    "_overrides": {
     "creation": {
      "at": "2026-08-23",
      "source": "derived from start date + Caravaggio's documented itinerary (approximate)"
     }
    },
    "museum_id": "new-york-city",
    "qid": "Q61721947"
   }
  },
  {
   "type": "Feature",
   "geometry": {
    "type": "Point",
    "coordinates": [
     6.77556,
     51.22722
    ]
   },
   "properties": {
    "painter": "Joan Miró",
    "title": "Nude with Mirror",
    "year": "1919",
    "city": "Düsseldorf",
    "country": "Germany",
    "location": "Kunstsammlung Nordrhein-Westfalen",
    "kind": "museum",
    "attribution": "attributed",
    "status": "present",
    "medium": "Oil on canvas",
    "dimensions": "113 × 102 cm",
    "genre": "nude",
    "wikidata": "https://www.wikidata.org/wiki/Q61731691",
    "creation_place": "Barcelona",
    "creation_lat": 41.3874,
    "creation_lon": 2.1686,
    "_source": {
     "source": "Wikidata",
     "url": "https://www.wikidata.org/wiki/Q61731691",
     "retrieved_at": "2026-08-23"
    },
    "_overrides": {
     "creation": {
      "at": "2026-08-23",
      "source": "derived from start date + Caravaggio's documented itinerary (approximate)"
     }
    },
    "museum_id": "kunstsammlung-nordrhein-westfalen",
    "qid": "Q61731691"
   }
  },
  {
   "type": "Feature",
   "geometry": {
    "type": "Point",
    "coordinates": [
     2.16,
     41.36861
    ]
   },
   "properties": {
    "painter": "Joan Miró",
    "title": "Woman in Front of the Shooting Star III",
    "year": "1974",
    "city": "Montjuïc",
    "country": "Spain",
    "location": "Fundació Joan Miró",
    "kind": "museum",
    "attribution": "attributed",
    "status": "present",
    "medium": "Canvas",
    "dimensions": "204.5 × 194.5 cm",
    "wikidata": "https://www.wikidata.org/wiki/Q61732440",
    "_source": {
     "source": "Wikidata",
     "url": "https://www.wikidata.org/wiki/Q61732440",
     "retrieved_at": "2026-08-23"
    },
    "_overrides": {
     "creation": {
      "at": "2026-08-23",
      "source": "derived from start date + Caravaggio's documented itinerary (approximate)"
     }
    },
    "museum_id": "fundacio-joan-miro",
    "qid": "Q61732440"
   }
  },
  {
   "type": "Feature",
   "geometry": {
    "type": "Point",
    "coordinates": [
     -87.89706,
     43.04007
    ]
   },
   "properties": {
    "painter": "Joan Miró",
    "title": "The King's Jester",
    "year": "1926",
    "city": "Milwaukee",
    "country": "United States",
    "location": "Milwaukee Art Museum",
    "kind": "museum",
    "attribution": "attributed",
    "status": "present",
    "medium": "Oil on canvas",
    "dimensions": "114.3 × 146.1 cm",
    "genre": "portrait",
    "wikidata": "https://www.wikidata.org/wiki/Q61739852",
    "_source": {
     "source": "Wikidata",
     "url": "https://www.wikidata.org/wiki/Q61739852",
     "retrieved_at": "2026-08-23"
    },
    "_overrides": {
     "creation": {
      "at": "2026-08-23",
      "source": "derived from start date + Caravaggio's documented itinerary (approximate)"
     }
    },
    "museum_id": "milwaukee-art-museum",
    "qid": "Q61739852"
   }
  },
  {
   "type": "Feature",
   "geometry": {
    "type": "Point",
    "coordinates": [
     2.16,
     41.36861
    ]
   },
   "properties": {
    "painter": "Joan Miró",
    "title": "Woman in front of the moon II",
    "year": "1974",
    "city": "Montjuïc",
    "country": "Spain",
    "location": "Fundació Joan Miró",
    "kind": "museum",
    "attribution": "attributed",
    "status": "present",
    "medium": "Canvas",
    "dimensions": "269.5 × 174 cm",
    "wikidata": "https://www.wikidata.org/wiki/Q61740338",
    "_source": {
     "source": "Wikidata",
     "url": "https://www.wikidata.org/wiki/Q61740338",
     "retrieved_at": "2026-08-23"
    },
    "_overrides": {
     "creation": {
      "at": "2026-08-23",
      "source": "derived from start date + Caravaggio's documented itinerary (approximate)"
     }
    },
    "museum_id": "fundacio-joan-miro",
    "qid": "Q61740338"
   }
  },
  {
   "type": "Feature",
   "geometry": {
    "type": "Point",
    "coordinates": [
     2.35224,
     48.86064
    ]
   },
   "properties": {
    "painter": "Joan Miró",
    "title": "Bather",
    "year": "1924",
    "city": "Quartier Saint-Merri",
    "country": "France",
    "location": "Centre Georges Pompidou",
    "kind": "museum",
    "attribution": "attributed",
    "status": "present",
    "medium": "Oil on canvas",
    "dimensions": "72.5 × 92 cm",
    "wikidata": "https://www.wikidata.org/wiki/Q63229843",
    "_source": {
     "source": "Wikidata",
     "url": "https://www.wikidata.org/wiki/Q63229843",
     "retrieved_at": "2026-08-23"
    },
    "_overrides": {
     "creation": {
      "at": "2026-08-23",
      "source": "derived from start date + Caravaggio's documented itinerary (approximate)"
     }
    },
    "museum_id": "centre-georges-pompidou",
    "qid": "Q63229843"
   }
  },
  {
   "type": "Feature",
   "geometry": {
    "type": "Point",
    "coordinates": [
     7.00417,
     51.44167
    ]
   },
   "properties": {
    "painter": "Joan Miró",
    "title": "Portrait of Vincent Nubiola",
    "year": "1917",
    "city": "Essen",
    "country": "Germany",
    "location": "Museum Folkwang",
    "kind": "museum",
    "attribution": "generally accepted",
    "status": "present",
    "genre": "portrait",
    "image": "https://commons.wikimedia.org/wiki/Special:FilePath/1%20visitor%20scaning%20QRPedia%20codes%20at%20Fundaci%C3%B3%20Joan%20Mir%C3%B3%20%288%29.JPG?width=420",
    "wikipedia_es": "https://es.wikipedia.org/wiki/Retrato_de_Vicen%C3%A7_Nubiola",
    "wikipedia_en": "https://en.wikipedia.org/wiki/Portrait_of_Vincent_Nubiola",
    "wikidata": "https://www.wikidata.org/wiki/Q674682",
    "creation_place": "Barcelona",
    "creation_lat": 41.3874,
    "creation_lon": 2.1686,
    "_source": {
     "source": "Wikidata",
     "url": "https://www.wikidata.org/wiki/Q674682",
     "retrieved_at": "2026-08-23"
    },
    "_overrides": {
     "creation": {
      "at": "2026-08-23",
      "source": "derived from start date + Caravaggio's documented itinerary (approximate)"
     }
    },
    "museum_id": "museum-folkwang",
    "qid": "Q674682"
   }
  },
  {
   "type": "Feature",
   "geometry": {
    "type": "Point",
    "coordinates": [
     -78.87563,
     42.93245
    ]
   },
   "properties": {
    "painter": "Joan Miró",
    "title": "The Harlequin's Carnival",
    "year": "1924",
    "city": "Buffalo",
    "country": "United States",
    "location": "Buffalo AKG Art Museum",
    "kind": "museum",
    "attribution": "generally accepted",
    "status": "present",
    "medium": "Oil on canvas",
    "dimensions": "26 × 36.6 cm",
    "genre": "abstract art",
    "wikipedia_es": "https://es.wikipedia.org/wiki/El_Carnaval_de_Arlequ%C3%ADn",
    "wikipedia_en": "https://en.wikipedia.org/wiki/The_Harlequin%27s_Carnival",
    "wikipedia_it": "https://it.wikipedia.org/wiki/Il_carnevale_di_Arlecchino",
    "wikidata": "https://www.wikidata.org/wiki/Q782079",
    "_source": {
     "source": "Wikidata",
     "url": "https://www.wikidata.org/wiki/Q782079",
     "retrieved_at": "2026-08-23"
    },
    "_overrides": {
     "creation": {
      "at": "2026-08-23",
      "source": "derived from start date + Caravaggio's documented itinerary (approximate)"
     }
    },
    "museum_id": "buffalo-akg-art-museum",
    "qid": "Q782079"
   }
  },
  {
   "type": "Feature",
   "geometry": {
    "type": "Point",
    "coordinates": [
     -73.95889,
     40.78306
    ]
   },
   "properties": {
    "painter": "Joan Miró",
    "title": "Landscape (The Hare)",
    "year": "1927",
    "city": "Manhattan",
    "country": "United States",
    "location": "Solomon R. Guggenheim Museum",
    "kind": "museum",
    "attribution": "attributed",
    "status": "present",
    "medium": "Oil on canvas",
    "dimensions": "129.6 × 194.6 cm",
    "genre": "landscape painting",
    "wikidata": "https://www.wikidata.org/wiki/Q8535304",
    "_source": {
     "source": "Wikidata",
     "url": "https://www.wikidata.org/wiki/Q8535304",
     "retrieved_at": "2026-08-23"
    },
    "_overrides": {
     "creation": {
      "at": "2026-08-23",
      "source": "derived from start date + Caravaggio's documented itinerary (approximate)"
     }
    },
    "museum_id": "solomon-r-guggenheim-museum",
    "qid": "Q8535304"
   }
  },
  {
   "type": "Feature",
   "geometry": {
    "type": "Point",
    "coordinates": [
     -87.62389,
     41.87944
    ]
   },
   "properties": {
    "painter": "Joan Miró",
    "title": "Ciphers and Constellations, in Love with a Woman",
    "year": "1941",
    "city": "Chicago",
    "country": "United States",
    "location": "Art Institute of Chicago",
    "kind": "museum",
    "attribution": "generally accepted",
    "status": "present",
    "medium": "Watercolor paint, wove paper",
    "dimensions": "45.9 × 38 cm",
    "genre": "nude",
    "wikipedia_es": "https://es.wikipedia.org/wiki/Signos_y_constelaciones_enamorados_de_una_mujer",
    "wikipedia_en": "https://en.wikipedia.org/wiki/Ciphers_and_Constellations,_in_Love_with_a_Woman",
    "wikidata": "https://www.wikidata.org/wiki/Q9077269",
    "_source": {
     "source": "Wikidata",
     "url": "https://www.wikidata.org/wiki/Q9077269",
     "retrieved_at": "2026-08-23"
    },
    "_overrides": {
     "creation": {
      "at": "2026-08-23",
      "source": "derived from start date + Caravaggio's documented itinerary (approximate)"
     }
    },
    "museum_id": "art-institute-of-chicago",
    "qid": "Q9077269"
   }
  }
 ]
}