{
 "type": "FeatureCollection",
 "_note": "Generated by scripts/build.py from Wikidata. Do not edit by hand — put manual fixes in the painter's overlay (data/overlay/*.json). Each feature carries _source (scraped base or manual addition) and, when edited, _overrides.",
 "features": [
  {
   "type": "Feature",
   "geometry": {
    "type": "Point",
    "coordinates": [
     12.48114,
     41.89767
    ]
   },
   "properties": {
    "painter": "Parmigianino",
    "title": "Doria Madonna",
    "year": "1525",
    "city": "Rome",
    "country": "Italy",
    "location": "Doria Pamphilj Gallery",
    "kind": "museum",
    "attribution": "generally accepted",
    "status": "present",
    "medium": "Oil on panel",
    "dimensions": "58.8 × 38.1 cm",
    "genre": "religious art",
    "image": "https://commons.wikimedia.org/wiki/Special:FilePath/Parmigianino%2C%20madonna%20doria.jpg?width=420",
    "wikipedia_en": "https://en.wikipedia.org/wiki/Doria_Madonna",
    "wikipedia_it": "https://it.wikipedia.org/wiki/Madonna_Doria",
    "wikidata": "https://www.wikidata.org/wiki/Q106262020",
    "creation_place": "Rome",
    "creation_lat": 41.9028,
    "creation_lon": 12.4964,
    "_source": {
     "source": "Wikidata",
     "url": "https://www.wikidata.org/wiki/Q106262020",
     "retrieved_at": "2026-08-23"
    },
    "_overrides": {
     "creation": {
      "at": "2026-08-23",
      "source": "derived from start date + Caravaggio's documented itinerary (approximate)"
     }
    },
    "museum_id": "doria-pamphilj-gallery",
    "qid": "Q106262020",
    "wga_url": "https://www.wga.hu/html/p/parmigia/1/madchild.html"
   }
  },
  {
   "type": "Feature",
   "geometry": {
    "type": "Point",
    "coordinates": [
     -118.475,
     34.0775
    ]
   },
   "properties": {
    "painter": "Parmigianino",
    "title": "Virgin and Child with Saint John the Baptist and Mary Magdalene",
    "year": "1535",
    "city": "Los Angeles",
    "country": "United States",
    "location": "Getty Center",
    "kind": "museum",
    "attribution": "attributed",
    "status": "present",
    "medium": "Oil on paper",
    "dimensions": "59.7 × 75.9 cm",
    "image": "https://commons.wikimedia.org/wiki/Special:FilePath/Parmigianino%20-%20Virgin%20and%20Child%20with%20St.%20John%20the%20Baptist%20and%20Mary%20Magdalene.jpg?width=420",
    "wikidata": "https://www.wikidata.org/wiki/Q112078318",
    "creation_place": "Parma",
    "creation_lat": 44.8015,
    "creation_lon": 10.3279,
    "_source": {
     "source": "Wikidata",
     "url": "https://www.wikidata.org/wiki/Q112078318",
     "retrieved_at": "2026-08-23"
    },
    "_overrides": {
     "creation": {
      "at": "2026-08-23",
      "source": "derived from start date + Caravaggio's documented itinerary (approximate)"
     }
    },
    "museum_id": "getty-center",
    "qid": "Q112078318"
   }
  },
  {
   "type": "Feature",
   "geometry": {
    "type": "Point",
    "coordinates": [
     3.88019,
     43.61174
    ]
   },
   "properties": {
    "painter": "Parmigianino",
    "title": "L'Enfant Jésus porté par des Anges",
    "year": "1540",
    "city": "Montpellier",
    "country": "France",
    "location": "Musée Fabre",
    "kind": "museum",
    "attribution": "attributed",
    "status": "present",
    "medium": "Oil on canvas",
    "dimensions": "36 × 27.5 cm",
    "genre": "religious art",
    "wikidata": "https://www.wikidata.org/wiki/Q117832511",
    "creation_place": "Parma",
    "creation_lat": 44.8015,
    "creation_lon": 10.3279,
    "_source": {
     "source": "Wikidata",
     "url": "https://www.wikidata.org/wiki/Q117832511",
     "retrieved_at": "2026-08-23"
    },
    "_overrides": {
     "creation": {
      "at": "2026-08-23",
      "source": "derived from start date + Caravaggio's documented itinerary (approximate)"
     }
    },
    "museum_id": "musee-fabre",
    "qid": "Q117832511"
   }
  },
  {
   "type": "Feature",
   "geometry": {
    "type": "Point",
    "coordinates": [
     -0.02035,
     51.5913
    ]
   },
   "properties": {
    "painter": "Parmigianino",
    "title": "A Martyrdom",
    "year": "1530",
    "city": "London Borough of Waltham Forest",
    "country": "United Kingdom",
    "location": "William Morris Gallery",
    "kind": "museum",
    "attribution": "attributed",
    "status": "present",
    "medium": "Oil on panel",
    "dimensions": "111.5 × 96 cm",
    "genre": "religious art",
    "image": "https://commons.wikimedia.org/wiki/Special:FilePath/Parmigianino%20%281503-1540%29%20%28attributed%20to%29%20-%20A%20Martyrdom%20-%20BrO46%20-%20William%20Morris%20Gallery.jpg?width=420",
    "wikidata": "https://www.wikidata.org/wiki/Q119456605",
    "creation_place": "Bologna",
    "creation_lat": 44.4949,
    "creation_lon": 11.3426,
    "_source": {
     "source": "Wikidata",
     "url": "https://www.wikidata.org/wiki/Q119456605",
     "retrieved_at": "2026-08-23"
    },
    "_overrides": {
     "creation": {
      "at": "2026-08-23",
      "source": "derived from start date + Caravaggio's documented itinerary (approximate)"
     }
    },
    "museum_id": "william-morris-gallery",
    "qid": "Q119456605"
   }
  },
  {
   "type": "Feature",
   "geometry": {
    "type": "Point",
    "coordinates": [
     -1.675,
     48.10944
    ]
   },
   "properties": {
    "painter": "Parmigianino",
    "title": "Q123510136",
    "year": "1601",
    "city": "Rennes",
    "country": "France",
    "location": "Musée des Beaux-Arts de Rennes",
    "kind": "museum",
    "attribution": "attributed",
    "status": "present",
    "medium": "Wood",
    "dimensions": "23.8 × 20 cm",
    "genre": "religious art",
    "wikidata": "https://www.wikidata.org/wiki/Q123510136",
    "_source": {
     "source": "Wikidata",
     "url": "https://www.wikidata.org/wiki/Q123510136",
     "retrieved_at": "2026-08-23"
    },
    "museum_id": "musee-des-beaux-arts-de-rennes",
    "qid": "Q123510136"
   }
  },
  {
   "type": "Feature",
   "geometry": {
    "type": "Point",
    "coordinates": [
     -1.675,
     48.10944
    ]
   },
   "properties": {
    "painter": "Parmigianino",
    "title": "Q123551011",
    "year": "1501",
    "city": "Rennes",
    "country": "France",
    "location": "Musée des Beaux-Arts de Rennes",
    "kind": "museum",
    "attribution": "attributed",
    "status": "present",
    "medium": "Canvas",
    "dimensions": "92.5 × 72.5 cm",
    "genre": "nude, religious art",
    "wikidata": "https://www.wikidata.org/wiki/Q123551011",
    "_source": {
     "source": "Wikidata",
     "url": "https://www.wikidata.org/wiki/Q123551011",
     "retrieved_at": "2026-08-23"
    },
    "museum_id": "musee-des-beaux-arts-de-rennes",
    "qid": "Q123551011"
   }
  },
  {
   "type": "Feature",
   "geometry": {
    "type": "Point",
    "coordinates": [
     -3.6922,
     40.4139
    ]
   },
   "properties": {
    "painter": "Parmigianino",
    "title": "Saint Barbara",
    "year": "1522",
    "city": "Madrid",
    "country": "Spain",
    "location": "Museo del Prado",
    "kind": "museum",
    "attribution": "generally accepted",
    "status": "present",
    "medium": "Oil on panel",
    "dimensions": "48 × 39 cm",
    "genre": "religious art",
    "image": "https://commons.wikimedia.org/wiki/Special:FilePath/Parmigianino%20-%20Saint%20Barbara.jpg?width=420",
    "wikipedia_es": "https://es.wikipedia.org/wiki/Santa_B%C3%A1rbara_(Parmigianino)",
    "wikipedia_en": "https://en.wikipedia.org/wiki/Saint_Barbara_(Parmigianino)",
    "wikipedia_it": "https://it.wikipedia.org/wiki/Santa_Barbara_(Parmigianino)",
    "wikidata": "https://www.wikidata.org/wiki/Q1595032",
    "_source": {
     "source": "Wikidata",
     "url": "https://www.wikidata.org/wiki/Q1595032",
     "retrieved_at": "2026-08-23"
    },
    "museum_id": "museo-del-prado",
    "qid": "Q1595032"
   }
  },
  {
   "type": "Feature",
   "geometry": {
    "type": "Point",
    "coordinates": [
     -97.365,
     32.74861
    ]
   },
   "properties": {
    "painter": "Parmigianino",
    "title": "Madonna and Child",
    "year": "1528",
    "city": "Fort Worth",
    "country": "United States",
    "location": "Museo d'arte Kimbell",
    "kind": "museum",
    "attribution": "generally accepted",
    "status": "present",
    "medium": "Oil on panel",
    "dimensions": "44.8 × 34 cm",
    "genre": "religious art",
    "image": "https://commons.wikimedia.org/wiki/Special:FilePath/%27The%20Madonna%20and%20Child%27%2C%20oil%20on%20panel%20painting%20by%20Parmigianino%20%28Girolamo%20Francesco%20Maria%20Mazzola%29.jpg?width=420",
    "wikipedia_en": "https://en.wikipedia.org/wiki/Kedleston_Madonna",
    "wikipedia_it": "https://it.wikipedia.org/wiki/Madonna_Kedleston",
    "wikidata": "https://www.wikidata.org/wiki/Q1896483",
    "creation_place": "Bologna",
    "creation_lat": 44.4949,
    "creation_lon": 11.3426,
    "_source": {
     "source": "Wikidata",
     "url": "https://www.wikidata.org/wiki/Q1896483",
     "retrieved_at": "2026-08-23"
    },
    "_overrides": {
     "creation": {
      "at": "2026-08-23",
      "source": "derived from start date + Caravaggio's documented itinerary (approximate)"
     }
    },
    "museum_id": "museo-d-arte-kimbell",
    "qid": "Q1896483"
   }
  },
  {
   "type": "Feature",
   "geometry": {
    "type": "Point",
    "coordinates": [
     10.32586,
     44.80472
    ]
   },
   "properties": {
    "painter": "Parmigianino",
    "title": "Mystic Marriage of Saint Catherine",
    "year": "1524",
    "city": "Parma",
    "country": "Italy",
    "location": "Galleria Nazionale di Parma",
    "kind": "museum",
    "attribution": "generally accepted",
    "status": "present",
    "dimensions": "74 × 117 cm",
    "genre": "religious art",
    "image": "https://commons.wikimedia.org/wiki/Special:FilePath/Parmigianino%2C%20Sposalizio%20mistico%20di%20Santa%20Caterina.jpg?width=420",
    "wikipedia_en": "https://en.wikipedia.org/wiki/Mystic_Marriage_of_Saint_Catherine_(Parmigianino,_Parma)",
    "wikipedia_it": "https://it.wikipedia.org/wiki/Sposalizio_mistico_di_santa_Caterina_(Parmigianino)",
    "wikidata": "https://www.wikidata.org/wiki/Q19966608",
    "creation_place": "Rome",
    "creation_lat": 41.9028,
    "creation_lon": 12.4964,
    "_source": {
     "source": "Wikidata",
     "url": "https://www.wikidata.org/wiki/Q19966608",
     "retrieved_at": "2026-08-23"
    },
    "_overrides": {
     "creation": {
      "at": "2026-08-23",
      "source": "derived from start date + Caravaggio's documented itinerary (approximate)"
     }
    },
    "museum_id": "galleria-nazionale-di-parma",
    "qid": "Q19966608"
   }
  },
  {
   "type": "Feature",
   "geometry": {
    "type": "Point",
    "coordinates": [
     -0.1283,
     51.5089
    ]
   },
   "properties": {
    "painter": "Parmigianino",
    "title": "Cardinal Lorenzo Pucci",
    "year": "1529",
    "city": "London",
    "country": "United Kingdom",
    "location": "National Gallery",
    "kind": "museum",
    "attribution": "attributed",
    "status": "present",
    "medium": "Oil on canvas",
    "dimensions": "95.3 × 81.3 cm",
    "genre": "portrait",
    "image": "https://commons.wikimedia.org/wiki/Special:FilePath/Parmigianino%20019.jpg?width=420",
    "wikidata": "https://www.wikidata.org/wiki/Q26713754",
    "creation_place": "Bologna",
    "creation_lat": 44.4949,
    "creation_lon": 11.3426,
    "_source": {
     "source": "Wikidata",
     "url": "https://www.wikidata.org/wiki/Q26713754",
     "retrieved_at": "2026-08-23"
    },
    "_overrides": {
     "creation": {
      "at": "2026-08-23",
      "source": "derived from start date + Caravaggio's documented itinerary (approximate)"
     }
    },
    "museum_id": "national-gallery",
    "qid": "Q26713754"
   }
  },
  {
   "type": "Feature",
   "geometry": {
    "type": "Point",
    "coordinates": [
     16.3616,
     48.20388
    ]
   },
   "properties": {
    "painter": "Parmigianino",
    "title": "Portrait of a Man (Condottiere Malatesta Baglioni?)",
    "year": "1527",
    "city": "Vienna",
    "country": "Austria",
    "location": "Kunsthistorisches Museum",
    "kind": "museum",
    "attribution": "generally accepted",
    "status": "present",
    "dimensions": "117 × 98 cm",
    "genre": "portrait",
    "image": "https://commons.wikimedia.org/wiki/Special:FilePath/Francesco%20Mazzola%20gen.%20Parmigianino%2C%20%2C%20Kunsthistorisches%20Museum%20Wien%2C%20Gem%C3%A4ldegalerie%20-%20Bildnis%20eines%20W%C3%BCrdentr%C3%A4gers%20%28fr%C3%BCher%2C%20Condottiere%20Malatesta%20Baglione%5E%29%20-%20GG%20277%20-%20Kunsthistorisches%20Museum.jpg?width=420",
    "wikipedia_it": "https://it.wikipedia.org/wiki/Ritratto_maschile_(Parmigianino)",
    "wikidata": "https://www.wikidata.org/wiki/Q28020401",
    "creation_place": "Rome",
    "creation_lat": 41.9028,
    "creation_lon": 12.4964,
    "_source": {
     "source": "Wikidata",
     "url": "https://www.wikidata.org/wiki/Q28020401",
     "retrieved_at": "2026-08-23"
    },
    "_overrides": {
     "creation": {
      "at": "2026-08-23",
      "source": "derived from start date + Caravaggio's documented itinerary (approximate)"
     }
    },
    "museum_id": "kunsthistorisches-museum",
    "qid": "Q28020401"
   }
  },
  {
   "type": "Feature",
   "geometry": {
    "type": "Point",
    "coordinates": [
     -0.142,
     51.501
    ]
   },
   "properties": {
    "painter": "Parmigianino",
    "title": "Portrait of a Young Nobleman",
    "year": "1531",
    "city": "London",
    "country": "United Kingdom",
    "location": "Buckingham Palace",
    "kind": "museum",
    "attribution": "attributed",
    "status": "present",
    "dimensions": "98.5 × 82.4 cm",
    "genre": "portrait",
    "image": "https://commons.wikimedia.org/wiki/Special:FilePath/Parmigianino%20%28Parma%201503-Casalmaggiore%201540%29%20-%20Portrait%20of%20a%20Young%20Nobleman%20-%20RCIN%20406025%20-%20Royal%20Collection.jpg?width=420",
    "wikidata": "https://www.wikidata.org/wiki/Q28035519",
    "creation_place": "Bologna",
    "creation_lat": 44.4949,
    "creation_lon": 11.3426,
    "_source": {
     "source": "Wikidata",
     "url": "https://www.wikidata.org/wiki/Q28035519",
     "retrieved_at": "2026-08-23"
    },
    "_overrides": {
     "creation": {
      "at": "2026-08-23",
      "source": "derived from start date + Caravaggio's documented itinerary (approximate)"
     }
    },
    "museum_id": "buckingham-palace",
    "qid": "Q28035519"
   }
  },
  {
   "type": "Feature",
   "geometry": {
    "type": "Point",
    "coordinates": [
     -83.0647,
     42.3594
    ]
   },
   "properties": {
    "painter": "Parmigianino",
    "title": "The Circumcision",
    "year": "1523",
    "city": "Detroit",
    "country": "United States",
    "location": "Detroit Institute of Arts",
    "kind": "museum",
    "attribution": "generally accepted",
    "status": "present",
    "medium": "Oil on panel",
    "dimensions": "42 × 31.4 cm",
    "genre": "religious art",
    "image": "https://commons.wikimedia.org/wiki/Special:FilePath/Parmigianino%20-%20The%20Circumcision%20-%2030.295%20-%20Detroit%20Institute%20of%20Arts.jpg?width=420",
    "wikipedia_es": "https://es.wikipedia.org/wiki/Circuncisi%C3%B3n_de_Jes%C3%BAs_(Parmigianino)",
    "wikipedia_en": "https://en.wikipedia.org/wiki/The_Circumcision_(Parmigianino)",
    "wikipedia_it": "https://it.wikipedia.org/wiki/Circoncisione_di_Ges%C3%B9_(Parmigianino)",
    "wikidata": "https://www.wikidata.org/wiki/Q282277",
    "_source": {
     "source": "Wikidata",
     "url": "https://www.wikidata.org/wiki/Q282277",
     "retrieved_at": "2026-08-23"
    },
    "museum_id": "detroit-institute-of-arts",
    "qid": "Q282277"
   }
  },
  {
   "type": "Feature",
   "geometry": {
    "type": "Point",
    "coordinates": [
     11.57178,
     48.14958
    ]
   },
   "properties": {
    "painter": "Parmigianino",
    "title": "Madonna and Child with St. Bruno",
    "year": "1530",
    "city": "Munich",
    "country": "Germany",
    "location": "Bavarian State Painting Collections",
    "kind": "museum",
    "attribution": "attributed",
    "status": "present",
    "medium": "Oil paint, poplar panel",
    "dimensions": "27.3 × 21.6 cm",
    "genre": "religious art",
    "image": "https://commons.wikimedia.org/wiki/Special:FilePath/Madonna%20with%20Child%20and%20a%20monk%20-%20Parmigianino.jpg?width=420",
    "wikidata": "https://www.wikidata.org/wiki/Q29839542",
    "creation_place": "Bologna",
    "creation_lat": 44.4949,
    "creation_lon": 11.3426,
    "_source": {
     "source": "Wikidata",
     "url": "https://www.wikidata.org/wiki/Q29839542",
     "retrieved_at": "2026-08-23"
    },
    "_overrides": {
     "creation": {
      "at": "2026-08-23",
      "source": "derived from start date + Caravaggio's documented itinerary (approximate)"
     }
    },
    "museum_id": "bavarian-state-painting-collections",
    "qid": "Q29839542"
   }
  },
  {
   "type": "Feature",
   "geometry": {
    "type": "Point",
    "coordinates": [
     11.57,
     48.14833
    ]
   },
   "properties": {
    "painter": "Parmigianino",
    "title": "Q30057024",
    "year": "1602",
    "city": "Munich",
    "country": "Germany",
    "location": "Alte Pinakothek",
    "kind": "museum",
    "attribution": "attributed",
    "status": "present",
    "dimensions": "141.8 × 148.5 cm",
    "image": "https://commons.wikimedia.org/wiki/Special:FilePath/Parma%20-%20Selene%20und%20Endymion%20-%201255%20-%20Bavarian%20State%20Painting%20Collections.jpg?width=420",
    "wikidata": "https://www.wikidata.org/wiki/Q30057024",
    "_source": {
     "source": "Wikidata",
     "url": "https://www.wikidata.org/wiki/Q30057024",
     "retrieved_at": "2026-08-23"
    },
    "museum_id": "alte-pinakothek",
    "qid": "Q30057024",
    "_merged": [
     {
      "source": "Wikidata",
      "title": "Selene und Endymion",
      "qid": "Q30057024",
      "url": "https://www.wikidata.org/wiki/Q30057024"
     }
    ]
   }
  },
  {
   "type": "Feature",
   "geometry": {
    "type": "Point",
    "coordinates": [
     -0.1283,
     51.5089
    ]
   },
   "properties": {
    "painter": "Parmigianino",
    "title": "The Vision of Saint Jerome",
    "year": "1526",
    "city": "London",
    "country": "United Kingdom",
    "location": "National Gallery",
    "kind": "museum",
    "attribution": "generally accepted",
    "status": "present",
    "medium": "Oil paint",
    "dimensions": "343 × 149 cm",
    "genre": "religious art",
    "image": "https://commons.wikimedia.org/wiki/Special:FilePath/Parmigianino%20-%20The%20Madonna%20and%20Child%20with%20Saints%20%28The%20Vision%20of%20St%20Jerome%29.jpg?width=420",
    "wikipedia_es": "https://es.wikipedia.org/wiki/Visi%C3%B3n_de_San_Jer%C3%B3nimo",
    "wikipedia_en": "https://en.wikipedia.org/wiki/Vision_of_Saint_Jerome",
    "wikipedia_it": "https://it.wikipedia.org/wiki/Visione_di_san_Girolamo",
    "wikidata": "https://www.wikidata.org/wiki/Q3275305",
    "creation_place": "Rome",
    "creation_lat": 41.9028,
    "creation_lon": 12.4964,
    "_source": {
     "source": "Wikidata",
     "url": "https://www.wikidata.org/wiki/Q3275305",
     "retrieved_at": "2026-08-23"
    },
    "_overrides": {
     "creation": {
      "at": "2026-08-23",
      "source": "derived from start date + Caravaggio's documented itinerary (approximate)"
     }
    },
    "museum_id": "national-gallery",
    "qid": "Q3275305",
    "wga_url": "https://www.wga.hu/html/p/parmigia/v_jerome.html"
   }
  },
  {
   "type": "Feature",
   "geometry": {
    "type": "Point",
    "coordinates": [
     7.852104,
     43.856415
    ]
   },
   "properties": {
    "painter": "Parmigianino",
    "title": "The Adoration of the Magi",
    "year": "1529",
    "city": "Taggia",
    "country": "Italy",
    "location": "Saint Dominic monastery (Taggia)",
    "kind": "church",
    "attribution": "generally accepted",
    "status": "present",
    "medium": "Oil on panel",
    "dimensions": "120 × 94 cm",
    "genre": "religious art",
    "image": "https://commons.wikimedia.org/wiki/Special:FilePath/Parmigianino%2C%20adorazione%20dei%20magi%2C%201529%20ca.%2001.jpg?width=420",
    "wikipedia_en": "https://en.wikipedia.org/wiki/Adoration_of_the_Magi_(Parmigianino)",
    "wikipedia_it": "https://it.wikipedia.org/wiki/Adorazione_dei_Magi_(Parmigianino)",
    "wikidata": "https://www.wikidata.org/wiki/Q3605537",
    "creation_place": "Bologna",
    "creation_lat": 44.4949,
    "creation_lon": 11.3426,
    "_source": {
     "source": "Wikidata",
     "url": "https://www.wikidata.org/wiki/Q3605537",
     "retrieved_at": "2026-08-23"
    },
    "_overrides": {
     "creation": {
      "at": "2026-08-23",
      "source": "derived from start date + Caravaggio's documented itinerary (approximate)"
     }
    },
    "museum_id": "saint-dominic-monastery-taggia",
    "qid": "Q3605537"
   }
  },
  {
   "type": "Feature",
   "geometry": {
    "type": "Point",
    "coordinates": [
     13.36472,
     52.50861
    ]
   },
   "properties": {
    "painter": "Parmigianino",
    "title": "Baptism of Christ",
    "year": "1519",
    "city": "Bezirk Mitte",
    "country": "Germany",
    "location": "Gemäldegalerie Berlin",
    "kind": "museum",
    "attribution": "generally accepted",
    "status": "present",
    "medium": "Oil on panel",
    "dimensions": "197 × 137 cm",
    "genre": "religious art",
    "image": "https://commons.wikimedia.org/wiki/Special:FilePath/Parmigianino%2C%20battesimo%20di%20cristo%200.jpg?width=420",
    "wikipedia_en": "https://en.wikipedia.org/wiki/Baptism_of_Christ_(Parmigianino)",
    "wikipedia_it": "https://it.wikipedia.org/wiki/Battesimo_di_Cristo_(Parmigianino)",
    "wikidata": "https://www.wikidata.org/wiki/Q3636746",
    "_source": {
     "source": "Wikidata",
     "url": "https://www.wikidata.org/wiki/Q3636746",
     "retrieved_at": "2026-08-23"
    },
    "museum_id": "gemaldegalerie-berlin",
    "qid": "Q3636746"
   }
  },
  {
   "type": "Feature",
   "geometry": {
    "type": "Point",
    "coordinates": [
     16.3616,
     48.20388
    ]
   },
   "properties": {
    "painter": "Parmigianino",
    "title": "The Conversion of Saint Paul",
    "year": "1527",
    "city": "Vienna",
    "country": "Austria",
    "location": "Kunsthistorisches Museum",
    "kind": "museum",
    "attribution": "generally accepted",
    "status": "present",
    "medium": "Oil on canvas",
    "dimensions": "177.5 × 128.5 cm",
    "genre": "religious art",
    "image": "https://commons.wikimedia.org/wiki/Special:FilePath/Parmigianino%20012.jpg?width=420",
    "wikipedia_es": "https://es.wikipedia.org/wiki/La_conversi%C3%B3n_de_san_Pablo_(Parmigianino)",
    "wikipedia_en": "https://en.wikipedia.org/wiki/The_Conversion_of_Saint_Paul_(Parmigianino)",
    "wikipedia_it": "https://it.wikipedia.org/wiki/Conversione_di_san_Paolo_(Parmigianino)",
    "wikidata": "https://www.wikidata.org/wiki/Q3689725",
    "creation_place": "Rome",
    "creation_lat": 41.9028,
    "creation_lon": 12.4964,
    "_source": {
     "source": "Wikidata",
     "url": "https://www.wikidata.org/wiki/Q3689725",
     "retrieved_at": "2026-08-23"
    },
    "_overrides": {
     "creation": {
      "at": "2026-08-23",
      "source": "derived from start date + Caravaggio's documented itinerary (approximate)"
     }
    },
    "museum_id": "kunsthistorisches-museum",
    "qid": "Q3689725",
    "wga_url": "https://www.wga.hu/html/p/parmigia/conversi.html"
   }
  },
  {
   "type": "Feature",
   "geometry": {
    "type": "Point",
    "coordinates": [
     14.292,
     48.2901
    ]
   },
   "properties": {
    "painter": "Parmigianino",
    "title": "Boy with a Finger in His Mouth",
    "year": "1530",
    "city": "Linz",
    "country": "German Reich",
    "location": "Führermuseum",
    "kind": "museum",
    "attribution": "generally accepted",
    "status": "present",
    "medium": "Oil on panel",
    "dimensions": "45.5 × 32.5 cm",
    "genre": "portrait",
    "image": "https://commons.wikimedia.org/wiki/Special:FilePath/Parmigianino%2C%20fanciullo%20con%20abbecedario.jpg?width=420",
    "wikipedia_es": "https://es.wikipedia.org/wiki/Ni%C3%B1o_con_abecedario_y_un_dedo_en_la_boca",
    "wikipedia_en": "https://en.wikipedia.org/wiki/Boy_with_a_Finger_in_His_Mouth",
    "wikipedia_it": "https://it.wikipedia.org/wiki/Fanciullo_con_l%27abbecedario_e_un_dito_in_bocca",
    "wikidata": "https://www.wikidata.org/wiki/Q3739205",
    "creation_place": "Bologna",
    "creation_lat": 44.4949,
    "creation_lon": 11.3426,
    "_source": {
     "source": "Wikidata",
     "url": "https://www.wikidata.org/wiki/Q3739205",
     "retrieved_at": "2026-08-23"
    },
    "_overrides": {
     "creation": {
      "at": "2026-08-23",
      "source": "derived from start date + Caravaggio's documented itinerary (approximate)"
     }
    },
    "museum_id": "fuhrermuseum",
    "qid": "Q3739205"
   }
  },
  {
   "type": "Feature",
   "geometry": {
    "type": "Point",
    "coordinates": [
     14.25053,
     40.86701
    ]
   },
   "properties": {
    "painter": "Parmigianino",
    "title": "Lucretia",
    "year": "1540",
    "city": "Naples",
    "country": "Italy",
    "location": "Museo di Capodimonte",
    "kind": "museum",
    "attribution": "generally accepted",
    "status": "present",
    "medium": "Oil on panel",
    "dimensions": "67 × 51 cm",
    "genre": "history painting, nude",
    "image": "https://commons.wikimedia.org/wiki/Special:FilePath/Parmigianino%2C%20lucrezia%20romana%2C%201540.jpg?width=420",
    "wikipedia_es": "https://es.wikipedia.org/wiki/Lucrecia_romana_(Parmigianino)",
    "wikipedia_en": "https://en.wikipedia.org/wiki/Lucretia_(Parmigianino)",
    "wikipedia_it": "https://it.wikipedia.org/wiki/Lucrezia_romana_(Parmigianino)",
    "wikidata": "https://www.wikidata.org/wiki/Q3839035",
    "creation_place": "Parma",
    "creation_lat": 44.8015,
    "creation_lon": 10.3279,
    "_source": {
     "source": "Wikidata",
     "url": "https://www.wikidata.org/wiki/Q3839035",
     "retrieved_at": "2026-08-23"
    },
    "_overrides": {
     "creation": {
      "at": "2026-08-23",
      "source": "derived from start date + Caravaggio's documented itinerary (approximate)"
     }
    },
    "museum_id": "museo-di-capodimonte",
    "qid": "Q3839035"
   }
  },
  {
   "type": "Feature",
   "geometry": {
    "type": "Point",
    "coordinates": [
     -0.11747,
     51.51175
    ]
   },
   "properties": {
    "painter": "Parmigianino",
    "title": "Madonna with child",
    "year": "1527",
    "city": "London",
    "country": "United Kingdom",
    "location": "Courtauld Gallery",
    "kind": "museum",
    "attribution": "generally accepted",
    "status": "present",
    "medium": "Oil on panel",
    "dimensions": "63.5 × 50.7 cm",
    "genre": "religious art",
    "image": "https://commons.wikimedia.org/wiki/Special:FilePath/Parmigianino%2C%20madonna%20col%20bambino%20courtauld%20galleries.jpg?width=420",
    "wikipedia_en": "https://en.wikipedia.org/wiki/Virgin_and_Child_(Parmigianino)",
    "wikipedia_it": "https://it.wikipedia.org/wiki/Madonna_Vasari",
    "wikidata": "https://www.wikidata.org/wiki/Q3842425",
    "creation_place": "Rome",
    "creation_lat": 41.9028,
    "creation_lon": 12.4964,
    "_source": {
     "source": "Wikidata",
     "url": "https://www.wikidata.org/wiki/Q3842425",
     "retrieved_at": "2026-08-23"
    },
    "_overrides": {
     "creation": {
      "at": "2026-08-23",
      "source": "derived from start date + Caravaggio's documented itinerary (approximate)"
     }
    },
    "museum_id": "courtauld-gallery",
    "qid": "Q3842425",
    "wga_url": "https://www.wga.hu/html/p/parmigia/virgin_c.html"
   }
  },
  {
   "type": "Feature",
   "geometry": {
    "type": "Point",
    "coordinates": [
     10.3213,
     44.8051
    ]
   },
   "properties": {
    "painter": "Parmigianino",
    "title": "Madonna and Child",
    "year": "1524",
    "city": "Parma",
    "country": "Italy",
    "location": "Palazzetto Eucherio Sanvitale",
    "kind": "museum",
    "attribution": "generally accepted",
    "status": "present",
    "genre": "religious art",
    "image": "https://commons.wikimedia.org/wiki/Special:FilePath/Parmigianino%2C%20dettaglio%20madonna%20col%20bambino%20di%20palazzetto%20eucherio%20sanvitale.jpg?width=420",
    "wikipedia_en": "https://en.wikipedia.org/wiki/Sanvitale_Madonna_and_Child",
    "wikipedia_it": "https://it.wikipedia.org/wiki/Madonna_col_Bambino_Sanvitale",
    "wikidata": "https://www.wikidata.org/wiki/Q3842495",
    "creation_place": "Rome",
    "creation_lat": 41.9028,
    "creation_lon": 12.4964,
    "_source": {
     "source": "Wikidata",
     "url": "https://www.wikidata.org/wiki/Q3842495",
     "retrieved_at": "2026-08-23"
    },
    "_overrides": {
     "creation": {
      "at": "2026-08-23",
      "source": "derived from start date + Caravaggio's documented itinerary (approximate)"
     }
    },
    "museum_id": "palazzetto-eucherio-sanvitale",
    "qid": "Q3842495"
   }
  },
  {
   "type": "Feature",
   "geometry": {
    "type": "Point",
    "coordinates": [
     9.41611,
     51.315
    ]
   },
   "properties": {
    "painter": "Parmigianino",
    "title": "Madonna of the rose",
    "year": "1529",
    "city": "Kassel",
    "country": "Germany",
    "location": "Gemäldegalerie Alte Meister",
    "kind": "museum",
    "attribution": "generally accepted",
    "status": "present",
    "medium": "Oil on panel",
    "dimensions": "109 × 88.5 cm",
    "genre": "religious art",
    "image": "https://commons.wikimedia.org/wiki/Special:FilePath/Parmigianino%20-%20Madonna%20of%20the%20Rose.jpg?width=420",
    "wikipedia_en": "https://en.wikipedia.org/wiki/Madonna_of_the_Rose_(Parmigianino)",
    "wikipedia_it": "https://it.wikipedia.org/wiki/Madonna_della_Rosa_(Parmigianino)",
    "wikidata": "https://www.wikidata.org/wiki/Q3842680",
    "creation_place": "Bologna",
    "creation_lat": 44.4949,
    "creation_lon": 11.3426,
    "_source": {
     "source": "Wikidata",
     "url": "https://www.wikidata.org/wiki/Q3842680",
     "retrieved_at": "2026-08-23"
    },
    "_overrides": {
     "creation": {
      "at": "2026-08-23",
      "source": "derived from start date + Caravaggio's documented itinerary (approximate)"
     }
    },
    "museum_id": "gemaldegalerie-alte-meister",
    "qid": "Q3842680"
   }
  },
  {
   "type": "Feature",
   "geometry": {
    "type": "Point",
    "coordinates": [
     11.25528,
     43.76833
    ]
   },
   "properties": {
    "painter": "Parmigianino",
    "title": "Madonna and Child with Saints",
    "year": "1530",
    "city": "Florence",
    "country": "Italy",
    "location": "Uffizi Gallery",
    "kind": "museum",
    "attribution": "generally accepted",
    "status": "present",
    "medium": "Oil on panel",
    "dimensions": "219 × 135 cm",
    "genre": "religious art",
    "image": "https://commons.wikimedia.org/wiki/Special:FilePath/Parmigianino%20Madonna%20con%20Bambino%20e%20Santi%20%28Madonna%20di%20San%20Zaccaria%29%2C%20-%20Google%20Art%20Project.jpg?width=420",
    "wikipedia_en": "https://en.wikipedia.org/wiki/Madonna_and_Child_with_Saint_Zechariah",
    "wikipedia_it": "https://it.wikipedia.org/wiki/Madonna_di_San_Zaccaria",
    "wikidata": "https://www.wikidata.org/wiki/Q3842736",
    "creation_place": "Bologna",
    "creation_lat": 44.4949,
    "creation_lon": 11.3426,
    "_source": {
     "source": "Wikidata",
     "url": "https://www.wikidata.org/wiki/Q3842736",
     "retrieved_at": "2026-08-23"
    },
    "_overrides": {
     "creation": {
      "at": "2026-08-23",
      "source": "derived from start date + Caravaggio's documented itinerary (approximate)"
     }
    },
    "museum_id": "uffizi-gallery",
    "qid": "Q3842736",
    "wga_url": "https://www.wga.hu/html/p/parmigia/mad_sain.html"
   }
  },
  {
   "type": "Feature",
   "geometry": {
    "type": "Point",
    "coordinates": [
     11.35354,
     44.49771
    ]
   },
   "properties": {
    "painter": "Parmigianino",
    "title": "Madonna of Saint Margaret",
    "year": "1529",
    "city": "Bologna",
    "country": "Italy",
    "location": "Pinacoteca Nazionale di Bologna",
    "kind": "museum",
    "attribution": "generally accepted",
    "status": "present",
    "medium": "Oil on panel",
    "dimensions": "222 × 147 cm",
    "genre": "religious art",
    "image": "https://commons.wikimedia.org/wiki/Special:FilePath/Parmigianino%20-%20Madonna%20and%20Child%20with%20Saints%20Margaret%2C%20Jerome%2C%20Petronius%20and%20Michael.jpg?width=420",
    "wikipedia_en": "https://en.wikipedia.org/wiki/Santa_Margherita_Madonna",
    "wikipedia_it": "https://it.wikipedia.org/wiki/Madonna_di_Santa_Margherita",
    "wikidata": "https://www.wikidata.org/wiki/Q3842737",
    "creation_place": "Bologna",
    "creation_lat": 44.4949,
    "creation_lon": 11.3426,
    "_source": {
     "source": "Wikidata",
     "url": "https://www.wikidata.org/wiki/Q3842737",
     "retrieved_at": "2026-08-23"
    },
    "_overrides": {
     "creation": {
      "at": "2026-08-23",
      "source": "derived from start date + Caravaggio's documented itinerary (approximate)"
     }
    },
    "museum_id": "pinacoteca-nazionale-di-bologna",
    "qid": "Q3842737"
   }
  },
  {
   "type": "Feature",
   "geometry": {
    "type": "Point",
    "coordinates": [
     -0.1283,
     51.5089
    ]
   },
   "properties": {
    "painter": "Parmigianino",
    "title": "The Mystic Marriage of Saint Catherine",
    "year": "1529",
    "city": "London",
    "country": "United Kingdom",
    "location": "National Gallery",
    "kind": "museum",
    "attribution": "generally accepted",
    "status": "present",
    "medium": "Oil on panel",
    "dimensions": "74.2 × 57.2 cm",
    "genre": "religious art",
    "image": "https://commons.wikimedia.org/wiki/Special:FilePath/Parmigianino%20-%20The%20Mystic%20Marriage%20of%20Saint%20Catherine.jpg?width=420",
    "wikipedia_en": "https://en.wikipedia.org/wiki/Mystic_Marriage_of_Saint_Catherine_(Parmigianino,_London)",
    "wikipedia_it": "https://it.wikipedia.org/wiki/Matrimonio_mistico_di_santa_Caterina_d%27Alessandria_(Parmigianino_Londra)",
    "wikidata": "https://www.wikidata.org/wiki/Q3851962",
    "creation_place": "Bologna",
    "creation_lat": 44.4949,
    "creation_lon": 11.3426,
    "_source": {
     "source": "Wikidata",
     "url": "https://www.wikidata.org/wiki/Q3851962",
     "retrieved_at": "2026-08-23"
    },
    "_overrides": {
     "creation": {
      "at": "2026-08-23",
      "source": "derived from start date + Caravaggio's documented itinerary (approximate)"
     }
    },
    "museum_id": "national-gallery",
    "qid": "Q3851962"
   }
  },
  {
   "type": "Feature",
   "geometry": {
    "type": "Point",
    "coordinates": [
     2.3358,
     48.8611
    ]
   },
   "properties": {
    "painter": "Parmigianino",
    "title": "Mystic Marriage of St. Catherine",
    "year": "1528",
    "country": "France",
    "location": "Louvre",
    "kind": "museum",
    "attribution": "generally accepted",
    "status": "present",
    "medium": "Oil paint, poplar panel",
    "dimensions": "20 × 27 cm",
    "genre": "religious art",
    "image": "https://commons.wikimedia.org/wiki/Special:FilePath/Le%20Mariage%20mystique%20de%20sainte%20Catherine%20-%20Parmigianino%20-%20Mus%C3%A9e%20du%20Louvre%20Peintures%20RF%201992%20411.jpg?width=420",
    "wikipedia_en": "https://en.wikipedia.org/wiki/Mystic_Marriage_of_Saint_Catherine_(Parmigianino,_Louvre)",
    "wikipedia_it": "https://it.wikipedia.org/wiki/Matrimonio_mistico_di_santa_Caterina_d%27Alessandria_(Parmigianino_Parigi)",
    "wikidata": "https://www.wikidata.org/wiki/Q3851963",
    "creation_place": "Bologna",
    "creation_lat": 44.4949,
    "creation_lon": 11.3426,
    "_source": {
     "source": "Wikidata",
     "url": "https://www.wikidata.org/wiki/Q3851963",
     "retrieved_at": "2026-08-23"
    },
    "_overrides": {
     "creation": {
      "at": "2026-08-23",
      "source": "derived from start date + Caravaggio's documented itinerary (approximate)"
     }
    },
    "museum_id": "louvre",
    "city": "Paris",
    "qid": "Q3851963",
    "wga_url": "https://www.wga.hu/html/p/parmigia/mysticma.html"
   }
  },
  {
   "type": "Feature",
   "geometry": {
    "type": "Point",
    "coordinates": [
     -0.3375,
     51.4034
    ]
   },
   "properties": {
    "painter": "Parmigianino",
    "title": "Pallas Athena",
    "year": "1534",
    "city": "London Borough of Richmond upon Thames",
    "country": "United Kingdom",
    "location": "Hampton Court Palace",
    "kind": "museum",
    "attribution": "generally accepted",
    "status": "present",
    "medium": "Oil on canvas",
    "dimensions": "64 × 45.4 cm",
    "genre": "mythological painting",
    "image": "https://commons.wikimedia.org/wiki/Special:FilePath/Parmigianino%20%28Parma%201503-Casalmaggiore%201540%29%20-%20Pallas%20Athena%20-%20RCIN%20405765%20-%20Royal%20Collection.jpg?width=420",
    "wikipedia_it": "https://it.wikipedia.org/wiki/Minerva_(Parmigianino)",
    "wikidata": "https://www.wikidata.org/wiki/Q3858368",
    "creation_place": "Parma",
    "creation_lat": 44.8015,
    "creation_lon": 10.3279,
    "_source": {
     "source": "Wikidata",
     "url": "https://www.wikidata.org/wiki/Q3858368",
     "retrieved_at": "2026-08-23"
    },
    "_overrides": {
     "creation": {
      "at": "2026-08-23",
      "source": "derived from start date + Caravaggio's documented itinerary (approximate)"
     }
    },
    "museum_id": "hampton-court-palace",
    "qid": "Q3858368",
    "wga_url": "https://www.wga.hu/html/p/parmigia/pallas_a.html"
   }
  },
  {
   "type": "Feature",
   "geometry": {
    "type": "Point",
    "coordinates": [
     -0.29808,
     51.45209
    ]
   },
   "properties": {
    "painter": "Parmigianino",
    "title": "Nativity",
    "year": "1523",
    "city": "London Borough of Richmond upon Thames",
    "country": "United Kingdom",
    "location": "Doughty House",
    "kind": "museum",
    "attribution": "generally accepted",
    "status": "present",
    "medium": "Oil on panel",
    "dimensions": "43.1 × 47.3 cm",
    "genre": "religious art",
    "image": "https://commons.wikimedia.org/wiki/Special:FilePath/Parmigianino%20-%20Rest%20on%20the%20Flight%20into%20Egypt%2C%201523%E2%80%931524%2C%20P.1978.PG.308.jpg?width=420",
    "wikipedia_en": "https://en.wikipedia.org/wiki/Nativity_(Parmigianino)",
    "wikipedia_it": "https://it.wikipedia.org/wiki/Nativit%C3%A0_(Parmigianino)",
    "wikidata": "https://www.wikidata.org/wiki/Q3873235",
    "_source": {
     "source": "Wikidata",
     "url": "https://www.wikidata.org/wiki/Q3873235",
     "retrieved_at": "2026-08-23"
    },
    "museum_id": "doughty-house",
    "qid": "Q3873235"
   }
  },
  {
   "type": "Feature",
   "geometry": {
    "type": "Point",
    "coordinates": [
     12.48114,
     41.89767
    ]
   },
   "properties": {
    "painter": "Parmigianino",
    "title": "Nativity of Christ with angels",
    "year": "1525",
    "city": "Rome",
    "country": "Italy",
    "location": "Doria Pamphilj Gallery",
    "kind": "museum",
    "attribution": "generally accepted",
    "status": "present",
    "medium": "Oil on canvas",
    "dimensions": "59 × 34 cm",
    "genre": "religious art",
    "image": "https://commons.wikimedia.org/wiki/Special:FilePath/Parmigianino%2C%20nativit%C3%A0%20con%20angeli.jpg?width=420",
    "wikipedia_en": "https://en.wikipedia.org/wiki/Nativity_with_Angels_(Parmigianino)",
    "wikipedia_it": "https://it.wikipedia.org/wiki/Nativit%C3%A0_con_angeli",
    "wikidata": "https://www.wikidata.org/wiki/Q3873239",
    "creation_place": "Rome",
    "creation_lat": 41.9028,
    "creation_lon": 12.4964,
    "_source": {
     "source": "Wikidata",
     "url": "https://www.wikidata.org/wiki/Q3873239",
     "retrieved_at": "2026-08-23"
    },
    "_overrides": {
     "creation": {
      "at": "2026-08-23",
      "source": "derived from start date + Caravaggio's documented itinerary (approximate)"
     }
    },
    "museum_id": "doria-pamphilj-gallery",
    "qid": "Q3873239"
   }
  },
  {
   "type": "Feature",
   "geometry": {
    "type": "Point",
    "coordinates": [
     9.41611,
     51.315
    ]
   },
   "properties": {
    "painter": "Parmigianino",
    "title": "Madonna and child with Saints Stephen and John the Baptist",
    "year": "1539-1540",
    "city": "Kassel",
    "country": "Germany",
    "location": "Gemäldegalerie Alte Meister",
    "kind": "museum",
    "attribution": "generally accepted",
    "status": "present",
    "dimensions": "253 × 161 cm",
    "genre": "religious art",
    "image": "https://commons.wikimedia.org/wiki/Special:FilePath/Parmigianino%20-%20Madonna%20and%20child%20with%20Saints%20Stephen%20and%20John%20the%20Baptist.jpg?width=420",
    "wikipedia_en": "https://en.wikipedia.org/wiki/Casalmaggiore_Altarpiece",
    "wikipedia_it": "https://it.wikipedia.org/wiki/Pala_di_Casalmaggiore",
    "wikidata": "https://www.wikidata.org/wiki/Q3889233",
    "creation_place": "Parma",
    "creation_lat": 44.8015,
    "creation_lon": 10.3279,
    "_source": {
     "source": "Wikidata",
     "url": "https://www.wikidata.org/wiki/Q3889233",
     "retrieved_at": "2026-08-23"
    },
    "_overrides": {
     "creation": {
      "at": "2026-08-23",
      "source": "derived from start date + Caravaggio's documented itinerary (approximate)"
     }
    },
    "museum_id": "gemaldegalerie-alte-meister",
    "qid": "Q3889233"
   }
  },
  {
   "type": "Feature",
   "geometry": {
    "type": "Point",
    "coordinates": [
     9.731663,
     44.632003
    ]
   },
   "properties": {
    "painter": "Parmigianino",
    "title": "Bardi Altarpiece",
    "year": "1521",
    "city": "Bardi",
    "country": "Italy",
    "location": "Santa Maria Addolorata",
    "kind": "church",
    "attribution": "generally accepted",
    "status": "present",
    "medium": "Panel",
    "dimensions": "203 × 130 cm",
    "genre": "religious art",
    "image": "https://commons.wikimedia.org/wiki/Special:FilePath/Chiesa%20di%20Santa%20Maria%20Addolorata%20%28Bardi%29%20-%20Pala%20di%20Bardi%203%202022-05-16.jpg?width=420",
    "wikipedia_en": "https://en.wikipedia.org/wiki/Bardi_Altarpiece_(Parmigianino)",
    "wikipedia_it": "https://it.wikipedia.org/wiki/Pala_di_Bardi",
    "wikidata": "https://www.wikidata.org/wiki/Q3889239",
    "_source": {
     "source": "Wikidata",
     "url": "https://www.wikidata.org/wiki/Q3889239",
     "retrieved_at": "2026-08-23"
    },
    "museum_id": "santa-maria-addolorata",
    "qid": "Q3889239"
   }
  },
  {
   "type": "Feature",
   "geometry": {
    "type": "Point",
    "coordinates": [
     -0.29808,
     51.45209
    ]
   },
   "properties": {
    "painter": "Parmigianino",
    "title": "Portrait of Charles V",
    "year": "1530",
    "city": "London Borough of Richmond upon Thames",
    "country": "United Kingdom",
    "location": "Doughty House",
    "kind": "museum",
    "attribution": "generally accepted",
    "status": "present",
    "dimensions": "182 × 125 cm",
    "genre": "portrait",
    "image": "https://commons.wikimedia.org/wiki/Special:FilePath/Parmigianino%2C%20Carlo%20V%20come%20dominatore%20del%20mondo%20%281530%29.jpg?width=420",
    "wikipedia_it": "https://it.wikipedia.org/wiki/Ritratto_allegorico_di_Carlo_V",
    "wikidata": "https://www.wikidata.org/wiki/Q3937392",
    "creation_place": "Bologna",
    "creation_lat": 44.4949,
    "creation_lon": 11.3426,
    "_source": {
     "source": "Wikidata",
     "url": "https://www.wikidata.org/wiki/Q3937392",
     "retrieved_at": "2026-08-23"
    },
    "_overrides": {
     "creation": {
      "at": "2026-08-23",
      "source": "derived from start date + Caravaggio's documented itinerary (approximate)"
     }
    },
    "museum_id": "doughty-house",
    "qid": "Q3937392"
   }
  },
  {
   "type": "Feature",
   "geometry": {
    "type": "Point",
    "coordinates": [
     -1.08639,
     53.96306
    ]
   },
   "properties": {
    "painter": "Parmigianino",
    "title": "Portrait of a Man Reading a Book",
    "year": "1530",
    "city": "York",
    "country": "United Kingdom",
    "location": "York Art Gallery",
    "kind": "museum",
    "attribution": "generally accepted",
    "status": "present",
    "medium": "Oil on canvas",
    "dimensions": "70 × 52 cm",
    "genre": "portrait",
    "image": "https://commons.wikimedia.org/wiki/Special:FilePath/Portrait%20of%20a%20man%20with%20a%20Book%20by%20Parmigianino%20YORAG%20739.jpg?width=420",
    "wikipedia_es": "https://es.wikipedia.org/wiki/Retrato_de_hombre_con_libro_(Parmigianino)",
    "wikipedia_it": "https://it.wikipedia.org/wiki/Ritratto_d%27uomo_con_libro_(Parmigianino)",
    "wikidata": "https://www.wikidata.org/wiki/Q3937415",
    "creation_place": "Bologna",
    "creation_lat": 44.4949,
    "creation_lon": 11.3426,
    "_source": {
     "source": "Wikidata",
     "url": "https://www.wikidata.org/wiki/Q3937415",
     "retrieved_at": "2026-08-23"
    },
    "_overrides": {
     "creation": {
      "at": "2026-08-23",
      "source": "derived from start date + Caravaggio's documented itinerary (approximate)"
     }
    },
    "museum_id": "york-art-gallery",
    "qid": "Q3937415"
   }
  },
  {
   "type": "Feature",
   "geometry": {
    "type": "Point",
    "coordinates": [
     12.49214,
     41.91421
    ]
   },
   "properties": {
    "painter": "Parmigianino",
    "title": "Portrait of Pianerlotto",
    "year": "1531",
    "city": "Rome",
    "country": "Italy",
    "location": "Galleria Borghese",
    "kind": "museum",
    "attribution": "generally accepted",
    "status": "present",
    "medium": "Oil on panel",
    "dimensions": "58 × 46 cm",
    "genre": "portrait",
    "image": "https://commons.wikimedia.org/wiki/Special:FilePath/Parmigianino%2C%20ritratto%20maschile%20galleria%20borghese.jpg?width=420",
    "wikipedia_it": "https://it.wikipedia.org/wiki/Ritratto_del_Pianerlotto",
    "wikidata": "https://www.wikidata.org/wiki/Q3937424",
    "creation_place": "Bologna",
    "creation_lat": 44.4949,
    "creation_lon": 11.3426,
    "_source": {
     "source": "Wikidata",
     "url": "https://www.wikidata.org/wiki/Q3937424",
     "retrieved_at": "2026-08-23"
    },
    "_overrides": {
     "creation": {
      "at": "2026-08-23",
      "source": "derived from start date + Caravaggio's documented itinerary (approximate)"
     }
    },
    "museum_id": "galleria-borghese",
    "qid": "Q3937424",
    "wga_url": "https://www.wga.hu/html/p/parmigia/port_man.html"
   }
  },
  {
   "type": "Feature",
   "geometry": {
    "type": "Point",
    "coordinates": [
     -3.6922,
     40.4139
    ]
   },
   "properties": {
    "painter": "Parmigianino",
    "title": "Portrait of Camilla Gonzaga and Her Three Sons",
    "year": "1535-1539",
    "city": "Madrid",
    "country": "Spain",
    "location": "Museo del Prado",
    "kind": "museum",
    "attribution": "generally accepted",
    "status": "present",
    "medium": "Oil on panel",
    "dimensions": "128 × 97 cm",
    "genre": "portrait",
    "image": "https://commons.wikimedia.org/wiki/Special:FilePath/Parmigianino%2C%20ritratto%20di%20camilla%20gonzaga%20coi%20figli.jpg?width=420",
    "wikipedia_es": "https://es.wikipedia.org/wiki/Retrato_de_Camila_Gonzaga_con_tres_hijos",
    "wikipedia_en": "https://en.wikipedia.org/wiki/Portrait_of_Camilla_Gonzaga_and_Her_Three_Sons",
    "wikipedia_it": "https://it.wikipedia.org/wiki/Ritratto_di_Camilla_Gonzaga_coi_tre_figli",
    "wikidata": "https://www.wikidata.org/wiki/Q3937480",
    "creation_place": "Parma",
    "creation_lat": 44.8015,
    "creation_lon": 10.3279,
    "_source": {
     "source": "Wikidata",
     "url": "https://www.wikidata.org/wiki/Q3937480",
     "retrieved_at": "2026-08-23"
    },
    "_overrides": {
     "creation": {
      "at": "2026-08-23",
      "source": "derived from start date + Caravaggio's documented itinerary (approximate)"
     }
    },
    "museum_id": "museo-del-prado",
    "qid": "Q3937480"
   }
  },
  {
   "type": "Feature",
   "geometry": {
    "type": "Point",
    "coordinates": [
     16.3616,
     48.20388
    ]
   },
   "properties": {
    "painter": "Parmigianino",
    "title": "Portrait of a Young Woman",
    "year": "1530",
    "city": "Vienna",
    "country": "Austria",
    "location": "Kunsthistorisches Museum",
    "kind": "museum",
    "attribution": "generally accepted",
    "status": "present",
    "medium": "Oil paint, poplar panel",
    "dimensions": "50 × 46.5 cm",
    "genre": "portrait",
    "image": "https://commons.wikimedia.org/wiki/Special:FilePath/Parmigianino%20013.jpg?width=420",
    "wikipedia_es": "https://es.wikipedia.org/wiki/Costanza_Rangoni,_condesa_Gozzadini",
    "wikipedia_en": "https://en.wikipedia.org/wiki/Portrait_of_Cecilia_Gozzadini",
    "wikipedia_it": "https://it.wikipedia.org/wiki/Ritratto_di_Costanza_Rangoni,_contessa_Gozzadini",
    "wikidata": "https://www.wikidata.org/wiki/Q3937503",
    "creation_place": "Bologna",
    "creation_lat": 44.4949,
    "creation_lon": 11.3426,
    "_source": {
     "source": "Wikidata",
     "url": "https://www.wikidata.org/wiki/Q3937503",
     "retrieved_at": "2026-08-23"
    },
    "_overrides": {
     "creation": {
      "at": "2026-08-23",
      "source": "derived from start date + Caravaggio's documented itinerary (approximate)"
     }
    },
    "museum_id": "kunsthistorisches-museum",
    "qid": "Q3937503"
   }
  },
  {
   "type": "Feature",
   "geometry": {
    "type": "Point",
    "coordinates": [
     14.25053,
     40.86701
    ]
   },
   "properties": {
    "painter": "Parmigianino",
    "title": "Portrait of Gian Galeazzo Sanvitale",
    "year": "1524",
    "city": "Naples",
    "country": "Italy",
    "location": "Museo di Capodimonte",
    "kind": "museum",
    "attribution": "generally accepted",
    "status": "present",
    "medium": "Oil on canvas",
    "dimensions": "108 × 80 cm",
    "genre": "portrait",
    "image": "https://commons.wikimedia.org/wiki/Special:FilePath/Parmigianino%20024.jpg?width=420",
    "wikipedia_es": "https://es.wikipedia.org/wiki/Retrato_de_Galeazzo_Sanvitale",
    "wikipedia_en": "https://en.wikipedia.org/wiki/Portrait_of_Galeazzo_Sanvitale",
    "wikipedia_it": "https://it.wikipedia.org/wiki/Ritratto_di_Galeazzo_Sanvitale",
    "wikidata": "https://www.wikidata.org/wiki/Q3937542",
    "creation_place": "Rome",
    "creation_lat": 41.9028,
    "creation_lon": 12.4964,
    "_source": {
     "source": "Wikidata",
     "url": "https://www.wikidata.org/wiki/Q3937542",
     "retrieved_at": "2026-08-23"
    },
    "_overrides": {
     "creation": {
      "at": "2026-08-23",
      "source": "derived from start date + Caravaggio's documented itinerary (approximate)"
     }
    },
    "museum_id": "museo-di-capodimonte",
    "qid": "Q3937542"
   }
  },
  {
   "type": "Feature",
   "geometry": {
    "type": "Point",
    "coordinates": [
     12.57861,
     55.68889
    ]
   },
   "properties": {
    "painter": "Parmigianino",
    "title": "Portrait of Lorenzo Cybo",
    "year": "1524",
    "city": "Copenhagen Municipality",
    "country": "Denmark",
    "location": "Statens Museum for Kunst",
    "kind": "museum",
    "attribution": "generally accepted",
    "status": "present",
    "medium": "Oil on panel",
    "dimensions": "126.5 × 104.5 cm",
    "genre": "portrait",
    "image": "https://commons.wikimedia.org/wiki/Special:FilePath/Portr%C3%A6t%20af%20Lorenzo%20Cybo.jpg?width=420",
    "wikipedia_es": "https://es.wikipedia.org/wiki/Retrato_de_Lorenzo_Cybo",
    "wikipedia_en": "https://en.wikipedia.org/wiki/Portrait_of_Lorenzo_Cybo",
    "wikipedia_it": "https://it.wikipedia.org/wiki/Ritratto_di_Lorenzo_Cybo",
    "wikidata": "https://www.wikidata.org/wiki/Q3937595",
    "creation_place": "Rome",
    "creation_lat": 41.9028,
    "creation_lon": 12.4964,
    "_source": {
     "source": "Wikidata",
     "url": "https://www.wikidata.org/wiki/Q3937595",
     "retrieved_at": "2026-08-23"
    },
    "_overrides": {
     "creation": {
      "at": "2026-08-23",
      "source": "derived from start date + Caravaggio's documented itinerary (approximate)"
     }
    },
    "museum_id": "statens-museum-for-kunst",
    "qid": "Q3937595"
   }
  },
  {
   "type": "Feature",
   "geometry": {
    "type": "Point",
    "coordinates": [
     -3.6922,
     40.4139
    ]
   },
   "properties": {
    "painter": "Parmigianino",
    "title": "Portrait of Pier Maria Rossi di San Secondo",
    "year": "1535",
    "city": "Madrid",
    "country": "Spain",
    "location": "Museo del Prado",
    "kind": "museum",
    "attribution": "generally accepted",
    "status": "present",
    "medium": "Oil on panel",
    "dimensions": "133 × 98 cm",
    "genre": "portrait",
    "image": "https://commons.wikimedia.org/wiki/Special:FilePath/Parmigianino%2C%20ritratto%20di%20pier%20maria%20rossi%20di%20sansecondo%2001.jpg?width=420",
    "wikipedia_es": "https://es.wikipedia.org/wiki/Retrato_de_Pier_Maria_Rossi_di_San_Secondo",
    "wikipedia_en": "https://en.wikipedia.org/wiki/Portrait_of_Pier_Maria_Rossi_di_San_Secondo",
    "wikipedia_it": "https://it.wikipedia.org/wiki/Ritratto_di_Pier_Maria_Rossi_di_San_Secondo",
    "wikidata": "https://www.wikidata.org/wiki/Q3937655",
    "creation_place": "Parma",
    "creation_lat": 44.8015,
    "creation_lon": 10.3279,
    "_source": {
     "source": "Wikidata",
     "url": "https://www.wikidata.org/wiki/Q3937655",
     "retrieved_at": "2026-08-23"
    },
    "_overrides": {
     "creation": {
      "at": "2026-08-23",
      "source": "derived from start date + Caravaggio's documented itinerary (approximate)"
     }
    },
    "museum_id": "museo-del-prado",
    "qid": "Q3937655"
   }
  },
  {
   "type": "Feature",
   "geometry": {
    "type": "Point",
    "coordinates": [
     -0.3375,
     51.4034
    ]
   },
   "properties": {
    "painter": "Parmigianino",
    "title": "Ritratto di giovane",
    "year": "1529",
    "city": "London Borough of Richmond upon Thames",
    "country": "United Kingdom",
    "location": "Hampton Court Palace",
    "kind": "museum",
    "attribution": "generally accepted",
    "status": "present",
    "medium": "Oil on panel",
    "dimensions": "97 × 82 cm",
    "genre": "portrait",
    "image": "https://commons.wikimedia.org/wiki/Special:FilePath/Parmigianino%2C%20ritratto%20di%20giovane%20hampoton%20court.jpg?width=420",
    "wikipedia_it": "https://it.wikipedia.org/wiki/Ritratto_di_giovane_(Parmigianino)",
    "wikidata": "https://www.wikidata.org/wiki/Q3937704",
    "creation_place": "Bologna",
    "creation_lat": 44.4949,
    "creation_lon": 11.3426,
    "_source": {
     "source": "Wikidata",
     "url": "https://www.wikidata.org/wiki/Q3937704",
     "retrieved_at": "2026-08-23"
    },
    "_overrides": {
     "creation": {
      "at": "2026-08-23",
      "source": "derived from start date + Caravaggio's documented itinerary (approximate)"
     }
    },
    "museum_id": "hampton-court-palace",
    "qid": "Q3937704"
   }
  },
  {
   "type": "Feature",
   "geometry": {
    "type": "Point",
    "coordinates": [
     -0.1283,
     51.5089
    ]
   },
   "properties": {
    "painter": "Parmigianino",
    "title": "Portrait of a Collector",
    "year": "1524",
    "city": "London",
    "country": "United Kingdom",
    "location": "National Gallery",
    "kind": "museum",
    "attribution": "generally accepted",
    "status": "present",
    "dimensions": "89 × 64 cm",
    "genre": "portrait",
    "image": "https://commons.wikimedia.org/wiki/Special:FilePath/Parmigianino%20025.jpg?width=420",
    "wikipedia_es": "https://es.wikipedia.org/wiki/Retrato_de_un_coleccionista",
    "wikipedia_en": "https://en.wikipedia.org/wiki/Portrait_of_a_Collector",
    "wikipedia_it": "https://it.wikipedia.org/wiki/Ritratto_di_un_collezionista",
    "wikidata": "https://www.wikidata.org/wiki/Q3937763",
    "creation_place": "Rome",
    "creation_lat": 41.9028,
    "creation_lon": 12.4964,
    "_source": {
     "source": "Wikidata",
     "url": "https://www.wikidata.org/wiki/Q3937763",
     "retrieved_at": "2026-08-23"
    },
    "_overrides": {
     "creation": {
      "at": "2026-08-23",
      "source": "derived from start date + Caravaggio's documented itinerary (approximate)"
     }
    },
    "museum_id": "national-gallery",
    "qid": "Q3937763"
   }
  },
  {
   "type": "Feature",
   "geometry": {
    "type": "Point",
    "coordinates": [
     11.25528,
     43.76833
    ]
   },
   "properties": {
    "painter": "Parmigianino",
    "title": "Portrait of a man",
    "year": "1530",
    "city": "Florence",
    "country": "Italy",
    "location": "Uffizi Gallery",
    "kind": "museum",
    "attribution": "generally accepted",
    "status": "present",
    "dimensions": "100 × 70 cm",
    "genre": "portrait",
    "image": "https://commons.wikimedia.org/wiki/Special:FilePath/Parmigianino%2C%20ritratto%20maschile%20uffizi.jpg?width=420",
    "wikipedia_en": "https://en.wikipedia.org/wiki/Portrait_of_a_Man_(Parmigianino)",
    "wikipedia_it": "https://it.wikipedia.org/wiki/Ritratto_virile_(Parmigianino)",
    "wikidata": "https://www.wikidata.org/wiki/Q3937792",
    "creation_place": "Bologna",
    "creation_lat": 44.4949,
    "creation_lon": 11.3426,
    "_source": {
     "source": "Wikidata",
     "url": "https://www.wikidata.org/wiki/Q3937792",
     "retrieved_at": "2026-08-23"
    },
    "_overrides": {
     "creation": {
      "at": "2026-08-23",
      "source": "derived from start date + Caravaggio's documented itinerary (approximate)"
     }
    },
    "museum_id": "uffizi-gallery",
    "qid": "Q3937792"
   }
  },
  {
   "type": "Feature",
   "geometry": {
    "type": "Point",
    "coordinates": [
     -3.6922,
     40.4139
    ]
   },
   "properties": {
    "painter": "Parmigianino",
    "title": "The Holy Family with Angels",
    "year": "1524",
    "city": "Madrid",
    "country": "Spain",
    "location": "Museo del Prado",
    "kind": "museum",
    "attribution": "generally accepted",
    "status": "present",
    "medium": "Oil on panel",
    "dimensions": "110 × 89 cm",
    "genre": "religious art",
    "image": "https://commons.wikimedia.org/wiki/Special:FilePath/La%20Sagrada%20Familia%20con%20%C3%A1ngeles%20%28Parmigianino%29.jpg?width=420",
    "wikipedia_es": "https://es.wikipedia.org/wiki/La_Sagrada_Familia_con_%C3%A1ngeles_(Parmigianino)",
    "wikipedia_en": "https://en.wikipedia.org/wiki/Holy_Family_with_Angels_(Parmigianino)",
    "wikipedia_it": "https://it.wikipedia.org/wiki/Sacra_Famiglia_con_angeli_(Parmigianino)",
    "wikidata": "https://www.wikidata.org/wiki/Q3944466",
    "creation_place": "Rome",
    "creation_lat": 41.9028,
    "creation_lon": 12.4964,
    "_source": {
     "source": "Wikidata",
     "url": "https://www.wikidata.org/wiki/Q3944466",
     "retrieved_at": "2026-08-23"
    },
    "_overrides": {
     "creation": {
      "at": "2026-08-23",
      "source": "derived from start date + Caravaggio's documented itinerary (approximate)"
     }
    },
    "museum_id": "museo-del-prado",
    "qid": "Q3944466",
    "wga_url": "https://www.wga.hu/html/p/parmigia/egypt.html"
   }
  },
  {
   "type": "Feature",
   "geometry": {
    "type": "Point",
    "coordinates": [
     14.25053,
     40.86701
    ]
   },
   "properties": {
    "painter": "Parmigianino",
    "title": "The Holy Family with St. John",
    "year": "1528",
    "city": "Naples",
    "country": "Italy",
    "location": "Museo di Capodimonte",
    "kind": "museum",
    "attribution": "generally accepted",
    "status": "present",
    "medium": "Canvas",
    "dimensions": "159 × 131 cm",
    "genre": "religious art",
    "image": "https://commons.wikimedia.org/wiki/Special:FilePath/Parmigianino%2C%20sacra%20famiglia%20con%20san%20giovannino.jpg?width=420",
    "wikipedia_en": "https://en.wikipedia.org/wiki/Holy_Family_with_the_Infant_Saint_John_the_Baptist_(Parmigianino)",
    "wikipedia_it": "https://it.wikipedia.org/wiki/Sacra_Famiglia_con_san_Giovannino_(Parmigianino)",
    "wikidata": "https://www.wikidata.org/wiki/Q3944485",
    "creation_place": "Bologna",
    "creation_lat": 44.4949,
    "creation_lon": 11.3426,
    "_source": {
     "source": "Wikidata",
     "url": "https://www.wikidata.org/wiki/Q3944485",
     "retrieved_at": "2026-08-23"
    },
    "_overrides": {
     "creation": {
      "at": "2026-08-23",
      "source": "derived from start date + Caravaggio's documented itinerary (approximate)"
     }
    },
    "museum_id": "museo-di-capodimonte",
    "qid": "Q3944485"
   }
  },
  {
   "type": "Feature",
   "geometry": {
    "type": "Point",
    "coordinates": [
     11.343285,
     44.493382
    ]
   },
   "properties": {
    "painter": "Parmigianino",
    "title": "Saint Roch and a donor",
    "year": "1527",
    "city": "Bologna",
    "country": "Italy",
    "location": "San Petronio Basilica",
    "kind": "church",
    "attribution": "generally accepted",
    "status": "present",
    "dimensions": "270 × 197 cm",
    "genre": "religious art",
    "image": "https://commons.wikimedia.org/wiki/Special:FilePath/Parmigianino%2C%20san%20rocco%20e%20un%20donatore.jpg?width=420",
    "wikipedia_it": "https://it.wikipedia.org/wiki/San_Rocco_e_un_donatore",
    "wikidata": "https://www.wikidata.org/wiki/Q3947911",
    "creation_place": "Rome",
    "creation_lat": 41.9028,
    "creation_lon": 12.4964,
    "_source": {
     "source": "Wikidata",
     "url": "https://www.wikidata.org/wiki/Q3947911",
     "retrieved_at": "2026-08-23"
    },
    "_overrides": {
     "creation": {
      "at": "2026-08-23",
      "source": "derived from start date + Caravaggio's documented itinerary (approximate)"
     }
    },
    "museum_id": "san-petronio-basilica",
    "qid": "Q3947911"
   }
  },
  {
   "type": "Feature",
   "geometry": {
    "type": "Point",
    "coordinates": [
     10.33219,
     44.802925
    ]
   },
   "properties": {
    "painter": "Parmigianino",
    "title": "Saint Vitalis and the horse",
    "year": "1523",
    "city": "Parma",
    "country": "Italy",
    "location": "San Giovanni Evangelista",
    "kind": "church",
    "attribution": "generally accepted",
    "status": "present",
    "medium": "Fresco",
    "genre": "religious art",
    "image": "https://commons.wikimedia.org/wiki/Special:FilePath/Parmigianino%2C%20San%20vitale.jpg?width=420",
    "wikipedia_it": "https://it.wikipedia.org/wiki/San_Vitale_e_il_cavallo",
    "wikidata": "https://www.wikidata.org/wiki/Q3948034",
    "_source": {
     "source": "Wikidata",
     "url": "https://www.wikidata.org/wiki/Q3948034",
     "retrieved_at": "2026-08-23"
    },
    "museum_id": "san-giovanni-evangelista",
    "qid": "Q3948034"
   }
  },
  {
   "type": "Feature",
   "geometry": {
    "type": "Point",
    "coordinates": [
     10.33219,
     44.802925
    ]
   },
   "properties": {
    "painter": "Parmigianino",
    "title": "Saint Agatha and the Executioner",
    "year": "1523",
    "city": "Parma",
    "country": "Italy",
    "location": "San Giovanni Evangelista",
    "kind": "church",
    "attribution": "generally accepted",
    "status": "present",
    "medium": "Fresco",
    "genre": "religious art",
    "image": "https://commons.wikimedia.org/wiki/Special:FilePath/Parmigianino%2C%20Sant%27agata%20e%20il%20carnefice.jpg?width=420",
    "wikipedia_it": "https://it.wikipedia.org/wiki/Sant%27Agata_e_il_carnefice",
    "wikidata": "https://www.wikidata.org/wiki/Q3948651",
    "_source": {
     "source": "Wikidata",
     "url": "https://www.wikidata.org/wiki/Q3948651",
     "retrieved_at": "2026-08-23"
    },
    "museum_id": "san-giovanni-evangelista",
    "qid": "Q3948651"
   }
  },
  {
   "type": "Feature",
   "geometry": {
    "type": "Point",
    "coordinates": [
     10.3275,
     44.8025
    ]
   },
   "properties": {
    "painter": "Parmigianino",
    "title": "Saint Cecilia and David",
    "year": "1523",
    "city": "Parma",
    "country": "Italy",
    "location": "Sanctuary of Santa Maria della Steccata",
    "kind": "church",
    "attribution": "generally accepted",
    "status": "present",
    "medium": "Oil on canvas",
    "genre": "religious art",
    "image": "https://commons.wikimedia.org/wiki/Special:FilePath/Parmigianino%2C%20Santa%20Cecilia%20e%20David.jpg?width=420",
    "wikipedia_it": "https://it.wikipedia.org/wiki/Santa_Cecilia_e_David",
    "wikidata": "https://www.wikidata.org/wiki/Q3948950",
    "_source": {
     "source": "Wikidata",
     "url": "https://www.wikidata.org/wiki/Q3948950",
     "retrieved_at": "2026-08-23"
    },
    "museum_id": "sanctuary-of-santa-maria-della-steccata",
    "qid": "Q3948950"
   }
  },
  {
   "type": "Feature",
   "geometry": {
    "type": "Point",
    "coordinates": [
     8.67388,
     50.10322
    ]
   },
   "properties": {
    "painter": "Parmigianino",
    "title": "Saint with two angels",
    "year": "1523",
    "city": "Frankfurt",
    "country": "Germany",
    "location": "Städel Museum",
    "kind": "museum",
    "attribution": "generally accepted",
    "status": "present",
    "medium": "Oil on panel",
    "dimensions": "26 × 19 cm",
    "genre": "religious art",
    "image": "https://commons.wikimedia.org/wiki/Special:FilePath/Parmigianino%2C%20Santa%20con%20due%20angeli.jpg?width=420",
    "wikipedia_en": "https://en.wikipedia.org/wiki/Female_Martyr_with_Two_Angels",
    "wikipedia_it": "https://it.wikipedia.org/wiki/Santa_con_due_angeli",
    "wikidata": "https://www.wikidata.org/wiki/Q3949270",
    "_source": {
     "source": "Wikidata",
     "url": "https://www.wikidata.org/wiki/Q3949270",
     "retrieved_at": "2026-08-23"
    },
    "museum_id": "stadel-museum",
    "qid": "Q3949270",
    "wga_url": "https://www.wga.hu/html/p/parmigia/virgin_a.html"
   }
  },
  {
   "type": "Feature",
   "geometry": {
    "type": "Point",
    "coordinates": [
     10.33219,
     44.802925
    ]
   },
   "properties": {
    "painter": "Parmigianino",
    "title": "Saints Apollonia and Lucy",
    "year": "1523",
    "city": "Parma",
    "country": "Italy",
    "location": "San Giovanni Evangelista",
    "kind": "church",
    "attribution": "generally accepted",
    "status": "present",
    "medium": "Fresco",
    "genre": "religious art",
    "image": "https://commons.wikimedia.org/wiki/Special:FilePath/Parmigianino%2C%20Sante%20apollonia%20e%20lucia.jpg?width=420",
    "wikipedia_it": "https://it.wikipedia.org/wiki/Sante_Lucia_e_Apollonia",
    "wikidata": "https://www.wikidata.org/wiki/Q3949310",
    "_source": {
     "source": "Wikidata",
     "url": "https://www.wikidata.org/wiki/Q3949310",
     "retrieved_at": "2026-08-23"
    },
    "museum_id": "san-giovanni-evangelista",
    "qid": "Q3949310"
   }
  },
  {
   "type": "Feature",
   "geometry": {
    "type": "Point",
    "coordinates": [
     10.33219,
     44.802925
    ]
   },
   "properties": {
    "painter": "Parmigianino",
    "title": "Saints Stephen and Lawrence",
    "year": "1523",
    "city": "Parma",
    "country": "Italy",
    "location": "San Giovanni Evangelista",
    "kind": "church",
    "attribution": "generally accepted",
    "status": "present",
    "medium": "Fresco",
    "genre": "religious art",
    "image": "https://commons.wikimedia.org/wiki/Special:FilePath/Parmigianino%2C%20Santi%20stefano%20e%20lorenzo.jpg?width=420",
    "wikipedia_it": "https://it.wikipedia.org/wiki/Santi_Stefano_e_Lorenzo_(Parmigianino)",
    "wikidata": "https://www.wikidata.org/wiki/Q3949373",
    "_source": {
     "source": "Wikidata",
     "url": "https://www.wikidata.org/wiki/Q3949373",
     "retrieved_at": "2026-08-23"
    },
    "museum_id": "san-giovanni-evangelista",
    "qid": "Q3949373"
   }
  },
  {
   "type": "Feature",
   "geometry": {
    "type": "Point",
    "coordinates": [
     12.47189,
     41.89423
    ]
   },
   "properties": {
    "painter": "Parmigianino",
    "title": "Tre teste",
    "year": "1530",
    "city": "Rome",
    "country": "Italy",
    "location": "Galleria Spada",
    "kind": "museum",
    "attribution": "generally accepted",
    "status": "present",
    "dimensions": "71 × 60 cm",
    "image": "https://commons.wikimedia.org/wiki/Special:FilePath/Parmigianino%2C%20tre%20teste.jpg?width=420",
    "wikipedia_it": "https://it.wikipedia.org/wiki/Tre_teste",
    "wikidata": "https://www.wikidata.org/wiki/Q3998159",
    "creation_place": "Bologna",
    "creation_lat": 44.4949,
    "creation_lon": 11.3426,
    "_source": {
     "source": "Wikidata",
     "url": "https://www.wikidata.org/wiki/Q3998159",
     "retrieved_at": "2026-08-23"
    },
    "_overrides": {
     "creation": {
      "at": "2026-08-23",
      "source": "derived from start date + Caravaggio's documented itinerary (approximate)"
     }
    },
    "museum_id": "galleria-spada",
    "qid": "Q3998159"
   }
  },
  {
   "type": "Feature",
   "geometry": {
    "type": "Point",
    "coordinates": [
     16.3616,
     48.20388
    ]
   },
   "properties": {
    "painter": "Parmigianino",
    "title": "Man Holding a Book",
    "year": "1529",
    "city": "Vienna",
    "country": "Austria",
    "location": "Kunsthistorisches Museum",
    "kind": "museum",
    "attribution": "generally accepted",
    "status": "present",
    "medium": "Poplar panel",
    "dimensions": "67.5 × 53 cm",
    "genre": "portrait",
    "image": "https://commons.wikimedia.org/wiki/Special:FilePath/Francesco%20Mazzola%20gen.%20Parmigianino%2C%20%2C%20Kunsthistorisches%20Museum%20Wien%2C%20Gem%C3%A4ldegalerie%20-%20Bildnis%20eines%20Mannes%20mit%20Buch%20-%20GG%20329%20-%20Kunsthistorisches%20Museum.jpg?width=420",
    "wikipedia_es": "https://es.wikipedia.org/wiki/Hombre_que_interrumpe_su_lectura",
    "wikipedia_en": "https://en.wikipedia.org/wiki/Man_Holding_a_Book",
    "wikipedia_it": "https://it.wikipedia.org/wiki/Uomo_che_sospende_la_lettura",
    "wikidata": "https://www.wikidata.org/wiki/Q4006164",
    "creation_place": "Bologna",
    "creation_lat": 44.4949,
    "creation_lon": 11.3426,
    "_source": {
     "source": "Wikidata",
     "url": "https://www.wikidata.org/wiki/Q4006164",
     "retrieved_at": "2026-08-23"
    },
    "_overrides": {
     "creation": {
      "at": "2026-08-23",
      "source": "derived from start date + Caravaggio's documented itinerary (approximate)"
     }
    },
    "museum_id": "kunsthistorisches-museum",
    "qid": "Q4006164"
   }
  },
  {
   "type": "Feature",
   "geometry": {
    "type": "Point",
    "coordinates": [
     16.3616,
     48.20388
    ]
   },
   "properties": {
    "painter": "Parmigianino",
    "title": "Self-portrait in a Convex Mirror",
    "year": "1523",
    "city": "Vienna",
    "country": "Austria",
    "location": "Kunsthistorisches Museum",
    "kind": "museum",
    "attribution": "generally accepted",
    "status": "present",
    "medium": "Oil paint, poplar panel",
    "dimensions": "24.4 × 24.4 cm",
    "genre": "self-portrait",
    "image": "https://commons.wikimedia.org/wiki/Special:FilePath/Parmigianino%20Selfportrait.jpg?width=420",
    "wikipedia_es": "https://es.wikipedia.org/wiki/Autorretrato_en_un_espejo_convexo",
    "wikipedia_en": "https://en.wikipedia.org/wiki/Self-Portrait_in_a_Convex_Mirror_(Parmigianino)",
    "wikipedia_it": "https://it.wikipedia.org/wiki/Autoritratto_entro_uno_specchio_convesso",
    "wikidata": "https://www.wikidata.org/wiki/Q699319",
    "_source": {
     "source": "Wikidata",
     "url": "https://www.wikidata.org/wiki/Q699319",
     "retrieved_at": "2026-08-23"
    },
    "museum_id": "kunsthistorisches-museum",
    "qid": "Q699319",
    "wga_url": "https://www.wga.hu/html/p/parmigia/convex.html"
   }
  },
  {
   "type": "Feature",
   "geometry": {
    "type": "Point",
    "coordinates": [
     10.32586,
     44.80472
    ]
   },
   "properties": {
    "painter": "Parmigianino",
    "title": "Portrait of a Man in a Red Beret",
    "year": "1540",
    "city": "Parma",
    "country": "Italy",
    "location": "Galleria Nazionale di Parma",
    "kind": "museum",
    "attribution": "generally accepted",
    "status": "present",
    "medium": "Oil on paper",
    "dimensions": "21 × 15.5 cm",
    "genre": "self-portrait",
    "image": "https://commons.wikimedia.org/wiki/Special:FilePath/Parmigianino%20Selfportrait%201540.jpg?width=420",
    "wikipedia_en": "https://en.wikipedia.org/wiki/Portrait_of_a_Man_in_a_Red_Beret",
    "wikipedia_it": "https://it.wikipedia.org/wiki/Autoritratto_con_berretto_rosso",
    "wikidata": "https://www.wikidata.org/wiki/Q866489",
    "creation_place": "Parma",
    "creation_lat": 44.8015,
    "creation_lon": 10.3279,
    "_source": {
     "source": "Wikidata",
     "url": "https://www.wikidata.org/wiki/Q866489",
     "retrieved_at": "2026-08-23"
    },
    "_overrides": {
     "creation": {
      "at": "2026-08-23",
      "source": "derived from start date + Caravaggio's documented itinerary (approximate)"
     }
    },
    "museum_id": "galleria-nazionale-di-parma",
    "qid": "Q866489"
   }
  },
  {
   "type": "Feature",
   "geometry": {
    "type": "Point",
    "coordinates": [
     10.32586,
     44.80472
    ]
   },
   "properties": {
    "painter": "Parmigianino",
    "title": "Turkish Slave",
    "year": "1533",
    "city": "Parma",
    "country": "Italy",
    "location": "Galleria Nazionale di Parma",
    "kind": "museum",
    "attribution": "generally accepted",
    "status": "present",
    "medium": "Oil paint",
    "dimensions": "67 × 53 cm",
    "genre": "portrait",
    "image": "https://commons.wikimedia.org/wiki/Special:FilePath/Parmigianino%20-%20La%20schiava%20turca.jpg?width=420",
    "wikipedia_es": "https://es.wikipedia.org/wiki/La_esclava_turca",
    "wikipedia_en": "https://en.wikipedia.org/wiki/Turkish_Slave",
    "wikipedia_it": "https://it.wikipedia.org/wiki/Schiava_turca",
    "wikidata": "https://www.wikidata.org/wiki/Q866500",
    "creation_place": "Parma",
    "creation_lat": 44.8015,
    "creation_lon": 10.3279,
    "_source": {
     "source": "Wikidata",
     "url": "https://www.wikidata.org/wiki/Q866500",
     "retrieved_at": "2026-08-23"
    },
    "_overrides": {
     "creation": {
      "at": "2026-08-23",
      "source": "derived from start date + Caravaggio's documented itinerary (approximate)"
     }
    },
    "museum_id": "galleria-nazionale-di-parma",
    "qid": "Q866500"
   }
  },
  {
   "type": "Feature",
   "geometry": {
    "type": "Point",
    "coordinates": [
     11.25528,
     43.76833
    ]
   },
   "properties": {
    "painter": "Parmigianino",
    "title": "Madonna with the Long Neck",
    "year": "1600",
    "city": "Florence",
    "country": "Italy",
    "location": "Uffizi Gallery",
    "kind": "museum",
    "attribution": "copy or later version",
    "status": "present",
    "medium": "Oil on panel",
    "dimensions": "219 × 132 cm",
    "genre": "religious art",
    "image": "https://commons.wikimedia.org/wiki/Special:FilePath/Parmigianino%20-%20Madonna%20and%20Child%20with%20Angels%2C%20known%20as%20the%20Madonna%20with%20the%20Long%20Neck.jpg?width=420",
    "wikipedia_es": "https://es.wikipedia.org/wiki/Virgen_del_cuello_largo",
    "wikipedia_en": "https://en.wikipedia.org/wiki/Madonna_with_the_Long_Neck",
    "wikipedia_it": "https://it.wikipedia.org/wiki/Madonna_dal_collo_lungo",
    "wikidata": "https://www.wikidata.org/wiki/Q867403",
    "_source": {
     "source": "Wikidata",
     "url": "https://www.wikidata.org/wiki/Q867403",
     "retrieved_at": "2026-08-23"
    },
    "museum_id": "uffizi-gallery",
    "qid": "Q867403",
    "wga_url": "https://www.wga.hu/html/p/parmigia/longneck.html",
    "_overrides": {
     "attribution": {
      "at": "2026-08-24",
      "source": "tier-2 cleaning",
      "was": "generally accepted",
      "note": "dated 1600, after death (1503–1540) → later copy / not autograph at this date (Timeline anomaly)"
     }
    }
   }
  },
  {
   "type": "Feature",
   "geometry": {
    "type": "Point",
    "coordinates": [
     14.25053,
     40.86701
    ]
   },
   "properties": {
    "painter": "Parmigianino",
    "title": "Antea",
    "year": "1535",
    "city": "Naples",
    "country": "Italy",
    "location": "Museo di Capodimonte",
    "kind": "museum",
    "attribution": "generally accepted",
    "status": "present",
    "medium": "Oil on canvas",
    "dimensions": "136 × 86 cm",
    "genre": "portrait",
    "image": "https://commons.wikimedia.org/wiki/Special:FilePath/Antea%20-%20Parmigianino%20-%20Museo%20di%20Capodimonte%20Q%20108.jpg?width=420",
    "wikipedia_es": "https://es.wikipedia.org/wiki/Antea_(Parmigianino)",
    "wikipedia_en": "https://en.wikipedia.org/wiki/Antea_(Parmigianino)",
    "wikipedia_it": "https://it.wikipedia.org/wiki/Antea_(Parmigianino)",
    "wikidata": "https://www.wikidata.org/wiki/Q867678",
    "creation_place": "Parma",
    "creation_lat": 44.8015,
    "creation_lon": 10.3279,
    "_source": {
     "source": "Wikidata",
     "url": "https://www.wikidata.org/wiki/Q867678",
     "retrieved_at": "2026-08-23"
    },
    "_overrides": {
     "creation": {
      "at": "2026-08-23",
      "source": "derived from start date + Caravaggio's documented itinerary (approximate)"
     }
    },
    "museum_id": "museo-di-capodimonte",
    "qid": "Q867678"
   }
  },
  {
   "type": "Feature",
   "geometry": {
    "type": "Point",
    "coordinates": [
     16.3616,
     48.20388
    ]
   },
   "properties": {
    "painter": "Parmigianino",
    "title": "Cupid as a bow carver",
    "year": "1536",
    "city": "Vienna",
    "country": "Austria",
    "location": "Kunsthistorisches Museum",
    "kind": "museum",
    "attribution": "generally accepted",
    "status": "present",
    "medium": "Lime panel, oil paint",
    "dimensions": "135.5 × 65 cm",
    "genre": "mythological painting, nude",
    "image": "https://commons.wikimedia.org/wiki/Special:FilePath/Francesco%20Mazzola%20gen.%20Parmigianino%2C%20Kunsthistorisches%20Museum%20Wien%2C%20Gem%C3%A4ldegalerie%20-%20Bogenschnitzender%20Amor%20-%20GG%20275%20-%20Kunsthistorisches%20Museum.jpg?width=420",
    "wikipedia_es": "https://es.wikipedia.org/wiki/Cupido_tallando_su_arco",
    "wikipedia_en": "https://en.wikipedia.org/wiki/Cupid_Making_His_Bow",
    "wikipedia_it": "https://it.wikipedia.org/wiki/Cupido_che_fabbrica_l%27arco",
    "wikidata": "https://www.wikidata.org/wiki/Q892604",
    "creation_place": "Parma",
    "creation_lat": 44.8015,
    "creation_lon": 10.3279,
    "_source": {
     "source": "Wikidata",
     "url": "https://www.wikidata.org/wiki/Q892604",
     "retrieved_at": "2026-08-23"
    },
    "_overrides": {
     "creation": {
      "at": "2026-08-23",
      "source": "derived from start date + Caravaggio's documented itinerary (approximate)"
     }
    },
    "museum_id": "kunsthistorisches-museum",
    "qid": "Q892604",
    "wga_url": "https://www.wga.hu/html/p/parmigia/1/cupid.html"
   }
  }
 ]
}