{
 "type": "FeatureCollection",
 "_note": "Canon from List of paintings by Camille Pissarro (Wikipedia). Coords via MediaWiki API.",
 "features": [
  {
   "type": "Feature",
   "geometry": {
    "type": "Point",
    "coordinates": [
     -77.02,
     38.8914
    ]
   },
   "properties": {
    "painter": "Camille Pissarro",
    "title": "Crique avec palmiers",
    "year": "1856",
    "city": "Washington",
    "location": "National Gallery of Art",
    "attribution": "generally accepted",
    "image": "https://upload.wikimedia.org/wikipedia/commons/thumb/b/b8/Crique_avec_palmiers_%28Camille_Pissarro%29_NGA_1985.64.29.jpg/500px-Crique_avec_palmiers_%28Camille_Pissarro%29_NGA_1985.64.29.jpg?utm_source=en.wikipedia.org&amp;utm_campaign=parser&amp;utm_content=thumbnail",
    "notable": true,
    "_source": {
     "source": "Wikipedia: List of paintings by Camille Pissarro",
     "coord": "MediaWiki coordinates API"
    },
    "museum_id": "national-gallery-of-art",
    "country": "United States"
   }
  },
  {
   "type": "Feature",
   "geometry": {
    "type": "Point",
    "coordinates": [
     -77.02,
     38.8914
    ]
   },
   "properties": {
    "painter": "Camille Pissarro",
    "title": "Deux femmes causant au bord de la mer",
    "year": "1856",
    "city": "Washington",
    "location": "National Gallery of Art",
    "attribution": "generally accepted",
    "image": "https://upload.wikimedia.org/wikipedia/commons/thumb/6/61/Deux_femmes_causant_au_bord_de_la_mer%2C_Saint_Thomas_%28Camille_Pissarro%29_%E2%80%93_NGA_1985.64.30.jpg/500px-Deux_femmes_causant_au_bord_de_la_mer%2C_Saint_Thomas_%28Camille_Pissarro%29_%E2%80%93_NGA_1985.64.30.jpg?utm_source=en.wikipedia.org&amp;utm_campaign=parser&amp;utm_content=thumbnail",
    "notable": true,
    "_source": {
     "source": "Wikipedia: List of paintings by Camille Pissarro",
     "coord": "MediaWiki coordinates API"
    },
    "museum_id": "national-gallery-of-art",
    "country": "United States"
   }
  },
  {
   "type": "Feature",
   "geometry": {
    "type": "Point",
    "coordinates": [
     35.01798,
     32.76348
    ]
   },
   "properties": {
    "painter": "Camille Pissarro",
    "title": "La charette du bois",
    "year": "c.1862",
    "city": "Haifa [13]",
    "location": "Reuben and Edith Hecht Museum",
    "attribution": "generally accepted",
    "image": "https://upload.wikimedia.org/wikipedia/commons/thumb/a/af/Pissarro_-_the-wood-cart.jpg/500px-Pissarro_-_the-wood-cart.jpg?utm_source=en.wikipedia.org&amp;utm_campaign=parser&amp;utm_content=thumbnail",
    "notable": true,
    "creation_place": "Paris",
    "creation_lat": 48.8566,
    "creation_lon": 2.3522,
    "_source": {
     "source": "Wikipedia: List of paintings by Camille Pissarro",
     "coord": "MediaWiki coordinates API"
    },
    "museum_id": "reuben-and-edith-hecht-museum"
   }
  },
  {
   "type": "Feature",
   "geometry": {
    "type": "Point",
    "coordinates": [
     7.73611,
     48.57944
    ]
   },
   "properties": {
    "painter": "Camille Pissarro",
    "title": "La Petite Fabrique",
    "year": "c.1862–65",
    "location": "Strasbourg Museum of Modern and Contemporary Art",
    "attribution": "generally accepted",
    "image": "https://upload.wikimedia.org/wikipedia/commons/thumb/5/57/Pissarro%2C_La_petite_fabrique_%28_Mus%C3%A9e_d%27art_moderne_et_contemporain_de_Strasbourg_%29.JPG/500px-Pissarro%2C_La_petite_fabrique_%28_Mus%C3%A9e_d%27art_moderne_et_contemporain_de_Strasbourg_%29.JPG?utm_source=en.wikipedia.org&amp;utm_campaign=parser&amp;utm_content=thumbnail",
    "notable": true,
    "creation_place": "Paris",
    "creation_lat": 48.8566,
    "creation_lon": 2.3522,
    "_source": {
     "source": "Wikipedia: List of paintings by Camille Pissarro",
     "coord": "MediaWiki coordinates API"
    },
    "museum_id": "strasbourg-museum-of-modern-and-contemporary-art",
    "city": "Strasbourg",
    "country": "France"
   }
  },
  {
   "type": "Feature",
   "geometry": {
    "type": "Point",
    "coordinates": [
     2.1017,
     49.0516
    ]
   },
   "properties": {
    "painter": "Camille Pissarro",
    "title": "Péniches sur la Seine",
    "year": "c.1863",
    "city": "Pontoise",
    "location": "Musée Camille Pissarro",
    "attribution": "generally accepted",
    "image": "https://upload.wikimedia.org/wikipedia/commons/thumb/4/49/Camille_Pissarro_-_Barges_%C3%A0_La_Roche-Guyon.jpg/500px-Camille_Pissarro_-_Barges_%C3%A0_La_Roche-Guyon.jpg?utm_source=en.wikipedia.org&amp;utm_campaign=parser&amp;utm_content=thumbnail",
    "notable": true,
    "creation_place": "Paris",
    "creation_lat": 48.8566,
    "creation_lon": 2.3522,
    "_source": {
     "source": "Wikipedia: List of paintings by Camille Pissarro",
     "coord": "MediaWiki coordinates API"
    },
    "museum_id": "musee-camille-pissarro"
   }
  },
  {
   "type": "Feature",
   "geometry": {
    "type": "Point",
    "coordinates": [
     -3.19556,
     55.95083
    ]
   },
   "properties": {
    "painter": "Camille Pissarro",
    "title": "Bords de la Marne à Chennevieres",
    "year": "c.1865",
    "city": "Edinburgh",
    "location": "Scottish National Gallery",
    "attribution": "generally accepted",
    "image": "https://upload.wikimedia.org/wikipedia/commons/thumb/a/ac/Camille_Pissarro_-_The_Marne_at_Chennevi%C3%A8res_-_Google_Art_Project.jpg/500px-Camille_Pissarro_-_The_Marne_at_Chennevi%C3%A8res_-_Google_Art_Project.jpg?utm_source=en.wikipedia.org&amp;utm_campaign=parser&amp;utm_content=thumbnail",
    "notable": true,
    "creation_place": "Paris",
    "creation_lat": 48.8566,
    "creation_lon": 2.3522,
    "_source": {
     "source": "Wikipedia: List of paintings by Camille Pissarro",
     "coord": "MediaWiki coordinates API"
    },
    "museum_id": "scottish-national-gallery",
    "country": "United Kingdom"
   }
  },
  {
   "type": "Feature",
   "geometry": {
    "type": "Point",
    "coordinates": [
     13.39806,
     52.52083
    ]
   },
   "properties": {
    "painter": "Camille Pissarro",
    "title": "Place à La Roche-Guyon",
    "year": "c.1865",
    "city": "Berlin",
    "location": "Alte Nationalgalerie",
    "attribution": "generally accepted",
    "image": "https://upload.wikimedia.org/wikipedia/commons/thumb/e/ed/1865_Pissarro_Platz_in_La_Roche-Guyon_104.jpg/500px-1865_Pissarro_Platz_in_La_Roche-Guyon_104.jpg?utm_source=en.wikipedia.org&amp;utm_campaign=parser&amp;utm_content=thumbnail",
    "notable": true,
    "creation_place": "Paris",
    "creation_lat": 48.8566,
    "creation_lon": 2.3522,
    "_source": {
     "source": "Wikipedia: List of paintings by Camille Pissarro",
     "coord": "MediaWiki coordinates API"
    },
    "museum_id": "alte-nationalgalerie",
    "country": "Germany"
   }
  },
  {
   "type": "Feature",
   "geometry": {
    "type": "Point",
    "coordinates": [
     1.1509,
     52.0606
    ]
   },
   "properties": {
    "painter": "Camille Pissarro",
    "title": "La maison de père Gallien, Pontoise",
    "year": "1866",
    "city": "UK [31]",
    "location": "Ipswich Museum",
    "attribution": "generally accepted",
    "image": "https://upload.wikimedia.org/wikipedia/commons/thumb/9/9c/Pissarro_-_pere-gallien-s-house-at-pontoise-1866.jpg/500px-Pissarro_-_pere-gallien-s-house-at-pontoise-1866.jpg?utm_source=en.wikipedia.org&amp;utm_campaign=parser&amp;utm_content=thumbnail",
    "notable": true,
    "creation_place": "Pontoise",
    "creation_lat": 49.0511,
    "creation_lon": 2.101,
    "_source": {
     "source": "Wikipedia: List of paintings by Camille Pissarro",
     "coord": "MediaWiki coordinates API"
    },
    "museum_id": "ipswich-museum"
   }
  },
  {
   "type": "Feature",
   "geometry": {
    "type": "Point",
    "coordinates": [
     -83.5594,
     41.6583
    ]
   },
   "properties": {
    "painter": "Camille Pissarro",
    "title": "Nature morte à la carafe du vin",
    "year": "1867",
    "city": "Toledo",
    "location": "Toledo Museum of Art",
    "attribution": "generally accepted",
    "image": "https://upload.wikimedia.org/wikipedia/commons/thumb/3/3f/Camille_Pissarro_-_Still_Life_-_Google_Art_Project.jpg/500px-Camille_Pissarro_-_Still_Life_-_Google_Art_Project.jpg?utm_source=en.wikipedia.org&amp;utm_campaign=parser&amp;utm_content=thumbnail",
    "notable": true,
    "creation_place": "Pontoise",
    "creation_lat": 49.0511,
    "creation_lon": 2.101,
    "_source": {
     "source": "Wikipedia: List of paintings by Camille Pissarro",
     "coord": "MediaWiki coordinates API"
    },
    "museum_id": "toledo-museum-of-art",
    "country": "United States"
   }
  },
  {
   "type": "Feature",
   "geometry": {
    "type": "Point",
    "coordinates": [
     -73.9631,
     40.7794
    ]
   },
   "properties": {
    "painter": "Camille Pissarro",
    "title": "Côte des Jalais, Pontoise",
    "year": "1867",
    "city": "New York",
    "location": "Metropolitan Museum of Art",
    "attribution": "generally accepted",
    "image": "https://upload.wikimedia.org/wikipedia/commons/thumb/9/91/Jalais_Hill%2C_Pontoise.jpg/500px-Jalais_Hill%2C_Pontoise.jpg?utm_source=en.wikipedia.org&amp;utm_campaign=parser&amp;utm_content=thumbnail",
    "notable": true,
    "creation_place": "Pontoise",
    "creation_lat": 49.0511,
    "creation_lon": 2.101,
    "_source": {
     "source": "Wikipedia: List of paintings by Camille Pissarro",
     "coord": "MediaWiki coordinates API"
    },
    "museum_id": "metropolitan-museum-of-art",
    "country": "United States"
   }
  },
  {
   "type": "Feature",
   "geometry": {
    "type": "Point",
    "coordinates": [
     6.95861,
     50.9375
    ]
   },
   "properties": {
    "painter": "Camille Pissarro",
    "title": "L'Hermitage a Pontoise",
    "year": "1867",
    "city": "Altstadt-Nord",
    "location": "Wallraf-Richartz Museum",
    "attribution": "generally accepted",
    "image": "https://upload.wikimedia.org/wikipedia/commons/thumb/e/ef/Camille_Pissarro_-_L%C2%B4Hermitage_%C3%A0_Pontoise_-_1867.jpg/500px-Camille_Pissarro_-_L%C2%B4Hermitage_%C3%A0_Pontoise_-_1867.jpg?utm_source=en.wikipedia.org&amp;utm_campaign=parser&amp;utm_content=thumbnail",
    "notable": true,
    "creation_place": "Pontoise",
    "creation_lat": 49.0511,
    "creation_lon": 2.101,
    "_source": {
     "source": "Wikipedia: List of paintings by Camille Pissarro",
     "coord": "MediaWiki coordinates API"
    },
    "museum_id": "wallraf-richartz-museum",
    "country": "Germany"
   }
  },
  {
   "type": "Feature",
   "geometry": {
    "type": "Point",
    "coordinates": [
     -76.6165,
     39.29642
    ]
   },
   "properties": {
    "painter": "Camille Pissarro",
    "title": "Croisement de la route de Versailles et du Chemin de l'Aqueduc, Louveciennes",
    "year": "c.1869",
    "city": "Baltimore",
    "location": "Walters Art Museum",
    "attribution": "generally accepted",
    "image": "https://upload.wikimedia.org/wikipedia/commons/thumb/d/de/Road_to_Versailles_at_Louveciennes_1869_Camille_Pissarro.jpg/500px-Road_to_Versailles_at_Louveciennes_1869_Camille_Pissarro.jpg?utm_source=en.wikipedia.org&amp;utm_campaign=parser&amp;utm_content=thumbnail",
    "notable": true,
    "creation_place": "Pontoise",
    "creation_lat": 49.0511,
    "creation_lon": 2.101,
    "_source": {
     "source": "Wikipedia: List of paintings by Camille Pissarro",
     "coord": "MediaWiki coordinates API"
    },
    "museum_id": "walters-art-museum",
    "country": "United States"
   }
  },
  {
   "type": "Feature",
   "geometry": {
    "type": "Point",
    "coordinates": [
     8.3077,
     47.4814
    ]
   },
   "properties": {
    "painter": "Camille Pissarro",
    "title": "Châtaigniers à Louveciennes",
    "year": "1870",
    "city": "Baden",
    "location": "Museum Langmatt",
    "attribution": "generally accepted",
    "image": "https://upload.wikimedia.org/wikipedia/commons/thumb/0/04/Pissarro_-_chestnut-trees-louveciennes-spring-1870.jpg/500px-Pissarro_-_chestnut-trees-louveciennes-spring-1870.jpg?utm_source=en.wikipedia.org&amp;utm_campaign=parser&amp;utm_content=thumbnail",
    "notable": true,
    "creation_place": "Pontoise",
    "creation_lat": 49.0511,
    "creation_lon": 2.101,
    "_source": {
     "source": "Wikipedia: List of paintings by Camille Pissarro",
     "coord": "MediaWiki coordinates API"
    },
    "museum_id": "museum-langmatt"
   }
  },
  {
   "type": "Feature",
   "geometry": {
    "type": "Point",
    "coordinates": [
     -73.2137,
     42.7078
    ]
   },
   "properties": {
    "painter": "Camille Pissarro",
    "title": "Route de Versailles, Louveciennes",
    "year": "1870",
    "city": "Williamstown",
    "location": "Clark Art Institute",
    "attribution": "generally accepted",
    "image": "https://upload.wikimedia.org/wikipedia/commons/thumb/7/7b/Pissarro_-_Route_de_Versailles%2C_Louveciennes%2C_1870.jpg/500px-Pissarro_-_Route_de_Versailles%2C_Louveciennes%2C_1870.jpg?utm_source=en.wikipedia.org&amp;utm_campaign=parser&amp;utm_content=thumbnail",
    "notable": true,
    "creation_place": "Pontoise",
    "creation_lat": 49.0511,
    "creation_lon": 2.101,
    "_source": {
     "source": "Wikipedia: List of paintings by Camille Pissarro",
     "coord": "MediaWiki coordinates API"
    },
    "museum_id": "clark-art-institute",
    "country": "United States"
   }
  },
  {
   "type": "Feature",
   "geometry": {
    "type": "Point",
    "coordinates": [
     2.32653,
     48.85997
    ]
   },
   "properties": {
    "painter": "Camille Pissarro",
    "title": "La Diligence sur la route de Versailles, Louveciennes",
    "year": "1870",
    "city": "Paris",
    "location": "Musée d'Orsay",
    "attribution": "generally accepted",
    "image": "https://upload.wikimedia.org/wikipedia/commons/thumb/2/2d/Camille_Pissarro_035.jpg/500px-Camille_Pissarro_035.jpg?utm_source=en.wikipedia.org&amp;utm_campaign=parser&amp;utm_content=thumbnail",
    "notable": true,
    "creation_place": "Pontoise",
    "creation_lat": 49.0511,
    "creation_lon": 2.101,
    "_source": {
     "source": "Wikipedia: List of paintings by Camille Pissarro",
     "coord": "MediaWiki coordinates API"
    },
    "museum_id": "musee-d-orsay",
    "country": "France"
   }
  },
  {
   "type": "Feature",
   "geometry": {
    "type": "Point",
    "coordinates": [
     -73.2137,
     42.7078
    ]
   },
   "properties": {
    "painter": "Camille Pissarro",
    "title": "Route de Versailles, effet de la Pluie",
    "year": "1870",
    "city": "Williamstown",
    "location": "Clark Art Institute",
    "attribution": "generally accepted",
    "image": "https://upload.wikimedia.org/wikipedia/commons/thumb/3/3c/Pissarro_-_Route_de_Versailles%2C_Louveciennes%2C_Rain_Effect%2C_1870.jpg/500px-Pissarro_-_Route_de_Versailles%2C_Louveciennes%2C_Rain_Effect%2C_1870.jpg?utm_source=en.wikipedia.org&amp;utm_campaign=parser&amp;utm_content=thumbnail",
    "notable": true,
    "creation_place": "Pontoise",
    "creation_lat": 49.0511,
    "creation_lon": 2.101,
    "_source": {
     "source": "Wikipedia: List of paintings by Camille Pissarro",
     "coord": "MediaWiki coordinates API"
    },
    "museum_id": "clark-art-institute",
    "country": "United States"
   }
  },
  {
   "type": "Feature",
   "geometry": {
    "type": "Point",
    "coordinates": [
     -118.475,
     34.0775
    ]
   },
   "properties": {
    "painter": "Camille Pissarro",
    "title": "Maisons à Bougival",
    "year": "1870",
    "city": "Los Angeles",
    "location": "J Paul Getty Museum",
    "attribution": "generally accepted",
    "image": "https://upload.wikimedia.org/wikipedia/commons/thumb/4/45/Maisons_%C3%A0_Bougival%2C_automne%2C_par_Camille_Pissarro%2C_Getty_Museum%2C_edited.jpg/500px-Maisons_%C3%A0_Bougival%2C_automne%2C_par_Camille_Pissarro%2C_Getty_Museum%2C_edited.jpg?utm_source=en.wikipedia.org&amp;utm_campaign=parser&amp;utm_content=thumbnail",
    "notable": true,
    "creation_place": "Pontoise",
    "creation_lat": 49.0511,
    "creation_lon": 2.101,
    "_source": {
     "source": "Wikipedia: List of paintings by Camille Pissarro",
     "coord": "MediaWiki coordinates API"
    },
    "museum_id": "j-paul-getty-museum",
    "country": "United States"
   }
  },
  {
   "type": "Feature",
   "geometry": {
    "type": "Point",
    "coordinates": [
     -0.1283,
     51.5089
    ]
   },
   "properties": {
    "painter": "Camille Pissarro",
    "title": "Vue de l'aqueduc de Louveciennes, printemps",
    "year": "c. 1870",
    "city": "London",
    "location": "National Gallery",
    "attribution": "generally accepted",
    "image": "https://upload.wikimedia.org/wikipedia/commons/thumb/f/fa/Camille_Pissarro_-_View_from_Louveciennes_-_National_Gallery_London.jpg/500px-Camille_Pissarro_-_View_from_Louveciennes_-_National_Gallery_London.jpg?utm_source=en.wikipedia.org&amp;utm_campaign=parser&amp;utm_content=thumbnail",
    "notable": true,
    "creation_place": "Pontoise",
    "creation_lat": 49.0511,
    "creation_lon": 2.101,
    "_source": {
     "source": "Wikipedia: List of paintings by Camille Pissarro",
     "coord": "MediaWiki coordinates API"
    },
    "museum_id": "national-gallery",
    "country": "United Kingdom"
   }
  },
  {
   "type": "Feature",
   "geometry": {
    "type": "Point",
    "coordinates": [
     -0.1283,
     51.5089
    ]
   },
   "properties": {
    "painter": "Camille Pissarro",
    "title": "Fox Hill, Upper Norwood, effect of Snow",
    "year": "1870",
    "city": "London",
    "location": "National Gallery",
    "attribution": "generally accepted",
    "image": "https://upload.wikimedia.org/wikipedia/commons/thumb/d/d8/Camille_Pissarro_-_Fox_Hill%2C_Upper_Norwood_%281870%29.jpg/500px-Camille_Pissarro_-_Fox_Hill%2C_Upper_Norwood_%281870%29.jpg?utm_source=en.wikipedia.org&amp;utm_campaign=parser&amp;utm_content=thumbnail",
    "notable": true,
    "creation_place": "London",
    "creation_lat": 51.5074,
    "creation_lon": -0.1278,
    "_source": {
     "source": "Wikipedia: List of paintings by Camille Pissarro",
     "coord": "MediaWiki coordinates API"
    },
    "museum_id": "national-gallery",
    "country": "United Kingdom"
   }
  },
  {
   "type": "Feature",
   "geometry": {
    "type": "Point",
    "coordinates": [
     -0.1283,
     51.5089
    ]
   },
   "properties": {
    "painter": "Camille Pissarro",
    "title": "The Avenue, Sydenham",
    "year": "1871",
    "city": "London",
    "location": "National Gallery",
    "attribution": "generally accepted",
    "image": "https://upload.wikimedia.org/wikipedia/commons/thumb/1/15/Camille_Pissarro_-_The_Avenue%2C_Sydenham_%281871%29.jpg/500px-Camille_Pissarro_-_The_Avenue%2C_Sydenham_%281871%29.jpg?utm_source=en.wikipedia.org&amp;utm_campaign=parser&amp;utm_content=thumbnail",
    "notable": true,
    "creation_place": "London",
    "creation_lat": 51.5074,
    "creation_lon": -0.1278,
    "_source": {
     "source": "Wikipedia: List of paintings by Camille Pissarro",
     "coord": "MediaWiki coordinates API"
    },
    "museum_id": "national-gallery",
    "country": "United Kingdom"
   }
  },
  {
   "type": "Feature",
   "geometry": {
    "type": "Point",
    "coordinates": [
     -0.11747,
     51.51175
    ]
   },
   "properties": {
    "painter": "Camille Pissarro",
    "title": "Lordship Lane Station, East Dulwich",
    "year": "1871",
    "city": "London",
    "location": "Courtauld Institute Galleries",
    "attribution": "generally accepted",
    "image": "https://upload.wikimedia.org/wikipedia/commons/thumb/4/43/Pissarro_-_Lordship_Lane_Station%2C_Dulwich_%281871%29.jpg/500px-Pissarro_-_Lordship_Lane_Station%2C_Dulwich_%281871%29.jpg?utm_source=en.wikipedia.org&amp;utm_campaign=parser&amp;utm_content=thumbnail",
    "notable": true,
    "creation_place": "London",
    "creation_lat": 51.5074,
    "creation_lon": -0.1278,
    "_source": {
     "source": "Wikipedia: List of paintings by Camille Pissarro",
     "coord": "MediaWiki coordinates API"
    },
    "museum_id": "courtauld-institute-galleries",
    "country": "United Kingdom"
   }
  },
  {
   "type": "Feature",
   "geometry": {
    "type": "Point",
    "coordinates": [
     -97.365,
     32.7486
    ]
   },
   "properties": {
    "painter": "Camille Pissarro",
    "title": "View of Alleyn Park, West Dulwich",
    "year": "1871",
    "city": "Fort Worth",
    "country": "United States",
    "location": "Kimbell Art Museum",
    "attribution": "generally accepted",
    "image": "https://upload.wikimedia.org/wikipedia/commons/thumb/b/bb/Camille_Pissarro_-_Near_Sydenham_Hill_-_Google_Art_Project.jpg/500px-Camille_Pissarro_-_Near_Sydenham_Hill_-_Google_Art_Project.jpg?utm_source=en.wikipedia.org&amp;utm_campaign=parser&amp;utm_content=thumbnail",
    "notable": true,
    "creation_place": "London",
    "creation_lat": 51.5074,
    "creation_lon": -0.1278,
    "_source": {
     "source": "Wikipedia: List of paintings by Camille Pissarro",
     "coord": "MediaWiki coordinates API"
    },
    "museum_id": "kimbell-art-museum"
   }
  },
  {
   "type": "Feature",
   "geometry": {
    "type": "Point",
    "coordinates": [
     1.442,
     43.6003
    ]
   },
   "properties": {
    "painter": "Camille Pissarro",
    "title": "Dulwich College",
    "year": "1871",
    "city": "Toulouse [71]",
    "location": "Bemberg Foundation",
    "attribution": "generally accepted",
    "image": "https://upload.wikimedia.org/wikipedia/commons/thumb/3/3c/Bemberg_Fondation_Toulouse_-_Dulwich_College%2C_Londres_%281871%29_-_Camille_Pissarro_Inv.2149.jpg/500px-Bemberg_Fondation_Toulouse_-_Dulwich_College%2C_Londres_%281871%29_-_Camille_Pissarro_Inv.2149.jpg?utm_source=en.wikipedia.org&amp;utm_campaign=parser&amp;utm_content=thumbnail",
    "notable": true,
    "creation_place": "London",
    "creation_lat": 51.5074,
    "creation_lon": -0.1278,
    "_source": {
     "source": "Wikipedia: List of paintings by Camille Pissarro",
     "coord": "MediaWiki coordinates API"
    },
    "museum_id": "bemberg-foundation"
   }
  },
  {
   "type": "Feature",
   "geometry": {
    "type": "Point",
    "coordinates": [
     4.8811,
     52.3583
    ]
   },
   "properties": {
    "painter": "Camille Pissarro",
    "title": "Route de Versailles, Rocquencourt",
    "year": "1871",
    "city": "Amsterdam",
    "location": "Van Gogh Museum",
    "attribution": "generally accepted",
    "image": "https://upload.wikimedia.org/wikipedia/commons/thumb/4/4f/Route_de_Versailles%2C_Rocquencourt_-_s0512S2006_-_Van_Gogh_Museum.jpg/500px-Route_de_Versailles%2C_Rocquencourt_-_s0512S2006_-_Van_Gogh_Museum.jpg?utm_source=en.wikipedia.org&amp;utm_campaign=parser&amp;utm_content=thumbnail",
    "notable": true,
    "creation_place": "Pontoise",
    "creation_lat": 49.0511,
    "creation_lon": 2.101,
    "_source": {
     "source": "Wikipedia: List of paintings by Camille Pissarro",
     "coord": "MediaWiki coordinates API"
    },
    "museum_id": "van-gogh-museum",
    "country": "Netherlands"
   }
  },
  {
   "type": "Feature",
   "geometry": {
    "type": "Point",
    "coordinates": [
     -94.58084,
     39.04531
    ]
   },
   "properties": {
    "painter": "Camille Pissarro",
    "title": "Barrage sur la Seine à Bougival",
    "year": "1871",
    "city": "Kansas City",
    "country": "United States",
    "location": "Nelson-Atkins Museum of Art",
    "attribution": "generally accepted",
    "image": "https://upload.wikimedia.org/wikipedia/commons/thumb/4/4f/Camille_Pissarro_-_Au_bord_de_la_Seine_%C3%A0_Port_Marly_%281871%29.jpg/500px-Camille_Pissarro_-_Au_bord_de_la_Seine_%C3%A0_Port_Marly_%281871%29.jpg?utm_source=en.wikipedia.org&amp;utm_campaign=parser&amp;utm_content=thumbnail",
    "notable": true,
    "creation_place": "Pontoise",
    "creation_lat": 49.0511,
    "creation_lon": 2.101,
    "_source": {
     "source": "Wikipedia: List of paintings by Camille Pissarro",
     "coord": "MediaWiki coordinates API"
    },
    "museum_id": "nelson-atkins-museum-of-art"
   }
  },
  {
   "type": "Feature",
   "geometry": {
    "type": "Point",
    "coordinates": [
     2.32653,
     48.85997
    ]
   },
   "properties": {
    "painter": "Camille Pissarro",
    "title": "Châtaigniers à Louveciennes",
    "year": "1872",
    "city": "Paris",
    "location": "Musée d'Orsay",
    "attribution": "generally accepted",
    "image": "https://upload.wikimedia.org/wikipedia/commons/thumb/b/b8/Camille_Pissarro_-_Ch%C3%A2taigniers_%C3%A0_Louveciennes_-_1879.jpg/500px-Camille_Pissarro_-_Ch%C3%A2taigniers_%C3%A0_Louveciennes_-_1879.jpg?utm_source=en.wikipedia.org&amp;utm_campaign=parser&amp;utm_content=thumbnail",
    "notable": true,
    "creation_place": "Pontoise",
    "creation_lat": 49.0511,
    "creation_lon": 2.101,
    "_source": {
     "source": "Wikipedia: List of paintings by Camille Pissarro",
     "coord": "MediaWiki coordinates API"
    },
    "museum_id": "musee-d-orsay",
    "country": "France"
   }
  },
  {
   "type": "Feature",
   "geometry": {
    "type": "Point",
    "coordinates": [
     1.442,
     43.6003
    ]
   },
   "properties": {
    "painter": "Camille Pissarro",
    "title": "Bois de châtaigniers en hiver, Louveciennes",
    "year": "1872",
    "city": "Toulouse [71]",
    "location": "Bemberg Foundation",
    "attribution": "generally accepted",
    "image": "https://upload.wikimedia.org/wikipedia/commons/thumb/9/9e/Bemberg_Fondation_Toulouse_-_Bois_de_ch%C3%A2taigniers_en_hiver%2C_Louveciennes_-_Camille_Pissarro_1872.jpg/500px-Bemberg_Fondation_Toulouse_-_Bois_de_ch%C3%A2taigniers_en_hiver%2C_Louveciennes_-_Camille_Pissarro_1872.jpg?utm_source=en.wikipedia.org&amp;utm_campaign=parser&amp;utm_content=thumbnail",
    "notable": true,
    "creation_place": "Pontoise",
    "creation_lat": 49.0511,
    "creation_lon": 2.101,
    "_source": {
     "source": "Wikipedia: List of paintings by Camille Pissarro",
     "coord": "MediaWiki coordinates API"
    },
    "museum_id": "bemberg-foundation"
   }
  },
  {
   "type": "Feature",
   "geometry": {
    "type": "Point",
    "coordinates": [
     2.32653,
     48.85997
    ]
   },
   "properties": {
    "painter": "Camille Pissarro",
    "title": "Route de Versailles, Louveciennes",
    "year": "1872",
    "city": "Paris",
    "location": "Musée d'Orsay",
    "attribution": "generally accepted",
    "image": "https://upload.wikimedia.org/wikipedia/commons/thumb/1/12/Camille_Pissarro_-_La_route_de_Louveciennes_-_Mus%C3%A9e_d%27Orsay.jpg/500px-Camille_Pissarro_-_La_route_de_Louveciennes_-_Mus%C3%A9e_d%27Orsay.jpg?utm_source=en.wikipedia.org&amp;utm_campaign=parser&amp;utm_content=thumbnail",
    "notable": true,
    "creation_place": "Pontoise",
    "creation_lat": 49.0511,
    "creation_lon": 2.101,
    "_source": {
     "source": "Wikipedia: List of paintings by Camille Pissarro",
     "coord": "MediaWiki coordinates API"
    },
    "museum_id": "musee-d-orsay",
    "country": "France"
   }
  },
  {
   "type": "Feature",
   "geometry": {
    "type": "Point",
    "coordinates": [
     -94.58084,
     39.04531
    ]
   },
   "properties": {
    "painter": "Camille Pissarro",
    "title": "Bois de châtaigniers à Louveciennes",
    "year": "1872",
    "city": "Kansas City",
    "country": "United States",
    "location": "Nelson-Atkins Museum of Art",
    "attribution": "generally accepted",
    "image": "https://upload.wikimedia.org/wikipedia/commons/thumb/e/e6/Camille_Pissarro_-_Bois_de_ch%C3%A2taigniers_%C3%A0_Louveciennes_%281872%29.jpg/500px-Camille_Pissarro_-_Bois_de_ch%C3%A2taigniers_%C3%A0_Louveciennes_%281872%29.jpg?utm_source=en.wikipedia.org&amp;utm_campaign=parser&amp;utm_content=thumbnail",
    "notable": true,
    "creation_place": "Pontoise",
    "creation_lat": 49.0511,
    "creation_lon": 2.101,
    "_source": {
     "source": "Wikipedia: List of paintings by Camille Pissarro",
     "coord": "MediaWiki coordinates API"
    },
    "museum_id": "nelson-atkins-museum-of-art"
   }
  },
  {
   "type": "Feature",
   "geometry": {
    "type": "Point",
    "coordinates": [
     2.32653,
     48.85997
    ]
   },
   "properties": {
    "painter": "Camille Pissarro",
    "title": "Entrée du village de Voisins",
    "year": "1872",
    "city": "Paris",
    "location": "Musée d'Orsay",
    "attribution": "generally accepted",
    "image": "https://upload.wikimedia.org/wikipedia/commons/thumb/c/c7/Camille_Pissarro_012.jpg/500px-Camille_Pissarro_012.jpg?utm_source=en.wikipedia.org&amp;utm_campaign=parser&amp;utm_content=thumbnail",
    "notable": true,
    "creation_place": "Pontoise",
    "creation_lat": 49.0511,
    "creation_lon": 2.101,
    "_source": {
     "source": "Wikipedia: List of paintings by Camille Pissarro",
     "coord": "MediaWiki coordinates API"
    },
    "museum_id": "musee-d-orsay",
    "country": "France"
   }
  },
  {
   "type": "Feature",
   "geometry": {
    "type": "Point",
    "coordinates": [
     -73.9631,
     40.7794
    ]
   },
   "properties": {
    "painter": "Camille Pissarro",
    "title": "Pommes châtagniers et faïence sur une table",
    "year": "c.1872",
    "city": "New York",
    "location": "Metropolitan Museum of Art",
    "attribution": "generally accepted",
    "image": "https://upload.wikimedia.org/wikipedia/commons/thumb/3/34/Still_Life_with_Apples_and_Pitcher.jpg/500px-Still_Life_with_Apples_and_Pitcher.jpg?utm_source=en.wikipedia.org&amp;utm_campaign=parser&amp;utm_content=thumbnail",
    "notable": true,
    "creation_place": "Pontoise",
    "creation_lat": 49.0511,
    "creation_lon": 2.101,
    "_source": {
     "source": "Wikipedia: List of paintings by Camille Pissarro",
     "coord": "MediaWiki coordinates API"
    },
    "museum_id": "metropolitan-museum-of-art",
    "country": "United States"
   }
  },
  {
   "type": "Feature",
   "geometry": {
    "type": "Point",
    "coordinates": [
     -77.47471,
     37.55642
    ]
   },
   "properties": {
    "painter": "Camille Pissarro",
    "title": "Quai de Pothuis, Pontoise",
    "year": "1872",
    "city": "Richmond",
    "location": "Virginia Museum of Fine Arts",
    "attribution": "generally accepted",
    "image": "https://upload.wikimedia.org/wikipedia/commons/thumb/e/ef/Pissarro_-_Le_Quai_du_Pothuis_%C3%A0_Pontoise%2C_1872.jpg/500px-Pissarro_-_Le_Quai_du_Pothuis_%C3%A0_Pontoise%2C_1872.jpg?utm_source=en.wikipedia.org&amp;utm_campaign=parser&amp;utm_content=thumbnail",
    "notable": true,
    "creation_place": "Pontoise",
    "creation_lat": 49.0511,
    "creation_lon": 2.101,
    "_source": {
     "source": "Wikipedia: List of paintings by Camille Pissarro",
     "coord": "MediaWiki coordinates API"
    },
    "museum_id": "virginia-museum-of-fine-arts",
    "country": "United States"
   }
  },
  {
   "type": "Feature",
   "geometry": {
    "type": "Point",
    "coordinates": [
     -72.93099,
     41.30846
    ]
   },
   "properties": {
    "painter": "Camille Pissarro",
    "title": "Jeanne Pissarro, dite Minette, avec un bouquet",
    "year": "1872",
    "city": "New Haven",
    "location": "Yale University Art Gallery",
    "attribution": "generally accepted",
    "image": "https://upload.wikimedia.org/wikipedia/commons/thumb/1/12/The_Artist%27s_Daughter_by_Camille_Pissarro_1872.jpeg/500px-The_Artist%27s_Daughter_by_Camille_Pissarro_1872.jpeg?utm_source=en.wikipedia.org&amp;utm_campaign=parser&amp;utm_content=thumbnail",
    "notable": true,
    "creation_place": "Pontoise",
    "creation_lat": 49.0511,
    "creation_lon": 2.101,
    "_source": {
     "source": "Wikipedia: List of paintings by Camille Pissarro",
     "coord": "MediaWiki coordinates API"
    },
    "museum_id": "yale-university-art-gallery",
    "country": "United States"
   }
  },
  {
   "type": "Feature",
   "geometry": {
    "type": "Point",
    "coordinates": [
     -72.67389,
     41.76333
    ]
   },
   "properties": {
    "painter": "Camille Pissarro",
    "title": "Portrait de Jeanne Pissarro, dite Minette",
    "year": "c.1872",
    "city": "Hartford",
    "location": "Wadsworth Atheneum",
    "attribution": "generally accepted",
    "image": "https://upload.wikimedia.org/wikipedia/commons/thumb/6/6a/Camille_Pissarro%2C_Minette%2C_ca._1872._Oil_on_canvas%2C_Wadsworth_Atheneum_Museum_of_Art%2C.jpg/500px-Camille_Pissarro%2C_Minette%2C_ca._1872._Oil_on_canvas%2C_Wadsworth_Atheneum_Museum_of_Art%2C.jpg?utm_source=en.wikipedia.org&amp;utm_campaign=parser&amp;utm_content=thumbnail",
    "notable": true,
    "creation_place": "Pontoise",
    "creation_lat": 49.0511,
    "creation_lon": 2.101,
    "_source": {
     "source": "Wikipedia: List of paintings by Camille Pissarro",
     "coord": "MediaWiki coordinates API"
    },
    "museum_id": "wadsworth-atheneum"
   }
  },
  {
   "type": "Feature",
   "geometry": {
    "type": "Point",
    "coordinates": [
     -3.69493,
     40.41604
    ]
   },
   "properties": {
    "painter": "Camille Pissarro",
    "title": "Le champ de choux, Pontoise",
    "year": "1873",
    "city": "Madrid",
    "location": "Thyssen-Bornemisza Museum",
    "attribution": "generally accepted",
    "image": "https://upload.wikimedia.org/wikipedia/commons/thumb/5/53/Camille_Pissarro_-_Le_champ_de_chou%2C_Pontoise.jpg/500px-Camille_Pissarro_-_Le_champ_de_chou%2C_Pontoise.jpg?utm_source=en.wikipedia.org&amp;utm_campaign=parser&amp;utm_content=thumbnail",
    "notable": true,
    "creation_place": "Pontoise",
    "creation_lat": 49.0511,
    "creation_lon": 2.101,
    "_source": {
     "source": "Wikipedia: List of paintings by Camille Pissarro",
     "coord": "MediaWiki coordinates API"
    },
    "museum_id": "thyssen-bornemisza-museum",
    "country": "Spain"
   }
  },
  {
   "type": "Feature",
   "geometry": {
    "type": "Point",
    "coordinates": [
     -72.67389,
     41.76333
    ]
   },
   "properties": {
    "painter": "Camille Pissarro",
    "title": "Inondation à Saint-Ouen-l'Aumône",
    "year": "1873",
    "city": "Hartford",
    "location": "Wadsworth Atheneum",
    "attribution": "generally accepted",
    "image": "https://upload.wikimedia.org/wikipedia/commons/thumb/d/d0/Camille_Pissarro_025.jpg/500px-Camille_Pissarro_025.jpg?utm_source=en.wikipedia.org&amp;utm_campaign=parser&amp;utm_content=thumbnail",
    "notable": true,
    "creation_place": "Pontoise",
    "creation_lat": 49.0511,
    "creation_lon": 2.101,
    "_source": {
     "source": "Wikipedia: List of paintings by Camille Pissarro",
     "coord": "MediaWiki coordinates API"
    },
    "museum_id": "wadsworth-atheneum"
   }
  },
  {
   "type": "Feature",
   "geometry": {
    "type": "Point",
    "coordinates": [
     -72.5863,
     42.1037
    ]
   },
   "properties": {
    "painter": "Camille Pissarro",
    "title": "Usine de Saint-Ouen-l'Aumône",
    "year": "1873",
    "city": "Springfield [99]",
    "location": "Michele & Donald D'Amour Museum of Fine Arts",
    "attribution": "generally accepted",
    "image": "https://upload.wikimedia.org/wikipedia/commons/thumb/a/a0/Camille_Pissarro_-_Usine_pr%C3%A8s_de_Pontoise_-_1873.jpg/500px-Camille_Pissarro_-_Usine_pr%C3%A8s_de_Pontoise_-_1873.jpg?utm_source=en.wikipedia.org&amp;utm_campaign=parser&amp;utm_content=thumbnail",
    "notable": true,
    "creation_place": "Pontoise",
    "creation_lat": 49.0511,
    "creation_lon": 2.101,
    "_source": {
     "source": "Wikipedia: List of paintings by Camille Pissarro",
     "coord": "MediaWiki coordinates API"
    },
    "museum_id": "michele-donald-d-amour-museum-of-fine-arts"
   }
  },
  {
   "type": "Feature",
   "geometry": {
    "type": "Point",
    "coordinates": [
     35.2042,
     31.7725
    ]
   },
   "properties": {
    "painter": "Camille Pissarro",
    "title": "Usine au bord de l'Oise, Saint-Ouen-l'Aumône",
    "year": "1873",
    "city": "Jerusalem",
    "location": "Israel Museum",
    "attribution": "generally accepted",
    "image": "https://upload.wikimedia.org/wikipedia/commons/thumb/0/01/Camille_Pissarro_-_The_Factory_at_Pontoise_-_Google_Art_Project.jpg/500px-Camille_Pissarro_-_The_Factory_at_Pontoise_-_Google_Art_Project.jpg?utm_source=en.wikipedia.org&amp;utm_campaign=parser&amp;utm_content=thumbnail",
    "notable": true,
    "creation_place": "Pontoise",
    "creation_lat": 49.0511,
    "creation_lon": 2.101,
    "_source": {
     "source": "Wikipedia: List of paintings by Camille Pissarro",
     "coord": "MediaWiki coordinates API"
    },
    "museum_id": "israel-museum",
    "country": "Israel"
   }
  },
  {
   "type": "Feature",
   "geometry": {
    "type": "Point",
    "coordinates": [
     -73.2137,
     42.7078
    ]
   },
   "properties": {
    "painter": "Camille Pissarro",
    "title": "Usine au bord de l'Oise, Saint-Ouen-l'Aumône",
    "year": "1873",
    "city": "Williamstown",
    "location": "Clark Art Institute",
    "attribution": "generally accepted",
    "notable": true,
    "creation_place": "Pontoise",
    "creation_lat": 49.0511,
    "creation_lon": 2.101,
    "_source": {
     "source": "Wikipedia: List of paintings by Camille Pissarro",
     "coord": "MediaWiki coordinates API"
    },
    "museum_id": "clark-art-institute",
    "country": "United States"
   }
  },
  {
   "type": "Feature",
   "geometry": {
    "type": "Point",
    "coordinates": [
     -122.6835,
     45.5162
    ]
   },
   "properties": {
    "painter": "Camille Pissarro",
    "title": "La Maison rouge",
    "year": "1873",
    "city": "Portland",
    "location": "Portland Art Museum",
    "attribution": "generally accepted",
    "image": "https://upload.wikimedia.org/wikipedia/commons/thumb/c/c2/Pissarro_-_Pissarro_and_Durand-Ruel_Snollaerts%2C_307.jpg/500px-Pissarro_-_Pissarro_and_Durand-Ruel_Snollaerts%2C_307.jpg?utm_source=en.wikipedia.org&amp;utm_campaign=parser&amp;utm_content=thumbnail",
    "notable": true,
    "creation_place": "Pontoise",
    "creation_lat": 49.0511,
    "creation_lon": 2.101,
    "_source": {
     "source": "Wikipedia: List of paintings by Camille Pissarro",
     "coord": "MediaWiki coordinates API"
    },
    "museum_id": "portland-art-museum",
    "country": "United States"
   }
  },
  {
   "type": "Feature",
   "geometry": {
    "type": "Point",
    "coordinates": [
     30.3136,
     59.9406
    ]
   },
   "properties": {
    "painter": "Camille Pissarro",
    "title": "Le jardin de la ville, Pontoise",
    "year": "1873",
    "city": "Saint Petersburg",
    "location": "Hermitage Museum",
    "attribution": "generally accepted",
    "image": "https://upload.wikimedia.org/wikipedia/commons/thumb/4/4a/%27Town_Park_in_Pontoise_%27_by_Camille_Pissarro%2C_1873%2C_Hermitage.JPG/500px-%27Town_Park_in_Pontoise_%27_by_Camille_Pissarro%2C_1873%2C_Hermitage.JPG?utm_source=en.wikipedia.org&amp;utm_campaign=parser&amp;utm_content=thumbnail",
    "notable": true,
    "creation_place": "Pontoise",
    "creation_lat": 49.0511,
    "creation_lon": 2.101,
    "_source": {
     "source": "Wikipedia: List of paintings by Camille Pissarro",
     "coord": "MediaWiki coordinates API"
    },
    "museum_id": "hermitage-museum",
    "country": "Russia"
   }
  },
  {
   "type": "Feature",
   "geometry": {
    "type": "Point",
    "coordinates": [
     -77.02,
     38.8914
    ]
   },
   "properties": {
    "painter": "Camille Pissarro",
    "title": "Plaine avec meules, environs de Pontoise",
    "year": "1873",
    "city": "Washington",
    "location": "National Gallery of Art",
    "attribution": "generally accepted",
    "image": "https://upload.wikimedia.org/wikipedia/commons/thumb/5/55/Landscape%2C_Ile-de-France.jpg/500px-Landscape%2C_Ile-de-France.jpg?utm_source=en.wikipedia.org&amp;utm_campaign=parser&amp;utm_content=thumbnail",
    "notable": true,
    "creation_place": "Pontoise",
    "creation_lat": 49.0511,
    "creation_lon": 2.101,
    "_source": {
     "source": "Wikipedia: List of paintings by Camille Pissarro",
     "coord": "MediaWiki coordinates API"
    },
    "museum_id": "national-gallery-of-art",
    "country": "United States"
   }
  },
  {
   "type": "Feature",
   "geometry": {
    "type": "Point",
    "coordinates": [
     -1.26056,
     51.75556
    ]
   },
   "properties": {
    "painter": "Camille Pissarro",
    "title": "Jeanne Pissarro dite Minette, tenant un éventail",
    "year": "c.1874",
    "city": "Oxford",
    "country": "United Kingdom",
    "location": "Ashmolean Museum",
    "attribution": "generally accepted",
    "image": "https://upload.wikimedia.org/wikipedia/commons/thumb/e/e8/Jeanne_Holding_a_Fan%2C_c.1874%2C_by_Camille_Pissarro._Oil_on_canvas%2C_The_Ashmolean_Museum%2C.jpg/500px-Jeanne_Holding_a_Fan%2C_c.1874%2C_by_Camille_Pissarro._Oil_on_canvas%2C_The_Ashmolean_Museum%2C.jpg?utm_source=en.wikipedia.org&amp;utm_campaign=parser&amp;utm_content=thumbnail",
    "notable": true,
    "creation_place": "Pontoise",
    "creation_lat": 49.0511,
    "creation_lon": 2.101,
    "_source": {
     "source": "Wikipedia: List of paintings by Camille Pissarro",
     "coord": "MediaWiki coordinates API"
    },
    "museum_id": "ashmolean-museum"
   }
  },
  {
   "type": "Feature",
   "geometry": {
    "type": "Point",
    "coordinates": [
     -0.1283,
     51.5089
    ]
   },
   "properties": {
    "painter": "Camille Pissarro",
    "title": "Portrait de Paul Cézanne",
    "year": "c.1874",
    "city": "London",
    "location": "National Gallery",
    "attribution": "generally accepted",
    "image": "https://upload.wikimedia.org/wikipedia/commons/thumb/5/5a/Pissarro%2C_C%C3%A9zanne.jpg/500px-Pissarro%2C_C%C3%A9zanne.jpg?utm_source=en.wikipedia.org&amp;utm_campaign=parser&amp;utm_content=thumbnail",
    "notable": true,
    "creation_place": "Pontoise",
    "creation_lat": 49.0511,
    "creation_lon": 2.101,
    "_source": {
     "source": "Wikipedia: List of paintings by Camille Pissarro",
     "coord": "MediaWiki coordinates API"
    },
    "museum_id": "national-gallery",
    "country": "United Kingdom"
   }
  },
  {
   "type": "Feature",
   "geometry": {
    "type": "Point",
    "coordinates": [
     37.60603,
     55.74703
    ]
   },
   "properties": {
    "painter": "Camille Pissarro",
    "title": "Terres labourées",
    "year": "1874",
    "city": "Moscow",
    "location": "Pushkin Museum",
    "attribution": "generally accepted",
    "image": "https://upload.wikimedia.org/wikipedia/commons/thumb/1/15/Camille_Pissarro_-_Terres_labour%C3%A8es_%28Pushkin_Museum%29.jpg/500px-Camille_Pissarro_-_Terres_labour%C3%A8es_%28Pushkin_Museum%29.jpg?utm_source=en.wikipedia.org&amp;utm_campaign=parser&amp;utm_content=thumbnail",
    "notable": true,
    "creation_place": "Pontoise",
    "creation_lat": 49.0511,
    "creation_lon": 2.101,
    "_source": {
     "source": "Wikipedia: List of paintings by Camille Pissarro",
     "coord": "MediaWiki coordinates API"
    },
    "museum_id": "pushkin-museum",
    "country": "Russia"
   }
  },
  {
   "type": "Feature",
   "geometry": {
    "type": "Point",
    "coordinates": [
     -73.9631,
     40.7794
    ]
   },
   "properties": {
    "painter": "Camille Pissarro",
    "title": "Gardeuse de vache, Auvers-sur-Oise",
    "year": "1874",
    "city": "New York",
    "location": "Metropolitan Museum of Art",
    "attribution": "generally accepted",
    "image": "https://upload.wikimedia.org/wikipedia/commons/thumb/4/4c/Camille_Pissarro_A_Cowherd_at_Valhermeil%2C_Auvers-sur-Oise_The_Metropolitan_Museum_of_Art.jpg/500px-Camille_Pissarro_A_Cowherd_at_Valhermeil%2C_Auvers-sur-Oise_The_Metropolitan_Museum_of_Art.jpg?utm_source=en.wikipedia.org&amp;utm_campaign=parser&amp;utm_content=thumbnail",
    "notable": true,
    "creation_place": "Pontoise",
    "creation_lat": 49.0511,
    "creation_lon": 2.101,
    "_source": {
     "source": "Wikipedia: List of paintings by Camille Pissarro",
     "coord": "MediaWiki coordinates API"
    },
    "museum_id": "metropolitan-museum-of-art",
    "country": "United States"
   }
  },
  {
   "type": "Feature",
   "geometry": {
    "type": "Point",
    "coordinates": [
     0.11944,
     52.20028
    ]
   },
   "properties": {
    "painter": "Camille Pissarro",
    "title": "Maison de Piette à Montfoucault, effet de neige",
    "year": "1874",
    "city": "Cambridge",
    "location": "Fitzwilliam Museum",
    "attribution": "generally accepted",
    "image": "https://upload.wikimedia.org/wikipedia/commons/thumb/1/12/Camille_Pissarro%2C_La_Maison_de_la_Piette%2C_Montfoucault%2C_effet_de_neige%2C_1874%2C_PD.10-1966%2C_The_Fitzwilliam_Museum.jpg/500px-Camille_Pissarro%2C_La_Maison_de_la_Piette%2C_Montfoucault%2C_effet_de_neige%2C_1874%2C_PD.10-1966%2C_The_Fitzwilliam_Museum.jpg?utm_source=en.wikipedia.org&amp;utm_campaign=parser&amp;utm_content=thumbnail",
    "notable": true,
    "creation_place": "Pontoise",
    "creation_lat": 49.0511,
    "creation_lon": 2.101,
    "_source": {
     "source": "Wikipedia: List of paintings by Camille Pissarro",
     "coord": "MediaWiki coordinates API"
    },
    "museum_id": "fitzwilliam-museum",
    "country": "United Kingdom"
   }
  },
  {
   "type": "Feature",
   "geometry": {
    "type": "Point",
    "coordinates": [
     -73.9631,
     40.7794
    ]
   },
   "properties": {
    "painter": "Camille Pissarro",
    "title": "(Péniches à Pontoise)",
    "year": "1876",
    "city": "New York",
    "location": "Metropolitan Museum of Art",
    "attribution": "generally accepted",
    "image": "https://upload.wikimedia.org/wikipedia/commons/thumb/6/6d/Camille_Pissarro_Barges_at_Pontoise_The_Metropolitan_Museum_of_Art.jpg/500px-Camille_Pissarro_Barges_at_Pontoise_The_Metropolitan_Museum_of_Art.jpg?utm_source=en.wikipedia.org&amp;utm_campaign=parser&amp;utm_content=thumbnail",
    "notable": true,
    "creation_place": "Pontoise",
    "creation_lat": 49.0511,
    "creation_lon": 2.101,
    "_source": {
     "source": "Wikipedia: List of paintings by Camille Pissarro",
     "coord": "MediaWiki coordinates API"
    },
    "museum_id": "metropolitan-museum-of-art",
    "country": "United States"
   }
  },
  {
   "type": "Feature",
   "geometry": {
    "type": "Point",
    "coordinates": [
     118.7799,
     32.0453
    ]
   },
   "properties": {
    "painter": "Camille Pissarro",
    "title": "Bouquet de Lilas",
    "year": "1876",
    "city": "Nanjing",
    "location": "Deji Art Museum",
    "attribution": "generally accepted",
    "image": "https://upload.wikimedia.org/wikipedia/commons/thumb/2/2d/%E6%AF%95%E6%B2%99%E7%BD%97_%E4%B8%81%E9%A6%99%E8%8A%B1%E6%9D%9F.jpg/500px-%E6%AF%95%E6%B2%99%E7%BD%97_%E4%B8%81%E9%A6%99%E8%8A%B1%E6%9D%9F.jpg?utm_source=en.wikipedia.org&amp;utm_campaign=parser&amp;utm_content=thumbnail",
    "notable": true,
    "creation_place": "Pontoise",
    "creation_lat": 49.0511,
    "creation_lon": 2.101,
    "_source": {
     "source": "Wikipedia: List of paintings by Camille Pissarro",
     "coord": "MediaWiki coordinates API"
    },
    "museum_id": "deji-art-museum"
   }
  },
  {
   "type": "Feature",
   "geometry": {
    "type": "Point",
    "coordinates": [
     2.32653,
     48.85997
    ]
   },
   "properties": {
    "painter": "Camille Pissarro",
    "title": "Coin de jardin à l'Hermitage. Pontoise",
    "year": "1877",
    "location": "Musée d'Orsay",
    "attribution": "generally accepted",
    "image": "https://upload.wikimedia.org/wikipedia/commons/thumb/6/6f/Coin_de_jardin_%C3%A0_l%27Hermitage._Pontoise.jpg/500px-Coin_de_jardin_%C3%A0_l%27Hermitage._Pontoise.jpg?utm_source=en.wikipedia.org&amp;utm_campaign=parser&amp;utm_content=thumbnail",
    "notable": true,
    "creation_place": "Pontoise",
    "creation_lat": 49.0511,
    "creation_lon": 2.101,
    "_source": {
     "source": "Wikipedia: List of paintings by Camille Pissarro",
     "coord": "MediaWiki coordinates API"
    },
    "museum_id": "musee-d-orsay",
    "city": "Paris",
    "country": "France"
   }
  },
  {
   "type": "Feature",
   "geometry": {
    "type": "Point",
    "coordinates": [
     -73.9631,
     40.7794
    ]
   },
   "properties": {
    "painter": "Camille Pissarro",
    "title": "Mère Larchéveque",
    "year": "1880",
    "city": "New York",
    "location": "Metropolitan Museum of Art",
    "attribution": "generally accepted",
    "image": "https://upload.wikimedia.org/wikipedia/commons/thumb/0/08/Camille_Pissarro_Washerwoman%2C_Study_The_Metropolitan_Museum_of_Art.jpg/500px-Camille_Pissarro_Washerwoman%2C_Study_The_Metropolitan_Museum_of_Art.jpg?utm_source=en.wikipedia.org&amp;utm_campaign=parser&amp;utm_content=thumbnail",
    "notable": true,
    "creation_place": "Pontoise",
    "creation_lat": 49.0511,
    "creation_lon": 2.101,
    "_source": {
     "source": "Wikipedia: List of paintings by Camille Pissarro",
     "coord": "MediaWiki coordinates API"
    },
    "museum_id": "metropolitan-museum-of-art",
    "country": "United States"
   }
  },
  {
   "type": "Feature",
   "geometry": {
    "type": "Point",
    "coordinates": [
     -73.9631,
     40.7794
    ]
   },
   "properties": {
    "painter": "Camille Pissarro",
    "title": "La récolte",
    "year": "1881",
    "city": "New York",
    "location": "Metropolitan Museum of Art",
    "attribution": "generally accepted",
    "image": "https://upload.wikimedia.org/wikipedia/commons/thumb/0/0c/The_Harvest%2C_Pontoise.jpg/500px-The_Harvest%2C_Pontoise.jpg?utm_source=en.wikipedia.org&amp;utm_campaign=parser&amp;utm_content=thumbnail",
    "notable": true,
    "creation_place": "Pontoise",
    "creation_lat": 49.0511,
    "creation_lon": 2.101,
    "_source": {
     "source": "Wikipedia: List of paintings by Camille Pissarro",
     "coord": "MediaWiki coordinates API"
    },
    "museum_id": "metropolitan-museum-of-art",
    "country": "United States"
   }
  },
  {
   "type": "Feature",
   "geometry": {
    "type": "Point",
    "coordinates": [
     -77.02,
     38.8914
    ]
   },
   "properties": {
    "painter": "Camille Pissarro",
    "title": "Jeune paysanne au chapeau de paille",
    "year": "1881",
    "city": "Washington",
    "location": "National Gallery of Art",
    "attribution": "generally accepted",
    "image": "https://upload.wikimedia.org/wikipedia/commons/thumb/a/ac/Camille_Pissarro_-_Jeune_paysanne_au_chapeau_de_paille_1881.jpg/500px-Camille_Pissarro_-_Jeune_paysanne_au_chapeau_de_paille_1881.jpg?utm_source=en.wikipedia.org&amp;utm_campaign=parser&amp;utm_content=thumbnail",
    "notable": true,
    "creation_place": "Pontoise",
    "creation_lat": 49.0511,
    "creation_lon": 2.101,
    "_source": {
     "source": "Wikipedia: List of paintings by Camille Pissarro",
     "coord": "MediaWiki coordinates API"
    },
    "museum_id": "national-gallery-of-art",
    "country": "United States"
   }
  },
  {
   "type": "Feature",
   "geometry": {
    "type": "Point",
    "coordinates": [
     1.442,
     43.6003
    ]
   },
   "properties": {
    "painter": "Camille Pissarro",
    "title": "Félix Pissarro, en jupe",
    "year": "c.1882",
    "city": "Toulouse [71]",
    "location": "Bemberg Foundation",
    "attribution": "generally accepted",
    "image": "https://upload.wikimedia.org/wikipedia/commons/thumb/9/9b/Bemberg_Fondation_Toulouse_-_Portrait_de_Felix_en_jupe_-_Camille_Pissarro_1883_Inv.2079.jpg/500px-Bemberg_Fondation_Toulouse_-_Portrait_de_Felix_en_jupe_-_Camille_Pissarro_1883_Inv.2079.jpg?utm_source=en.wikipedia.org&amp;utm_campaign=parser&amp;utm_content=thumbnail",
    "notable": true,
    "creation_place": "Pontoise",
    "creation_lat": 49.0511,
    "creation_lon": 2.101,
    "_source": {
     "source": "Wikipedia: List of paintings by Camille Pissarro",
     "coord": "MediaWiki coordinates API"
    },
    "museum_id": "bemberg-foundation"
   }
  },
  {
   "type": "Feature",
   "geometry": {
    "type": "Point",
    "coordinates": [
     -0.12722,
     51.49083
    ]
   },
   "properties": {
    "painter": "Camille Pissarro",
    "title": "La petite bonne de campagne",
    "year": "1882",
    "city": "London",
    "location": "Tate Britain",
    "attribution": "generally accepted",
    "image": "https://upload.wikimedia.org/wikipedia/commons/thumb/f/f0/The_Little_Country_Maid_1882_Camille_Pissarro.jpg/500px-The_Little_Country_Maid_1882_Camille_Pissarro.jpg?utm_source=en.wikipedia.org&amp;utm_campaign=parser&amp;utm_content=thumbnail",
    "notable": true,
    "creation_place": "Pontoise",
    "creation_lat": 49.0511,
    "creation_lon": 2.101,
    "_source": {
     "source": "Wikipedia: List of paintings by Camille Pissarro",
     "coord": "MediaWiki coordinates API"
    },
    "museum_id": "tate-britain",
    "country": "United Kingdom"
   }
  },
  {
   "type": "Feature",
   "geometry": {
    "type": "Point",
    "coordinates": [
     0.11944,
     52.20028
    ]
   },
   "properties": {
    "painter": "Camille Pissarro",
    "title": "La Vaisselle",
    "year": "1882",
    "city": "Cambridge",
    "location": "Fitzwilliam Museum",
    "attribution": "generally accepted",
    "image": "https://upload.wikimedia.org/wikipedia/commons/thumb/0/00/Camille_Pissarro%2C_In_the_Garden_at_Pontoise-_A_Young_Woman_Washing_Dishes%2C_1882%2C_PD.53-1947%2C_The_Fitzwilliam_Museum.jpg/500px-Camille_Pissarro%2C_In_the_Garden_at_Pontoise-_A_Young_Woman_Washing_Dishes%2C_1882%2C_PD.53-1947%2C_The_Fitzwilliam_Museum.jpg?utm_source=en.wikipedia.org&amp;utm_campaign=parser&amp;utm_content=thumbnail",
    "notable": true,
    "creation_place": "Pontoise",
    "creation_lat": 49.0511,
    "creation_lon": 2.101,
    "_source": {
     "source": "Wikipedia: List of paintings by Camille Pissarro",
     "coord": "MediaWiki coordinates API"
    },
    "museum_id": "fitzwilliam-museum",
    "country": "United Kingdom"
   }
  },
  {
   "type": "Feature",
   "geometry": {
    "type": "Point",
    "coordinates": [
     -0.11747,
     51.51175
    ]
   },
   "properties": {
    "painter": "Camille Pissarro",
    "year": "1883",
    "city": "London",
    "location": "Courtauld Gallery",
    "attribution": "generally accepted",
    "image": "https://upload.wikimedia.org/wikipedia/commons/thumb/0/08/Camille_Pissarro_-_Quais_de_Rouen_%281883%29.jpg/500px-Camille_Pissarro_-_Quais_de_Rouen_%281883%29.jpg?utm_source=en.wikipedia.org&amp;utm_campaign=parser&amp;utm_content=thumbnail",
    "notable": true,
    "creation_place": "Pontoise",
    "creation_lat": 49.0511,
    "creation_lon": 2.101,
    "_source": {
     "source": "Wikipedia: List of paintings by Camille Pissarro",
     "coord": "MediaWiki coordinates API"
    },
    "museum_id": "courtauld-gallery",
    "country": "United Kingdom"
   }
  },
  {
   "type": "Feature",
   "geometry": {
    "type": "Point",
    "coordinates": [
     -82.98777,
     39.96438
    ]
   },
   "properties": {
    "painter": "Camille Pissarro",
    "title": "Le pont de pierre et les péniches à Rouen",
    "year": "1883",
    "city": "Ohio [129]",
    "location": "Columbus Museum of Art",
    "attribution": "generally accepted",
    "image": "https://upload.wikimedia.org/wikipedia/commons/thumb/6/61/Camille_Pissarro_-_The_Stone_Bridge_and_Barges_at_Rouen_%281883%29.jpg/500px-Camille_Pissarro_-_The_Stone_Bridge_and_Barges_at_Rouen_%281883%29.jpg?utm_source=en.wikipedia.org&amp;utm_campaign=parser&amp;utm_content=thumbnail",
    "notable": true,
    "creation_place": "Pontoise",
    "creation_lat": 49.0511,
    "creation_lon": 2.101,
    "_source": {
     "source": "Wikipedia: List of paintings by Camille Pissarro",
     "coord": "MediaWiki coordinates API"
    },
    "museum_id": "columbus-museum-of-art",
    "country": "United States"
   }
  },
  {
   "type": "Feature",
   "geometry": {
    "type": "Point",
    "coordinates": [
     -73.9775,
     40.7617
    ]
   },
   "properties": {
    "painter": "Camille Pissarro",
    "year": "1884",
    "city": "New York",
    "location": "Museum of Modern Art",
    "attribution": "generally accepted",
    "notable": true,
    "creation_place": "Paris",
    "creation_lat": 48.8566,
    "creation_lon": 2.3522,
    "_source": {
     "source": "Wikipedia: List of paintings by Camille Pissarro",
     "coord": "MediaWiki coordinates API"
    },
    "museum_id": "museum-of-modern-art",
    "country": "United States"
   }
  },
  {
   "type": "Feature",
   "geometry": {
    "type": "Point",
    "coordinates": [
     -76.6165,
     39.29642
    ]
   },
   "properties": {
    "painter": "Camille Pissarro",
    "year": "1884",
    "city": "Baltimore",
    "location": "Walters Art Museum",
    "attribution": "generally accepted",
    "image": "https://upload.wikimedia.org/wikipedia/commons/thumb/4/4d/Camille_Pissarro_-_The_Church_at_Eragny_-_Walters_372653.jpg/500px-Camille_Pissarro_-_The_Church_at_Eragny_-_Walters_372653.jpg?utm_source=en.wikipedia.org&amp;utm_campaign=parser&amp;utm_content=thumbnail",
    "notable": true,
    "creation_place": "Paris",
    "creation_lat": 48.8566,
    "creation_lon": 2.3522,
    "_source": {
     "source": "Wikipedia: List of paintings by Camille Pissarro",
     "coord": "MediaWiki coordinates API"
    },
    "museum_id": "walters-art-museum",
    "country": "United States"
   }
  },
  {
   "type": "Feature",
   "geometry": {
    "type": "Point",
    "coordinates": [
     12.57194,
     55.6725
    ]
   },
   "properties": {
    "painter": "Camille Pissarro",
    "title": "Eugénie Estruc, dite Nini, en buste",
    "year": "1884",
    "city": "Copenhagen",
    "country": "Denmark",
    "location": "Ny Carlsberg Glyptotek",
    "attribution": "generally accepted",
    "image": "https://upload.wikimedia.org/wikipedia/commons/thumb/f/f4/Pissarro%2C_Portrait_of_Nini%2C_1884%2C_Ny_Carlsberg_Glyptotek%2C_Copenhagen_%2835584609384%29.jpg/500px-Pissarro%2C_Portrait_of_Nini%2C_1884%2C_Ny_Carlsberg_Glyptotek%2C_Copenhagen_%2835584609384%29.jpg?utm_source=en.wikipedia.org&amp;utm_campaign=parser&amp;utm_content=thumbnail",
    "notable": true,
    "creation_place": "Paris",
    "creation_lat": 48.8566,
    "creation_lon": 2.3522,
    "_source": {
     "source": "Wikipedia: List of paintings by Camille Pissarro",
     "coord": "MediaWiki coordinates API"
    },
    "museum_id": "ny-carlsberg-glyptotek"
   }
  },
  {
   "type": "Feature",
   "geometry": {
    "type": "Point",
    "coordinates": [
     -73.9775,
     40.7617
    ]
   },
   "properties": {
    "painter": "Camille Pissarro",
    "title": "Vachère à Éragny",
    "year": "1884",
    "city": "New York",
    "location": "Museum of Modern Art",
    "attribution": "generally accepted",
    "notable": true,
    "creation_place": "Paris",
    "creation_lat": 48.8566,
    "creation_lon": 2.3522,
    "_source": {
     "source": "Wikipedia: List of paintings by Camille Pissarro",
     "coord": "MediaWiki coordinates API"
    },
    "museum_id": "museum-of-modern-art",
    "country": "United States"
   }
  },
  {
   "type": "Feature",
   "geometry": {
    "type": "Point",
    "coordinates": [
     -86.81007,
     33.52222
    ]
   },
   "properties": {
    "painter": "Camille Pissarro",
    "year": "1885",
    "city": "Alabama [138]",
    "location": "Birmingham Museum of Art",
    "attribution": "generally accepted",
    "image": "https://upload.wikimedia.org/wikipedia/commons/thumb/0/02/The_Village_of_%C3%89ragny_by_Camille_Pissarro.jpg/500px-The_Village_of_%C3%89ragny_by_Camille_Pissarro.jpg?utm_source=en.wikipedia.org&amp;utm_campaign=parser&amp;utm_content=thumbnail",
    "notable": true,
    "creation_place": "Paris",
    "creation_lat": 48.8566,
    "creation_lon": 2.3522,
    "_source": {
     "source": "Wikipedia: List of paintings by Camille Pissarro",
     "coord": "MediaWiki coordinates API"
    },
    "museum_id": "birmingham-museum-of-art",
    "country": "United States"
   }
  },
  {
   "type": "Feature",
   "geometry": {
    "type": "Point",
    "coordinates": [
     5.7324,
     45.1945
    ]
   },
   "properties": {
    "painter": "Camille Pissarro",
    "title": "Vue de la fenêtre de l'artiste, Eragny",
    "year": "1885",
    "city": "Grenoble",
    "location": "Museum of Grenoble",
    "attribution": "generally accepted",
    "image": "https://upload.wikimedia.org/wikipedia/commons/thumb/5/5e/Camille_Pissarro_-_La_Maison_de_la_folie_%C3%A0_Eragny_%281885%29.jpg/500px-Camille_Pissarro_-_La_Maison_de_la_folie_%C3%A0_Eragny_%281885%29.jpg?utm_source=en.wikipedia.org&amp;utm_campaign=parser&amp;utm_content=thumbnail",
    "notable": true,
    "creation_place": "Paris",
    "creation_lat": 48.8566,
    "creation_lon": 2.3522,
    "_source": {
     "source": "Wikipedia: List of paintings by Camille Pissarro",
     "coord": "MediaWiki coordinates API"
    },
    "museum_id": "museum-of-grenoble",
    "country": "France"
   }
  },
  {
   "type": "Feature",
   "geometry": {
    "type": "Point",
    "coordinates": [
     4.8811,
     52.3583
    ]
   },
   "properties": {
    "painter": "Camille Pissarro",
    "title": "La récolte des foins, Éragny",
    "year": "1887",
    "city": "Amsterdam",
    "location": "Van Gogh Museum",
    "attribution": "generally accepted",
    "image": "https://upload.wikimedia.org/wikipedia/commons/thumb/3/3d/Het_hooien%2C_%C3%89ragny_-_s0520S2010_-_Van_Gogh_Museum.jpg/500px-Het_hooien%2C_%C3%89ragny_-_s0520S2010_-_Van_Gogh_Museum.jpg?utm_source=en.wikipedia.org&amp;utm_campaign=parser&amp;utm_content=thumbnail",
    "notable": true,
    "creation_place": "Paris",
    "creation_lat": 48.8566,
    "creation_lon": 2.3522,
    "_source": {
     "source": "Wikipedia: List of paintings by Camille Pissarro",
     "coord": "MediaWiki coordinates API"
    },
    "museum_id": "van-gogh-museum",
    "country": "Netherlands"
   }
  },
  {
   "type": "Feature",
   "geometry": {
    "type": "Point",
    "coordinates": [
     -72.63615,
     42.31888
    ]
   },
   "properties": {
    "painter": "Camille Pissarro",
    "year": "1890",
    "city": "Northampton",
    "location": "Smith College Museum of Art",
    "attribution": "generally accepted",
    "image": "https://upload.wikimedia.org/wikipedia/commons/thumb/b/b8/Pissarro%E2%80%94Old_Chelsea_Bridge.jpg/500px-Pissarro%E2%80%94Old_Chelsea_Bridge.jpg?utm_source=en.wikipedia.org&amp;utm_campaign=parser&amp;utm_content=thumbnail",
    "notable": true,
    "creation_place": "Paris",
    "creation_lat": 48.8566,
    "creation_lon": 2.3522,
    "_source": {
     "source": "Wikipedia: List of paintings by Camille Pissarro",
     "coord": "MediaWiki coordinates API"
    },
    "museum_id": "smith-college-museum-of-art",
    "country": "United States"
   }
  },
  {
   "type": "Feature",
   "geometry": {
    "type": "Point",
    "coordinates": [
     -77.02,
     38.8914
    ]
   },
   "properties": {
    "painter": "Camille Pissarro",
    "year": "1890",
    "city": "Washington",
    "location": "National Gallery of Art",
    "attribution": "generally accepted",
    "image": "https://upload.wikimedia.org/wikipedia/commons/thumb/c/cc/Charing_Cross_Bridge%2C_London_%28Camille_Pissarro%29.jpg/500px-Charing_Cross_Bridge%2C_London_%28Camille_Pissarro%29.jpg?utm_source=en.wikipedia.org&amp;utm_campaign=parser&amp;utm_content=thumbnail",
    "notable": true,
    "creation_place": "Paris",
    "creation_lat": 48.8566,
    "creation_lon": 2.3522,
    "_source": {
     "source": "Wikipedia: List of paintings by Camille Pissarro",
     "coord": "MediaWiki coordinates API"
    },
    "museum_id": "national-gallery-of-art",
    "country": "United States"
   }
  },
  {
   "type": "Feature",
   "geometry": {
    "type": "Point",
    "coordinates": [
     -73.9631,
     40.7794
    ]
   },
   "properties": {
    "painter": "Camille Pissarro",
    "title": "La causette",
    "year": "1891–92",
    "city": "New York",
    "location": "Metropolitan Museum of Art",
    "attribution": "generally accepted",
    "image": "https://upload.wikimedia.org/wikipedia/commons/thumb/9/9a/Camille_Pissarro_Two_Young_Peasant_Women_The_Metropolitan_Museum_of_Art.jpg/500px-Camille_Pissarro_Two_Young_Peasant_Women_The_Metropolitan_Museum_of_Art.jpg?utm_source=en.wikipedia.org&amp;utm_campaign=parser&amp;utm_content=thumbnail",
    "notable": true,
    "creation_place": "Paris",
    "creation_lat": 48.8566,
    "creation_lon": 2.3522,
    "_source": {
     "source": "Wikipedia: List of paintings by Camille Pissarro",
     "coord": "MediaWiki coordinates API"
    },
    "museum_id": "metropolitan-museum-of-art",
    "country": "United States"
   }
  },
  {
   "type": "Feature",
   "geometry": {
    "type": "Point",
    "coordinates": [
     2.32653,
     48.85997
    ]
   },
   "properties": {
    "painter": "Camille Pissarro",
    "title": "L'église Marguerite à Knocke",
    "year": "1894",
    "city": "Paris",
    "location": "Musée d'Orsay",
    "attribution": "generally accepted",
    "image": "https://upload.wikimedia.org/wikipedia/commons/thumb/0/06/Pissarro_-_Eglise_de_Knocke%2C_1894.jpg/500px-Pissarro_-_Eglise_de_Knocke%2C_1894.jpg?utm_source=en.wikipedia.org&amp;utm_campaign=parser&amp;utm_content=thumbnail",
    "notable": true,
    "creation_place": "Paris",
    "creation_lat": 48.8566,
    "creation_lon": 2.3522,
    "_source": {
     "source": "Wikipedia: List of paintings by Camille Pissarro",
     "coord": "MediaWiki coordinates API"
    },
    "museum_id": "musee-d-orsay",
    "country": "France"
   }
  },
  {
   "type": "Feature",
   "geometry": {
    "type": "Point",
    "coordinates": [
     -73.9631,
     40.7794
    ]
   },
   "properties": {
    "painter": "Camille Pissarro",
    "title": "Baigneuse",
    "year": "1895",
    "city": "New York",
    "location": "Metropolitan Museum of Art",
    "attribution": "generally accepted",
    "image": "https://upload.wikimedia.org/wikipedia/commons/thumb/6/64/Pissarro_-_Bather_in_the_Woods.JPG/500px-Pissarro_-_Bather_in_the_Woods.JPG?utm_source=en.wikipedia.org&amp;utm_campaign=parser&amp;utm_content=thumbnail",
    "notable": true,
    "creation_place": "Paris",
    "creation_lat": 48.8566,
    "creation_lon": 2.3522,
    "_source": {
     "source": "Wikipedia: List of paintings by Camille Pissarro",
     "coord": "MediaWiki coordinates API"
    },
    "museum_id": "metropolitan-museum-of-art",
    "country": "United States"
   }
  },
  {
   "type": "Feature",
   "geometry": {
    "type": "Point",
    "coordinates": [
     -77.02,
     38.8914
    ]
   },
   "properties": {
    "painter": "Camille Pissarro",
    "title": "Jeune paysanne nue debout",
    "year": "1895",
    "city": "Washington",
    "location": "National Gallery of Art",
    "attribution": "generally accepted",
    "image": "https://upload.wikimedia.org/wikipedia/commons/thumb/b/b2/The_Bather_%28Camille_Pissarro%29.jpg/500px-The_Bather_%28Camille_Pissarro%29.jpg?utm_source=en.wikipedia.org&amp;utm_campaign=parser&amp;utm_content=thumbnail",
    "notable": true,
    "creation_place": "Paris",
    "creation_lat": 48.8566,
    "creation_lon": 2.3522,
    "_source": {
     "source": "Wikipedia: List of paintings by Camille Pissarro",
     "coord": "MediaWiki coordinates API"
    },
    "museum_id": "national-gallery-of-art",
    "country": "United States"
   }
  },
  {
   "type": "Feature",
   "geometry": {
    "type": "Point",
    "coordinates": [
     -79.39278,
     43.65361
    ]
   },
   "properties": {
    "painter": "Camille Pissarro",
    "title": "Femmes dans un clos, printemps, temps gris, Ēragny",
    "year": "1895",
    "city": "Toronto",
    "location": "Art Gallery of Ontario",
    "attribution": "generally accepted",
    "notable": true,
    "creation_place": "Paris",
    "creation_lat": 48.8566,
    "creation_lon": 2.3522,
    "_source": {
     "source": "Wikipedia: List of paintings by Camille Pissarro",
     "coord": "MediaWiki coordinates API"
    },
    "museum_id": "art-gallery-of-ontario",
    "country": "Canada"
   }
  },
  {
   "type": "Feature",
   "geometry": {
    "type": "Point",
    "coordinates": [
     -94.58084,
     39.04531
    ]
   },
   "properties": {
    "painter": "Camille Pissarro",
    "title": "Le marché à Gisors",
    "year": "1895",
    "city": "Kansas City",
    "location": "Nelson-Atkins Museum of Art",
    "attribution": "generally accepted",
    "image": "https://upload.wikimedia.org/wikipedia/commons/thumb/2/23/Pissarro_-_The_Market_at_Gisors%2C_1895.png/500px-Pissarro_-_The_Market_at_Gisors%2C_1895.png?utm_source=en.wikipedia.org&amp;utm_campaign=parser&amp;utm_content=thumbnail",
    "notable": true,
    "creation_place": "Paris",
    "creation_lat": 48.8566,
    "creation_lon": 2.3522,
    "_source": {
     "source": "Wikipedia: List of paintings by Camille Pissarro",
     "coord": "MediaWiki coordinates API"
    },
    "museum_id": "nelson-atkins-museum-of-art",
    "country": "United States"
   }
  },
  {
   "type": "Feature",
   "geometry": {
    "type": "Point",
    "coordinates": [
     -79.39278,
     43.65361
    ]
   },
   "properties": {
    "painter": "Camille Pissarro",
    "title": "Le Pont Boieldieu à Rouen, temps mouillé",
    "year": "1896",
    "city": "Toronto",
    "location": "Art Gallery of Ontario",
    "attribution": "generally accepted",
    "image": "https://upload.wikimedia.org/wikipedia/commons/thumb/3/3b/Pissarro_-_Pont_Boieldieu_in_Rouen%2C_Rainy_Weather.jpg/500px-Pissarro_-_Pont_Boieldieu_in_Rouen%2C_Rainy_Weather.jpg?utm_source=en.wikipedia.org&amp;utm_campaign=parser&amp;utm_content=thumbnail",
    "notable": true,
    "creation_place": "Paris",
    "creation_lat": 48.8566,
    "creation_lon": 2.3522,
    "_source": {
     "source": "Wikipedia: List of paintings by Camille Pissarro",
     "coord": "MediaWiki coordinates API"
    },
    "museum_id": "art-gallery-of-ontario",
    "country": "Canada"
   }
  },
  {
   "type": "Feature",
   "geometry": {
    "type": "Point",
    "coordinates": [
     -1.90361,
     52.48028
    ]
   },
   "properties": {
    "painter": "Camille Pissarro",
    "year": "1896",
    "city": "Birmingham",
    "location": "Birmingham Museum and Art Gallery",
    "attribution": "generally accepted",
    "image": "https://upload.wikimedia.org/wikipedia/commons/thumb/4/4a/Pissarro_-_Le_pont_Boieldieu_%C3%A0_Rouen%2C_soleil_couchant%2C_1896.jpg/500px-Pissarro_-_Le_pont_Boieldieu_%C3%A0_Rouen%2C_soleil_couchant%2C_1896.jpg?utm_source=en.wikipedia.org&amp;utm_campaign=parser&amp;utm_content=thumbnail",
    "notable": true,
    "creation_place": "Paris",
    "creation_lat": 48.8566,
    "creation_lon": 2.3522,
    "_source": {
     "source": "Wikipedia: List of paintings by Camille Pissarro",
     "coord": "MediaWiki coordinates API"
    },
    "museum_id": "birmingham-museum-and-art-gallery",
    "country": "United Kingdom"
   }
  },
  {
   "type": "Feature",
   "geometry": {
    "type": "Point",
    "coordinates": [
     2.32653,
     48.85997
    ]
   },
   "properties": {
    "painter": "Camille Pissarro",
    "title": "Le Pont Boieldieu à Rouen, soleil couchant, fumées",
    "year": "1896",
    "city": "Paris",
    "location": "Musée d'Orsay",
    "attribution": "generally accepted",
    "image": "https://upload.wikimedia.org/wikipedia/commons/thumb/1/14/Pissaro-pont-mus%C3%A9eRouen.jpg/500px-Pissaro-pont-mus%C3%A9eRouen.jpg?utm_source=en.wikipedia.org&amp;utm_campaign=parser&amp;utm_content=thumbnail",
    "notable": true,
    "creation_place": "Paris",
    "creation_lat": 48.8566,
    "creation_lon": 2.3522,
    "_source": {
     "source": "Wikipedia: List of paintings by Camille Pissarro",
     "coord": "MediaWiki coordinates API"
    },
    "museum_id": "musee-d-orsay",
    "country": "France"
   }
  },
  {
   "type": "Feature",
   "geometry": {
    "type": "Point",
    "coordinates": [
     2.32653,
     48.85997
    ]
   },
   "properties": {
    "painter": "Camille Pissarro",
    "title": "La Seine à Rouen, Saint-Sever",
    "year": "1896",
    "city": "Paris",
    "location": "Musée d'Orsay",
    "attribution": "generally accepted",
    "image": "https://upload.wikimedia.org/wikipedia/commons/thumb/f/f1/Camille_Pissarro_-_La_Seine_%C3%A0_Rouen%2C_Saint-Sever_1122.jpg/500px-Camille_Pissarro_-_La_Seine_%C3%A0_Rouen%2C_Saint-Sever_1122.jpg?utm_source=en.wikipedia.org&amp;utm_campaign=parser&amp;utm_content=thumbnail",
    "notable": true,
    "creation_place": "Paris",
    "creation_lat": 48.8566,
    "creation_lon": 2.3522,
    "_source": {
     "source": "Wikipedia: List of paintings by Camille Pissarro",
     "coord": "MediaWiki coordinates API"
    },
    "museum_id": "musee-d-orsay",
    "country": "France"
   }
  },
  {
   "type": "Feature",
   "geometry": {
    "type": "Point",
    "coordinates": [
     -73.9631,
     40.7794
    ]
   },
   "properties": {
    "painter": "Camille Pissarro",
    "title": "La Seine à Rouen, Saint-Sever, fumées",
    "year": "1896",
    "city": "New York",
    "location": "Metropolitan Museum of Art",
    "attribution": "generally accepted",
    "image": "https://upload.wikimedia.org/wikipedia/commons/thumb/4/49/Steamboats_in_the_Port_of_Rouen.jpg/500px-Steamboats_in_the_Port_of_Rouen.jpg?utm_source=en.wikipedia.org&amp;utm_campaign=parser&amp;utm_content=thumbnail",
    "notable": true,
    "creation_place": "Paris",
    "creation_lat": 48.8566,
    "creation_lon": 2.3522,
    "_source": {
     "source": "Wikipedia: List of paintings by Camille Pissarro",
     "coord": "MediaWiki coordinates API"
    },
    "museum_id": "metropolitan-museum-of-art",
    "country": "United States"
   }
  },
  {
   "type": "Feature",
   "geometry": {
    "type": "Point",
    "coordinates": [
     -73.9631,
     40.7794
    ]
   },
   "properties": {
    "painter": "Camille Pissarro",
    "title": "Le Pont Boieldieu à Rouen, matin, temps mouillé",
    "year": "1896",
    "city": "New York",
    "location": "Metropolitan Museum of Art",
    "attribution": "generally accepted",
    "image": "https://upload.wikimedia.org/wikipedia/commons/thumb/f/fe/Camille_Pissarro_-_Les_Ponts_Boieldieu_%C3%A0_Rouen%2C_matin%2C_temps_mouill%C3%A9_1140.jpg/500px-Camille_Pissarro_-_Les_Ponts_Boieldieu_%C3%A0_Rouen%2C_matin%2C_temps_mouill%C3%A9_1140.jpg?utm_source=en.wikipedia.org&amp;utm_campaign=parser&amp;utm_content=thumbnail",
    "notable": true,
    "creation_place": "Paris",
    "creation_lat": 48.8566,
    "creation_lon": 2.3522,
    "_source": {
     "source": "Wikipedia: List of paintings by Camille Pissarro",
     "coord": "MediaWiki coordinates API"
    },
    "museum_id": "metropolitan-museum-of-art",
    "country": "United States"
   }
  },
  {
   "type": "Feature",
   "geometry": {
    "type": "Point",
    "coordinates": [
     -118.44361,
     34.05944
    ]
   },
   "properties": {
    "painter": "Camille Pissarro",
    "title": "Boulevard Montmartre, Mardi Gras",
    "year": "1897",
    "city": "Los Angeles",
    "country": "United States",
    "location": "Hammer Museum",
    "attribution": "generally accepted",
    "image": "https://upload.wikimedia.org/wikipedia/commons/thumb/5/5e/Camille_Pissarro_-_Boulevard_Montmartre%2C_Mardi_Gras_%281897%29.jpg/500px-Camille_Pissarro_-_Boulevard_Montmartre%2C_Mardi_Gras_%281897%29.jpg?utm_source=en.wikipedia.org&amp;utm_campaign=parser&amp;utm_content=thumbnail",
    "notable": true,
    "creation_place": "Paris",
    "creation_lat": 48.8566,
    "creation_lon": 2.3522,
    "_source": {
     "source": "Wikipedia: List of paintings by Camille Pissarro",
     "coord": "MediaWiki coordinates API"
    },
    "museum_id": "hammer-museum"
   }
  },
  {
   "type": "Feature",
   "geometry": {
    "type": "Point",
    "coordinates": [
     -3.69493,
     40.41604
    ]
   },
   "properties": {
    "painter": "Camille Pissarro",
    "title": "Rue St. Honoré, Apres Midi, Effet de Pluie",
    "year": "1897",
    "location": "Thyssen-Bornemisza Museum",
    "attribution": "generally accepted",
    "image": "https://upload.wikimedia.org/wikipedia/commons/thumb/a/ac/Camille_Pissarro_-_Rue_Saint-Honor%C3%A9%2C_dans_l%27apr%C3%A8s-midi._Effet_de_pluie.jpg/500px-Camille_Pissarro_-_Rue_Saint-Honor%C3%A9%2C_dans_l%27apr%C3%A8s-midi._Effet_de_pluie.jpg?utm_source=en.wikipedia.org&amp;utm_campaign=parser&amp;utm_content=thumbnail",
    "notable": true,
    "creation_place": "Paris",
    "creation_lat": 48.8566,
    "creation_lon": 2.3522,
    "_source": {
     "source": "Wikipedia: List of paintings by Camille Pissarro",
     "coord": "MediaWiki coordinates API"
    },
    "museum_id": "thyssen-bornemisza-museum",
    "city": "Madrid",
    "country": "Spain"
   }
  },
  {
   "type": "Feature",
   "geometry": {
    "type": "Point",
    "coordinates": [
     2.32653,
     48.85997
    ]
   },
   "properties": {
    "painter": "Camille Pissarro",
    "title": "Le lavoir à Bazincourt",
    "year": "1900",
    "city": "Paris",
    "location": "Musée d'Orsay",
    "attribution": "generally accepted",
    "image": "https://upload.wikimedia.org/wikipedia/commons/thumb/2/2b/Pissarro_-_Le_lavoir_de_Bazincourt%2C_1900.jpg/500px-Pissarro_-_Le_lavoir_de_Bazincourt%2C_1900.jpg?utm_source=en.wikipedia.org&amp;utm_campaign=parser&amp;utm_content=thumbnail",
    "notable": true,
    "creation_place": "Paris",
    "creation_lat": 48.8566,
    "creation_lon": 2.3522,
    "_source": {
     "source": "Wikipedia: List of paintings by Camille Pissarro",
     "coord": "MediaWiki coordinates API"
    },
    "museum_id": "musee-d-orsay",
    "country": "France"
   }
  },
  {
   "type": "Feature",
   "geometry": {
    "type": "Point",
    "coordinates": [
     30.3136,
     59.9406
    ]
   },
   "properties": {
    "painter": "Camille Pissarro",
    "year": "1900",
    "city": "Saint Petersburg",
    "location": "Hermitage Museum",
    "attribution": "generally accepted",
    "image": "https://upload.wikimedia.org/wikipedia/commons/thumb/7/72/Camille_Pissarro%2C_Still_Life_with_a_Coffeepot%2C_1900%2C_%D0%97%D0%9A%D0%A0%D1%81%D1%8D-527%2C_Hermitage_Museum.jpg/500px-Camille_Pissarro%2C_Still_Life_with_a_Coffeepot%2C_1900%2C_%D0%97%D0%9A%D0%A0%D1%81%D1%8D-527%2C_Hermitage_Museum.jpg?utm_source=en.wikipedia.org&amp;utm_campaign=parser&amp;utm_content=thumbnail",
    "notable": true,
    "creation_place": "Paris",
    "creation_lat": 48.8566,
    "creation_lon": 2.3522,
    "_source": {
     "source": "Wikipedia: List of paintings by Camille Pissarro",
     "coord": "MediaWiki coordinates API"
    },
    "museum_id": "hermitage-museum",
    "country": "Russia"
   }
  },
  {
   "type": "Feature",
   "geometry": {
    "type": "Point",
    "coordinates": [
     -77.08912,
     38.92181
    ]
   },
   "properties": {
    "painter": "Camille Pissarro",
    "title": "Le jardin des Tuileries, été",
    "year": "1900",
    "city": "Washington D.C.",
    "location": "Kreeger Museum",
    "attribution": "generally accepted",
    "image": "https://upload.wikimedia.org/wikipedia/commons/thumb/7/75/Pissarro_-_The_Tuileries_Gardens%2C_Summer_%28Le_Jardin_des_Tuileries%2C_%C3%A9t%C3%A9%29%2C_1900.jpg/500px-Pissarro_-_The_Tuileries_Gardens%2C_Summer_%28Le_Jardin_des_Tuileries%2C_%C3%A9t%C3%A9%29%2C_1900.jpg?utm_source=en.wikipedia.org&amp;utm_campaign=parser&amp;utm_content=thumbnail",
    "notable": true,
    "creation_place": "Paris",
    "creation_lat": 48.8566,
    "creation_lon": 2.3522,
    "_source": {
     "source": "Wikipedia: List of paintings by Camille Pissarro",
     "coord": "MediaWiki coordinates API"
    },
    "museum_id": "kreeger-museum"
   }
  },
  {
   "type": "Feature",
   "geometry": {
    "type": "Point",
    "coordinates": [
     -75.69891,
     45.42954
    ]
   },
   "properties": {
    "painter": "Camille Pissarro",
    "title": "Fenaison à Ėragny",
    "year": "1901",
    "city": "Ottawa",
    "location": "National Gallery of Canada",
    "attribution": "generally accepted",
    "image": "https://upload.wikimedia.org/wikipedia/commons/thumb/2/2d/Hay_Harvest_at_%C3%89ragny%2C_1901%2C_Camille_Pissarro.jpg/500px-Hay_Harvest_at_%C3%89ragny%2C_1901%2C_Camille_Pissarro.jpg?utm_source=en.wikipedia.org&amp;utm_campaign=parser&amp;utm_content=thumbnail",
    "notable": true,
    "creation_place": "Paris",
    "creation_lat": 48.8566,
    "creation_lon": 2.3522,
    "_source": {
     "source": "Wikipedia: List of paintings by Camille Pissarro",
     "coord": "MediaWiki coordinates API"
    },
    "museum_id": "national-gallery-of-canada",
    "country": "Canada"
   }
  },
  {
   "type": "Feature",
   "geometry": {
    "type": "Point",
    "coordinates": [
     -74.07323,
     4.59665
    ]
   },
   "properties": {
    "painter": "Camille Pissarro",
    "title": "Le Louvre, soleil couchant, gelée glanche",
    "year": "1901",
    "city": "Bogotá",
    "location": "Museo Botero",
    "attribution": "generally accepted",
    "image": "https://upload.wikimedia.org/wikipedia/commons/thumb/6/6b/Camille_Pissarro_-_Le_Louvre%2C_soleil_couchant%2C_gel%C3%A9e_glanche%2C_2e_s%C3%A9rie_-_1402.jpg/500px-Camille_Pissarro_-_Le_Louvre%2C_soleil_couchant%2C_gel%C3%A9e_glanche%2C_2e_s%C3%A9rie_-_1402.jpg?utm_source=en.wikipedia.org&amp;utm_campaign=parser&amp;utm_content=thumbnail",
    "notable": true,
    "creation_place": "Paris",
    "creation_lat": 48.8566,
    "creation_lon": 2.3522,
    "_source": {
     "source": "Wikipedia: List of paintings by Camille Pissarro",
     "coord": "MediaWiki coordinates API"
    },
    "museum_id": "museo-botero"
   }
  }
 ]
}