{
 "type": "FeatureCollection",
 "_note": "Canon from List of works by Guido Reni (Wikipedia). Coords via MediaWiki API.",
 "features": [
  {
   "type": "Feature",
   "geometry": {
    "type": "Point",
    "coordinates": [
     11.35354,
     44.49771
    ]
   },
   "properties": {
    "painter": "Guido Reni",
    "title": "Massacre of the Innocents",
    "year": "1611",
    "city": "Bologna",
    "country": "Italy",
    "location": "Pinacoteca Nazionale di Bologna",
    "attribution": "generally accepted",
    "medium": "Oil on canvas",
    "dimensions": "268 × 170 cm",
    "image": "https://upload.wikimedia.org/wikipedia/commons/thumb/1/11/Guido_Reni_-_Massacre_of_the_Innocents.jpg/500px-Guido_Reni_-_Massacre_of_the_Innocents.jpg?utm_source=en.wikipedia.org&amp;utm_campaign=parser&amp;utm_content=thumbnail",
    "notable": true,
    "wikipedia_en": "https://en.wikipedia.org/wiki/Massacre_of_the_Innocents_(Reni)",
    "creation_place": "Rome",
    "creation_lat": 41.9028,
    "creation_lon": 12.4964,
    "_source": {
     "source": "Wikipedia: List of works by Guido Reni",
     "coord": "MediaWiki coordinates API"
    },
    "museum_id": "pinacoteca-nazionale-di-bologna",
    "qid": "Q2448678",
    "wikidata": "https://www.wikidata.org/wiki/Q2448678",
    "wga_url": "https://www.wga.hu/html/r/reni/1/innocent.html"
   }
  },
  {
   "type": "Feature",
   "geometry": {
    "type": "Point",
    "coordinates": [
     11.25,
     43.7652
    ]
   },
   "properties": {
    "painter": "Guido Reni",
    "title": "Charity",
    "year": "c. 1611",
    "city": "Florence",
    "country": "Italy",
    "location": "Galleria Palatina",
    "attribution": "generally accepted",
    "medium": "Oil on canvas",
    "dimensions": "115 x 90 cm",
    "image": "https://upload.wikimedia.org/wikipedia/commons/thumb/8/8c/Guido_Reni_015.jpg/500px-Guido_Reni_015.jpg?utm_source=en.wikipedia.org&amp;utm_campaign=parser&amp;utm_content=thumbnail",
    "notable": true,
    "wikipedia_en": "https://en.wikipedia.org/wiki/Charity_(Reni,_Florence)",
    "creation_place": "Rome",
    "creation_lat": 41.9028,
    "creation_lon": 12.4964,
    "_source": {
     "source": "Wikipedia: List of works by Guido Reni",
     "coord": "MediaWiki coordinates API"
    },
    "museum_id": "galleria-palatina",
    "qid": "Q32904731",
    "wikidata": "https://www.wikidata.org/wiki/Q32904731"
   }
  },
  {
   "type": "Feature",
   "geometry": {
    "type": "Point",
    "coordinates": [
     12.4877,
     41.8984
    ]
   },
   "properties": {
    "painter": "Guido Reni",
    "title": "Aurora",
    "year": "1614",
    "city": "Rome",
    "country": "Italy",
    "location": "Palazzo Pallavicini-Rospigliosi",
    "attribution": "generally accepted",
    "medium": "Fresco",
    "dimensions": "2.8 x 7 m",
    "image": "https://upload.wikimedia.org/wikipedia/commons/thumb/0/0b/Guido_Reni_-_L%27Aurora_di_Guido_Reni_nelle_arti_decorative.jpg/500px-Guido_Reni_-_L%27Aurora_di_Guido_Reni_nelle_arti_decorative.jpg?utm_source=en.wikipedia.org&amp;utm_campaign=parser&amp;utm_content=thumbnail",
    "notable": true,
    "wikipedia_en": "https://en.wikipedia.org/wiki/Aurora_(Reni)",
    "creation_place": "Rome",
    "creation_lat": 41.9028,
    "creation_lon": 12.4964,
    "_source": {
     "source": "Wikipedia: List of works by Guido Reni",
     "coord": "MediaWiki coordinates API"
    },
    "museum_id": "palazzo-pallavicini-rospigliosi",
    "qid": "Q777124",
    "wikidata": "https://www.wikidata.org/wiki/Q777124",
    "wga_url": "https://www.wga.hu/html/r/reni/1/aurora.html"
   }
  },
  {
   "type": "Feature",
   "geometry": {
    "type": "Point",
    "coordinates": [
     12.48278,
     41.89306
    ]
   },
   "properties": {
    "painter": "Guido Reni",
    "title": "Saint Sebastian",
    "year": "c. 1615",
    "city": "Rome",
    "country": "Italy",
    "location": "Capitoline Museums",
    "attribution": "generally accepted",
    "medium": "Oil on canvas",
    "dimensions": "129 x 98 cm",
    "image": "https://upload.wikimedia.org/wikipedia/commons/thumb/8/8a/Guido_Reni_-_Saint_Sebastian_-_Google_Art_Project_%28430907%29.jpg/500px-Guido_Reni_-_Saint_Sebastian_-_Google_Art_Project_%28430907%29.jpg?utm_source=en.wikipedia.org&amp;utm_campaign=parser&amp;utm_content=thumbnail",
    "notable": true,
    "wikipedia_en": "https://en.wikipedia.org/wiki/Saint_Sebastian_(Reni,_Rome)",
    "_source": {
     "source": "Wikipedia: List of works by Guido Reni",
     "coord": "MediaWiki coordinates API"
    },
    "museum_id": "capitoline-museums",
    "qid": "Q28796715",
    "wikidata": "https://www.wikidata.org/wiki/Q28796715"
   }
  },
  {
   "type": "Feature",
   "geometry": {
    "type": "Point",
    "coordinates": [
     14.25053,
     40.86701
    ]
   },
   "properties": {
    "painter": "Guido Reni",
    "title": "Four Seasons",
    "year": "c. 1617–1620",
    "city": "Naples",
    "country": "Italy",
    "location": "Museo di Capodimonte",
    "attribution": "generally accepted",
    "image": "https://upload.wikimedia.org/wikipedia/commons/thumb/6/6d/Quattro_stagioni%2C_Guido_Reni_001.JPG/500px-Quattro_stagioni%2C_Guido_Reni_001.JPG?utm_source=en.wikipedia.org&amp;utm_campaign=parser&amp;utm_content=thumbnail",
    "notable": true,
    "wikipedia_en": "https://en.wikipedia.org/wiki/Four_Seasons_(Reni)",
    "_source": {
     "source": "Wikipedia: List of works by Guido Reni",
     "coord": "MediaWiki coordinates API"
    },
    "museum_id": "museo-di-capodimonte",
    "qid": "Q113467729",
    "wikidata": "https://www.wikidata.org/wiki/Q113467729"
   }
  },
  {
   "type": "Feature",
   "geometry": {
    "type": "Point",
    "coordinates": [
     14.51139,
     35.89639
    ]
   },
   "properties": {
    "painter": "Guido Reni",
    "title": "Risen Christ",
    "year": "1620",
    "city": "Valletta",
    "location": "MUŻA",
    "attribution": "generally accepted",
    "medium": "Oil on canvas",
    "dimensions": "228 x 138 cm",
    "image": "https://upload.wikimedia.org/wikipedia/commons/thumb/4/45/Risen_Christ_-_Guido_Reni.jpg/500px-Risen_Christ_-_Guido_Reni.jpg?utm_source=en.wikipedia.org&amp;utm_campaign=parser&amp;utm_content=thumbnail",
    "notable": true,
    "wikipedia_en": "https://en.wikipedia.org/wiki/Risen_Christ_(Reni)",
    "_source": {
     "source": "Wikipedia: List of works by Guido Reni",
     "coord": "MediaWiki coordinates API"
    },
    "museum_id": "muza",
    "country": "Malta",
    "qid": "Q22945654",
    "wikidata": "https://www.wikidata.org/wiki/Q22945654"
   }
  },
  {
   "type": "Feature",
   "geometry": {
    "type": "Point",
    "coordinates": [
     14.2486,
     40.8358
    ]
   },
   "properties": {
    "painter": "Guido Reni",
    "title": "The Flight into Egypt",
    "year": "c. 1622",
    "city": "Naples",
    "country": "Italy",
    "location": "Girolamini",
    "attribution": "generally accepted",
    "image": "https://upload.wikimedia.org/wikipedia/commons/thumb/8/8b/Reni_-_Fuga_in_Egitto%2C_Pinacoteca_dei_Girolamini.jpg/500px-Reni_-_Fuga_in_Egitto%2C_Pinacoteca_dei_Girolamini.jpg?utm_source=en.wikipedia.org&amp;utm_campaign=parser&amp;utm_content=thumbnail",
    "notable": true,
    "wikipedia_en": "https://en.wikipedia.org/wiki/The_Flight_into_Egypt_(Reni)",
    "_source": {
     "source": "Wikipedia: List of works by Guido Reni",
     "coord": "MediaWiki coordinates API"
    },
    "museum_id": "girolamini",
    "qid": "Q110866542",
    "wikidata": "https://www.wikidata.org/wiki/Q110866542"
   }
  },
  {
   "type": "Feature",
   "geometry": {
    "type": "Point",
    "coordinates": [
     14.2486,
     40.8358
    ]
   },
   "properties": {
    "painter": "Guido Reni",
    "title": "Jesus Meets John the Baptist",
    "year": "c. 1622",
    "city": "Naples",
    "country": "Italy",
    "location": "Girolamini",
    "attribution": "generally accepted",
    "medium": "Oil on canvas",
    "image": "https://upload.wikimedia.org/wikipedia/commons/thumb/e/ef/Guida_Reni_-_Incontro_tra_Ges%C3%B9_e_San_Giovanni_Battista_%28Girolamini%2C_Napoli%29.jpg/500px-Guida_Reni_-_Incontro_tra_Ges%C3%B9_e_San_Giovanni_Battista_%28Girolamini%2C_Napoli%29.jpg?utm_source=en.wikipedia.org&amp;utm_campaign=parser&amp;utm_content=thumbnail",
    "notable": true,
    "wikipedia_en": "https://en.wikipedia.org/wiki/Jesus_Meets_John_the_Baptist",
    "_source": {
     "source": "Wikipedia: List of works by Guido Reni",
     "coord": "MediaWiki coordinates API"
    },
    "museum_id": "girolamini",
    "qid": "Q107301257",
    "wikidata": "https://www.wikidata.org/wiki/Q107301257"
   }
  },
  {
   "type": "Feature",
   "geometry": {
    "type": "Point",
    "coordinates": [
     14.2486,
     40.8358
    ]
   },
   "properties": {
    "painter": "Guido Reni",
    "title": "Saint Francis in Ecstasy",
    "year": "c. 1622",
    "city": "Naples",
    "country": "Italy",
    "location": "Girolamini",
    "attribution": "generally accepted",
    "medium": "Oil on canvas",
    "dimensions": "198 x 133 cm",
    "image": "https://upload.wikimedia.org/wikipedia/commons/thumb/6/6c/SacrestiaGirolamini4.jpg/500px-SacrestiaGirolamini4.jpg?utm_source=en.wikipedia.org&amp;utm_campaign=parser&amp;utm_content=thumbnail",
    "notable": true,
    "wikipedia_en": "https://en.wikipedia.org/wiki/St._Francis_in_Ecstasy_(Reni)",
    "_source": {
     "source": "Wikipedia: List of works by Guido Reni",
     "coord": "MediaWiki coordinates API"
    },
    "museum_id": "girolamini",
    "qid": "Q16599917",
    "wikidata": "https://www.wikidata.org/wiki/Q16599917"
   }
  },
  {
   "type": "Feature",
   "geometry": {
    "type": "Point",
    "coordinates": [
     14.25053,
     40.86701
    ]
   },
   "properties": {
    "painter": "Guido Reni",
    "title": "Atalanta and Hippomenes",
    "year": "1620–1625",
    "city": "Naples",
    "country": "Italy",
    "location": "Museo di Capodimonte",
    "attribution": "generally accepted",
    "medium": "Oil on canvas",
    "dimensions": "191 x 264 cm",
    "image": "https://upload.wikimedia.org/wikipedia/commons/thumb/e/e8/Guido_Reni_-_Atalanta_and_Hippomenes_-_Google_Art_Project.jpg/500px-Guido_Reni_-_Atalanta_and_Hippomenes_-_Google_Art_Project.jpg?utm_source=en.wikipedia.org&amp;utm_campaign=parser&amp;utm_content=thumbnail",
    "notable": true,
    "wikipedia_en": "https://en.wikipedia.org/wiki/Atalanta_and_Hippomenes",
    "_source": {
     "source": "Wikipedia: List of works by Guido Reni",
     "coord": "MediaWiki coordinates API"
    },
    "museum_id": "museo-di-capodimonte",
    "qid": "Q3627852",
    "wikidata": "https://www.wikidata.org/wiki/Q3627852"
   }
  },
  {
   "type": "Feature",
   "geometry": {
    "type": "Point",
    "coordinates": [
     12.48114,
     41.89767
    ]
   },
   "properties": {
    "painter": "Guido Reni",
    "title": "Cupids Fighting Putti",
    "year": "c. 1625",
    "city": "Rome",
    "country": "Italy",
    "location": "Doria Pamphilj Gallery",
    "attribution": "generally accepted",
    "medium": "Oil on canvas",
    "dimensions": "120 x 152 cm",
    "image": "https://upload.wikimedia.org/wikipedia/commons/thumb/5/54/Putti_fighting_-_Guido_Reni_%281575-1642%29_-_Galleria_Doria-Pamphili_-_Rome.jpg/500px-Putti_fighting_-_Guido_Reni_%281575-1642%29_-_Galleria_Doria-Pamphili_-_Rome.jpg?utm_source=en.wikipedia.org&amp;utm_campaign=parser&amp;utm_content=thumbnail",
    "notable": true,
    "wikipedia_en": "https://en.wikipedia.org/wiki/Cupids_Fighting_Putti",
    "_source": {
     "source": "Wikipedia: List of works by Guido Reni",
     "coord": "MediaWiki coordinates API"
    },
    "museum_id": "doria-pamphilj-gallery",
    "qid": "Q110389626",
    "wikidata": "https://www.wikidata.org/wiki/Q110389626"
   }
  },
  {
   "type": "Feature",
   "geometry": {
    "type": "Point",
    "coordinates": [
     2.3358,
     48.8611
    ]
   },
   "properties": {
    "painter": "Guido Reni",
    "title": "The Abduction of Helen",
    "year": "1628–1629",
    "city": "Paris",
    "country": "France",
    "location": "Louvre",
    "attribution": "generally accepted",
    "medium": "Oil on canvas",
    "dimensions": "253 x 265 cm",
    "image": "https://upload.wikimedia.org/wikipedia/commons/thumb/a/a5/L%27Enl%C3%A8vement_d%27H%C3%A9l%C3%A8ne_-_Guido_Reni_-_Mus%C3%A9e_du_Louvre_Peintures_INV_539_%3B_MR_288_-_photo_2.jpg/500px-L%27Enl%C3%A8vement_d%27H%C3%A9l%C3%A8ne_-_Guido_Reni_-_Mus%C3%A9e_du_Louvre_Peintures_INV_539_%3B_MR_288_-_photo_2.jpg?utm_source=en.wikipedia.org&amp;utm_campaign=parser&amp;utm_content=thumbnail",
    "notable": true,
    "wikipedia_en": "https://en.wikipedia.org/wiki/The_Abduction_of_Helen_(Reni)",
    "_source": {
     "source": "Wikipedia: List of works by Guido Reni",
     "coord": "MediaWiki coordinates API"
    },
    "museum_id": "louvre",
    "qid": "Q18572427",
    "wikidata": "https://www.wikidata.org/wiki/Q18572427",
    "wga_url": "https://www.wga.hu/html/r/reni/2/rape_hel.html"
   }
  },
  {
   "type": "Feature",
   "geometry": {
    "type": "Point",
    "coordinates": [
     -73.9631,
     40.7794
    ]
   },
   "properties": {
    "painter": "Guido Reni",
    "title": "Charity",
    "year": "1629–1630",
    "city": "New York",
    "location": "Metropolitan Museum of Art",
    "attribution": "generally accepted",
    "medium": "Oil on canvas",
    "dimensions": "137 x 106 cm",
    "image": "https://upload.wikimedia.org/wikipedia/commons/thumb/a/ad/Charity_MET_DT10776.jpg/500px-Charity_MET_DT10776.jpg?utm_source=en.wikipedia.org&amp;utm_campaign=parser&amp;utm_content=thumbnail",
    "notable": true,
    "wikipedia_en": "https://en.wikipedia.org/wiki/Charity_(Reni,_New_York)",
    "_source": {
     "source": "Wikipedia: List of works by Guido Reni",
     "coord": "MediaWiki coordinates API"
    },
    "museum_id": "metropolitan-museum-of-art",
    "country": "United States",
    "qid": "Q19911778",
    "wikidata": "https://www.wikidata.org/wiki/Q19911778"
   }
  },
  {
   "type": "Feature",
   "geometry": {
    "type": "Point",
    "coordinates": [
     174.7663,
     -36.8514
    ]
   },
   "properties": {
    "painter": "Guido Reni",
    "title": "Saint Sebastian",
    "year": "c. 1625",
    "city": "Auckland",
    "location": "Auckland Art Gallery",
    "attribution": "generally accepted",
    "medium": "Oil on canvas",
    "dimensions": "192 x 155 cm",
    "image": "https://upload.wikimedia.org/wikipedia/commons/thumb/0/0f/Guido_Reni_-_Saint_Sebastian_-_Google_Art_Project.jpg/500px-Guido_Reni_-_Saint_Sebastian_-_Google_Art_Project.jpg?utm_source=en.wikipedia.org&amp;utm_campaign=parser&amp;utm_content=thumbnail",
    "notable": true,
    "wikipedia_en": "https://en.wikipedia.org/wiki/Saint_Sebastian_(Reni,_Auckland)",
    "_source": {
     "source": "Wikipedia: List of works by Guido Reni",
     "coord": "MediaWiki coordinates API"
    },
    "museum_id": "auckland-art-gallery",
    "qid": "Q19966602",
    "wikidata": "https://www.wikidata.org/wiki/Q19966602"
   }
  },
  {
   "type": "Feature",
   "geometry": {
    "type": "Point",
    "coordinates": [
     2.3358,
     48.8611
    ]
   },
   "properties": {
    "painter": "Guido Reni",
    "title": "Annunciation",
    "year": "1621",
    "city": "Paris",
    "country": "France",
    "location": "Louvre",
    "attribution": "generally accepted",
    "medium": "Oil on canvas",
    "dimensions": "267 x 164 cm",
    "image": "https://upload.wikimedia.org/wikipedia/commons/thumb/6/69/Annonciation_Guido_Reni_version_1.jpg/500px-Annonciation_Guido_Reni_version_1.jpg?utm_source=en.wikipedia.org&amp;utm_campaign=parser&amp;utm_content=thumbnail",
    "notable": true,
    "_source": {
     "source": "Wikipedia: List of works by Guido Reni",
     "coord": "MediaWiki coordinates API"
    },
    "museum_id": "louvre"
   }
  },
  {
   "type": "Feature",
   "geometry": {
    "type": "Point",
    "coordinates": [
     2.3358,
     48.8611
    ]
   },
   "properties": {
    "painter": "Guido Reni",
    "title": "Annunciation",
    "year": "1629",
    "city": "Paris",
    "country": "France",
    "location": "Louvre",
    "attribution": "generally accepted",
    "medium": "Oil on canvas",
    "dimensions": "319 x 221 cm",
    "image": "https://upload.wikimedia.org/wikipedia/commons/thumb/4/44/Annonciation_Guido_Reni_Louvre.jpg/500px-Annonciation_Guido_Reni_Louvre.jpg?utm_source=en.wikipedia.org&amp;utm_campaign=parser&amp;utm_content=thumbnail",
    "notable": true,
    "wikipedia_en": "https://en.wikipedia.org/wiki/Annunciation_(Reni)",
    "_source": {
     "source": "Wikipedia: List of works by Guido Reni",
     "coord": "MediaWiki coordinates API"
    },
    "museum_id": "louvre",
    "qid": "Q3202070",
    "wikidata": "https://www.wikidata.org/wiki/Q3202070"
   }
  },
  {
   "type": "Feature",
   "geometry": {
    "type": "Point",
    "coordinates": [
     11.35354,
     44.49771
    ]
   },
   "properties": {
    "painter": "Guido Reni",
    "title": "Pala della Peste",
    "year": "1631–1632",
    "city": "Bologna",
    "country": "Italy",
    "location": "Pinacoteca Nazionale di Bologna",
    "attribution": "generally accepted",
    "medium": "Oil on silk",
    "dimensions": "382 x 242 cm",
    "image": "https://upload.wikimedia.org/wikipedia/commons/thumb/1/1b/Guido_Reni_061.jpg/500px-Guido_Reni_061.jpg?utm_source=en.wikipedia.org&amp;utm_campaign=parser&amp;utm_content=thumbnail",
    "notable": true,
    "wikipedia_en": "https://en.wikipedia.org/wiki/Pala_della_Peste",
    "_source": {
     "source": "Wikipedia: List of works by Guido Reni",
     "coord": "MediaWiki coordinates API"
    },
    "museum_id": "pinacoteca-nazionale-di-bologna",
    "qid": "Q25217589",
    "wikidata": "https://www.wikidata.org/wiki/Q25217589"
   }
  },
  {
   "type": "Feature",
   "geometry": {
    "type": "Point",
    "coordinates": [
     12.48857,
     41.90502
    ]
   },
   "properties": {
    "painter": "Guido Reni",
    "title": "Saint Matthew and the Angel",
    "year": "c. 1635",
    "city": "Rome",
    "country": "Italy",
    "location": "Santa Maria della Concezione dei Cappuccini",
    "attribution": "generally accepted",
    "medium": "Oil on canvas",
    "dimensions": "85 x 68 cm",
    "image": "https://upload.wikimedia.org/wikipedia/commons/thumb/e/e6/Guido_Reni_-_St_Matthew_and_the_Angel_-_WGA19308.jpg/500px-Guido_Reni_-_St_Matthew_and_the_Angel_-_WGA19308.jpg?utm_source=en.wikipedia.org&amp;utm_campaign=parser&amp;utm_content=thumbnail",
    "notable": true,
    "wikipedia_en": "https://en.wikipedia.org/wiki/Saint_Matthew_and_the_Angel_(Reni)",
    "_source": {
     "source": "Wikipedia: List of works by Guido Reni",
     "coord": "MediaWiki coordinates API"
    },
    "museum_id": "santa-maria-della-concezione-dei-cappuccini",
    "qid": "Q4411577",
    "wikidata": "https://www.wikidata.org/wiki/Q4411577",
    "wga_url": "https://www.wga.hu/html/r/reni/2/matthew.html"
   }
  },
  {
   "type": "Feature",
   "geometry": {
    "type": "Point",
    "coordinates": [
     11.25528,
     43.76833
    ]
   },
   "properties": {
    "painter": "Guido Reni",
    "title": "Self-portrait",
    "year": "c. 1635",
    "city": "Florence",
    "country": "Italy",
    "location": "Uffizi Gallery",
    "attribution": "generally accepted",
    "medium": "Oil on canvas",
    "dimensions": "48.5 x 37 cm",
    "image": "https://upload.wikimedia.org/wikipedia/commons/thumb/8/8c/Guido_Reni_-_Self-portrait.jpg/500px-Guido_Reni_-_Self-portrait.jpg?utm_source=en.wikipedia.org&amp;utm_campaign=parser&amp;utm_content=thumbnail",
    "notable": true,
    "_source": {
     "source": "Wikipedia: List of works by Guido Reni",
     "coord": "MediaWiki coordinates API"
    },
    "museum_id": "uffizi-gallery"
   }
  },
  {
   "type": "Feature",
   "geometry": {
    "type": "Point",
    "coordinates": [
     10.92556,
     44.64694
    ]
   },
   "properties": {
    "painter": "Guido Reni",
    "title": "Assumption of the Virgin",
    "year": "1627",
    "city": "Modena",
    "location": "Castelfranco Emilia",
    "attribution": "generally accepted",
    "medium": "Oil on canvas",
    "dimensions": "238 x 150 cm",
    "image": "https://upload.wikimedia.org/wikipedia/commons/thumb/6/62/Assunzione_di_Maria.jpg/500px-Assunzione_di_Maria.jpg?utm_source=en.wikipedia.org&amp;utm_campaign=parser&amp;utm_content=thumbnail",
    "notable": true,
    "wikipedia_en": "https://en.wikipedia.org/wiki/Assumption_of_the_Virgin_(Reni,_Castelfranco_Emilia)",
    "_source": {
     "source": "Wikipedia: List of works by Guido Reni",
     "coord": "MediaWiki coordinates API"
    },
    "museum_id": "castelfranco-emilia",
    "qid": "Q3627403",
    "wikidata": "https://www.wikidata.org/wiki/Q3627403"
   }
  },
  {
   "type": "Feature",
   "geometry": {
    "type": "Point",
    "coordinates": [
     4.83361,
     45.76694
    ]
   },
   "properties": {
    "painter": "Guido Reni",
    "title": "Assumption of the Virgin",
    "year": "1637",
    "city": "Lyon",
    "location": "Museum of Fine Arts of Lyon",
    "attribution": "generally accepted",
    "medium": "Oil on canvas",
    "dimensions": "242 x 161 cm",
    "image": "https://upload.wikimedia.org/wikipedia/commons/thumb/b/b8/Asumption_of_the_Virgin-Guido_Reni-MBA_Lyon_A123-IMG_0329.jpg/500px-Asumption_of_the_Virgin-Guido_Reni-MBA_Lyon_A123-IMG_0329.jpg?utm_source=en.wikipedia.org&amp;utm_campaign=parser&amp;utm_content=thumbnail",
    "notable": true,
    "wikipedia_en": "https://en.wikipedia.org/wiki/Assumption_of_the_Virgin_(Reni,_Lyon)",
    "_source": {
     "source": "Wikipedia: List of works by Guido Reni",
     "coord": "MediaWiki coordinates API"
    },
    "museum_id": "museum-of-fine-arts-of-lyon",
    "country": "France",
    "qid": "Q23017574",
    "wikidata": "https://www.wikidata.org/wiki/Q23017574"
   }
  },
  {
   "type": "Feature",
   "geometry": {
    "type": "Point",
    "coordinates": [
     11.57178,
     48.14958
    ]
   },
   "properties": {
    "painter": "Guido Reni",
    "title": "Assumption of the Virgin",
    "year": "c. 1638–1639",
    "location": "Bavarian State Painting Collections",
    "attribution": "generally accepted",
    "medium": "Oil on canvas",
    "dimensions": "295 x 208 cm",
    "image": "https://upload.wikimedia.org/wikipedia/commons/thumb/e/e9/Guido_Reni_-_Die_Himmelfahrt_Mariae_-_446_-_Bavarian_State_Painting_Collections.jpg/500px-Guido_Reni_-_Die_Himmelfahrt_Mariae_-_446_-_Bavarian_State_Painting_Collections.jpg?utm_source=en.wikipedia.org&amp;utm_campaign=parser&amp;utm_content=thumbnail",
    "notable": true,
    "wikipedia_en": "https://en.wikipedia.org/wiki/Assumption_of_the_Virgin_(Reni,_Munich)",
    "_source": {
     "source": "Wikipedia: List of works by Guido Reni",
     "coord": "MediaWiki coordinates API"
    },
    "museum_id": "bavarian-state-painting-collections",
    "city": "Munich",
    "country": "Germany",
    "qid": "Q29838779",
    "wikidata": "https://www.wikidata.org/wiki/Q29838779"
   }
  },
  {
   "type": "Feature",
   "geometry": {
    "type": "Point",
    "coordinates": [
     -0.08639,
     51.44611
    ]
   },
   "properties": {
    "painter": "Guido Reni",
    "title": "Saint Sebastian",
    "year": "c. 1620–1639",
    "city": "London",
    "country": "United Kingdom",
    "location": "Dulwich Picture Gallery",
    "attribution": "generally accepted",
    "medium": "Oil on canvas",
    "dimensions": "170 x 131 cm",
    "image": "https://upload.wikimedia.org/wikipedia/commons/thumb/f/f1/Reni%2C_Guido_-_Saint_Sebastian_-_Google_Art_Project.jpg/500px-Reni%2C_Guido_-_Saint_Sebastian_-_Google_Art_Project.jpg?utm_source=en.wikipedia.org&amp;utm_campaign=parser&amp;utm_content=thumbnail",
    "notable": true,
    "wikipedia_en": "https://en.wikipedia.org/wiki/Saint_Sebastian_(Reni,_Dulwich)",
    "_source": {
     "source": "Wikipedia: List of works by Guido Reni",
     "coord": "MediaWiki coordinates API"
    },
    "museum_id": "dulwich-picture-gallery",
    "qid": "Q23928501",
    "wikidata": "https://www.wikidata.org/wiki/Q23928501"
   }
  },
  {
   "type": "Feature",
   "geometry": {
    "type": "Point",
    "coordinates": [
     12.48361,
     41.90167
    ]
   },
   "properties": {
    "painter": "Guido Reni",
    "title": "Fortuna with a Crown",
    "year": "1620s or 1630s",
    "city": "Rome",
    "country": "Italy",
    "location": "Accademia di San Luca",
    "attribution": "generally accepted",
    "medium": "Oil on canvas",
    "dimensions": "165 x 135 cm",
    "image": "https://upload.wikimedia.org/wikipedia/commons/thumb/8/82/La_Fortuna_-_Accademia_Nazionale_di_San_Luca.jpg/500px-La_Fortuna_-_Accademia_Nazionale_di_San_Luca.jpg?utm_source=en.wikipedia.org&amp;utm_campaign=parser&amp;utm_content=thumbnail",
    "notable": true,
    "wikipedia_en": "https://en.wikipedia.org/wiki/Fortune_(Reni)",
    "_source": {
     "source": "Wikipedia: List of works by Guido Reni",
     "coord": "MediaWiki coordinates API"
    },
    "museum_id": "accademia-di-san-luca",
    "qid": "Q123786922",
    "wikidata": "https://www.wikidata.org/wiki/Q123786922"
   }
  },
  {
   "type": "Feature",
   "geometry": {
    "type": "Point",
    "coordinates": [
     -0.1283,
     51.5089
    ]
   },
   "properties": {
    "painter": "Guido Reni",
    "title": "The Rape of Europa",
    "year": "1637–1629",
    "city": "London",
    "country": "United Kingdom",
    "location": "National Gallery",
    "attribution": "generally accepted",
    "medium": "Oil on canvas",
    "dimensions": "177 x 129 cm",
    "image": "https://upload.wikimedia.org/wikipedia/commons/thumb/d/d7/Guido_Reni_055.jpg/500px-Guido_Reni_055.jpg?utm_source=en.wikipedia.org&amp;utm_campaign=parser&amp;utm_content=thumbnail",
    "notable": true,
    "wikipedia_en": "https://en.wikipedia.org/wiki/The_Rape_of_Europa_(Reni)",
    "_source": {
     "source": "Wikipedia: List of works by Guido Reni",
     "coord": "MediaWiki coordinates API"
    },
    "museum_id": "national-gallery",
    "qid": "Q7759428",
    "wikidata": "https://www.wikidata.org/wiki/Q7759428"
   }
  },
  {
   "type": "Feature",
   "geometry": {
    "type": "Point",
    "coordinates": [
     12.48278,
     41.89306
    ]
   },
   "properties": {
    "painter": "Guido Reni",
    "title": "Polyphemus",
    "year": "1639–1640",
    "city": "Rome",
    "country": "Italy",
    "location": "Capitoline Museums",
    "attribution": "generally accepted",
    "medium": "Oil on canvas",
    "dimensions": "52 x 63 cm",
    "image": "https://upload.wikimedia.org/wikipedia/commons/thumb/2/2e/Guido_Reni_-_Polyphemus_-_Google_Art_Project.jpg/500px-Guido_Reni_-_Polyphemus_-_Google_Art_Project.jpg?utm_source=en.wikipedia.org&amp;utm_campaign=parser&amp;utm_content=thumbnail",
    "notable": true,
    "wikipedia_en": "https://en.wikipedia.org/wiki/Polyphemus_(Reni)",
    "_source": {
     "source": "Wikipedia: List of works by Guido Reni",
     "coord": "MediaWiki coordinates API"
    },
    "museum_id": "capitoline-museums",
    "qid": "Q28113317",
    "wikidata": "https://www.wikidata.org/wiki/Q28113317"
   }
  },
  {
   "type": "Feature",
   "geometry": {
    "type": "Point",
    "coordinates": [
     9.19,
     45.46694
    ]
   },
   "properties": {
    "painter": "Guido Reni",
    "title": "Saint Joseph with the Christ Child",
    "year": "c. 1625–1630",
    "city": "Milan",
    "country": "Italy",
    "location": "Diocesan Museum",
    "attribution": "generally accepted",
    "medium": "Oil on canvas",
    "image": "https://upload.wikimedia.org/wikipedia/commons/thumb/e/e4/Guido_Reni_San_Giuseppe_con_il_Bambino.jpg/500px-Guido_Reni_San_Giuseppe_con_il_Bambino.jpg?utm_source=en.wikipedia.org&amp;utm_campaign=parser&amp;utm_content=thumbnail",
    "notable": true,
    "wikipedia_en": "https://en.wikipedia.org/wiki/Saint_Joseph_with_the_Christ_Child",
    "_source": {
     "source": "Wikipedia: List of works by Guido Reni",
     "coord": "MediaWiki coordinates API"
    },
    "museum_id": "diocesan-museum",
    "qid": "Q21725092",
    "wikidata": "https://www.wikidata.org/wiki/Q21725092",
    "wga_url": "https://www.wga.hu/html/r/reni/2/joseph_i.html"
   }
  },
  {
   "type": "Feature",
   "geometry": {
    "type": "Point",
    "coordinates": [
     30.3136,
     59.9406
    ]
   },
   "properties": {
    "painter": "Guido Reni",
    "title": "Saint Joseph with the Christ Child",
    "year": "1635",
    "city": "Saint Petersburg",
    "country": "Russia",
    "location": "Hermitage Museum",
    "attribution": "generally accepted",
    "medium": "Oil on canvas",
    "dimensions": "126 x 101 cm",
    "image": "https://upload.wikimedia.org/wikipedia/commons/thumb/e/e3/Guido_Reni_-_St_Joseph_with_the_Infant_Jesus_-_WGA19304.jpg/500px-Guido_Reni_-_St_Joseph_with_the_Infant_Jesus_-_WGA19304.jpg?utm_source=en.wikipedia.org&amp;utm_campaign=parser&amp;utm_content=thumbnail",
    "notable": true,
    "wikipedia_en": "https://en.wikipedia.org/wiki/Saint_Joseph_with_the_Christ_Child",
    "_source": {
     "source": "Wikipedia: List of works by Guido Reni",
     "coord": "MediaWiki coordinates API"
    },
    "museum_id": "hermitage-museum",
    "qid": "Q21725092",
    "wikidata": "https://www.wikidata.org/wiki/Q21725092",
    "wga_url": "https://www.wga.hu/html/r/reni/2/joseph_i.html"
   }
  },
  {
   "type": "Feature",
   "geometry": {
    "type": "Point",
    "coordinates": [
     -71.05778,
     42.36028
    ]
   },
   "properties": {
    "painter": "Guido Reni",
    "title": "Saint Joseph with the Christ Child",
    "year": "c. 1640",
    "city": "Boston",
    "location": "Museum of Fine Arts",
    "attribution": "generally accepted",
    "medium": "Oil on canvas",
    "dimensions": "89 x 72 cm",
    "image": "https://upload.wikimedia.org/wikipedia/commons/thumb/2/2c/Guido_Reni_-_Saint_Joseph_and_the_Christ_Child_-_Google_Art_Project.jpg/500px-Guido_Reni_-_Saint_Joseph_and_the_Christ_Child_-_Google_Art_Project.jpg?utm_source=en.wikipedia.org&amp;utm_campaign=parser&amp;utm_content=thumbnail",
    "notable": true,
    "wikipedia_en": "https://en.wikipedia.org/wiki/Saint_Joseph_with_the_Christ_Child",
    "_source": {
     "source": "Wikipedia: List of works by Guido Reni",
     "coord": "MediaWiki coordinates API"
    },
    "museum_id": "museum-of-fine-arts",
    "country": "United States",
    "qid": "Q21725092",
    "wikidata": "https://www.wikidata.org/wiki/Q21725092",
    "wga_url": "https://www.wga.hu/html/r/reni/2/joseph_i.html"
   }
  },
  {
   "type": "Feature",
   "geometry": {
    "type": "Point",
    "coordinates": [
     14.24124,
     40.84333
    ]
   },
   "properties": {
    "painter": "Guido Reni",
    "title": "Adoration of the Shepherds",
    "year": "c. 1642",
    "city": "Naples",
    "country": "Italy",
    "location": "Certosa di San Martino",
    "attribution": "generally accepted",
    "medium": "Oil on canvas",
    "dimensions": "485 x 350 cm",
    "image": "https://upload.wikimedia.org/wikipedia/commons/thumb/a/a5/Guido_Reni_Neapolitan_Baroque_painting_%281630%E2%80%931642%29.jpg/500px-Guido_Reni_Neapolitan_Baroque_painting_%281630%E2%80%931642%29.jpg?utm_source=en.wikipedia.org&amp;utm_campaign=parser&amp;utm_content=thumbnail",
    "notable": true,
    "wikipedia_en": "https://en.wikipedia.org/wiki/Adoration_of_the_Shepherds_(Reni)",
    "_source": {
     "source": "Wikipedia: List of works by Guido Reni",
     "coord": "MediaWiki coordinates API"
    },
    "museum_id": "certosa-di-san-martino",
    "qid": "Q107595426",
    "wikidata": "https://www.wikidata.org/wiki/Q107595426"
   }
  }
 ]
}