{
 "type": "FeatureCollection",
 "_note": "Generated by scripts/build.py from Wikidata. Do not edit by hand — put manual fixes in the painter's overlay (data/overlay/*.json). Each feature carries _source (scraped base or manual addition) and, when edited, _overrides.",
 "features": [
  {
   "type": "Feature",
   "geometry": {
    "type": "Point",
    "coordinates": [
     -99.14139,
     19.43528
    ]
   },
   "properties": {
    "painter": "Diego Rivera",
    "title": "Man, Controller of the Universe",
    "year": "1934",
    "city": "Cuauhtémoc",
    "country": "Mexico",
    "location": "Palace of Fine arts",
    "kind": "museum",
    "attribution": "generally accepted",
    "status": "present",
    "medium": "Fresco",
    "dimensions": "4.8 × 11.4 cm",
    "image": "https://commons.wikimedia.org/wiki/Special:FilePath/Mural.%20El%20hombre%20en%20el%20cruce%20de%20caminos.%20Diego%20rivera%20%281934%29.JPG?width=420",
    "wikipedia_es": "https://es.wikipedia.org/wiki/El_hombre_controlador_del_universo",
    "wikipedia_en": "https://en.wikipedia.org/wiki/Man,_Controller_of_the_Universe",
    "wikipedia_it": "https://it.wikipedia.org/wiki/L%27uomo_controllore_dell%27universo",
    "wikidata": "https://www.wikidata.org/wiki/Q105530002",
    "creation_place": "Mexico City",
    "creation_lat": 19.4326,
    "creation_lon": -99.1332,
    "_source": {
     "source": "Wikidata",
     "url": "https://www.wikidata.org/wiki/Q105530002",
     "retrieved_at": "2026-08-21"
    },
    "_overrides": {
     "creation": {
      "at": "2026-08-21",
      "source": "derived from start date + Caravaggio's documented itinerary (approximate)"
     }
    },
    "museum_id": "palace-of-fine-arts",
    "qid": "Q105530002"
   }
  },
  {
   "type": "Feature",
   "geometry": {
    "type": "Point",
    "coordinates": [
     -99.13102,
     19.43583
    ]
   },
   "properties": {
    "painter": "Diego Rivera",
    "title": "The creation",
    "year": "1922",
    "city": "Cuauhtémoc",
    "country": "Mexico",
    "location": "Anfiteatro Simón Bolivar",
    "kind": "museum",
    "attribution": "generally accepted",
    "status": "present",
    "dimensions": "4.8 × 11.4 cm",
    "genre": "Mexican muralism",
    "image": "https://commons.wikimedia.org/wiki/Special:FilePath/Mural%20La%20Creaci%C3%B3n%2C%20de%20Diego%20Rivera%2C%20en%20el%20Anfiteatro%20Sim%C3%B3n%20Bol%C3%ADvar%2001.jpg?width=420",
    "wikipedia_es": "https://es.wikipedia.org/wiki/La_creaci%C3%B3n_(Diego_Rivera)",
    "wikidata": "https://www.wikidata.org/wiki/Q115329547",
    "creation_place": "Mexico City",
    "creation_lat": 19.4326,
    "creation_lon": -99.1332,
    "_source": {
     "source": "Wikidata",
     "url": "https://www.wikidata.org/wiki/Q115329547",
     "retrieved_at": "2026-08-21"
    },
    "_overrides": {
     "creation": {
      "at": "2026-08-21",
      "source": "derived from start date + Caravaggio's documented itinerary (approximate)"
     }
    },
    "museum_id": "anfiteatro-simon-bolivar",
    "qid": "Q115329547"
   }
  },
  {
   "type": "Feature",
   "geometry": {
    "type": "Point",
    "coordinates": [
     -118.3592,
     34.0633
    ]
   },
   "properties": {
    "painter": "Diego Rivera",
    "title": "Flower Day (Día de Flores)",
    "year": "1925",
    "city": "Los Angeles",
    "country": "United States",
    "location": "Los Angeles County Museum of Art",
    "kind": "museum",
    "attribution": "attributed",
    "status": "present",
    "medium": "Oil on canvas",
    "dimensions": "147.3 × 120.7 cm",
    "genre": "genre art",
    "wikidata": "https://www.wikidata.org/wiki/Q20881087",
    "creation_place": "Mexico City",
    "creation_lat": 19.4326,
    "creation_lon": -99.1332,
    "_source": {
     "source": "Wikidata",
     "url": "https://www.wikidata.org/wiki/Q20881087",
     "retrieved_at": "2026-08-21"
    },
    "_overrides": {
     "creation": {
      "at": "2026-08-21",
      "source": "derived from start date + Caravaggio's documented itinerary (approximate)"
     }
    },
    "museum_id": "los-angeles-county-museum-of-art",
    "qid": "Q20881087"
   }
  },
  {
   "type": "Feature",
   "geometry": {
    "type": "Point",
    "coordinates": [
     37.60603,
     55.74703
    ]
   },
   "properties": {
    "painter": "Diego Rivera",
    "title": "Glorious victory",
    "year": "1954",
    "city": "Khamovniki District",
    "country": "Russia",
    "location": "Pushkin Museum of Fine Arts",
    "kind": "museum",
    "attribution": "generally accepted",
    "status": "present",
    "wikipedia_en": "https://en.wikipedia.org/wiki/Glorious_Victory",
    "wikidata": "https://www.wikidata.org/wiki/Q21512830",
    "creation_place": "Mexico City",
    "creation_lat": 19.4326,
    "creation_lon": -99.1332,
    "_source": {
     "source": "Wikidata",
     "url": "https://www.wikidata.org/wiki/Q21512830",
     "retrieved_at": "2026-08-21"
    },
    "_overrides": {
     "creation": {
      "at": "2026-08-21",
      "source": "derived from start date + Caravaggio's documented itinerary (approximate)"
     }
    },
    "museum_id": "pushkin-museum-of-fine-arts",
    "qid": "Q21512830"
   }
  },
  {
   "type": "Feature",
   "geometry": {
    "type": "Point",
    "coordinates": [
     -58.40359,
     -34.57711
    ]
   },
   "properties": {
    "painter": "Diego Rivera",
    "title": "Portrait of Ramón Gómez de la Serna",
    "year": "1915",
    "city": "Buenos Aires",
    "country": "Argentina",
    "location": "Museum of Latin American Art of Buenos Aires",
    "kind": "museum",
    "attribution": "generally accepted",
    "status": "present",
    "medium": "Oil on canvas",
    "dimensions": "110.5 × 90.5 cm",
    "genre": "portrait",
    "image": "https://commons.wikimedia.org/wiki/Special:FilePath/Ram%C3%B3nG%C3%B3mezdelaSerna.JPG?width=420",
    "wikipedia_es": "https://es.wikipedia.org/wiki/Retrato_de_Ram%C3%B3n_G%C3%B3mez_de_la_Serna_(pintura_cubista)",
    "wikipedia_en": "https://en.wikipedia.org/wiki/Portrait_of_Ram%C3%B3n_G%C3%B3mez_de_la_Serna",
    "wikidata": "https://www.wikidata.org/wiki/Q21606628",
    "_source": {
     "source": "Wikidata",
     "url": "https://www.wikidata.org/wiki/Q21606628",
     "retrieved_at": "2026-08-21"
    },
    "_overrides": {
     "creation": {
      "at": "2026-08-21",
      "source": "derived from start date + Caravaggio's documented itinerary (approximate)"
     }
    },
    "museum_id": "museum-of-latin-american-art-of-buenos-aires",
    "qid": "Q21606628"
   }
  },
  {
   "type": "Feature",
   "geometry": {
    "type": "Point",
    "coordinates": [
     -99.14685,
     19.43604
    ]
   },
   "properties": {
    "painter": "Diego Rivera",
    "title": "Sueño de una Tarde Dominical en la Alameda Central",
    "year": "1947",
    "city": "Mexico City",
    "country": "Mexico",
    "location": "Museo Mural Diego Rivera",
    "kind": "museum",
    "attribution": "generally accepted",
    "status": "present",
    "image": "https://commons.wikimedia.org/wiki/Special:FilePath/The%20Kid%20-%20Diego%20Rivera.jpg?width=420",
    "wikipedia_es": "https://es.wikipedia.org/wiki/Sue%C3%B1o_de_una_tarde_dominical_en_la_Alameda_Central",
    "wikipedia_en": "https://en.wikipedia.org/wiki/Sue%C3%B1o_de_una_Tarde_Dominical_en_la_Alameda_Central",
    "wikidata": "https://www.wikidata.org/wiki/Q6135245",
    "creation_place": "Mexico City",
    "creation_lat": 19.4326,
    "creation_lon": -99.1332,
    "_source": {
     "source": "Wikidata",
     "url": "https://www.wikidata.org/wiki/Q6135245",
     "retrieved_at": "2026-08-21"
    },
    "_overrides": {
     "creation": {
      "at": "2026-08-21",
      "source": "derived from start date + Caravaggio's documented itinerary (approximate)"
     }
    },
    "museum_id": "museo-mural-diego-rivera",
    "qid": "Q6135245"
   }
  }
 ]
}