{
 "type": "FeatureCollection",
 "_note": "Canon from List of paintings by Johannes Vermeer (Wikipedia). Coords via MediaWiki API.",
 "features": [
  {
   "type": "Feature",
   "geometry": {
    "type": "Point",
    "coordinates": [
     -3.19556,
     55.95083
    ]
   },
   "properties": {
    "painter": "Vermeer",
    "title": "Christ in the House of Martha and Mary",
    "year": "1654–55 or c. 1654–56 or c. 1655",
    "city": "Edinburgh",
    "country": "United Kingdom",
    "location": "National Gallery of Scotland",
    "attribution": "generally accepted",
    "dimensions": "Oil on canvas, 160 × 142 cm",
    "image": "https://upload.wikimedia.org/wikipedia/commons/thumb/4/4f/Johannes_%28Jan%29_Vermeer_-_Christ_in_the_House_of_Martha_and_Mary_-_Google_Art_Project.jpg/500px-Johannes_%28Jan%29_Vermeer_-_Christ_in_the_House_of_Martha_and_Mary_-_Google_Art_Project.jpg?utm_source=en.wikipedia.org&amp;utm_campaign=parser&amp;utm_content=thumbnail",
    "notable": true,
    "wikipedia_en": "https://en.wikipedia.org/wiki/Christ_in_the_House_of_Martha_and_Mary_(Vermeer)",
    "creation_place": "Delft",
    "creation_lat": 52.0116,
    "creation_lon": 4.3571,
    "_source": {
     "source": "Wikipedia: List of paintings by Johannes Vermeer",
     "coord": "MediaWiki coordinates API"
    },
    "museum_id": "national-gallery-of-scotland",
    "qid": "Q927449",
    "wikidata": "https://www.wikidata.org/wiki/Q927449",
    "wga_url": "https://www.wga.hu/html/v/vermeer/01-early/01christ.html"
   }
  },
  {
   "type": "Feature",
   "geometry": {
    "type": "Point",
    "coordinates": [
     4.3143,
     52.0804
    ]
   },
   "properties": {
    "painter": "Vermeer",
    "title": "Diana and Her Companions",
    "year": "1655–56 or c. 1653–54",
    "city": "The Hague",
    "country": "Netherlands",
    "location": "Mauritshuis",
    "attribution": "generally accepted",
    "dimensions": "Oil on canvas, 98.5 × 105 cm",
    "image": "https://upload.wikimedia.org/wikipedia/commons/thumb/6/68/Johannes_Vermeer_-_Diana_and_her_Nymphs_-_406_-_Mauritshuis.jpg/500px-Johannes_Vermeer_-_Diana_and_her_Nymphs_-_406_-_Mauritshuis.jpg?utm_source=en.wikipedia.org&amp;utm_campaign=parser&amp;utm_content=thumbnail",
    "notable": true,
    "wikipedia_en": "https://en.wikipedia.org/wiki/Diana_and_Her_Companions",
    "creation_place": "Delft",
    "creation_lat": 52.0116,
    "creation_lon": 4.3571,
    "_source": {
     "source": "Wikipedia: List of paintings by Johannes Vermeer",
     "coord": "MediaWiki coordinates API"
    },
    "museum_id": "mauritshuis",
    "qid": "Q32234",
    "wikidata": "https://www.wikidata.org/wiki/Q32234",
    "wga_url": "https://www.wga.hu/html/v/vermeer/01-early/03diana.html"
   }
  },
  {
   "type": "Feature",
   "geometry": {
    "type": "Point",
    "coordinates": [
     9.41611,
     51.315
    ]
   },
   "properties": {
    "painter": "Vermeer",
    "title": "The Procuress",
    "year": "1656 (signed and dated)",
    "city": "Kassel",
    "country": "Germany",
    "location": "Gemäldegalerie Alte Meister",
    "attribution": "generally accepted",
    "dimensions": "Oil on canvas, 143 × 130 cm",
    "image": "https://upload.wikimedia.org/wikipedia/commons/thumb/b/b0/Johannes_Vermeer_-_The_Procuress_-_Google_Art_Project.jpg/500px-Johannes_Vermeer_-_The_Procuress_-_Google_Art_Project.jpg?utm_source=en.wikipedia.org&amp;utm_campaign=parser&amp;utm_content=thumbnail",
    "notable": true,
    "wikipedia_en": "https://en.wikipedia.org/wiki/The_Procuress_(Vermeer)",
    "creation_place": "Delft",
    "creation_lat": 52.0116,
    "creation_lon": 4.3571,
    "_source": {
     "source": "Wikipedia: List of paintings by Johannes Vermeer",
     "coord": "MediaWiki coordinates API"
    },
    "museum_id": "gemaldegalerie-alte-meister",
    "qid": "Q63692",
    "wikidata": "https://www.wikidata.org/wiki/Q63692",
    "wga_url": "https://www.wga.hu/html/v/vermeer/01-early/04procu2.html"
   }
  },
  {
   "type": "Feature",
   "geometry": {
    "type": "Point",
    "coordinates": [
     9.41611,
     51.315
    ]
   },
   "properties": {
    "painter": "Vermeer",
    "title": "Girl Reading a Letter at an Open Window (also known as Young Woman Reading a Letter at an Open Window )",
    "year": "1657 (or c. 1657–59)",
    "city": "Kassel",
    "country": "Germany",
    "location": "Gemäldegalerie Alte Meister",
    "attribution": "generally accepted",
    "dimensions": "Oil on canvas, 83 × 64.5 cm",
    "image": "https://upload.wikimedia.org/wikipedia/commons/thumb/c/c6/Jan_Vermeer_van_Delft_-_Brieflezend_meisje_bij_het_venster_%28ca._1657-59%29.jpg/500px-Jan_Vermeer_van_Delft_-_Brieflezend_meisje_bij_het_venster_%28ca._1657-59%29.jpg?utm_source=en.wikipedia.org&amp;utm_campaign=parser&amp;utm_content=thumbnail",
    "notable": true,
    "wikipedia_en": "https://en.wikipedia.org/wiki/Girl_Reading_a_Letter_at_an_Open_Window",
    "creation_place": "Delft",
    "creation_lat": 52.0116,
    "creation_lon": 4.3571,
    "_source": {
     "source": "Wikipedia: List of paintings by Johannes Vermeer",
     "coord": "MediaWiki coordinates API"
    },
    "museum_id": "gemaldegalerie-alte-meister",
    "qid": "Q700251",
    "wikidata": "https://www.wikidata.org/wiki/Q700251",
    "wga_url": "https://www.wga.hu/html/v/vermeer/02a/06gread2.html"
   }
  },
  {
   "type": "Feature",
   "geometry": {
    "type": "Point",
    "coordinates": [
     -73.9631,
     40.7794
    ]
   },
   "properties": {
    "painter": "Vermeer",
    "title": "A Girl Asleep (also known as A Maid Asleep )",
    "year": "1657 (or 1656–57)",
    "city": "New York",
    "country": "United States",
    "location": "Metropolitan Museum of Art",
    "attribution": "generally accepted",
    "dimensions": "Oil on canvas, 87.6 × 76.5 cm",
    "image": "https://upload.wikimedia.org/wikipedia/commons/thumb/2/2f/Vermeer_young_women_sleeping.jpg/500px-Vermeer_young_women_sleeping.jpg?utm_source=en.wikipedia.org&amp;utm_campaign=parser&amp;utm_content=thumbnail",
    "notable": true,
    "wikipedia_en": "https://en.wikipedia.org/wiki/A_Girl_Asleep_(Vermeer)",
    "creation_place": "Delft",
    "creation_lat": 52.0116,
    "creation_lon": 4.3571,
    "_source": {
     "source": "Wikipedia: List of paintings by Johannes Vermeer",
     "coord": "MediaWiki coordinates API"
    },
    "museum_id": "metropolitan-museum-of-art",
    "qid": "Q684935",
    "wikidata": "https://www.wikidata.org/wiki/Q684935",
    "wga_url": "https://www.wga.hu/html/v/vermeer/02a/05sleep4.html"
   }
  },
  {
   "type": "Feature",
   "geometry": {
    "type": "Point",
    "coordinates": [
     4.8853,
     52.36
    ]
   },
   "properties": {
    "painter": "Vermeer",
    "title": "The Little Street",
    "year": "1657–58 or c. 1658 or c. 1658–60",
    "city": "Amsterdam",
    "country": "Netherlands",
    "location": "Rijksmuseum",
    "attribution": "generally accepted",
    "dimensions": "Oil on canvas, 54.3 × 44 cm",
    "image": "https://upload.wikimedia.org/wikipedia/commons/thumb/2/2b/Johannes_Vermeer_-_Gezicht_op_huizen_in_Delft%2C_bekend_als_%27Het_straatje%27_-_Google_Art_Project.jpg/500px-Johannes_Vermeer_-_Gezicht_op_huizen_in_Delft%2C_bekend_als_%27Het_straatje%27_-_Google_Art_Project.jpg?utm_source=en.wikipedia.org&amp;utm_campaign=parser&amp;utm_content=thumbnail",
    "notable": true,
    "wikipedia_en": "https://en.wikipedia.org/wiki/The_Little_Street",
    "creation_place": "Delft",
    "creation_lat": 52.0116,
    "creation_lon": 4.3571,
    "_source": {
     "source": "Wikipedia: List of paintings by Johannes Vermeer",
     "coord": "MediaWiki coordinates API"
    },
    "museum_id": "rijksmuseum",
    "qid": "Q586035",
    "wikidata": "https://www.wikidata.org/wiki/Q586035",
    "wga_url": "https://www.wga.hu/html/v/vermeer/02a/07stree4.html"
   }
  },
  {
   "type": "Feature",
   "geometry": {
    "type": "Point",
    "coordinates": [
     -73.9672,
     40.7711
    ]
   },
   "properties": {
    "painter": "Vermeer",
    "title": "Officer with a Laughing Girl (also known as Officer and Laughing Girl )",
    "year": "c. 1657",
    "city": "New York",
    "country": "United States",
    "location": "Frick Collection",
    "attribution": "generally accepted",
    "dimensions": "Oil on canvas, 50.5 × 46 cm",
    "image": "https://upload.wikimedia.org/wikipedia/commons/thumb/2/2e/Johannes_Vermeer_-_De_Soldaat_en_het_Lachende_Meisje_-_Google_Art_Project.jpg/500px-Johannes_Vermeer_-_De_Soldaat_en_het_Lachende_Meisje_-_Google_Art_Project.jpg?utm_source=en.wikipedia.org&amp;utm_campaign=parser&amp;utm_content=thumbnail",
    "notable": true,
    "wikipedia_en": "https://en.wikipedia.org/wiki/Officer_with_a_Laughing_Girl",
    "creation_place": "Delft",
    "creation_lat": 52.0116,
    "creation_lon": 4.3571,
    "_source": {
     "source": "Wikipedia: List of paintings by Johannes Vermeer",
     "coord": "MediaWiki coordinates API"
    },
    "museum_id": "frick-collection",
    "qid": "Q467376",
    "wikidata": "https://www.wikidata.org/wiki/Q467376",
    "wga_url": "https://www.wga.hu/html/v/vermeer/02b/08offic2.html"
   }
  },
  {
   "type": "Feature",
   "geometry": {
    "type": "Point",
    "coordinates": [
     4.8853,
     52.36
    ]
   },
   "properties": {
    "painter": "Vermeer",
    "title": "The Milkmaid",
    "year": "c. 1658 or c. 1657–58",
    "city": "Amsterdam",
    "country": "Netherlands",
    "location": "Rijksmuseum",
    "attribution": "generally accepted",
    "dimensions": "Oil on canvas, 45.5 × 41 cm",
    "image": "https://upload.wikimedia.org/wikipedia/commons/thumb/2/20/Johannes_Vermeer_-_Het_melkmeisje_-_Google_Art_Project.jpg/500px-Johannes_Vermeer_-_Het_melkmeisje_-_Google_Art_Project.jpg?utm_source=en.wikipedia.org&amp;utm_campaign=parser&amp;utm_content=thumbnail",
    "notable": true,
    "wikipedia_en": "https://en.wikipedia.org/wiki/The_Milkmaid_(Vermeer)",
    "creation_place": "Delft",
    "creation_lat": 52.0116,
    "creation_lon": 4.3571,
    "_source": {
     "source": "Wikipedia: List of paintings by Johannes Vermeer",
     "coord": "MediaWiki coordinates API"
    },
    "museum_id": "rijksmuseum",
    "qid": "Q167605",
    "wikidata": "https://www.wikidata.org/wiki/Q167605",
    "wga_url": "https://www.wga.hu/html/v/vermeer/02b/09milkm7.html"
   }
  },
  {
   "type": "Feature",
   "geometry": {
    "type": "Point",
    "coordinates": [
     13.3647,
     52.5086
    ]
   },
   "properties": {
    "painter": "Vermeer",
    "title": "The Wine Glass , also known as A Lady Drinking and a Gentleman and The Glass of Wine",
    "year": "1658–60 or 1658–59",
    "city": "Berlin",
    "country": "Germany",
    "location": "Gemäldegalerie",
    "attribution": "generally accepted",
    "dimensions": "Oil on canvas, 39.4 × 44.5 cm",
    "image": "https://upload.wikimedia.org/wikipedia/commons/thumb/a/a4/Jan_Vermeer_van_Delft_-_The_Glass_of_Wine_-_Google_Art_Project.jpg/500px-Jan_Vermeer_van_Delft_-_The_Glass_of_Wine_-_Google_Art_Project.jpg?utm_source=en.wikipedia.org&amp;utm_campaign=parser&amp;utm_content=thumbnail",
    "notable": true,
    "wikipedia_en": "https://en.wikipedia.org/wiki/The_Wine_Glass",
    "creation_place": "Delft",
    "creation_lat": 52.0116,
    "creation_lon": 4.3571,
    "_source": {
     "source": "Wikipedia: List of paintings by Johannes Vermeer",
     "coord": "MediaWiki coordinates API"
    },
    "museum_id": "gemaldegalerie",
    "qid": "Q782639",
    "wikidata": "https://www.wikidata.org/wiki/Q782639",
    "wga_url": "https://www.wga.hu/html/v/vermeer/02c/11drink4.html"
   }
  },
  {
   "type": "Feature",
   "geometry": {
    "type": "Point",
    "coordinates": [
     10.533,
     52.2635
    ]
   },
   "properties": {
    "painter": "Vermeer",
    "title": "The Girl with the Wineglass",
    "year": "c. 1659",
    "city": "Brunswick",
    "location": "Herzog Anton Ulrich Museum",
    "attribution": "generally accepted",
    "dimensions": "Oil on canvas, 78 × 67.5 cm",
    "image": "https://upload.wikimedia.org/wikipedia/commons/thumb/1/1f/Jan_Vermeer_van_Delft_006.jpg/500px-Jan_Vermeer_van_Delft_006.jpg?utm_source=en.wikipedia.org&amp;utm_campaign=parser&amp;utm_content=thumbnail",
    "notable": true,
    "wikipedia_en": "https://en.wikipedia.org/wiki/The_Girl_with_the_Wineglass",
    "creation_place": "Delft",
    "creation_lat": 52.0116,
    "creation_lon": 4.3571,
    "_source": {
     "source": "Wikipedia: List of paintings by Johannes Vermeer",
     "coord": "MediaWiki coordinates API"
    },
    "museum_id": "herzog-anton-ulrich-museum",
    "country": "Germany",
    "qid": "Q1169874",
    "wikidata": "https://www.wikidata.org/wiki/Q1169874",
    "wga_url": "https://www.wga.hu/html/v/vermeer/02c/12lady3.html"
   }
  },
  {
   "type": "Feature",
   "geometry": {
    "type": "Point",
    "coordinates": [
     4.3143,
     52.0804
    ]
   },
   "properties": {
    "painter": "Vermeer",
    "title": "View of Delft",
    "year": "1659–60",
    "city": "The Hague",
    "country": "Netherlands",
    "location": "Mauritshuis",
    "attribution": "generally accepted",
    "dimensions": "Oil on canvas, 98.5 × 117.5 cm",
    "image": "https://upload.wikimedia.org/wikipedia/commons/thumb/a/a2/Vermeer-view-of-delft.jpg/500px-Vermeer-view-of-delft.jpg?utm_source=en.wikipedia.org&amp;utm_campaign=parser&amp;utm_content=thumbnail",
    "notable": true,
    "wikipedia_en": "https://en.wikipedia.org/wiki/View_of_Delft_(Vermeer)",
    "creation_place": "Delft",
    "creation_lat": 52.0116,
    "creation_lon": 4.3571,
    "_source": {
     "source": "Wikipedia: List of paintings by Johannes Vermeer",
     "coord": "MediaWiki coordinates API"
    },
    "museum_id": "mauritshuis",
    "qid": "Q523974",
    "wikidata": "https://www.wikidata.org/wiki/Q523974",
    "wga_url": "https://www.wga.hu/html/v/vermeer/02c/13view4.html"
   }
  },
  {
   "type": "Feature",
   "geometry": {
    "type": "Point",
    "coordinates": [
     -73.9672,
     40.7711
    ]
   },
   "properties": {
    "painter": "Vermeer",
    "title": "Girl Interrupted at Her Music",
    "year": "1660–61 (or 1658–59)",
    "city": "New York",
    "country": "United States",
    "location": "Frick Collection",
    "attribution": "generally accepted",
    "dimensions": "Oil on canvas, 39.4 × 44.5 cm",
    "image": "https://upload.wikimedia.org/wikipedia/commons/thumb/1/14/Vermeer_Girl_Interrupted_at_Her_Music.jpg/500px-Vermeer_Girl_Interrupted_at_Her_Music.jpg?utm_source=en.wikipedia.org&amp;utm_campaign=parser&amp;utm_content=thumbnail",
    "notable": true,
    "wikipedia_en": "https://en.wikipedia.org/wiki/Girl_Interrupted_at_Her_Music",
    "creation_place": "Delft",
    "creation_lat": 52.0116,
    "creation_lon": 4.3571,
    "_source": {
     "source": "Wikipedia: List of paintings by Johannes Vermeer",
     "coord": "MediaWiki coordinates API"
    },
    "museum_id": "frick-collection",
    "qid": "Q1219698",
    "wikidata": "https://www.wikidata.org/wiki/Q1219698",
    "wga_url": "https://www.wga.hu/html/v/vermeer/03a/14girl1.html"
   }
  },
  {
   "type": "Feature",
   "geometry": {
    "type": "Point",
    "coordinates": [
     4.8853,
     52.36
    ]
   },
   "properties": {
    "painter": "Vermeer",
    "title": "Woman Reading a Letter",
    "year": "1663–64 (or 1657–59)",
    "city": "Amsterdam",
    "country": "Netherlands",
    "location": "Rijksmuseum",
    "attribution": "generally accepted",
    "dimensions": "Oil on canvas, 46.6 × 39.1 cm",
    "image": "https://upload.wikimedia.org/wikipedia/commons/thumb/d/db/Vermeer%2C_Johannes_-_Woman_reading_a_letter_-_ca._1662-1663.jpg/500px-Vermeer%2C_Johannes_-_Woman_reading_a_letter_-_ca._1662-1663.jpg?utm_source=en.wikipedia.org&amp;utm_campaign=parser&amp;utm_content=thumbnail",
    "notable": true,
    "wikipedia_en": "https://en.wikipedia.org/wiki/Woman_Reading_a_Letter_(Vermeer)",
    "creation_place": "Delft",
    "creation_lat": 52.0116,
    "creation_lon": 4.3571,
    "_source": {
     "source": "Wikipedia: List of paintings by Johannes Vermeer",
     "coord": "MediaWiki coordinates API"
    },
    "museum_id": "rijksmuseum",
    "qid": "Q166937",
    "wikidata": "https://www.wikidata.org/wiki/Q166937",
    "wga_url": "https://www.wga.hu/html/v/vermeer/03a/18woman1.html"
   }
  },
  {
   "type": "Feature",
   "geometry": {
    "type": "Point",
    "coordinates": [
     -0.142,
     51.501
    ]
   },
   "properties": {
    "painter": "Vermeer",
    "title": "The Music Lesson (also known as A Lady at the Virginals with a Gentleman )",
    "year": "1662",
    "city": "England",
    "location": "Royal Collection",
    "attribution": "generally accepted",
    "dimensions": "Oil on canvas, 73.3 × 64.5 cm",
    "image": "https://upload.wikimedia.org/wikipedia/commons/thumb/4/49/Jan_Vermeer_van_Delft_014.jpg/500px-Jan_Vermeer_van_Delft_014.jpg?utm_source=en.wikipedia.org&amp;utm_campaign=parser&amp;utm_content=thumbnail",
    "notable": true,
    "wikipedia_en": "https://en.wikipedia.org/wiki/The_Music_Lesson",
    "creation_place": "Delft",
    "creation_lat": 52.0116,
    "creation_lon": 4.3571,
    "_source": {
     "source": "Wikipedia: List of paintings by Johannes Vermeer",
     "coord": "MediaWiki coordinates API"
    },
    "museum_id": "royal-collection",
    "qid": "Q2336984",
    "wikidata": "https://www.wikidata.org/wiki/Q2336984",
    "wga_url": "https://www.wga.hu/html/v/vermeer/03a/16ladyv3.html",
    "country": "United Kingdom"
   }
  },
  {
   "type": "Feature",
   "geometry": {
    "type": "Point",
    "coordinates": [
     -73.9631,
     40.7794
    ]
   },
   "properties": {
    "painter": "Vermeer",
    "title": "Woman with a Lute",
    "year": "c. 1663–64 or 1662–63",
    "city": "New York",
    "country": "United States",
    "location": "Metropolitan Museum of Art",
    "attribution": "generally accepted",
    "dimensions": "Oil on canvas, 51.4 × 45.7 cm",
    "image": "https://upload.wikimedia.org/wikipedia/commons/thumb/f/fe/Vermeer_-_Woman_with_a_Lute_near_a_window.jpg/500px-Vermeer_-_Woman_with_a_Lute_near_a_window.jpg?utm_source=en.wikipedia.org&amp;utm_campaign=parser&amp;utm_content=thumbnail",
    "notable": true,
    "wikipedia_en": "https://en.wikipedia.org/wiki/Woman_with_a_Lute",
    "creation_place": "Delft",
    "creation_lat": 52.0116,
    "creation_lon": 4.3571,
    "_source": {
     "source": "Wikipedia: List of paintings by Johannes Vermeer",
     "coord": "MediaWiki coordinates API"
    },
    "museum_id": "metropolitan-museum-of-art",
    "qid": "Q839359",
    "wikidata": "https://www.wikidata.org/wiki/Q839359",
    "wga_url": "https://www.wga.hu/html/v/vermeer/03a/17lute1.html"
   }
  },
  {
   "type": "Feature",
   "geometry": {
    "type": "Point",
    "coordinates": [
     13.3647,
     52.5086
    ]
   },
   "properties": {
    "painter": "Vermeer",
    "title": "Woman with a Pearl Necklace",
    "year": "1662–64",
    "city": "Berlin",
    "country": "Germany",
    "location": "Gemäldegalerie",
    "attribution": "generally accepted",
    "dimensions": "Oil on canvas, 55 × 45 cm",
    "image": "https://upload.wikimedia.org/wikipedia/commons/thumb/8/8d/Jan_Vermeer_van_Delft_-_Young_Woman_with_a_Pearl_Necklace_-_Google_Art_Project.jpg/500px-Jan_Vermeer_van_Delft_-_Young_Woman_with_a_Pearl_Necklace_-_Google_Art_Project.jpg?utm_source=en.wikipedia.org&amp;utm_campaign=parser&amp;utm_content=thumbnail",
    "notable": true,
    "wikipedia_en": "https://en.wikipedia.org/wiki/Woman_with_a_Pearl_Necklace",
    "creation_place": "Delft",
    "creation_lat": 52.0116,
    "creation_lon": 4.3571,
    "_source": {
     "source": "Wikipedia: List of paintings by Johannes Vermeer",
     "coord": "MediaWiki coordinates API"
    },
    "museum_id": "gemaldegalerie",
    "qid": "Q151143",
    "wikidata": "https://www.wikidata.org/wiki/Q151143",
    "wga_url": "https://www.wga.hu/html/v/vermeer/03a/19woman1.html"
   }
  },
  {
   "type": "Feature",
   "geometry": {
    "type": "Point",
    "coordinates": [
     -73.9631,
     40.7794
    ]
   },
   "properties": {
    "painter": "Vermeer",
    "title": "Woman with a Water Jug , also known as Young Woman with a Water Pitcher",
    "year": "1660–62 or c. 1662",
    "city": "New York",
    "country": "United States",
    "location": "Metropolitan Museum of Art",
    "attribution": "generally accepted",
    "dimensions": "Oil on canvas, 45.7 × 40.6 cm",
    "image": "https://upload.wikimedia.org/wikipedia/commons/thumb/5/55/Jan_Vermeer_van_Delft_019.jpg/500px-Jan_Vermeer_van_Delft_019.jpg?utm_source=en.wikipedia.org&amp;utm_campaign=parser&amp;utm_content=thumbnail",
    "notable": true,
    "wikipedia_en": "https://en.wikipedia.org/wiki/Woman_with_a_Water_Jug_(Vermeer)",
    "creation_place": "Delft",
    "creation_lat": 52.0116,
    "creation_lon": 4.3571,
    "_source": {
     "source": "Wikipedia: List of paintings by Johannes Vermeer",
     "coord": "MediaWiki coordinates API"
    },
    "museum_id": "metropolitan-museum-of-art",
    "qid": "Q386453",
    "wikidata": "https://www.wikidata.org/wiki/Q386453",
    "wga_url": "https://www.wga.hu/html/v/vermeer/03b/21wjug3.html"
   }
  },
  {
   "type": "Feature",
   "geometry": {
    "type": "Point",
    "coordinates": [
     -77.02,
     38.8914
    ]
   },
   "properties": {
    "painter": "Vermeer",
    "title": "Woman Holding a Balance , also known as Woman with a Balance",
    "year": "1662–63 or c. 1663–64",
    "city": "Washington",
    "country": "United States",
    "location": "National Gallery of Art",
    "attribution": "generally accepted",
    "dimensions": "Oil on canvas, 42.5 × 38 cm",
    "image": "https://upload.wikimedia.org/wikipedia/commons/thumb/6/68/Johannes_Vermeer_-_Woman_Holding_a_Balance_-_Google_Art_Project.jpg/500px-Johannes_Vermeer_-_Woman_Holding_a_Balance_-_Google_Art_Project.jpg?utm_source=en.wikipedia.org&amp;utm_campaign=parser&amp;utm_content=thumbnail",
    "notable": true,
    "wikipedia_en": "https://en.wikipedia.org/wiki/Woman_Holding_a_Balance",
    "creation_place": "Delft",
    "creation_lat": 52.0116,
    "creation_lon": 4.3571,
    "_source": {
     "source": "Wikipedia: List of paintings by Johannes Vermeer",
     "coord": "MediaWiki coordinates API"
    },
    "museum_id": "national-gallery-of-art",
    "qid": "Q969367",
    "wikidata": "https://www.wikidata.org/wiki/Q969367",
    "wga_url": "https://www.wga.hu/html/v/vermeer/03b/20balan.html"
   }
  },
  {
   "type": "Feature",
   "geometry": {
    "type": "Point",
    "coordinates": [
     -77.02,
     38.8914
    ]
   },
   "properties": {
    "painter": "Vermeer",
    "title": "A Lady Writing a Letter",
    "year": "1665–66",
    "city": "Washington",
    "country": "United States",
    "location": "National Gallery of Art",
    "attribution": "generally accepted",
    "dimensions": "Oil on canvas, 45 × 40 cm",
    "image": "https://upload.wikimedia.org/wikipedia/commons/thumb/6/6b/Johannes_Vermeer_-_A_Lady_Writing_-_Google_Art_Project.jpg/500px-Johannes_Vermeer_-_A_Lady_Writing_-_Google_Art_Project.jpg?utm_source=en.wikipedia.org&amp;utm_campaign=parser&amp;utm_content=thumbnail",
    "notable": true,
    "wikipedia_en": "https://en.wikipedia.org/wiki/A_Lady_Writing_a_Letter",
    "creation_place": "Delft",
    "creation_lat": 52.0116,
    "creation_lon": 4.3571,
    "_source": {
     "source": "Wikipedia: List of paintings by Johannes Vermeer",
     "coord": "MediaWiki coordinates API"
    },
    "museum_id": "national-gallery-of-art",
    "qid": "Q914984",
    "wikidata": "https://www.wikidata.org/wiki/Q914984",
    "wga_url": "https://www.wga.hu/html/v/vermeer/03a/15lwrit.html"
   }
  },
  {
   "type": "Feature",
   "geometry": {
    "type": "Point",
    "coordinates": [
     4.3143,
     52.0804
    ]
   },
   "properties": {
    "painter": "Vermeer",
    "title": "Girl with a Pearl Earring , also known as Girl in a Turban , Head of Girl in a Turban , The Young Girl with Turban , and Head of a Young Girl.",
    "year": "c. 1665",
    "city": "The Hague",
    "country": "Netherlands",
    "location": "Mauritshuis",
    "attribution": "generally accepted",
    "dimensions": "Oil on canvas, 46.5 × 40 cm",
    "image": "https://upload.wikimedia.org/wikipedia/commons/thumb/0/0f/1665_Girl_with_a_Pearl_Earring.jpg/500px-1665_Girl_with_a_Pearl_Earring.jpg?utm_source=en.wikipedia.org&amp;utm_campaign=parser&amp;utm_content=thumbnail",
    "notable": true,
    "wikipedia_en": "https://en.wikipedia.org/wiki/Girl_with_a_Pearl_Earring",
    "creation_place": "Delft",
    "creation_lat": 52.0116,
    "creation_lon": 4.3571,
    "_source": {
     "source": "Wikipedia: List of paintings by Johannes Vermeer",
     "coord": "MediaWiki coordinates API"
    },
    "museum_id": "mauritshuis",
    "qid": "Q185372",
    "wikidata": "https://www.wikidata.org/wiki/Q185372",
    "wga_url": "https://www.wga.hu/html/v/vermeer/03b/22pearl2.html"
   }
  },
  {
   "type": "Feature",
   "geometry": {
    "type": "Point",
    "coordinates": [
     -73.9631,
     40.7794
    ]
   },
   "properties": {
    "painter": "Vermeer",
    "title": "Portrait of a Young Woman , also known as Study of a Young Woman",
    "year": "1666–67 or c. 1665–67",
    "city": "New York",
    "country": "United States",
    "location": "Metropolitan Museum of Art",
    "attribution": "generally accepted",
    "dimensions": "Oil on canvas, 44.5 × 40 cm",
    "image": "https://upload.wikimedia.org/wikipedia/commons/thumb/d/d9/Vermeer-Portrait_of_a_Young_Woman.jpg/500px-Vermeer-Portrait_of_a_Young_Woman.jpg?utm_source=en.wikipedia.org&amp;utm_campaign=parser&amp;utm_content=thumbnail",
    "notable": true,
    "wikipedia_en": "https://en.wikipedia.org/wiki/Portrait_of_a_Young_Woman_(Vermeer,_New_York)",
    "creation_place": "Delft",
    "creation_lat": 52.0116,
    "creation_lon": 4.3571,
    "_source": {
     "source": "Wikipedia: List of paintings by Johannes Vermeer",
     "coord": "MediaWiki coordinates API"
    },
    "museum_id": "metropolitan-museum-of-art",
    "qid": "Q958088",
    "wikidata": "https://www.wikidata.org/wiki/Q958088"
   }
  },
  {
   "type": "Feature",
   "geometry": {
    "type": "Point",
    "coordinates": [
     16.3616,
     48.20388
    ]
   },
   "properties": {
    "painter": "Vermeer",
    "title": "The Allegory of Painting , also known as The Art of Painting",
    "year": "1666–67 or c. 1666–68",
    "city": "Vienna",
    "country": "Austria",
    "location": "Kunsthistorisches Museum",
    "attribution": "generally accepted",
    "dimensions": "Oil on canvas, 100 × 120 cm",
    "image": "https://upload.wikimedia.org/wikipedia/commons/thumb/5/5e/Jan_Vermeer_-_The_Art_of_Painting_-_Google_Art_Project.jpg/500px-Jan_Vermeer_-_The_Art_of_Painting_-_Google_Art_Project.jpg?utm_source=en.wikipedia.org&amp;utm_campaign=parser&amp;utm_content=thumbnail",
    "notable": true,
    "wikipedia_en": "https://en.wikipedia.org/wiki/The_Art_of_Painting",
    "creation_place": "Delft",
    "creation_lat": 52.0116,
    "creation_lon": 4.3571,
    "_source": {
     "source": "Wikipedia: List of paintings by Johannes Vermeer",
     "coord": "MediaWiki coordinates API"
    },
    "museum_id": "kunsthistorisches-museum",
    "qid": "Q588695",
    "wikidata": "https://www.wikidata.org/wiki/Q588695",
    "wga_url": "https://www.wga.hu/html/v/vermeer/03c/25artpa.html"
   }
  },
  {
   "type": "Feature",
   "geometry": {
    "type": "Point",
    "coordinates": [
     -73.9672,
     40.7711
    ]
   },
   "properties": {
    "painter": "Vermeer",
    "title": "Mistress and Maid , also known as Lady with her Maidservant Holding a Letter",
    "year": "1667",
    "city": "New York",
    "country": "United States",
    "location": "Frick Collection",
    "attribution": "generally accepted",
    "dimensions": "Oil on canvas, 90.2 × 78.7 cm",
    "image": "https://upload.wikimedia.org/wikipedia/commons/thumb/6/61/Vermeer_Lady_Maidservant_Holding_Letter.jpg/500px-Vermeer_Lady_Maidservant_Holding_Letter.jpg?utm_source=en.wikipedia.org&amp;utm_campaign=parser&amp;utm_content=thumbnail",
    "notable": true,
    "wikipedia_en": "https://en.wikipedia.org/wiki/Mistress_and_Maid",
    "creation_place": "Delft",
    "creation_lat": 52.0116,
    "creation_lon": 4.3571,
    "_source": {
     "source": "Wikipedia: List of paintings by Johannes Vermeer",
     "coord": "MediaWiki coordinates API"
    },
    "museum_id": "frick-collection",
    "qid": "Q3739396",
    "wikidata": "https://www.wikidata.org/wiki/Q3739396",
    "wga_url": "https://www.wga.hu/html/v/vermeer/03c/26lady3.html"
   }
  },
  {
   "type": "Feature",
   "geometry": {
    "type": "Point",
    "coordinates": [
     -77.02,
     38.8914
    ]
   },
   "properties": {
    "painter": "Vermeer",
    "title": "Girl with a Red Hat (attribution to Vermeer has been questioned)",
    "year": "1668 or c. 1665–67",
    "city": "Washington",
    "country": "United States",
    "location": "National Gallery of Art",
    "attribution": "generally accepted",
    "dimensions": "Oil on panel, 22.8 × 18 cm",
    "image": "https://upload.wikimedia.org/wikipedia/commons/thumb/a/a3/Vermeer_-_Girl_with_a_Red_Hat.JPG/500px-Vermeer_-_Girl_with_a_Red_Hat.JPG?utm_source=en.wikipedia.org&amp;utm_campaign=parser&amp;utm_content=thumbnail",
    "notable": true,
    "wikipedia_en": "https://en.wikipedia.org/wiki/Girl_with_a_Red_Hat",
    "creation_place": "Delft",
    "creation_lat": 52.0116,
    "creation_lon": 4.3571,
    "_source": {
     "source": "Wikipedia: List of paintings by Johannes Vermeer",
     "coord": "MediaWiki coordinates API"
    },
    "museum_id": "national-gallery-of-art",
    "qid": "Q614047",
    "wikidata": "https://www.wikidata.org/wiki/Q614047",
    "wga_url": "https://www.wga.hu/html/v/vermeer/03c/27redhat.html"
   }
  },
  {
   "type": "Feature",
   "geometry": {
    "type": "Point",
    "coordinates": [
     2.3358,
     48.8611
    ]
   },
   "properties": {
    "painter": "Vermeer",
    "title": "The Astronomer",
    "year": "1668",
    "city": "Paris",
    "country": "France",
    "location": "Louvre",
    "attribution": "generally accepted",
    "dimensions": "Oil on canvas, 50.8 × 46.3 cm",
    "image": "https://upload.wikimedia.org/wikipedia/commons/thumb/e/e4/Johannes_Vermeer_-_The_Astronomer_-_1668.jpg/500px-Johannes_Vermeer_-_The_Astronomer_-_1668.jpg?utm_source=en.wikipedia.org&amp;utm_campaign=parser&amp;utm_content=thumbnail",
    "notable": true,
    "wikipedia_en": "https://en.wikipedia.org/wiki/The_Astronomer_(Vermeer)",
    "creation_place": "Delft",
    "creation_lat": 52.0116,
    "creation_lon": 4.3571,
    "_source": {
     "source": "Wikipedia: List of paintings by Johannes Vermeer",
     "coord": "MediaWiki coordinates API"
    },
    "museum_id": "louvre",
    "qid": "Q544315",
    "wikidata": "https://www.wikidata.org/wiki/Q544315",
    "wga_url": "https://www.wga.hu/html/v/vermeer/03d/28astro1.html"
   }
  },
  {
   "type": "Feature",
   "geometry": {
    "type": "Point",
    "coordinates": [
     8.67388,
     50.10322
    ]
   },
   "properties": {
    "painter": "Vermeer",
    "title": "The Geographer",
    "year": "1668",
    "city": "Frankfurt",
    "location": "Städelsches Kunstinstitut",
    "attribution": "generally accepted",
    "dimensions": "Oil on canvas, 53 × 46.6 cm",
    "image": "https://upload.wikimedia.org/wikipedia/commons/thumb/2/2a/Johannes_Vermeer_-_The_Geographer_-_Google_Art_Project.jpg/500px-Johannes_Vermeer_-_The_Geographer_-_Google_Art_Project.jpg?utm_source=en.wikipedia.org&amp;utm_campaign=parser&amp;utm_content=thumbnail",
    "notable": true,
    "wikipedia_en": "https://en.wikipedia.org/wiki/The_Geographer",
    "creation_place": "Delft",
    "creation_lat": 52.0116,
    "creation_lon": 4.3571,
    "_source": {
     "source": "Wikipedia: List of paintings by Johannes Vermeer",
     "coord": "MediaWiki coordinates API"
    },
    "museum_id": "stadelsches-kunstinstitut",
    "country": "Germany",
    "qid": "Q45130",
    "wikidata": "https://www.wikidata.org/wiki/Q45130",
    "wga_url": "https://www.wga.hu/html/v/vermeer/03d/29geogr1.html"
   }
  },
  {
   "type": "Feature",
   "geometry": {
    "type": "Point",
    "coordinates": [
     2.3358,
     48.8611
    ]
   },
   "properties": {
    "painter": "Vermeer",
    "title": "The Lacemaker",
    "year": "1669",
    "city": "Paris",
    "country": "France",
    "location": "Louvre",
    "attribution": "generally accepted",
    "dimensions": "Oil on canvas, 24.5 × 21 cm",
    "image": "https://upload.wikimedia.org/wikipedia/commons/thumb/0/03/Johannes_Vermeer_-_The_lacemaker_%28c.1669-1671%29.jpg/500px-Johannes_Vermeer_-_The_lacemaker_%28c.1669-1671%29.jpg?utm_source=en.wikipedia.org&amp;utm_campaign=parser&amp;utm_content=thumbnail",
    "notable": true,
    "wikipedia_en": "https://en.wikipedia.org/wiki/The_Lacemaker_(Vermeer)",
    "creation_place": "Delft",
    "creation_lat": 52.0116,
    "creation_lon": 4.3571,
    "_source": {
     "source": "Wikipedia: List of paintings by Johannes Vermeer",
     "coord": "MediaWiki coordinates API"
    },
    "museum_id": "louvre",
    "qid": "Q1216387",
    "wikidata": "https://www.wikidata.org/wiki/Q1216387",
    "wga_url": "https://www.wga.hu/html/v/vermeer/03d/30lacem1.html"
   }
  },
  {
   "type": "Feature",
   "geometry": {
    "type": "Point",
    "coordinates": [
     4.8853,
     52.36
    ]
   },
   "properties": {
    "painter": "Vermeer",
    "title": "The Love Letter",
    "year": "1669",
    "city": "Amsterdam",
    "country": "Netherlands",
    "location": "Rijksmuseum",
    "attribution": "generally accepted",
    "dimensions": "Oil on canvas, 44 × 38.5 cm",
    "image": "https://upload.wikimedia.org/wikipedia/commons/thumb/4/4b/Vermeer%2C_Johannes_-_The_Loveletter.jpg/500px-Vermeer%2C_Johannes_-_The_Loveletter.jpg?utm_source=en.wikipedia.org&amp;utm_campaign=parser&amp;utm_content=thumbnail",
    "notable": true,
    "wikipedia_en": "https://en.wikipedia.org/wiki/The_Love_Letter_(Vermeer)",
    "creation_place": "Delft",
    "creation_lat": 52.0116,
    "creation_lon": 4.3571,
    "_source": {
     "source": "Wikipedia: List of paintings by Johannes Vermeer",
     "coord": "MediaWiki coordinates API"
    },
    "museum_id": "rijksmuseum",
    "qid": "Q735061",
    "wikidata": "https://www.wikidata.org/wiki/Q735061",
    "wga_url": "https://www.wga.hu/html/v/vermeer/03d/31lovel2.html"
   }
  },
  {
   "type": "Feature",
   "geometry": {
    "type": "Point",
    "coordinates": [
     -73.9855,
     40.758
    ]
   },
   "properties": {
    "painter": "Vermeer",
    "title": "A Young Woman Seated at the Virginals",
    "year": "c. 1670",
    "city": "New York",
    "location": "Leiden Collection",
    "attribution": "generally accepted",
    "dimensions": "Oil on canvas, 25.2 × 20 cm",
    "image": "https://upload.wikimedia.org/wikipedia/commons/thumb/2/2b/Vermeer_-_A_young_Woman_seated_at_the_Virginals.jpg/500px-Vermeer_-_A_young_Woman_seated_at_the_Virginals.jpg?utm_source=en.wikipedia.org&amp;utm_campaign=parser&amp;utm_content=thumbnail",
    "notable": true,
    "wikipedia_en": "https://en.wikipedia.org/wiki/A_Young_Woman_Seated_at_the_Virginals",
    "creation_place": "Delft",
    "creation_lat": 52.0116,
    "creation_lon": 4.3571,
    "_source": {
     "source": "Wikipedia: List of paintings by Johannes Vermeer",
     "coord": "MediaWiki coordinates API"
    },
    "museum_id": "leiden-collection",
    "country": "United States",
    "qid": "Q4660880",
    "wikidata": "https://www.wikidata.org/wiki/Q4660880",
    "wga_url": "https://www.wga.hu/html/v/vermeer/04/351seat.html"
   }
  },
  {
   "type": "Feature",
   "geometry": {
    "type": "Point",
    "coordinates": [
     -6.25255,
     53.34091
    ]
   },
   "properties": {
    "painter": "Vermeer",
    "title": "Lady Writing a Letter with her Maid",
    "year": "1670",
    "city": "Dublin",
    "country": "Ireland",
    "location": "National Gallery of Ireland",
    "attribution": "generally accepted",
    "dimensions": "Oil on canvas, 71.1 × 58.4 cm",
    "image": "https://upload.wikimedia.org/wikipedia/commons/thumb/2/2b/DublinVermeer.jpg/500px-DublinVermeer.jpg?utm_source=en.wikipedia.org&amp;utm_campaign=parser&amp;utm_content=thumbnail",
    "notable": true,
    "wikipedia_en": "https://en.wikipedia.org/wiki/Lady_Writing_a_Letter_with_her_Maid",
    "creation_place": "Delft",
    "creation_lat": 52.0116,
    "creation_lon": 4.3571,
    "_source": {
     "source": "Wikipedia: List of paintings by Johannes Vermeer",
     "coord": "MediaWiki coordinates API"
    },
    "museum_id": "national-gallery-of-ireland",
    "qid": "Q641666",
    "wikidata": "https://www.wikidata.org/wiki/Q641666",
    "wga_url": "https://www.wga.hu/html/v/vermeer/03d/32ladyw3.html"
   }
  },
  {
   "type": "Feature",
   "geometry": {
    "type": "Point",
    "coordinates": [
     -73.9631,
     40.7794
    ]
   },
   "properties": {
    "painter": "Vermeer",
    "title": "The Allegory of Faith , also known as Allegory of the Faith",
    "year": "1671–74 or c. 1670–72",
    "city": "New York",
    "country": "United States",
    "location": "Metropolitan Museum of Art",
    "attribution": "generally accepted",
    "dimensions": "Oil on canvas, 114.3 × 88.9 cm",
    "image": "https://upload.wikimedia.org/wikipedia/commons/thumb/1/19/Johannes_Vermeer%2C_Allegory_of_the_Catholic_Faith%2C_The_Metropolitan_Museum_of_Art.jpg/500px-Johannes_Vermeer%2C_Allegory_of_the_Catholic_Faith%2C_The_Metropolitan_Museum_of_Art.jpg?utm_source=en.wikipedia.org&amp;utm_campaign=parser&amp;utm_content=thumbnail",
    "notable": true,
    "wikipedia_en": "https://en.wikipedia.org/wiki/The_Allegory_of_Faith",
    "creation_place": "Delft",
    "creation_lat": 52.0116,
    "creation_lon": 4.3571,
    "_source": {
     "source": "Wikipedia: List of paintings by Johannes Vermeer",
     "coord": "MediaWiki coordinates API"
    },
    "museum_id": "metropolitan-museum-of-art",
    "qid": "Q467359",
    "wikidata": "https://www.wikidata.org/wiki/Q467359",
    "wga_url": "https://www.wga.hu/html/v/vermeer/04/33faith2.html"
   }
  },
  {
   "type": "Feature",
   "geometry": {
    "type": "Point",
    "coordinates": [
     -0.1675,
     51.5714
    ]
   },
   "properties": {
    "painter": "Vermeer",
    "title": "The Guitar Player",
    "year": "1672",
    "city": "London",
    "country": "United Kingdom",
    "location": "Kenwood House",
    "attribution": "generally accepted",
    "dimensions": "Oil on canvas, 53 × 46.3 cm",
    "image": "https://upload.wikimedia.org/wikipedia/commons/thumb/7/70/Jan_Vermeer_van_Delft_013.jpg/500px-Jan_Vermeer_van_Delft_013.jpg?utm_source=en.wikipedia.org&amp;utm_campaign=parser&amp;utm_content=thumbnail",
    "notable": true,
    "wikipedia_en": "https://en.wikipedia.org/wiki/The_Guitar_Player_(Vermeer)",
    "creation_place": "Delft",
    "creation_lat": 52.0116,
    "creation_lon": 4.3571,
    "_source": {
     "source": "Wikipedia: List of paintings by Johannes Vermeer",
     "coord": "MediaWiki coordinates API"
    },
    "museum_id": "kenwood-house",
    "qid": "Q4358442",
    "wikidata": "https://www.wikidata.org/wiki/Q4358442",
    "wga_url": "https://www.wga.hu/html/v/vermeer/04/34guita1.html"
   }
  },
  {
   "type": "Feature",
   "geometry": {
    "type": "Point",
    "coordinates": [
     -0.1283,
     51.5089
    ]
   },
   "properties": {
    "painter": "Vermeer",
    "title": "Lady Standing at a Virginal , also known as Young Woman Standing at a Virginal",
    "year": "1673–75 or c. 1670–72",
    "city": "London",
    "country": "United Kingdom",
    "location": "National Gallery",
    "attribution": "generally accepted",
    "dimensions": "Oil on canvas, 51.7 × 45.2 cm",
    "image": "https://upload.wikimedia.org/wikipedia/commons/thumb/3/3d/Jan_Vermeer_van_Delft_-_Lady_Standing_at_a_Virginal_-_National_Gallery%2C_London.jpg/500px-Jan_Vermeer_van_Delft_-_Lady_Standing_at_a_Virginal_-_National_Gallery%2C_London.jpg?utm_source=en.wikipedia.org&amp;utm_campaign=parser&amp;utm_content=thumbnail",
    "notable": true,
    "wikipedia_en": "https://en.wikipedia.org/wiki/Lady_Standing_at_a_Virginal",
    "creation_place": "Delft",
    "creation_lat": 52.0116,
    "creation_lon": 4.3571,
    "_source": {
     "source": "Wikipedia: List of paintings by Johannes Vermeer",
     "coord": "MediaWiki coordinates API"
    },
    "museum_id": "national-gallery",
    "qid": "Q2624258",
    "wikidata": "https://www.wikidata.org/wiki/Q2624258",
    "wga_url": "https://www.wga.hu/html/v/vermeer/04/36stand3.html"
   }
  },
  {
   "type": "Feature",
   "geometry": {
    "type": "Point",
    "coordinates": [
     -0.1283,
     51.5089
    ]
   },
   "properties": {
    "painter": "Vermeer",
    "title": "Lady Seated at a Virginal , also known as Young Woman Seated at a Virginal",
    "year": "1673–75 or c. 1670–72",
    "city": "London",
    "country": "United Kingdom",
    "location": "National Gallery",
    "attribution": "generally accepted",
    "dimensions": "Oil on canvas, 51.5 × 45.5 cm",
    "image": "https://upload.wikimedia.org/wikipedia/commons/thumb/6/67/Johannes_Vermeer_-_Zittende_Klavecimbelspeelster_%281673-1675%29.jpg/500px-Johannes_Vermeer_-_Zittende_Klavecimbelspeelster_%281673-1675%29.jpg?utm_source=en.wikipedia.org&amp;utm_campaign=parser&amp;utm_content=thumbnail",
    "notable": true,
    "wikipedia_en": "https://en.wikipedia.org/wiki/Lady_Seated_at_a_Virginal",
    "creation_place": "Delft",
    "creation_lat": 52.0116,
    "creation_lon": 4.3571,
    "_source": {
     "source": "Wikipedia: List of paintings by Johannes Vermeer",
     "coord": "MediaWiki coordinates API"
    },
    "museum_id": "national-gallery",
    "qid": "Q2267440",
    "wikidata": "https://www.wikidata.org/wiki/Q2267440",
    "wga_url": "https://www.wga.hu/html/v/vermeer/04/35seat1.html"
   }
  },
  {
   "type": "Feature",
   "geometry": {
    "type": "Point",
    "coordinates": [
     -77.02,
     38.8914
    ]
   },
   "properties": {
    "painter": "Vermeer",
    "title": "Girl with a Flute , said to be by a \"friend\" or imitator of Vermeer by the National Gallery, however the Rijksmuseum claims it to be authentic",
    "year": "1665–70",
    "city": "Washington",
    "country": "United States",
    "location": "National Gallery of Art",
    "attribution": "disputed",
    "dimensions": "Oil on panel, 20 x 17.8 cm",
    "image": "https://upload.wikimedia.org/wikipedia/commons/thumb/7/7e/Johannes_Vermeer_-_Girl_with_a_flute_%28c_1665-1670%29.jpg/500px-Johannes_Vermeer_-_Girl_with_a_flute_%28c_1665-1670%29.jpg?utm_source=en.wikipedia.org&amp;utm_campaign=parser&amp;utm_content=thumbnail",
    "notable": true,
    "wikipedia_en": "https://en.wikipedia.org/wiki/Girl_with_a_Flute",
    "creation_place": "Delft",
    "creation_lat": 52.0116,
    "creation_lon": 4.3571,
    "_source": {
     "source": "Wikipedia: List of paintings by Johannes Vermeer",
     "coord": "MediaWiki coordinates API"
    },
    "museum_id": "national-gallery-of-art",
    "qid": "Q3739200",
    "wikidata": "https://www.wikidata.org/wiki/Q3739200",
    "wga_url": "https://www.wga.hu/html/v/vermeer/03c/2710flut.html"
   }
  }
 ]
}