{
 "type": "FeatureCollection",
 "_note": "Canon from List of works by Rogier van der Weyden (Wikipedia). Coords via MediaWiki API.",
 "features": [
  {
   "type": "Feature",
   "geometry": {
    "type": "Point",
    "coordinates": [
     -3.69493,
     40.41604
    ]
   },
   "properties": {
    "painter": "Rogier van der Weyden",
    "title": "Virgin and Child Enthroned",
    "year": "c. 1425–1430, circa 1433",
    "city": "Madrid",
    "country": "Spain",
    "location": "Thyssen-Bornemisza Museum",
    "attribution": "generally accepted",
    "dimensions": "ca. 14 × 10 cm",
    "image": "https://upload.wikimedia.org/wikipedia/commons/thumb/b/b7/Rogier_van_der_Weyden_-_Virgin_and_Child_Enthroned_-_Museo_Thyssen-Bornemisza_435.jpg/500px-Rogier_van_der_Weyden_-_Virgin_and_Child_Enthroned_-_Museo_Thyssen-Bornemisza_435.jpg?utm_source=en.wikipedia.org&amp;utm_campaign=parser&amp;utm_content=thumbnail",
    "notable": true,
    "wikipedia_en": "https://en.wikipedia.org/wiki/Virgin_and_Child_Enthroned",
    "_source": {
     "source": "Wikipedia: List of works by Rogier van der Weyden",
     "coord": "MediaWiki coordinates API"
    },
    "museum_id": "thyssen-bornemisza-museum",
    "qid": "Q16170276",
    "wikidata": "https://www.wikidata.org/wiki/Q16170276",
    "wga_url": "https://www.wga.hu/html/w/weyden/rogier/13variou/0virgin.html"
   }
  },
  {
   "type": "Feature",
   "geometry": {
    "type": "Point",
    "coordinates": [
     -77.02,
     38.8914
    ]
   },
   "properties": {
    "painter": "Rogier van der Weyden",
    "title": "Saint George and the Dragon",
    "year": "c. 1425–1430",
    "city": "Washington",
    "country": "United States",
    "location": "National Gallery of Art",
    "attribution": "generally accepted",
    "dimensions": "ca. 14 × 10 cm",
    "image": "https://upload.wikimedia.org/wikipedia/commons/thumb/a/aa/Saint_George_and_the_Dragon_Rogier.jpg/500px-Saint_George_and_the_Dragon_Rogier.jpg?utm_source=en.wikipedia.org&amp;utm_campaign=parser&amp;utm_content=thumbnail",
    "notable": true,
    "wikipedia_en": "https://en.wikipedia.org/wiki/Saint_George_and_the_Dragon_(van_der_Weyden)",
    "_source": {
     "source": "Wikipedia: List of works by Rogier van der Weyden",
     "coord": "MediaWiki coordinates API"
    },
    "museum_id": "national-gallery-of-art",
    "qid": "Q20173537",
    "wikidata": "https://www.wikidata.org/wiki/Q20173537"
   }
  },
  {
   "type": "Feature",
   "geometry": {
    "type": "Point",
    "coordinates": [
     13.3647,
     52.5086
    ]
   },
   "properties": {
    "painter": "Rogier van der Weyden",
    "title": "Crucifixion",
    "year": "c. 1425–1430",
    "city": "Berlin",
    "country": "Germany",
    "location": "Gemäldegalerie",
    "attribution": "generally accepted",
    "dimensions": "79 × 49 cm",
    "image": "https://upload.wikimedia.org/wikipedia/commons/thumb/b/b1/Weyden_Crucifixion.jpg/500px-Weyden_Crucifixion.jpg?utm_source=en.wikipedia.org&amp;utm_campaign=parser&amp;utm_content=thumbnail",
    "notable": true,
    "_source": {
     "source": "Wikipedia: List of works by Rogier van der Weyden",
     "coord": "MediaWiki coordinates API"
    },
    "museum_id": "gemaldegalerie",
    "wga_url": "https://www.wga.hu/html/w/weyden/rogier/14pieta/1crucifi.html"
   }
  },
  {
   "type": "Feature",
   "geometry": {
    "type": "Point",
    "coordinates": [
     16.3616,
     48.20388
    ]
   },
   "properties": {
    "painter": "Rogier van der Weyden",
    "title": "Diptych with the Virgin and Child Standing in a Niche, and Saint Catherine in a landscape",
    "year": "c. 1430–1432",
    "city": "Vienna",
    "country": "Austria",
    "location": "Kunsthistorisches Museum",
    "attribution": "generally accepted",
    "dimensions": "both ca. 19 × 12 cm",
    "image": "https://upload.wikimedia.org/wikipedia/commons/thumb/6/65/Rogier_van_der_Weyden_-_Diptych_-_WGA25672.jpg/500px-Rogier_van_der_Weyden_-_Diptych_-_WGA25672.jpg?utm_source=en.wikipedia.org&amp;utm_campaign=parser&amp;utm_content=thumbnail",
    "notable": true,
    "wikipedia_en": "https://en.wikipedia.org/wiki/Madonna_Standing_(van_der_Weyden)",
    "creation_place": "Brussels",
    "creation_lat": 50.8503,
    "creation_lon": 4.3517,
    "_source": {
     "source": "Wikipedia: List of works by Rogier van der Weyden",
     "coord": "MediaWiki coordinates API"
    },
    "museum_id": "kunsthistorisches-museum",
    "qid": "Q17036401",
    "wikidata": "https://www.wikidata.org/wiki/Q17036401"
   }
  },
  {
   "type": "Feature",
   "geometry": {
    "type": "Point",
    "coordinates": [
     -3.6922,
     40.4139
    ]
   },
   "properties": {
    "painter": "Rogier van der Weyden",
    "title": "Descent from the Cross",
    "year": "c. 1430–1435",
    "city": "Madrid",
    "country": "Spain",
    "location": "Museo del Prado",
    "attribution": "generally accepted",
    "dimensions": "220 × 259 cm.",
    "image": "https://upload.wikimedia.org/wikipedia/commons/thumb/9/98/Weyden-descendimiento-prado-Ca-1435.jpg/500px-Weyden-descendimiento-prado-Ca-1435.jpg?utm_source=en.wikipedia.org&amp;utm_campaign=parser&amp;utm_content=thumbnail",
    "notable": true,
    "wikipedia_en": "https://en.wikipedia.org/wiki/Deposition_(Rogier_van_der_Weyden)",
    "creation_place": "Brussels",
    "creation_lat": 50.8503,
    "creation_lon": 4.3517,
    "_source": {
     "source": "Wikipedia: List of works by Rogier van der Weyden",
     "coord": "MediaWiki coordinates API"
    },
    "museum_id": "museo-del-prado",
    "qid": "Q568847",
    "wikidata": "https://www.wikidata.org/wiki/Q568847",
    "wga_url": "https://www.wga.hu/html/w/weyden/rogier/01deposi/7deposit.html"
   }
  },
  {
   "type": "Feature",
   "geometry": {
    "type": "Point",
    "coordinates": [
     -3.6922,
     40.4139
    ]
   },
   "properties": {
    "painter": "Rogier van der Weyden",
    "title": "Virgin and Child in a Niche , the so-called Durán Madonna",
    "year": "c. 1430–1435",
    "city": "Madrid",
    "country": "Spain",
    "location": "Museo del Prado",
    "attribution": "generally accepted",
    "dimensions": "00 × 52 cm.",
    "image": "https://upload.wikimedia.org/wikipedia/commons/thumb/4/49/Rogier_van_der_Weyden_018.jpg/500px-Rogier_van_der_Weyden_018.jpg?utm_source=en.wikipedia.org&amp;utm_campaign=parser&amp;utm_content=thumbnail",
    "notable": true,
    "wikipedia_en": "https://en.wikipedia.org/wiki/Dur%C3%A1n_Madonna",
    "creation_place": "Brussels",
    "creation_lat": 50.8503,
    "creation_lon": 4.3517,
    "_source": {
     "source": "Wikipedia: List of works by Rogier van der Weyden",
     "coord": "MediaWiki coordinates API"
    },
    "museum_id": "museo-del-prado",
    "qid": "Q5316837",
    "wikidata": "https://www.wikidata.org/wiki/Q5316837",
    "wga_url": "https://www.wga.hu/html/w/weyden/rogier/17other/2duran.html"
   }
  },
  {
   "type": "Feature",
   "geometry": {
    "type": "Point",
    "coordinates": [
     13.3647,
     52.5086
    ]
   },
   "properties": {
    "painter": "Rogier van der Weyden",
    "title": "Portrait of a Woman",
    "year": "c. 1430–1435",
    "city": "Berlin",
    "country": "Germany",
    "location": "Gemäldegalerie",
    "attribution": "generally accepted",
    "dimensions": "47 × 32 cm",
    "image": "https://upload.wikimedia.org/wikipedia/commons/thumb/7/78/Rogier_van_der_Weyden_%281399_-_1464%29_-_Portrait_of_a_Young_Woman_with_a_White_Headdress_-_545D_-_Gem%C3%A4ldegalerie.jpg/500px-Rogier_van_der_Weyden_%281399_-_1464%29_-_Portrait_of_a_Young_Woman_with_a_White_Headdress_-_545D_-_Gem%C3%A4ldegalerie.jpg?utm_source=en.wikipedia.org&amp;utm_campaign=parser&amp;utm_content=thumbnail",
    "notable": true,
    "wikipedia_en": "https://en.wikipedia.org/wiki/Portrait_of_a_Woman_(van_der_Weyden)",
    "creation_place": "Brussels",
    "creation_lat": 50.8503,
    "creation_lon": 4.3517,
    "_source": {
     "source": "Wikipedia: List of works by Rogier van der Weyden",
     "coord": "MediaWiki coordinates API"
    },
    "museum_id": "gemaldegalerie",
    "qid": "Q3399411",
    "wikidata": "https://www.wikidata.org/wiki/Q3399411",
    "wga_url": "https://www.wga.hu/html/w/weyden/rogier/16portra/02lady.html",
    "_merged": [
     {
      "source": "Wikidata",
      "title": "Portrait of a Young woman with a Winged Bonnet",
      "qid": "Q3399411",
      "url": "https://www.wikidata.org/wiki/Q3399411"
     }
    ]
   }
  },
  {
   "type": "Feature",
   "geometry": {
    "type": "Point",
    "coordinates": [
     -71.0942,
     42.3394
    ]
   },
   "properties": {
    "painter": "Rogier van der Weyden",
    "title": "Saint Luke Drawing the Virgin",
    "year": "c. 1435–1440",
    "city": "Higginson bequest",
    "location": "Boston Museum of Fine Arts",
    "attribution": "generally accepted",
    "dimensions": "138 × 111 cm.",
    "image": "https://upload.wikimedia.org/wikipedia/commons/thumb/0/0e/Weyden_madonna_1440.jpg/500px-Weyden_madonna_1440.jpg?utm_source=en.wikipedia.org&amp;utm_campaign=parser&amp;utm_content=thumbnail",
    "notable": true,
    "wikipedia_en": "https://en.wikipedia.org/wiki/Saint_Luke_Drawing_the_Virgin",
    "creation_place": "Brussels",
    "creation_lat": 50.8503,
    "creation_lon": 4.3517,
    "_source": {
     "source": "Wikipedia: List of works by Rogier van der Weyden",
     "coord": "MediaWiki coordinates API"
    },
    "museum_id": "boston-museum-of-fine-arts",
    "qid": "Q286096",
    "wikidata": "https://www.wikidata.org/wiki/Q286096",
    "wga_url": "https://www.wga.hu/html/w/weyden/rogier/02stluke/4luke.html"
   }
  },
  {
   "type": "Feature",
   "geometry": {
    "type": "Point",
    "coordinates": [
     12.37566,
     51.34245
    ]
   },
   "properties": {
    "painter": "Rogier van der Weyden",
    "title": "Visitation",
    "year": "c. 1435–1440",
    "city": "Leipzig",
    "location": "Museum der bildenden Künste",
    "attribution": "generally accepted",
    "dimensions": "58 × 36 cm",
    "image": "https://upload.wikimedia.org/wikipedia/commons/thumb/b/ba/Rogier_van_der_Weyden_-_Heimsuchung.jpeg/500px-Rogier_van_der_Weyden_-_Heimsuchung.jpeg?utm_source=en.wikipedia.org&amp;utm_campaign=parser&amp;utm_content=thumbnail",
    "notable": true,
    "wikipedia_en": "https://en.wikipedia.org/wiki/Visitation_(van_der_Weyden)",
    "creation_place": "Brussels",
    "creation_lat": 50.8503,
    "creation_lon": 4.3517,
    "_source": {
     "source": "Wikipedia: List of works by Rogier van der Weyden",
     "coord": "MediaWiki coordinates API"
    },
    "museum_id": "museum-der-bildenden-kunste",
    "country": "Germany",
    "qid": "Q25444058",
    "wikidata": "https://www.wikidata.org/wiki/Q25444058",
    "wga_url": "https://www.wga.hu/html/w/weyden/rogier/17other/3visitat.html"
   }
  },
  {
   "type": "Feature",
   "geometry": {
    "type": "Point",
    "coordinates": [
     7.48333,
     46.81667
    ]
   },
   "properties": {
    "painter": "Rogier van der Weyden",
    "title": "Triptych with the crucifixion , so called: Abegg Triptych",
    "year": "c. 1435–1440",
    "city": "Abegg-Stiftung",
    "location": "Riggisberg",
    "attribution": "generally accepted",
    "dimensions": "Center panel: 103 × 72 cm. Wings, both: 103 × 33 cm",
    "image": "https://upload.wikimedia.org/wikipedia/commons/thumb/d/df/Triptyque_de_Oberto_Villa.jpg/500px-Triptyque_de_Oberto_Villa.jpg?utm_source=en.wikipedia.org&amp;utm_campaign=parser&amp;utm_content=thumbnail",
    "notable": true,
    "creation_place": "Brussels",
    "creation_lat": 50.8503,
    "creation_lon": 4.3517,
    "_source": {
     "source": "Wikipedia: List of works by Rogier van der Weyden",
     "coord": "MediaWiki coordinates API"
    },
    "museum_id": "riggisberg"
   }
  },
  {
   "type": "Feature",
   "geometry": {
    "type": "Point",
    "coordinates": [
     4.39435,
     51.20882
    ]
   },
   "properties": {
    "painter": "Rogier van der Weyden",
    "title": "Triptych of the Seven Sacraments , so called Chevrot Altarpiece",
    "year": ".c. 1440–1445",
    "city": "Antwerp",
    "country": "Belgium",
    "location": "Koninklijk Museum voor Schone Kunsten Antwerpen",
    "attribution": "generally accepted",
    "dimensions": "center panel: 200 × 97 cm, Both side panels: 119 × 63 cm",
    "image": "https://upload.wikimedia.org/wikipedia/commons/thumb/2/21/Seven_Sacraments_Rogier.jpg/500px-Seven_Sacraments_Rogier.jpg?utm_source=en.wikipedia.org&amp;utm_campaign=parser&amp;utm_content=thumbnail",
    "notable": true,
    "wikipedia_en": "https://en.wikipedia.org/wiki/Seven_Sacraments_Altarpiece",
    "creation_place": "Brussels",
    "creation_lat": 50.8503,
    "creation_lon": 4.3517,
    "_source": {
     "source": "Wikipedia: List of works by Rogier van der Weyden",
     "coord": "MediaWiki coordinates API"
    },
    "museum_id": "koninklijk-museum-voor-schone-kunsten-antwerpen",
    "qid": "Q434461",
    "wikidata": "https://www.wikidata.org/wiki/Q434461"
   }
  },
  {
   "type": "Feature",
   "geometry": {
    "type": "Point",
    "coordinates": [
     13.3647,
     52.5086
    ]
   },
   "properties": {
    "painter": "Rogier van der Weyden",
    "title": "Triptych of Our Fair Lady , so called Miraflores Altarpiece",
    "year": ".c. 1440–1445",
    "city": "Berlin",
    "country": "Germany",
    "location": "Gemäldegalerie",
    "attribution": "generally accepted",
    "dimensions": "Three panels: 74 × 45 cm each.",
    "image": "https://upload.wikimedia.org/wikipedia/commons/thumb/c/ca/Rogier_van_der_Weyden_-_The_Altar_of_Our_Lady_%28Miraflores_Altar%29_-_Google_Art_ProjectFXD.jpg/500px-Rogier_van_der_Weyden_-_The_Altar_of_Our_Lady_%28Miraflores_Altar%29_-_Google_Art_ProjectFXD.jpg?utm_source=en.wikipedia.org&amp;utm_campaign=parser&amp;utm_content=thumbnail",
    "notable": true,
    "wikipedia_en": "https://en.wikipedia.org/wiki/Miraflores_Altarpiece",
    "creation_place": "Brussels",
    "creation_lat": 50.8503,
    "creation_lon": 4.3517,
    "_source": {
     "source": "Wikipedia: List of works by Rogier van der Weyden",
     "coord": "MediaWiki coordinates API"
    },
    "museum_id": "gemaldegalerie",
    "qid": "Q323032",
    "wikidata": "https://www.wikidata.org/wiki/Q323032"
   }
  },
  {
   "type": "Feature",
   "geometry": {
    "type": "Point",
    "coordinates": [
     16.3616,
     48.20388
    ]
   },
   "properties": {
    "painter": "Rogier van der Weyden",
    "title": "Crucifixion Triptych",
    "year": ".c. 1440–1445",
    "city": "Vienna",
    "country": "Austria",
    "location": "Kunsthistorisches Museum",
    "attribution": "generally accepted",
    "dimensions": "Center panel: 96 × 69 cm. Wings: 101 × 35 cm.",
    "image": "https://upload.wikimedia.org/wikipedia/commons/thumb/d/d2/Rogier_van_der_Weyden_-_Triptych-_The_Crucifixion_-_Google_Art_Project.jpg/500px-Rogier_van_der_Weyden_-_Triptych-_The_Crucifixion_-_Google_Art_Project.jpg?utm_source=en.wikipedia.org&amp;utm_campaign=parser&amp;utm_content=thumbnail",
    "notable": true,
    "wikipedia_en": "https://en.wikipedia.org/wiki/Crucifixion_Triptych",
    "creation_place": "Brussels",
    "creation_lat": 50.8503,
    "creation_lon": 4.3517,
    "_source": {
     "source": "Wikipedia: List of works by Rogier van der Weyden",
     "coord": "MediaWiki coordinates API"
    },
    "museum_id": "kunsthistorisches-museum",
    "qid": "Q1395192",
    "wikidata": "https://www.wikidata.org/wiki/Q1395192",
    "wga_url": "https://www.wga.hu/html/w/weyden/rogier/06crucif/0crucifi.html"
   }
  },
  {
   "type": "Feature",
   "geometry": {
    "type": "Point",
    "coordinates": [
     13.3647,
     52.5086
    ]
   },
   "properties": {
    "painter": "Rogier van der Weyden",
    "title": "Triptych with the Birth of Christ , so called Bladelin Triptych",
    "year": "c. 1445–1450",
    "city": "Berlin",
    "country": "Germany",
    "location": "Gemäldegalerie",
    "attribution": "generally accepted",
    "dimensions": "Center panel: 94 × 92 cm, Wings each: 94 × 42 cm.",
    "image": "https://upload.wikimedia.org/wikipedia/commons/thumb/b/ba/Middelburg_Altar_%28Bladelin_Altar%29_painted_by_Rogier_van_der_Weyden.jpg/500px-Middelburg_Altar_%28Bladelin_Altar%29_painted_by_Rogier_van_der_Weyden.jpg?utm_source=en.wikipedia.org&amp;utm_campaign=parser&amp;utm_content=thumbnail",
    "notable": true,
    "wikipedia_en": "https://en.wikipedia.org/wiki/Bladelin_Triptych",
    "creation_place": "Brussels",
    "creation_lat": 50.8503,
    "creation_lon": 4.3517,
    "_source": {
     "source": "Wikipedia: List of works by Rogier van der Weyden",
     "coord": "MediaWiki coordinates API"
    },
    "museum_id": "gemaldegalerie",
    "qid": "Q881025",
    "wikidata": "https://www.wikidata.org/wiki/Q881025"
   }
  },
  {
   "type": "Feature",
   "geometry": {
    "type": "Point",
    "coordinates": [
     4.35639,
     50.84444
    ]
   },
   "properties": {
    "painter": "Rogier van der Weyden",
    "title": "Jean Wauquelin presenting his 'Chroniques de Hainaut' to Philip the Good , dedication miniature from the 'Chroniques de Hainaut'",
    "year": "c. 1445–1450",
    "city": "Brussels",
    "country": "Belgium",
    "location": "Royal Library of Belgium",
    "attribution": "generally accepted",
    "dimensions": "paint on parchment, 15,4 × 20 cm (illustration), 42,3 × 28,8 (leaf).",
    "image": "https://upload.wikimedia.org/wikipedia/commons/thumb/5/5d/Jacques_de_Guise%2C_Chroniques_de_Hainaut%2C_frontispiece%2C_KBR_9242_%28cropped%29.jpg/500px-Jacques_de_Guise%2C_Chroniques_de_Hainaut%2C_frontispiece%2C_KBR_9242_%28cropped%29.jpg?utm_source=en.wikipedia.org&amp;utm_campaign=parser&amp;utm_content=thumbnail",
    "notable": true,
    "wikipedia_en": "https://en.wikipedia.org/wiki/Jean_Wauquelin_presenting_his_%27Chroniques_de_Hainaut%27_to_Philip_the_Good",
    "creation_place": "Brussels",
    "creation_lat": 50.8503,
    "creation_lon": 4.3517,
    "_source": {
     "source": "Wikipedia: List of works by Rogier van der Weyden",
     "coord": "MediaWiki coordinates API"
    },
    "museum_id": "royal-library-of-belgium",
    "qid": "Q17015401",
    "wikidata": "https://www.wikidata.org/wiki/Q17015401"
   }
  },
  {
   "type": "Feature",
   "geometry": {
    "type": "Point",
    "coordinates": [
     4.8397,
     47.025
    ]
   },
   "properties": {
    "painter": "Rogier van der Weyden",
    "title": "Beaune Altarpiece , so called: Last Judgement",
    "year": "c. 1445–1450",
    "city": "Hôtel-Dieu",
    "location": "Beaune",
    "attribution": "generally accepted",
    "dimensions": "The large center part measures 210 × 100 cm, the small upper wings measure 72 × 45 cm. Opened the polyptych measures 210 × 548 cm.",
    "image": "https://upload.wikimedia.org/wikipedia/commons/thumb/1/1f/Rogier_van_der_Weyden_-_Beaune_Altarpiece_%281443%29.jpg/500px-Rogier_van_der_Weyden_-_Beaune_Altarpiece_%281443%29.jpg?utm_source=en.wikipedia.org&amp;utm_campaign=parser&amp;utm_content=thumbnail",
    "notable": true,
    "wikipedia_en": "https://en.wikipedia.org/wiki/Beaune_Altarpiece",
    "creation_place": "Brussels",
    "creation_lat": 50.8503,
    "creation_lon": 4.3517,
    "_source": {
     "source": "Wikipedia: List of works by Rogier van der Weyden",
     "coord": "MediaWiki coordinates API"
    },
    "museum_id": "beaune",
    "qid": "Q1169199",
    "wikidata": "https://www.wikidata.org/wiki/Q1169199",
    "wga_url": "https://www.wga.hu/html/w/weyden/rogier/08beaune/02beaun.html",
    "_merged": [
     {
      "source": "Wikidata",
      "title": "The Last Judgment (Beaune Altarpiece)",
      "qid": "Q1169199",
      "url": "https://www.wikidata.org/wiki/Q1169199"
     }
    ]
   }
  },
  {
   "type": "Feature",
   "geometry": {
    "type": "Point",
    "coordinates": [
     13.364722222,
     52.508611111
    ]
   },
   "properties": {
    "painter": "Rogier van der Weyden",
    "title": "Saint Margaret and Saint Apollonia",
    "year": "1450",
    "location": "Gemäldegalerie Berlin",
    "city": "Bezirk Mitte",
    "country": "Germany",
    "attribution": "generally accepted",
    "image": "https://commons.wikimedia.org/wiki/Special:FilePath/Rogier%20van%20der%20Weyden%20-%20Sts%20Margaret%20and%20Apollonia%20-%20WGA25674.jpg?width=500",
    "qid": "Q47074318",
    "wikidata": "https://www.wikidata.org/wiki/Q47074318",
    "_source": {
     "source": "Wikidata",
     "url": "https://www.wikidata.org/wiki/Q47074318",
     "note": "harvested: painting by this creator with an image and a documented collection"
    },
    "creation_place": "Brussels",
    "creation_lat": 50.846667,
    "creation_lon": 4.3525,
    "_overrides": {
     "creation": {
      "at": "2026-08-24",
      "source": "derived",
      "note": "creation place inferred from the painter's itinerary at this work's date (approximate)"
     }
    },
    "dimensions": "51,5 × 27,5 cm.",
    "_merged": [
     {
      "source": "Wikipedia list",
      "title": "Saint Margareth and Saint Apollonia"
     }
    ]
   }
  },
  {
   "type": "Feature",
   "geometry": {
    "type": "Point",
    "coordinates": [
     2.3358,
     48.8611
    ]
   },
   "properties": {
    "painter": "Rogier van der Weyden",
    "title": "The Braque Triptych",
    "year": "c. 1450–1455",
    "city": "Paris",
    "country": "France",
    "location": "Louvre",
    "attribution": "generally accepted",
    "dimensions": "Center panel: 34 × 62 cm, wings each 34 × 27 cm.",
    "image": "https://upload.wikimedia.org/wikipedia/commons/thumb/0/0d/Triptyque_de_la_famille_Braque_-_Rogier_van_der_Weyden_-_Mus%C3%A9e_du_Louvre_Peintures_RF_2063.jpg/500px-Triptyque_de_la_famille_Braque_-_Rogier_van_der_Weyden_-_Mus%C3%A9e_du_Louvre_Peintures_RF_2063.jpg?utm_source=en.wikipedia.org&amp;utm_campaign=parser&amp;utm_content=thumbnail",
    "notable": true,
    "wikipedia_en": "https://en.wikipedia.org/wiki/The_Braque_Triptych",
    "creation_place": "Brussels",
    "creation_lat": 50.8503,
    "creation_lon": 4.3517,
    "_source": {
     "source": "Wikipedia: List of works by Rogier van der Weyden",
     "coord": "MediaWiki coordinates API"
    },
    "museum_id": "louvre",
    "qid": "Q24160",
    "wikidata": "https://www.wikidata.org/wiki/Q24160",
    "_merged": [
     {
      "source": "Wikidata",
      "title": "Braque Triptych",
      "qid": "Q24160",
      "url": "https://www.wikidata.org/wiki/Q24160"
     }
    ]
   }
  },
  {
   "type": "Feature",
   "geometry": {
    "type": "Point",
    "coordinates": [
     -3.69493,
     40.41604
    ]
   },
   "properties": {
    "painter": "Rogier van der Weyden",
    "title": "Portrait of a man",
    "year": "c. 1450–1455",
    "city": "Madrid",
    "country": "Spain",
    "location": "Thyssen-Bornemisza Museum",
    "attribution": "generally accepted",
    "dimensions": "32 × 23 cm.",
    "image": "https://upload.wikimedia.org/wikipedia/commons/thumb/7/74/Rogier_van_der_Weyden_026.jpg/500px-Rogier_van_der_Weyden_026.jpg?utm_source=en.wikipedia.org&amp;utm_campaign=parser&amp;utm_content=thumbnail",
    "notable": true,
    "creation_place": "Brussels",
    "creation_lat": 50.8503,
    "creation_lon": 4.3517,
    "_source": {
     "source": "Wikipedia: List of works by Rogier van der Weyden",
     "coord": "MediaWiki coordinates API"
    },
    "museum_id": "thyssen-bornemisza-museum",
    "wga_url": "https://www.wga.hu/html/w/weyden/rogier/16portra/06man.html",
    "qid": "Q27897806",
    "wikidata": "https://www.wikidata.org/wiki/Q27897806",
    "_overrides": {
     "qid": {
      "at": "2026-08-24",
      "source": "Wikidata reconciliation",
      "note": "matched to Q27897806 by normalised title + year (±8), same creator (merge_wd_extras)"
     }
    },
    "_merged": [
     {
      "source": "Wikidata",
      "title": "Portrait of an Unknown Man",
      "qid": "Q27038656",
      "url": "https://www.wikidata.org/wiki/Q27038656"
     }
    ]
   }
  },
  {
   "type": "Feature",
   "geometry": {
    "type": "Point",
    "coordinates": [
     11.57,
     48.14833
    ]
   },
   "properties": {
    "painter": "Rogier van der Weyden",
    "title": "Triptych with the Adoration of the Magi , so-called Columba Altarpiece",
    "year": "c. 1450–1455",
    "city": "Munich",
    "country": "Germany",
    "location": "Alte Pinakothek",
    "attribution": "generally accepted",
    "dimensions": "Center panel: ca. 140 × 153, Wings each: ca. 140 × 73 cm.",
    "image": "https://upload.wikimedia.org/wikipedia/commons/thumb/5/53/Der_Dreik%C3%B6nigsaltar_Rogier_van_der_Weyden.jpg/500px-Der_Dreik%C3%B6nigsaltar_Rogier_van_der_Weyden.jpg?utm_source=en.wikipedia.org&amp;utm_campaign=parser&amp;utm_content=thumbnail",
    "notable": true,
    "wikipedia_en": "https://en.wikipedia.org/wiki/Saint_Columba_Altarpiece",
    "creation_place": "Brussels",
    "creation_lat": 50.8503,
    "creation_lon": 4.3517,
    "_source": {
     "source": "Wikipedia: List of works by Rogier van der Weyden",
     "coord": "MediaWiki coordinates API"
    },
    "museum_id": "alte-pinakothek",
    "qid": "Q874058",
    "wikidata": "https://www.wikidata.org/wiki/Q874058",
    "wga_url": "https://www.wga.hu/html/w/weyden/rogier/11columb/0columb.html",
    "_merged": [
     {
      "source": "Wikidata",
      "title": "Columba Triptych",
      "qid": "Q874058",
      "url": "https://www.wikidata.org/wiki/Q874058"
     }
    ]
   }
  },
  {
   "type": "Feature",
   "geometry": {
    "type": "Point",
    "coordinates": [
     13.3647,
     52.5086
    ]
   },
   "properties": {
    "painter": "Rogier van der Weyden",
    "title": "Triptych with scenes from the life of John the Baptist , so called Saint Johns Altarpiece",
    "year": "c. 1450–1455",
    "city": "Berlin",
    "country": "Germany",
    "location": "Gemäldegalerie",
    "attribution": "generally accepted",
    "dimensions": "Each panel ca. 77 × 48 cm.",
    "image": "https://upload.wikimedia.org/wikipedia/commons/thumb/5/55/Berlin_van_der_Weyden_01.JPG/500px-Berlin_van_der_Weyden_01.JPG?utm_source=en.wikipedia.org&amp;utm_campaign=parser&amp;utm_content=thumbnail",
    "notable": true,
    "wikipedia_en": "https://en.wikipedia.org/wiki/Saint_John_Altarpiece_(van_der_Weyden)",
    "creation_place": "Brussels",
    "creation_lat": 50.8503,
    "creation_lon": 4.3517,
    "_source": {
     "source": "Wikipedia: List of works by Rogier van der Weyden",
     "coord": "MediaWiki coordinates API"
    },
    "museum_id": "gemaldegalerie",
    "qid": "Q1698794",
    "wikidata": "https://www.wikidata.org/wiki/Q1698794"
   }
  },
  {
   "type": "Feature",
   "geometry": {
    "type": "Point",
    "coordinates": [
     -4.15,
     40.59
    ]
   },
   "properties": {
    "painter": "Rogier van der Weyden",
    "title": "The crucified Christ between the mourning Mary and Saint John , so called Crucifixion of Scheut",
    "year": "c. 1450–1455",
    "city": "Spain",
    "location": "El Escorial",
    "attribution": "generally accepted",
    "dimensions": "325 × 192 cm.",
    "image": "https://upload.wikimedia.org/wikipedia/commons/thumb/5/56/Weyden_Christ_on_the_Cross_with_Mary_and_St_John.jpg/500px-Weyden_Christ_on_the_Cross_with_Mary_and_St_John.jpg?utm_source=en.wikipedia.org&amp;utm_campaign=parser&amp;utm_content=thumbnail",
    "notable": true,
    "creation_place": "Brussels",
    "creation_lat": 50.8503,
    "creation_lon": 4.3517,
    "_source": {
     "source": "Wikipedia: List of works by Rogier van der Weyden",
     "coord": "MediaWiki coordinates API"
    },
    "museum_id": "el-escorial",
    "_merged": [
     {
      "source": "Wikidata",
      "title": "Crucifixion of Scheut",
      "qid": "Q18430656",
      "url": "https://www.wikidata.org/wiki/Q18430656"
     }
    ]
   }
  },
  {
   "type": "Feature",
   "geometry": {
    "type": "Point",
    "coordinates": [
     4.35824,
     50.84168
    ]
   },
   "properties": {
    "painter": "Rogier van der Weyden",
    "title": "Pietà",
    "year": "c. 1455–1464",
    "city": "Brussels-Capital Region",
    "country": "Belgium",
    "location": "Royal Museums of Fine Arts of Belgium",
    "attribution": "generally accepted",
    "dimensions": "33 × 47 cm.",
    "image": "https://upload.wikimedia.org/wikipedia/commons/thumb/6/6c/Rogier_van_der_weyden%2C_piet%C3%A0%2C_01.JPG/500px-Rogier_van_der_weyden%2C_piet%C3%A0%2C_01.JPG?utm_source=en.wikipedia.org&amp;utm_campaign=parser&amp;utm_content=thumbnail",
    "notable": true,
    "wikipedia_en": "https://en.wikipedia.org/wiki/Piet%C3%A0_(van_der_Weyden)",
    "creation_place": "Brussels",
    "creation_lat": 50.8503,
    "creation_lon": 4.3517,
    "_source": {
     "source": "Wikipedia: List of works by Rogier van der Weyden",
     "coord": "MediaWiki coordinates API"
    },
    "museum_id": "royal-museums-of-fine-arts-of-belgium",
    "qid": "Q17066005",
    "wikidata": "https://www.wikidata.org/wiki/Q17066005",
    "wga_url": "https://www.wga.hu/html/w/weyden/rogier/14pieta/2lamenta.html"
   }
  },
  {
   "type": "Feature",
   "geometry": {
    "type": "Point",
    "coordinates": [
     -73.9631,
     40.7794
    ]
   },
   "properties": {
    "painter": "Rogier van der Weyden",
    "title": "Portrait of Francesco d'Este",
    "year": "c. 1455–1464",
    "city": "New York",
    "country": "United States",
    "location": "Metropolitan Museum of Art",
    "attribution": "generally accepted",
    "dimensions": "ca. 30 × 20 cm.",
    "image": "https://upload.wikimedia.org/wikipedia/commons/thumb/b/bc/Weyden%2C_Rogier_van_der_-_Francesco_d%27Este.jpg/500px-Weyden%2C_Rogier_van_der_-_Francesco_d%27Este.jpg?utm_source=en.wikipedia.org&amp;utm_campaign=parser&amp;utm_content=thumbnail",
    "notable": true,
    "wikipedia_en": "https://en.wikipedia.org/wiki/Portrait_of_Francesco_d%27Este",
    "creation_place": "Brussels",
    "creation_lat": 50.8503,
    "creation_lon": 4.3517,
    "_source": {
     "source": "Wikipedia: List of works by Rogier van der Weyden",
     "coord": "MediaWiki coordinates API"
    },
    "museum_id": "metropolitan-museum-of-art",
    "qid": "Q3399428",
    "wikidata": "https://www.wikidata.org/wiki/Q3399428",
    "wga_url": "https://www.wga.hu/html/w/weyden/rogier/16portra/07este.html"
   }
  },
  {
   "type": "Feature",
   "geometry": {
    "type": "Point",
    "coordinates": [
     -77.02,
     38.8914
    ]
   },
   "properties": {
    "painter": "Rogier van der Weyden",
    "title": "Portrait of a Woman",
    "year": "c. 1460",
    "city": "Washington",
    "country": "United States",
    "location": "National Gallery of Art",
    "attribution": "generally accepted",
    "dimensions": "34 cm x 25.5 cm",
    "image": "https://upload.wikimedia.org/wikipedia/commons/thumb/6/65/Rogier_van_der_Weyden_-_Portrait_of_a_Lady_-_Google_Art_Project.jpg/500px-Rogier_van_der_Weyden_-_Portrait_of_a_Lady_-_Google_Art_Project.jpg?utm_source=en.wikipedia.org&amp;utm_campaign=parser&amp;utm_content=thumbnail",
    "notable": true,
    "wikipedia_en": "https://en.wikipedia.org/wiki/Portrait_of_a_Woman_(Rogier_van_der_Weyden,_Washington)",
    "creation_place": "Brussels",
    "creation_lat": 50.8503,
    "creation_lon": 4.3517,
    "_source": {
     "source": "Wikipedia: List of works by Rogier van der Weyden",
     "coord": "MediaWiki coordinates API"
    },
    "museum_id": "national-gallery-of-art",
    "qid": "Q2439462",
    "wikidata": "https://www.wikidata.org/wiki/Q2439462",
    "wga_url": "https://www.wga.hu/html/w/weyden/rogier/16portra/05lady.html",
    "_merged": [
     {
      "source": "Wikidata",
      "title": "Portrait of a Lady",
      "qid": "Q2439462",
      "url": "https://www.wikidata.org/wiki/Q2439462"
     }
    ]
   }
  },
  {
   "type": "Feature",
   "geometry": {
    "type": "Point",
    "coordinates": [
     13.3647,
     52.5086
    ]
   },
   "properties": {
    "painter": "Rogier van der Weyden",
    "title": "Portrait of Charles the Bold",
    "year": "c. 1461–1462",
    "city": "Berlin",
    "country": "Germany",
    "location": "Gemäldegalerie",
    "attribution": "workshop",
    "dimensions": "51 × 34 cm.",
    "image": "https://upload.wikimedia.org/wikipedia/commons/thumb/4/44/Rogier_van_der_weyden%2C_ritratto_di_carlo_l%27ardito%2C_duca_di_borgogna_e_conte_di_Charolais%2C_1461-62_ca.JPG/500px-Rogier_van_der_weyden%2C_ritratto_di_carlo_l%27ardito%2C_duca_di_borgogna_e_conte_di_Charolais%2C_1461-62_ca.JPG?utm_source=en.wikipedia.org&amp;utm_campaign=parser&amp;utm_content=thumbnail",
    "notable": true,
    "creation_place": "Brussels",
    "creation_lat": 50.8503,
    "creation_lon": 4.3517,
    "_source": {
     "source": "Wikipedia: List of works by Rogier van der Weyden",
     "coord": "MediaWiki coordinates API"
    },
    "museum_id": "gemaldegalerie",
    "wga_url": "https://www.wga.hu/html/w/weyden/rogier/16portra/08c_bold.html",
    "qid": "Q47008576",
    "wikidata": "https://www.wikidata.org/wiki/Q47008576",
    "_overrides": {
     "qid": {
      "at": "2026-08-24",
      "source": "Wikidata reconciliation",
      "note": "matched to Q47008576 by normalised title + year (±8), same creator (merge_wd_extras)"
     }
    }
   }
  },
  {
   "type": "Feature",
   "geometry": {
    "type": "Point",
    "coordinates": [
     4.35824,
     50.84168
    ]
   },
   "properties": {
    "painter": "Rogier van der Weyden",
    "title": "Portrait of Antoine, 'Grand Bâtard' of Burgundy",
    "year": "c. 1461–1462",
    "city": "Brussels-Capital Region",
    "country": "Belgium",
    "location": "Royal Museums of Fine Arts of Belgium",
    "attribution": "generally accepted",
    "dimensions": "38 × 28 cm",
    "image": "https://upload.wikimedia.org/wikipedia/commons/thumb/0/0b/Antoine_de_Bourgogne.jpg/500px-Antoine_de_Bourgogne.jpg?utm_source=en.wikipedia.org&amp;utm_campaign=parser&amp;utm_content=thumbnail",
    "notable": true,
    "wikipedia_en": "https://en.wikipedia.org/wiki/Portrait_of_Antoine,_%27Grand_B%C3%A2tard%27_of_Burgundy",
    "creation_place": "Brussels",
    "creation_lat": 50.8503,
    "creation_lon": 4.3517,
    "_source": {
     "source": "Wikipedia: List of works by Rogier van der Weyden",
     "coord": "MediaWiki coordinates API"
    },
    "museum_id": "royal-museums-of-fine-arts-of-belgium",
    "qid": "Q7232256",
    "wikidata": "https://www.wikidata.org/wiki/Q7232256",
    "wga_url": "https://www.wga.hu/html/w/weyden/rogier/16portra/09anthon.html"
   }
  },
  {
   "type": "Feature",
   "geometry": {
    "type": "Point",
    "coordinates": [
     -71.05778,
     42.36028
    ]
   },
   "properties": {
    "painter": "Rogier van der Weyden",
    "title": "Virgin and Child",
    "year": "c. 1461–1462",
    "city": "Boston",
    "location": "Museum of Fine Arts",
    "attribution": "generally accepted",
    "dimensions": "32 × 23 cm.",
    "image": "https://upload.wikimedia.org/wikipedia/commons/thumb/f/f1/Rogier_van_der_Weyden_-_Virgin_and_Child_-_Google_Art_Project.jpg/500px-Rogier_van_der_Weyden_-_Virgin_and_Child_-_Google_Art_Project.jpg?utm_source=en.wikipedia.org&amp;utm_campaign=parser&amp;utm_content=thumbnail",
    "notable": true,
    "wikipedia_en": "https://en.wikipedia.org/wiki/Virgin_and_Child_(van_der_Weyden)",
    "creation_place": "Brussels",
    "creation_lat": 50.8503,
    "creation_lon": 4.3517,
    "_source": {
     "source": "Wikipedia: List of works by Rogier van der Weyden",
     "coord": "MediaWiki coordinates API"
    },
    "museum_id": "museum-of-fine-arts",
    "qid": "Q15913463",
    "wikidata": "https://www.wikidata.org/wiki/Q15913463",
    "wga_url": "https://www.wga.hu/html/w/weyden/rogier/17other/7virgin.html",
    "country": "United States"
   }
  },
  {
   "type": "Feature",
   "geometry": {
    "type": "Point",
    "coordinates": [
     8.67388,
     50.10322
    ]
   },
   "properties": {
    "painter": "Rogier van der Weyden",
    "title": "Virgin and Child with four Saints , the so-called Medici Madonna",
    "year": "c. 1460–1464",
    "city": "Frankfurt am Main",
    "country": "Germany",
    "location": "Städel",
    "attribution": "generally accepted",
    "dimensions": "51 × 38 cm.",
    "image": "https://upload.wikimedia.org/wikipedia/commons/thumb/8/87/Rogier_van_der_Weyden_021.jpg/500px-Rogier_van_der_Weyden_021.jpg?utm_source=en.wikipedia.org&amp;utm_campaign=parser&amp;utm_content=thumbnail",
    "notable": true,
    "wikipedia_en": "https://en.wikipedia.org/wiki/Medici_Madonna_(Rogier_van_der_Weyden)",
    "creation_place": "Brussels",
    "creation_lat": 50.8503,
    "creation_lon": 4.3517,
    "_source": {
     "source": "Wikipedia: List of works by Rogier van der Weyden",
     "coord": "MediaWiki coordinates API"
    },
    "museum_id": "stadel",
    "qid": "Q3276176",
    "wikidata": "https://www.wikidata.org/wiki/Q3276176",
    "wga_url": "https://www.wga.hu/html/w/weyden/rogier/17other/6medici.html",
    "_merged": [
     {
      "source": "Wikidata",
      "title": "Medici Madonna",
      "qid": "Q3276176",
      "url": "https://www.wikidata.org/wiki/Q3276176"
     }
    ]
   }
  },
  {
   "type": "Feature",
   "geometry": {
    "type": "Point",
    "coordinates": [
     11.25528,
     43.76833
    ]
   },
   "properties": {
    "painter": "Rogier van der Weyden",
    "title": "Entombment of Christ , or Lamentation of Christ",
    "year": "c. 1463–1464",
    "city": "Florence",
    "country": "Italy",
    "location": "Uffizi Gallery",
    "attribution": "generally accepted",
    "dimensions": "96 x 110 cm",
    "image": "https://upload.wikimedia.org/wikipedia/commons/thumb/6/69/Rogier_van_der_Weyden_013.1.jpg/500px-Rogier_van_der_Weyden_013.1.jpg?utm_source=en.wikipedia.org&amp;utm_campaign=parser&amp;utm_content=thumbnail",
    "notable": true,
    "wikipedia_en": "https://en.wikipedia.org/wiki/Lamentation_of_Christ_(van_der_Weyden)",
    "creation_place": "Brussels",
    "creation_lat": 50.8503,
    "creation_lon": 4.3517,
    "_source": {
     "source": "Wikipedia: List of works by Rogier van der Weyden",
     "coord": "MediaWiki coordinates API"
    },
    "museum_id": "uffizi-gallery",
    "qid": "Q2604155",
    "wikidata": "https://www.wikidata.org/wiki/Q2604155",
    "wga_url": "https://www.wga.hu/html/w/weyden/rogier/14pieta/3entombm.html",
    "_merged": [
     {
      "source": "Wikidata",
      "title": "Lamentation of Christ",
      "qid": "Q2604155",
      "url": "https://www.wikidata.org/wiki/Q2604155"
     }
    ]
   }
  },
  {
   "type": "Feature",
   "geometry": {
    "type": "Point",
    "coordinates": [
     -75.181,
     39.966
    ]
   },
   "properties": {
    "painter": "Rogier van der Weyden",
    "title": "Calvary diptych , left wing: Mary in grief, supported by Saint John , right wing: Crucifixion",
    "year": "c. 1463–1464",
    "city": "Philadelphia",
    "country": "United States",
    "location": "Philadelphia Museum of Art",
    "attribution": "generally accepted",
    "dimensions": "Left panel: 180.3 × 93.8 cm (71.0 × 36.9 in); right panel: 180.3 × 92.6 cm (71.0 × 36.5 in)",
    "image": "https://upload.wikimedia.org/wikipedia/commons/thumb/d/d8/Rogier_van_der_Weyden%2C_Netherlandish_%28active_Tournai_and_Brussels%29_-_The_Crucifixion%2C_with_the_Virgin_and_Saint_John_the_Evangelist_Mourning_-_Google_Art_Project.jpg/500px-thumbnail.jpg?utm_source=en.wikipedia.org&amp;utm_campaign=parser&amp;utm_content=thumbnail",
    "notable": true,
    "wikipedia_en": "https://en.wikipedia.org/wiki/Crucifixion_Diptych",
    "creation_place": "Brussels",
    "creation_lat": 50.8503,
    "creation_lon": 4.3517,
    "_source": {
     "source": "Wikipedia: List of works by Rogier van der Weyden",
     "coord": "MediaWiki coordinates API"
    },
    "museum_id": "philadelphia-museum-of-art",
    "qid": "Q5189814",
    "wikidata": "https://www.wikidata.org/wiki/Q5189814",
    "_merged": [
     {
      "source": "Wikidata",
      "title": "Crucifixion Diptych",
      "qid": "Q5189814",
      "url": "https://www.wikidata.org/wiki/Q5189814"
     }
    ]
   }
  },
  {
   "type": "Feature",
   "geometry": {
    "type": "Point",
    "coordinates": [
     -4.147778,
     40.589167
    ]
   },
   "properties": {
    "painter": "Rogier van der Weyden",
    "title": "Crucifixion of Scheut",
    "year": "1454",
    "location": "Royal Monastery of San Lorenzo de El Escorial",
    "city": "San Lorenzo de El Escorial",
    "country": "Spain",
    "attribution": "generally accepted",
    "image": "https://commons.wikimedia.org/wiki/Special:FilePath/Weyden%20Christ%20on%20the%20Cross%20with%20Mary%20and%20St%20John.jpg?width=500",
    "qid": "Q18430656",
    "wikidata": "https://www.wikidata.org/wiki/Q18430656",
    "_source": {
     "source": "Wikidata",
     "url": "https://www.wikidata.org/wiki/Q18430656",
     "note": "harvested: painting by this creator with an image and a documented collection"
    },
    "creation_place": "Brussels",
    "creation_lat": 50.846667,
    "creation_lon": 4.3525,
    "_overrides": {
     "creation": {
      "at": "2026-08-24",
      "source": "derived",
      "note": "creation place inferred from the painter's itinerary at this work's date (approximate)"
     }
    },
    "_merged": [
     {
      "source": "Wikipedia list",
      "title": "The crucified Christ between the mourning Mary and Saint John , so called Crucifixion of Scheut"
     }
    ]
   }
  },
  {
   "type": "Feature",
   "geometry": {
    "type": "Point",
    "coordinates": [
     16.3616,
     48.203880555
    ]
   },
   "properties": {
    "painter": "Rogier van der Weyden",
    "title": "Right wing of a diptych: St. Katharina",
    "year": "1440",
    "location": "Kunsthistorisches Museum",
    "city": "Vienna",
    "country": "Austria",
    "attribution": "generally accepted",
    "image": "https://commons.wikimedia.org/wiki/Special:FilePath/Rogier%20van%20der%20Weyden%20032.jpg?width=500",
    "qid": "Q27978127",
    "wikidata": "https://www.wikidata.org/wiki/Q27978127",
    "_source": {
     "source": "Wikidata",
     "url": "https://www.wikidata.org/wiki/Q27978127",
     "note": "harvested: painting by this creator with an image and a documented collection"
    },
    "creation_place": "Brussels",
    "creation_lat": 50.846667,
    "creation_lon": 4.3525,
    "_overrides": {
     "creation": {
      "at": "2026-08-24",
      "source": "derived",
      "note": "creation place inferred from the painter's itinerary at this work's date (approximate)"
     }
    }
   }
  },
  {
   "type": "Feature",
   "geometry": {
    "type": "Point",
    "coordinates": [
     30.313611111,
     59.940555555
    ]
   },
   "properties": {
    "painter": "Rogier van der Weyden",
    "title": "St Luke Drawing the Virgin",
    "year": "1440",
    "location": "Hermitage Museum",
    "city": "Saint Petersburg",
    "country": "Russia",
    "attribution": "generally accepted",
    "image": "https://commons.wikimedia.org/wiki/Special:FilePath/Rogier%20van%20der%20Weyden%20014.jpg?width=500",
    "qid": "Q21733236",
    "wikidata": "https://www.wikidata.org/wiki/Q21733236",
    "_source": {
     "source": "Wikidata",
     "url": "https://www.wikidata.org/wiki/Q21733236",
     "note": "harvested: painting by this creator with an image and a documented collection"
    },
    "creation_place": "Brussels",
    "creation_lat": 50.846667,
    "creation_lon": 4.3525,
    "_overrides": {
     "creation": {
      "at": "2026-08-24",
      "source": "derived",
      "note": "creation place inferred from the painter's itinerary at this work's date (approximate)"
     }
    }
   }
  },
  {
   "type": "Feature",
   "geometry": {
    "type": "Point",
    "coordinates": [
     11.569985,
     48.148291
    ]
   },
   "properties": {
    "painter": "Rogier van der Weyden",
    "title": "Columba-Altar: Darbringung im Tempel",
    "year": "1455",
    "location": "Alte Pinakothek",
    "city": "Munich",
    "country": "Germany",
    "attribution": "generally accepted",
    "image": "https://commons.wikimedia.org/wiki/Special:FilePath/Rogier%20van%20der%20Weyden%20010.jpg?width=500",
    "qid": "Q29898800",
    "wikidata": "https://www.wikidata.org/wiki/Q29898800",
    "_source": {
     "source": "Wikidata",
     "url": "https://www.wikidata.org/wiki/Q29898800",
     "note": "harvested: painting by this creator with an image and a documented collection"
    },
    "creation_place": "Brussels",
    "creation_lat": 50.846667,
    "creation_lon": 4.3525,
    "_overrides": {
     "creation": {
      "at": "2026-08-24",
      "source": "derived",
      "note": "creation place inferred from the painter's itinerary at this work's date (approximate)"
     }
    }
   }
  },
  {
   "type": "Feature",
   "geometry": {
    "type": "Point",
    "coordinates": [
     11.569985,
     48.148291
    ]
   },
   "properties": {
    "painter": "Rogier van der Weyden",
    "title": "St Luke Drawing the Portrait of the Madonna",
    "year": "1484",
    "location": "Alte Pinakothek",
    "city": "Munich",
    "country": "Germany",
    "attribution": "generally accepted",
    "image": "https://commons.wikimedia.org/wiki/Special:FilePath/Weyden-MadonnaLucca-Munic.jpg?width=500",
    "qid": "Q29909050",
    "wikidata": "https://www.wikidata.org/wiki/Q29909050",
    "_source": {
     "source": "Wikidata",
     "url": "https://www.wikidata.org/wiki/Q29909050",
     "note": "harvested: painting by this creator with an image and a documented collection"
    }
   }
  },
  {
   "type": "Feature",
   "geometry": {
    "type": "Point",
    "coordinates": [
     11.569985,
     48.148291
    ]
   },
   "properties": {
    "painter": "Rogier van der Weyden",
    "title": "St Columba altarpiece: Annunciation",
    "year": "1455",
    "location": "Alte Pinakothek",
    "city": "Munich",
    "country": "Germany",
    "attribution": "generally accepted",
    "image": "https://commons.wikimedia.org/wiki/Special:FilePath/Rogier%20van%20der%20Weyden%20-%20St%20Columba%20Altarpiece%20%28left%20panel%29%20-%20WGA25657.jpg?width=500",
    "qid": "Q29954816",
    "wikidata": "https://www.wikidata.org/wiki/Q29954816",
    "_source": {
     "source": "Wikidata",
     "url": "https://www.wikidata.org/wiki/Q29954816",
     "note": "harvested: painting by this creator with an image and a documented collection"
    },
    "creation_place": "Brussels",
    "creation_lat": 50.846667,
    "creation_lon": 4.3525,
    "_overrides": {
     "creation": {
      "at": "2026-08-24",
      "source": "derived",
      "note": "creation place inferred from the painter's itinerary at this work's date (approximate)"
     }
    }
   }
  },
  {
   "type": "Feature",
   "geometry": {
    "type": "Point",
    "coordinates": [
     -0.128333333,
     51.508888888
    ]
   },
   "properties": {
    "painter": "Rogier van der Weyden",
    "title": "The Magdalen Reading",
    "year": "1435",
    "location": "National Gallery",
    "city": "City of Westminster",
    "country": "United Kingdom",
    "attribution": "generally accepted",
    "image": "https://commons.wikimedia.org/wiki/Special:FilePath/The%20Magdalen%20Reading%20Rogier.jpg?width=500",
    "qid": "Q3039856",
    "wikidata": "https://www.wikidata.org/wiki/Q3039856",
    "_source": {
     "source": "Wikidata",
     "url": "https://www.wikidata.org/wiki/Q3039856",
     "note": "harvested: painting by this creator with an image and a documented collection"
    },
    "creation_place": "Brussels",
    "creation_lat": 50.846667,
    "creation_lon": 4.3525,
    "_overrides": {
     "creation": {
      "at": "2026-08-24",
      "source": "derived",
      "note": "creation place inferred from the painter's itinerary at this work's date (approximate)"
     }
    }
   }
  },
  {
   "type": "Feature",
   "geometry": {
    "type": "Point",
    "coordinates": [
     -0.128333333,
     51.508888888
    ]
   },
   "properties": {
    "painter": "Rogier van der Weyden",
    "title": "The Exhumation of Saint Hubert",
    "year": "1430",
    "location": "National Gallery",
    "city": "City of Westminster",
    "country": "United Kingdom",
    "attribution": "generally accepted",
    "image": "https://commons.wikimedia.org/wiki/Special:FilePath/Rogier%20van%20der%20Weyden%20and%20workshop%20-%20Exhumation%20of%20St%20Hubert%20NG%20783.jpg?width=500",
    "qid": "Q26492587",
    "wikidata": "https://www.wikidata.org/wiki/Q26492587",
    "_source": {
     "source": "Wikidata",
     "url": "https://www.wikidata.org/wiki/Q26492587",
     "note": "harvested: painting by this creator with an image and a documented collection"
    },
    "creation_place": "Brussels",
    "creation_lat": 50.846667,
    "creation_lon": 4.3525,
    "_overrides": {
     "creation": {
      "at": "2026-08-24",
      "source": "derived",
      "note": "creation place inferred from the painter's itinerary at this work's date (approximate)"
     }
    }
   }
  },
  {
   "type": "Feature",
   "geometry": {
    "type": "Point",
    "coordinates": [
     -9.154166666,
     38.736666666
    ]
   },
   "properties": {
    "painter": "Rogier van der Weyden",
    "title": "Bust of the Catherine (?)",
    "year": "1435",
    "location": "Calouste Gulbenkian Museum",
    "city": "Avenidas Novas",
    "country": "Portugal",
    "attribution": "generally accepted",
    "image": "https://commons.wikimedia.org/wiki/Special:FilePath/Rogier%20van%20der%20Weyden%20%281399of1400-1464%29%20-%20Buste%20van%20Ste.%20Catharina%20-%20Lissabon%20Museu%20Calouste%20Gulbenkian%2021-10-2010%2013-11-07.jpg?width=500",
    "qid": "Q27940576",
    "wikidata": "https://www.wikidata.org/wiki/Q27940576",
    "_source": {
     "source": "Wikidata",
     "url": "https://www.wikidata.org/wiki/Q27940576",
     "note": "harvested: painting by this creator with an image and a documented collection"
    },
    "creation_place": "Brussels",
    "creation_lat": 50.846667,
    "creation_lon": 4.3525,
    "_overrides": {
     "creation": {
      "at": "2026-08-24",
      "source": "derived",
      "note": "creation place inferred from the painter's itinerary at this work's date (approximate)"
     }
    },
    "_merged": [
     {
      "source": "Wikipedia list",
      "title": "Saint Catherine"
     }
    ]
   }
  },
  {
   "type": "Feature",
   "geometry": {
    "type": "Point",
    "coordinates": [
     -9.154166666,
     38.736666666
    ]
   },
   "properties": {
    "painter": "Rogier van der Weyden",
    "title": "Bust of Saint Joseph",
    "year": "1435",
    "location": "Calouste Gulbenkian Museum",
    "city": "Avenidas Novas",
    "country": "Portugal",
    "attribution": "generally accepted",
    "image": "https://commons.wikimedia.org/wiki/Special:FilePath/Rogier%20van%20der%20Weyden%20-%20St%20Joseph%20-%20WGA25722.jpg?width=500",
    "qid": "Q47044600",
    "wikidata": "https://www.wikidata.org/wiki/Q47044600",
    "_source": {
     "source": "Wikidata",
     "url": "https://www.wikidata.org/wiki/Q47044600",
     "note": "harvested: painting by this creator with an image and a documented collection"
    },
    "creation_place": "Brussels",
    "creation_lat": 50.846667,
    "creation_lon": 4.3525,
    "_overrides": {
     "creation": {
      "at": "2026-08-24",
      "source": "derived",
      "note": "creation place inferred from the painter's itinerary at this work's date (approximate)"
     }
    }
   }
  },
  {
   "type": "Feature",
   "geometry": {
    "type": "Point",
    "coordinates": [
     4.314305555,
     52.080388888
    ]
   },
   "properties": {
    "painter": "Rogier van der Weyden",
    "title": "Lamentation of Christ",
    "year": "1460",
    "location": "Mauritshuis",
    "city": "The Hague",
    "country": "Netherlands",
    "attribution": "generally accepted",
    "image": "https://commons.wikimedia.org/wiki/Special:FilePath/En%20atelier%20Rogier%20van%20der%20Weyden%20-%20The%20Lamentation%20of%20Christ%20-%20264%20-%20Mauritshuis.jpg?width=500",
    "qid": "Q17275914",
    "wikidata": "https://www.wikidata.org/wiki/Q17275914",
    "_source": {
     "source": "Wikidata",
     "url": "https://www.wikidata.org/wiki/Q17275914",
     "note": "harvested: painting by this creator with an image and a documented collection"
    },
    "creation_place": "Brussels",
    "creation_lat": 50.846667,
    "creation_lon": 4.3525,
    "_overrides": {
     "creation": {
      "at": "2026-08-24",
      "source": "derived",
      "note": "creation place inferred from the painter's itinerary at this work's date (approximate)"
     }
    }
   }
  },
  {
   "type": "Feature",
   "geometry": {
    "type": "Point",
    "coordinates": [
     -87.623888888,
     41.879444444
    ]
   },
   "properties": {
    "painter": "Rogier van der Weyden",
    "title": "Portrait of Jean Gros",
    "year": "1457",
    "location": "Art Institute of Chicago",
    "city": "Chicago",
    "country": "United States",
    "attribution": "generally accepted",
    "image": "https://commons.wikimedia.org/wiki/Special:FilePath/Rogier%20van%20der%20Weyden%20-%20Portrait%20of%20Jean%20Gros%20-%201933.1051a%20-%20Art%20Institute%20of%20Chicago.jpg?width=500",
    "qid": "Q58018933",
    "wikidata": "https://www.wikidata.org/wiki/Q58018933",
    "_source": {
     "source": "Wikidata",
     "url": "https://www.wikidata.org/wiki/Q58018933",
     "note": "harvested: painting by this creator with an image and a documented collection"
    },
    "creation_place": "Brussels",
    "creation_lat": 50.846667,
    "creation_lon": 4.3525,
    "_overrides": {
     "creation": {
      "at": "2026-08-24",
      "source": "derived",
      "note": "creation place inferred from the painter's itinerary at this work's date (approximate)"
     }
    }
   }
  },
  {
   "type": "Feature",
   "geometry": {
    "type": "Point",
    "coordinates": [
     4.358238,
     50.84168
    ]
   },
   "properties": {
    "painter": "Rogier van der Weyden",
    "title": "Fragment with group of men",
    "year": "1424",
    "location": "Royal Museums of Fine Arts of Belgium",
    "city": "Brussels-Capital Region",
    "country": "Belgium",
    "attribution": "generally accepted",
    "image": "https://commons.wikimedia.org/wiki/Special:FilePath/Rogier%20van%20der%20Weyden%20-%20Group%20of%20Men%20-%20WGA25724.jpg?width=500",
    "qid": "Q47074260",
    "wikidata": "https://www.wikidata.org/wiki/Q47074260",
    "_source": {
     "source": "Wikidata",
     "url": "https://www.wikidata.org/wiki/Q47074260",
     "note": "harvested: painting by this creator with an image and a documented collection"
    }
   }
  },
  {
   "type": "Feature",
   "geometry": {
    "type": "Point",
    "coordinates": [
     -81.611666666,
     41.508888888
    ]
   },
   "properties": {
    "painter": "Rogier van der Weyden",
    "title": "The Crucifixion with a Carthusian Monk",
    "year": "1460",
    "location": "Cleveland Museum of Art",
    "city": "Cleveland",
    "country": "United States",
    "attribution": "generally accepted",
    "image": "https://commons.wikimedia.org/wiki/Special:FilePath/Clevelandart%201931.449.jpg?width=500",
    "qid": "Q60513422",
    "wikidata": "https://www.wikidata.org/wiki/Q60513422",
    "_source": {
     "source": "Wikidata",
     "url": "https://www.wikidata.org/wiki/Q60513422",
     "note": "harvested: painting by this creator with an image and a documented collection"
    },
    "creation_place": "Brussels",
    "creation_lat": 50.846667,
    "creation_lon": 4.3525,
    "_overrides": {
     "creation": {
      "at": "2026-08-24",
      "source": "derived",
      "note": "creation place inferred from the painter's itinerary at this work's date (approximate)"
     }
    }
   }
  },
  {
   "type": "Feature",
   "geometry": {
    "type": "Point",
    "coordinates": [
     -0.116912,
     51.510734
    ]
   },
   "properties": {
    "painter": "Rogier van der Weyden",
    "title": "Portrait of a Man (Guillaume Fillastre?)",
    "year": "1430",
    "location": "Courtauld Gallery",
    "city": "London",
    "country": "United Kingdom",
    "attribution": "generally accepted",
    "image": "https://commons.wikimedia.org/wiki/Special:FilePath/Rogier%20van%20der%20Weyden%20-%20Portrait%20of%20a%20Man%20%28Guillaume%20Fillastre%3F%29%20-%20WGA25700.jpg?width=500",
    "qid": "Q47038442",
    "wikidata": "https://www.wikidata.org/wiki/Q47038442",
    "_source": {
     "source": "Wikidata",
     "url": "https://www.wikidata.org/wiki/Q47038442",
     "note": "harvested: painting by this creator with an image and a documented collection"
    },
    "creation_place": "Brussels",
    "creation_lat": 50.846667,
    "creation_lon": 4.3525,
    "_overrides": {
     "creation": {
      "at": "2026-08-24",
      "source": "derived",
      "note": "creation place inferred from the painter's itinerary at this work's date (approximate)"
     }
    }
   }
  },
  {
   "type": "Feature",
   "geometry": {
    "type": "Point",
    "coordinates": [
     -83.064722222,
     42.359444444
    ]
   },
   "properties": {
    "painter": "Rogier van der Weyden",
    "title": "St Jerome and the Lion",
    "year": "1450",
    "location": "Detroit Institute of Arts",
    "city": "Detroit",
    "country": "United States",
    "attribution": "generally accepted",
    "image": "https://commons.wikimedia.org/wiki/Special:FilePath/Saint%20Jerome%20in%20the%20desert%20-%20XVth%20cent%20-%20Detroit%20Institut%20of%20Art%20%2846.359%29.jpg?width=500",
    "qid": "Q55172016",
    "wikidata": "https://www.wikidata.org/wiki/Q55172016",
    "_source": {
     "source": "Wikidata",
     "url": "https://www.wikidata.org/wiki/Q55172016",
     "note": "harvested: painting by this creator with an image and a documented collection"
    },
    "creation_place": "Brussels",
    "creation_lat": 50.846667,
    "creation_lon": 4.3525,
    "_overrides": {
     "creation": {
      "at": "2026-08-24",
      "source": "derived",
      "note": "creation place inferred from the painter's itinerary at this work's date (approximate)"
     }
    }
   }
  },
  {
   "type": "Feature",
   "geometry": {
    "type": "Point",
    "coordinates": [
     -118.1125,
     34.129166666
    ]
   },
   "properties": {
    "painter": "Rogier van der Weyden",
    "title": "Diptych of Philip de Croy - Virgin and Child",
    "year": "1460",
    "location": "The Huntington Library, Art Museum, and Botanical Gardens",
    "city": "San Marino",
    "country": "United States",
    "attribution": "generally accepted",
    "image": "https://commons.wikimedia.org/wiki/Special:FilePath/Madonna%20and%20Child%20Rogier%20van%20der%20Weyden.jpg?width=500",
    "qid": "Q22963141",
    "wikidata": "https://www.wikidata.org/wiki/Q22963141",
    "_source": {
     "source": "Wikidata",
     "url": "https://www.wikidata.org/wiki/Q22963141",
     "note": "harvested: painting by this creator with an image and a documented collection"
    },
    "creation_place": "Brussels",
    "creation_lat": 50.846667,
    "creation_lon": 4.3525,
    "_overrides": {
     "creation": {
      "at": "2026-08-24",
      "source": "derived",
      "note": "creation place inferred from the painter's itinerary at this work's date (approximate)"
     }
    }
   }
  },
  {
   "type": "Feature",
   "geometry": {
    "type": "Point",
    "coordinates": [
     4.394349,
     51.208819
    ]
   },
   "properties": {
    "painter": "Rogier van der Weyden",
    "title": "Portrait of Philippe de Croy",
    "year": "1450",
    "location": "Royal Museum of Fine Arts Antwerp",
    "city": "Antwerp",
    "country": "Belgium",
    "attribution": "generally accepted",
    "image": "https://commons.wikimedia.org/wiki/Special:FilePath/Croyblazon.jpg?width=500",
    "qid": "Q21614520",
    "wikidata": "https://www.wikidata.org/wiki/Q21614520",
    "_source": {
     "source": "Wikidata",
     "url": "https://www.wikidata.org/wiki/Q21614520",
     "note": "harvested: painting by this creator with an image and a documented collection"
    },
    "creation_place": "Brussels",
    "creation_lat": 50.846667,
    "creation_lon": 4.3525,
    "_overrides": {
     "creation": {
      "at": "2026-08-24",
      "source": "derived",
      "note": "creation place inferred from the painter's itinerary at this work's date (approximate)"
     }
    }
   }
  },
  {
   "type": "Feature",
   "geometry": {
    "type": "Point",
    "coordinates": [
     4.394349,
     51.208819
    ]
   },
   "properties": {
    "painter": "Rogier van der Weyden",
    "title": "The Seven Sacraments (central panel)",
    "year": "1440",
    "location": "Royal Museum of Fine Arts Antwerp",
    "city": "Antwerp",
    "country": "Belgium",
    "attribution": "generally accepted",
    "image": "https://commons.wikimedia.org/wiki/Special:FilePath/Rogier%20van%20der%20Weyden%20-%20Christ%20on%20the%20Cross%20and%20the%20Eucharist%2C%201440-1445%2C%20393.tif?width=500",
    "qid": "Q21614693",
    "wikidata": "https://www.wikidata.org/wiki/Q21614693",
    "_source": {
     "source": "Wikidata",
     "url": "https://www.wikidata.org/wiki/Q21614693",
     "note": "harvested: painting by this creator with an image and a documented collection"
    },
    "creation_place": "Brussels",
    "creation_lat": 50.846667,
    "creation_lon": 4.3525,
    "_overrides": {
     "creation": {
      "at": "2026-08-24",
      "source": "derived",
      "note": "creation place inferred from the painter's itinerary at this work's date (approximate)"
     }
    }
   }
  },
  {
   "type": "Feature",
   "geometry": {
    "type": "Point",
    "coordinates": [
     4.394349,
     51.208819
    ]
   },
   "properties": {
    "painter": "Rogier van der Weyden",
    "title": "The Seven Sacraments (left panel)",
    "year": "1440",
    "location": "Royal Museum of Fine Arts Antwerp",
    "city": "Antwerp",
    "country": "Belgium",
    "attribution": "generally accepted",
    "image": "https://commons.wikimedia.org/wiki/Special:FilePath/Rogier%20van%20der%20Weyden%20-%20Baptism%2C%20Confirmation%20and%20Confession%2C%201440-1445%2C%20394.tif?width=500",
    "qid": "Q21614694",
    "wikidata": "https://www.wikidata.org/wiki/Q21614694",
    "_source": {
     "source": "Wikidata",
     "url": "https://www.wikidata.org/wiki/Q21614694",
     "note": "harvested: painting by this creator with an image and a documented collection"
    },
    "creation_place": "Brussels",
    "creation_lat": 50.846667,
    "creation_lon": 4.3525,
    "_overrides": {
     "creation": {
      "at": "2026-08-24",
      "source": "derived",
      "note": "creation place inferred from the painter's itinerary at this work's date (approximate)"
     }
    }
   }
  },
  {
   "type": "Feature",
   "geometry": {
    "type": "Point",
    "coordinates": [
     4.394349,
     51.208819
    ]
   },
   "properties": {
    "painter": "Rogier van der Weyden",
    "title": "The Seven Sacraments (right panel)",
    "year": "1440",
    "location": "Royal Museum of Fine Arts Antwerp",
    "city": "Antwerp",
    "country": "Belgium",
    "attribution": "generally accepted",
    "image": "https://commons.wikimedia.org/wiki/Special:FilePath/Rogier%20van%20der%20Weyden%20-%20The%20Ordinatio%2C%20Marriage%20and%20Extreme%20Unction%2C%201440-1445%2C%20395.tif?width=500",
    "qid": "Q21614695",
    "wikidata": "https://www.wikidata.org/wiki/Q21614695",
    "_source": {
     "source": "Wikidata",
     "url": "https://www.wikidata.org/wiki/Q21614695",
     "note": "harvested: painting by this creator with an image and a documented collection"
    },
    "creation_place": "Brussels",
    "creation_lat": 50.846667,
    "creation_lon": 4.3525,
    "_overrides": {
     "creation": {
      "at": "2026-08-24",
      "source": "derived",
      "note": "creation place inferred from the painter's itinerary at this work's date (approximate)"
     }
    }
   }
  },
  {
   "type": "Feature",
   "geometry": {
    "type": "Point",
    "coordinates": [
     4.394349,
     51.208819
    ]
   },
   "properties": {
    "painter": "Rogier van der Weyden",
    "title": "The Annunciation",
    "year": "1450",
    "location": "Royal Museum of Fine Arts Antwerp",
    "city": "Antwerp",
    "country": "Belgium",
    "attribution": "generally accepted",
    "image": "https://commons.wikimedia.org/wiki/Special:FilePath/Rogier%20van%20der%20Weyden%20-%20Annunciation%20-%20WGA25596.jpg?width=500",
    "qid": "Q21614696",
    "wikidata": "https://www.wikidata.org/wiki/Q21614696",
    "_source": {
     "source": "Wikidata",
     "url": "https://www.wikidata.org/wiki/Q21614696",
     "note": "harvested: painting by this creator with an image and a documented collection"
    },
    "creation_place": "Brussels",
    "creation_lat": 50.846667,
    "creation_lon": 4.3525,
    "_overrides": {
     "creation": {
      "at": "2026-08-24",
      "source": "derived",
      "note": "creation place inferred from the painter's itinerary at this work's date (approximate)"
     }
    }
   }
  },
  {
   "type": "Feature",
   "geometry": {
    "type": "Point",
    "coordinates": [
     4.394349,
     51.208819
    ]
   },
   "properties": {
    "painter": "Rogier van der Weyden",
    "title": "Portrait of a Tournament Judge",
    "year": "1450",
    "location": "Royal Museum of Fine Arts Antwerp",
    "city": "Antwerp",
    "country": "Belgium",
    "attribution": "generally accepted",
    "image": "https://commons.wikimedia.org/wiki/Special:FilePath/Rogier%20van%20der%20Weyden%20-%20Portrait%20of%20a%20Man%20-%20WGA25725.jpg?width=500",
    "qid": "Q21614867",
    "wikidata": "https://www.wikidata.org/wiki/Q21614867",
    "_source": {
     "source": "Wikidata",
     "url": "https://www.wikidata.org/wiki/Q21614867",
     "note": "harvested: painting by this creator with an image and a documented collection"
    },
    "creation_place": "Brussels",
    "creation_lat": 50.846667,
    "creation_lon": 4.3525,
    "_overrides": {
     "creation": {
      "at": "2026-08-24",
      "source": "derived",
      "note": "creation place inferred from the painter's itinerary at this work's date (approximate)"
     }
    }
   }
  },
  {
   "type": "Feature",
   "geometry": {
    "type": "Point",
    "coordinates": [
     7.68618,
     45.07412
    ]
   },
   "properties": {
    "painter": "Rogier van der Weyden",
    "title": "Annunciation Triptych",
    "year": "1434",
    "location": "Galleria Sabauda",
    "city": "Turin",
    "country": "Italy",
    "attribution": "generally accepted",
    "image": "https://commons.wikimedia.org/wiki/Special:FilePath/Rogier%20van%20der%20Weyden%20-%20Annunciation%20Triptych%20-%20WGA25590.jpg?width=500",
    "qid": "Q3999110",
    "wikidata": "https://www.wikidata.org/wiki/Q3999110",
    "_source": {
     "source": "Wikidata",
     "url": "https://www.wikidata.org/wiki/Q3999110",
     "note": "harvested: painting by this creator with an image and a documented collection"
    },
    "creation_place": "Brussels",
    "creation_lat": 50.846667,
    "creation_lon": 4.3525,
    "_overrides": {
     "creation": {
      "at": "2026-08-24",
      "source": "derived",
      "note": "creation place inferred from the painter's itinerary at this work's date (approximate)"
     }
    }
   }
  },
  {
   "type": "Feature",
   "geometry": {
    "type": "Point",
    "coordinates": [
     2.88583,
     50.84958
    ]
   },
   "properties": {
    "painter": "Rogier van der Weyden",
    "title": "Madonna and Child in a Landscape",
    "year": "1460",
    "location": "Museum Godshuis Belle",
    "city": "Ypres",
    "country": "Belgium",
    "attribution": "generally accepted",
    "image": "https://commons.wikimedia.org/wiki/Special:FilePath/Rogier%20van%20der%20Weyden%20-%20Madonna%20and%20Child%20in%20a%20Landscape.jpg?width=500",
    "qid": "Q27680457",
    "wikidata": "https://www.wikidata.org/wiki/Q27680457",
    "_source": {
     "source": "Wikidata",
     "url": "https://www.wikidata.org/wiki/Q27680457",
     "note": "harvested: painting by this creator with an image and a documented collection"
    },
    "creation_place": "Brussels",
    "creation_lat": 50.846667,
    "creation_lon": 4.3525,
    "_overrides": {
     "creation": {
      "at": "2026-08-24",
      "source": "derived",
      "note": "creation place inferred from the painter's itinerary at this work's date (approximate)"
     }
    }
   }
  },
  {
   "type": "Feature",
   "geometry": {
    "type": "Point",
    "coordinates": [
     4.704444444,
     50.878888888
    ]
   },
   "properties": {
    "painter": "Rogier van der Weyden",
    "title": "The Holy Trinity",
    "year": "1430",
    "location": "M Leuven",
    "city": "Leuven",
    "country": "Belgium",
    "attribution": "generally accepted",
    "image": "https://commons.wikimedia.org/wiki/Special:FilePath/The%20Holy%20Trinity%2C%20workshop%20of%20Rogier%20van%20der%20Weyden%2C%20c.%201430-1440%20-%20Museum%20M%20-%20Leuven%2C%20Belgium%20-%20DSC05222.JPG?width=500",
    "qid": "Q22259840",
    "wikidata": "https://www.wikidata.org/wiki/Q22259840",
    "_source": {
     "source": "Wikidata",
     "url": "https://www.wikidata.org/wiki/Q22259840",
     "note": "harvested: painting by this creator with an image and a documented collection"
    },
    "creation_place": "Brussels",
    "creation_lat": 50.846667,
    "creation_lon": 4.3525,
    "_overrides": {
     "creation": {
      "at": "2026-08-24",
      "source": "derived",
      "note": "creation place inferred from the painter's itinerary at this work's date (approximate)"
     }
    }
   }
  },
  {
   "type": "Feature",
   "geometry": {
    "type": "Point",
    "coordinates": [
     2.335833,
     48.861111
    ]
   },
   "properties": {
    "painter": "Rogier van der Weyden",
    "title": "Annunciation",
    "year": "1435",
    "location": "Louvre",
    "city": "",
    "country": "France",
    "attribution": "generally accepted",
    "image": "https://commons.wikimedia.org/wiki/Special:FilePath/Rogier%20van%20der%20Weyden%20-%20The%20Annunciation%20-%20WGA25591.jpg?width=500",
    "qid": "Q29648480",
    "wikidata": "https://www.wikidata.org/wiki/Q29648480",
    "_source": {
     "source": "Wikidata",
     "url": "https://www.wikidata.org/wiki/Q29648480",
     "note": "harvested: painting by this creator with an image and a documented collection"
    },
    "creation_place": "Brussels",
    "creation_lat": 50.846667,
    "creation_lon": 4.3525,
    "_overrides": {
     "creation": {
      "at": "2026-08-24",
      "source": "derived",
      "note": "creation place inferred from the painter's itinerary at this work's date (approximate)"
     }
    }
   }
  },
  {
   "type": "Feature",
   "geometry": {
    "type": "Point",
    "coordinates": [
     11.571776,
     48.149583
    ]
   },
   "properties": {
    "painter": "Rogier van der Weyden",
    "title": "Adoration of the Magi",
    "year": "1455",
    "location": "Bavarian State Painting Collections",
    "city": "Munich",
    "country": "Germany",
    "attribution": "generally accepted",
    "image": "https://commons.wikimedia.org/wiki/Special:FilePath/Rogier%20van%20der%20Weyden%20-%20St%20Columba%20Altarpiece%20%28central%20panel%29.jpg?width=500",
    "qid": "Q11821338",
    "wikidata": "https://www.wikidata.org/wiki/Q11821338",
    "_source": {
     "source": "Wikidata",
     "url": "https://www.wikidata.org/wiki/Q11821338",
     "note": "harvested: painting by this creator with an image and a documented collection"
    },
    "creation_place": "Brussels",
    "creation_lat": 50.846667,
    "creation_lon": 4.3525,
    "_overrides": {
     "creation": {
      "at": "2026-08-24",
      "source": "derived",
      "note": "creation place inferred from the painter's itinerary at this work's date (approximate)"
     }
    }
   }
  },
  {
   "type": "Feature",
   "geometry": {
    "type": "Point",
    "coordinates": [
     -118.1125,
     34.129166666
    ]
   },
   "properties": {
    "painter": "Rogier van der Weyden",
    "title": "Diptych of Philip de Croÿ with The Virgin and Child",
    "year": "1460",
    "location": "The Huntington Library, Art Museum, and Botanical Gardens",
    "city": "San Marino",
    "country": "United States",
    "attribution": "generally accepted",
    "image": "https://commons.wikimedia.org/wiki/Special:FilePath/Rogier%20van%20der%20Weyden%20diptic%20Croy.jpg?width=500",
    "qid": "Q3399462",
    "wikidata": "https://www.wikidata.org/wiki/Q3399462",
    "_source": {
     "source": "Wikidata",
     "url": "https://www.wikidata.org/wiki/Q3399462",
     "note": "harvested: painting by this creator with an image and a documented collection"
    },
    "creation_place": "Brussels",
    "creation_lat": 50.846667,
    "creation_lon": 4.3525,
    "_overrides": {
     "creation": {
      "at": "2026-08-24",
      "source": "derived",
      "note": "creation place inferred from the painter's itinerary at this work's date (approximate)"
     }
    }
   }
  },
  {
   "type": "Feature",
   "geometry": {
    "type": "Point",
    "coordinates": [
     -0.139444444,
     51.508888888
    ]
   },
   "properties": {
    "painter": "Rogier van der Weyden",
    "title": "Philip the Good (1396–1467)",
    "year": "1454",
    "location": "Burlington House",
    "city": "City of Westminster",
    "country": "United Kingdom",
    "attribution": "generally accepted",
    "image": "https://commons.wikimedia.org/wiki/Special:FilePath/Rogier%20van%20der%20Weyden%20%28c.1399-1464%29%20%28after%29%20-%20Philip%20the%20Good%20%281396%E2%80%931467%29%20-%20LDSAL%20322%2C%20Scharf%20XIII%20-%20Burlington%20House.jpg?width=500",
    "qid": "Q118630541",
    "wikidata": "https://www.wikidata.org/wiki/Q118630541",
    "_source": {
     "source": "Wikidata",
     "url": "https://www.wikidata.org/wiki/Q118630541",
     "note": "harvested: painting by this creator with an image and a documented collection"
    },
    "creation_place": "Brussels",
    "creation_lat": 50.846667,
    "creation_lon": 4.3525,
    "_overrides": {
     "creation": {
      "at": "2026-08-24",
      "source": "derived",
      "note": "creation place inferred from the painter's itinerary at this work's date (approximate)"
     }
    }
   }
  },
  {
   "type": "Feature",
   "geometry": {
    "type": "Point",
    "coordinates": [
     -0.361664,
     49.186067
    ]
   },
   "properties": {
    "painter": "Rogier van der Weyden",
    "title": "La Vierge et l'Enfant",
    "year": "1460",
    "location": "Musée des Beaux-Arts de Caen",
    "city": "Caen",
    "country": "France",
    "attribution": "generally accepted",
    "image": "https://commons.wikimedia.org/wiki/Special:FilePath/Rogier%20van%20der%20Weyden%20-%20Portrait%20Diptych%20of%20Laurent%20Froimont%20%28left%20wing%29%20-%20WGA25697.jpg?width=500",
    "qid": "Q121362824",
    "wikidata": "https://www.wikidata.org/wiki/Q121362824",
    "_source": {
     "source": "Wikidata",
     "url": "https://www.wikidata.org/wiki/Q121362824",
     "note": "harvested: painting by this creator with an image and a documented collection"
    },
    "creation_place": "Brussels",
    "creation_lat": 50.846667,
    "creation_lon": 4.3525,
    "_overrides": {
     "creation": {
      "at": "2026-08-24",
      "source": "derived",
      "note": "creation place inferred from the painter's itinerary at this work's date (approximate)"
     }
    }
   }
  },
  {
   "type": "Feature",
   "geometry": {
    "type": "Point",
    "coordinates": [
     8.93212,
     44.41125
    ]
   },
   "properties": {
    "painter": "Rogier van der Weyden",
    "title": "Deposition",
    "year": "",
    "location": "Palazzo Rosso",
    "city": "Genoa",
    "country": "Italy",
    "attribution": "generally accepted",
    "image": "https://commons.wikimedia.org/wiki/Special:FilePath/Deposizione%20di%20Rogier%20van%20Der%20Weyden.JPG?width=500",
    "qid": "Q140392213",
    "wikidata": "https://www.wikidata.org/wiki/Q140392213",
    "_source": {
     "source": "Wikidata",
     "url": "https://www.wikidata.org/wiki/Q140392213",
     "note": "harvested: painting by this creator with an image and a documented collection"
    }
   }
  },
  {
   "type": "Feature",
   "geometry": {
    "type": "Point",
    "coordinates": [
     -1.4616,
     52.1083
    ]
   },
   "properties": {
    "painter": "Rogier van der Weyden",
    "title": "The Calling of Andrew and Simon Peter (possibly a left wing of an altarpiece)",
    "year": "",
    "location": "Upton House",
    "city": "Ratley and Upton",
    "country": "United Kingdom",
    "attribution": "generally accepted",
    "image": "https://commons.wikimedia.org/wiki/Special:FilePath/Rogier%20van%20der%20Weyden%20%28c.1399-1464%29%20%28follower%20of%29%20-%20The%20Calling%20of%20Saint%20Andrew%20and%20Another%20Disciple%20of%20Saint%20John%20the%20Baptist%20-%20446747%20-%20National%20Trust.jpg?width=500",
    "qid": "Q119450429",
    "wikidata": "https://www.wikidata.org/wiki/Q119450429",
    "_source": {
     "source": "Wikidata",
     "url": "https://www.wikidata.org/wiki/Q119450429",
     "note": "harvested: painting by this creator with an image and a documented collection"
    }
   }
  },
  {
   "type": "Feature",
   "geometry": {
    "type": "Point",
    "coordinates": [
     13.364722222,
     52.508611111
    ]
   },
   "properties": {
    "painter": "Rogier van der Weyden",
    "title": "Portrait of Philip the Good, Duke of Burgundy",
    "year": "1515",
    "location": "Gemäldegalerie Berlin",
    "city": "Bezirk Mitte",
    "country": "Germany",
    "attribution": "generally accepted",
    "image": "https://commons.wikimedia.org/wiki/Special:FilePath/Rogier%20van%20der%20Weyden%20-%20Portrait%20of%20Philip%20the%20Good%20-%20WGA25727.jpg?width=500",
    "qid": "Q107438502",
    "wikidata": "https://www.wikidata.org/wiki/Q107438502",
    "_source": {
     "source": "Wikidata",
     "url": "https://www.wikidata.org/wiki/Q107438502",
     "note": "harvested: painting by this creator with an image and a documented collection"
    }
   }
  },
  {
   "type": "Feature",
   "geometry": {
    "type": "Point",
    "coordinates": [
     13.364722222,
     52.508611111
    ]
   },
   "properties": {
    "painter": "Rogier van der Weyden",
    "title": "Madonna and Child",
    "year": "1439",
    "location": "Gemäldegalerie Berlin",
    "city": "Bezirk Mitte",
    "country": "Germany",
    "attribution": "generally accepted",
    "image": "https://commons.wikimedia.org/wiki/Special:FilePath/Rogier%20van%20der%20Weyden%2C%20%28Werkstatt%29%20-%20Maria%20mit%20dem%20Kind%2C%20Inventar-Nr.%20549A.jpg?width=500",
    "qid": "Q107438513",
    "wikidata": "https://www.wikidata.org/wiki/Q107438513",
    "_source": {
     "source": "Wikidata",
     "url": "https://www.wikidata.org/wiki/Q107438513",
     "note": "harvested: painting by this creator with an image and a documented collection"
    },
    "creation_place": "Brussels",
    "creation_lat": 50.846667,
    "creation_lon": 4.3525,
    "_overrides": {
     "creation": {
      "at": "2026-08-24",
      "source": "derived",
      "note": "creation place inferred from the painter's itinerary at this work's date (approximate)"
     }
    }
   }
  },
  {
   "type": "Feature",
   "geometry": {
    "type": "Point",
    "coordinates": [
     13.364722222,
     52.508611111
    ]
   },
   "properties": {
    "painter": "Rogier van der Weyden",
    "title": "Bladelin Triptych Nativity (central panel)",
    "year": "1445",
    "location": "Gemäldegalerie Berlin",
    "city": "Bezirk Mitte",
    "country": "Germany",
    "attribution": "generally accepted",
    "image": "https://commons.wikimedia.org/wiki/Special:FilePath/Rogier%20van%20der%20Weyden%20-%20Bladelin%20Triptych%20-%20The%20Nativity.jpg?width=500",
    "qid": "Q110275988",
    "wikidata": "https://www.wikidata.org/wiki/Q110275988",
    "_source": {
     "source": "Wikidata",
     "url": "https://www.wikidata.org/wiki/Q110275988",
     "note": "harvested: painting by this creator with an image and a documented collection"
    },
    "creation_place": "Brussels",
    "creation_lat": 50.846667,
    "creation_lon": 4.3525,
    "_overrides": {
     "creation": {
      "at": "2026-08-24",
      "source": "derived",
      "note": "creation place inferred from the painter's itinerary at this work's date (approximate)"
     }
    }
   }
  },
  {
   "type": "Feature",
   "geometry": {
    "type": "Point",
    "coordinates": [
     4.358238,
     50.84168
    ]
   },
   "properties": {
    "painter": "Rogier van der Weyden",
    "title": "Portrait of Jean Froimont. Verso: Saint Lawrence",
    "year": "1448",
    "location": "Royal Museums of Fine Arts of Belgium",
    "city": "Brussels-Capital Region",
    "country": "Belgium",
    "attribution": "generally accepted",
    "image": "https://commons.wikimedia.org/wiki/Special:FilePath/Rogier%20van%20der%20Weyden%20-%20Portrait%20Diptych%20of%20Laurent%20Froimont%20%28right%20wing%29%20-%20WGA25698.jpg?width=500",
    "qid": "Q116296300",
    "wikidata": "https://www.wikidata.org/wiki/Q116296300",
    "_source": {
     "source": "Wikidata",
     "url": "https://www.wikidata.org/wiki/Q116296300",
     "note": "harvested: painting by this creator with an image and a documented collection"
    },
    "creation_place": "Brussels",
    "creation_lat": 50.846667,
    "creation_lon": 4.3525,
    "_overrides": {
     "creation": {
      "at": "2026-08-24",
      "source": "derived",
      "note": "creation place inferred from the painter's itinerary at this work's date (approximate)"
     }
    }
   }
  },
  {
   "type": "Feature",
   "geometry": {
    "type": "Point",
    "coordinates": [
     -4.307726421,
     55.830936581
    ]
   },
   "properties": {
    "painter": "Rogier van der Weyden",
    "title": "The Annunciation",
    "year": "",
    "location": "Burrell Collection",
    "city": "Glasgow City",
    "country": "United Kingdom",
    "attribution": "generally accepted",
    "image": "https://commons.wikimedia.org/wiki/Special:FilePath/Rogier%20van%20der%20Weyden%20%28c.1399-1464%29%20%28follower%20of%29%20-%20The%20Annunciation%20-%2035.640%20-%20Burrell%20Collection.jpg?width=500",
    "qid": "Q118630024",
    "wikidata": "https://www.wikidata.org/wiki/Q118630024",
    "_source": {
     "source": "Wikidata",
     "url": "https://www.wikidata.org/wiki/Q118630024",
     "note": "harvested: painting by this creator with an image and a documented collection"
    }
   }
  },
  {
   "type": "Feature",
   "geometry": {
    "type": "Point",
    "coordinates": [
     2.335833,
     48.861111
    ]
   },
   "properties": {
    "painter": "Rogier van der Weyden",
    "title": "Madonna with child",
    "year": "1450",
    "location": "Louvre",
    "city": "",
    "country": "France",
    "attribution": "generally accepted",
    "image": "https://commons.wikimedia.org/wiki/Special:FilePath/Amiens%2C%20Mus%C3%A9e%20de%20Picardie%2C%20Anonyme%20%28Pays-Bas%20m%C3%A9ridionaux%29%20%2C%20Vierge%20allaitant%20l%27Enfant%20%28huile%20sur%20bois%2C%20vers%201500%29.jpg?width=500",
    "qid": "Q111650834",
    "wikidata": "https://www.wikidata.org/wiki/Q111650834",
    "_source": {
     "source": "Wikidata",
     "url": "https://www.wikidata.org/wiki/Q111650834",
     "note": "harvested: painting by this creator with an image and a documented collection"
    },
    "creation_place": "Brussels",
    "creation_lat": 50.846667,
    "creation_lon": 4.3525,
    "_overrides": {
     "creation": {
      "at": "2026-08-24",
      "source": "derived",
      "note": "creation place inferred from the painter's itinerary at this work's date (approximate)"
     }
    }
   }
  },
  {
   "type": "Feature",
   "geometry": {
    "type": "Point",
    "coordinates": [
     4.394349,
     51.208819
    ]
   },
   "properties": {
    "painter": "Rogier van der Weyden",
    "title": "Diptych of Philippe de Croy",
    "year": "1460",
    "location": "Royal Museum of Fine Arts Antwerp",
    "city": "Antwerp",
    "country": "Belgium",
    "attribution": "generally accepted",
    "image": "https://commons.wikimedia.org/wiki/Special:FilePath/Rogier%20van%20der%20Weyden%20-%20Diptych%20of%20Philippe%20de%20Croy%2C%201460%2C%20254-254bis.tif?width=500",
    "qid": "Q64776891",
    "wikidata": "https://www.wikidata.org/wiki/Q64776891",
    "_source": {
     "source": "Wikidata",
     "url": "https://www.wikidata.org/wiki/Q64776891",
     "note": "harvested: painting by this creator with an image and a documented collection"
    },
    "creation_place": "Brussels",
    "creation_lat": 50.846667,
    "creation_lon": 4.3525,
    "_overrides": {
     "creation": {
      "at": "2026-08-24",
      "source": "derived",
      "note": "creation place inferred from the painter's itinerary at this work's date (approximate)"
     }
    }
   }
  },
  {
   "type": "Feature",
   "geometry": {
    "type": "Point",
    "coordinates": [
     3.38555556,
     50.60277778
    ]
   },
   "properties": {
    "painter": "Rogier van der Weyden",
    "title": "Madonna with child, Revers: Emblem \"Graces a Dieu\"",
    "year": "1455",
    "location": "Musée des Beaux-Arts de Tournai",
    "city": "Tournai",
    "country": "Belgium",
    "attribution": "generally accepted",
    "image": "https://commons.wikimedia.org/wiki/Special:FilePath/Rogier%20van%20der%20weyden%2C%20madonna%20col%20bambino%2C%201455-60%20ca.%2001%20%28cropped%29.jpg?width=500",
    "qid": "Q112233065",
    "wikidata": "https://www.wikidata.org/wiki/Q112233065",
    "_source": {
     "source": "Wikidata",
     "url": "https://www.wikidata.org/wiki/Q112233065",
     "note": "harvested: painting by this creator with an image and a documented collection"
    },
    "creation_place": "Brussels",
    "creation_lat": 50.846667,
    "creation_lon": 4.3525,
    "_overrides": {
     "creation": {
      "at": "2026-08-24",
      "source": "derived",
      "note": "creation place inferred from the painter's itinerary at this work's date (approximate)"
     }
    }
   }
  },
  {
   "type": "Feature",
   "geometry": {
    "type": "Point",
    "coordinates": [
     -6.25255,
     53.34091
    ]
   },
   "properties": {
    "painter": "Rogier van der Weyden",
    "title": "Saint Luke Portraying the Virgin",
    "year": "1431",
    "location": "National Gallery of Ireland",
    "city": "Dublin City",
    "country": "Ireland",
    "attribution": "generally accepted",
    "image": "https://commons.wikimedia.org/wiki/Special:FilePath/Saint%20Luke%20Portraying%20the%20Virgin%20P1778.jpg?width=500",
    "qid": "Q77948375",
    "wikidata": "https://www.wikidata.org/wiki/Q77948375",
    "_source": {
     "source": "Wikidata",
     "url": "https://www.wikidata.org/wiki/Q77948375",
     "note": "harvested: painting by this creator with an image and a documented collection"
    },
    "creation_place": "Brussels",
    "creation_lat": 50.846667,
    "creation_lon": 4.3525,
    "_overrides": {
     "creation": {
      "at": "2026-08-24",
      "source": "derived",
      "note": "creation place inferred from the painter's itinerary at this work's date (approximate)"
     }
    }
   }
  },
  {
   "type": "Feature",
   "geometry": {
    "type": "Point",
    "coordinates": [
     -6.25255,
     53.34091
    ]
   },
   "properties": {
    "painter": "Rogier van der Weyden",
    "title": "The Arms of Philippe de Bourgogne",
    "year": "1431",
    "location": "National Gallery of Ireland",
    "city": "Dublin City",
    "country": "Ireland",
    "attribution": "generally accepted",
    "image": "https://commons.wikimedia.org/wiki/Special:FilePath/The%20Arms%20of%20Philippe%20de%20Bourgogne%20.PNG?width=500",
    "qid": "Q78001796",
    "wikidata": "https://www.wikidata.org/wiki/Q78001796",
    "_source": {
     "source": "Wikidata",
     "url": "https://www.wikidata.org/wiki/Q78001796",
     "note": "harvested: painting by this creator with an image and a documented collection"
    },
    "creation_place": "Brussels",
    "creation_lat": 50.846667,
    "creation_lon": 4.3525,
    "_overrides": {
     "creation": {
      "at": "2026-08-24",
      "source": "derived",
      "note": "creation place inferred from the painter's itinerary at this work's date (approximate)"
     }
    }
   }
  },
  {
   "type": "Feature",
   "geometry": {
    "type": "Point",
    "coordinates": [
     -0.10257,
     51.5219
    ]
   },
   "properties": {
    "painter": "Rogier van der Weyden",
    "title": "Weston Triptych (Christ) (triptych, right wing, outside)",
    "year": "",
    "location": "Museum of the Order of St John",
    "city": "",
    "country": "United Kingdom",
    "attribution": "generally accepted",
    "image": "https://commons.wikimedia.org/wiki/Special:FilePath/Rogier%20van%20der%20Weyden%20%28c.1399-1464%29%20%28school%20of%29%20-%20Weston%20Triptych%20%28Christ%29%20%28triptych%2C%20right%20wing%2C%20outside%29%20-%20LDOSJ1876A%20-%20Museum%20of%20the%20Order%20of%20St%20John.jpg?width=500",
    "qid": "Q118629835",
    "wikidata": "https://www.wikidata.org/wiki/Q118629835",
    "_source": {
     "source": "Wikidata",
     "url": "https://www.wikidata.org/wiki/Q118629835",
     "note": "harvested: painting by this creator with an image and a documented collection"
    }
   }
  },
  {
   "type": "Feature",
   "geometry": {
    "type": "Point",
    "coordinates": [
     -0.10257,
     51.5219
    ]
   },
   "properties": {
    "painter": "Rogier van der Weyden",
    "title": "Weston Triptych (triptych, left wing, inside)",
    "year": "",
    "location": "Museum of the Order of St John",
    "city": "",
    "country": "United Kingdom",
    "attribution": "generally accepted",
    "image": "https://commons.wikimedia.org/wiki/Special:FilePath/Rogier%20van%20der%20Weyden%20%28c.1399-1464%29%20%28school%20of%29%20-%20Weston%20Triptych%20%28triptych%2C%20left%20wing%2C%20inside%29%20-%20LDOSJ1876C%20-%20Museum%20of%20the%20Order%20of%20St%20John.jpg?width=500",
    "qid": "Q118629837",
    "wikidata": "https://www.wikidata.org/wiki/Q118629837",
    "_source": {
     "source": "Wikidata",
     "url": "https://www.wikidata.org/wiki/Q118629837",
     "note": "harvested: painting by this creator with an image and a documented collection"
    }
   }
  },
  {
   "type": "Feature",
   "geometry": {
    "type": "Point",
    "coordinates": [
     -0.10257,
     51.5219
    ]
   },
   "properties": {
    "painter": "Rogier van der Weyden",
    "title": "Weston Triptych (triptych, right wing, inside)",
    "year": "",
    "location": "Museum of the Order of St John",
    "city": "",
    "country": "United Kingdom",
    "attribution": "generally accepted",
    "image": "https://commons.wikimedia.org/wiki/Special:FilePath/Rogier%20van%20der%20Weyden%20%28c.1399-1464%29%20%28school%20of%29%20-%20Weston%20Triptych%20%28triptych%2C%20right%20wing%2C%20inside%29%20-%20LDOSJ1876D%20-%20Museum%20of%20the%20Order%20of%20St%20John.jpg?width=500",
    "qid": "Q118629839",
    "wikidata": "https://www.wikidata.org/wiki/Q118629839",
    "_source": {
     "source": "Wikidata",
     "url": "https://www.wikidata.org/wiki/Q118629839",
     "note": "harvested: painting by this creator with an image and a documented collection"
    }
   }
  },
  {
   "type": "Feature",
   "geometry": {
    "type": "Point",
    "coordinates": [
     -0.10257,
     51.5219
    ]
   },
   "properties": {
    "painter": "Rogier van der Weyden",
    "title": "Weston Triptych (John the Baptist) (triptych, left wing, outside)",
    "year": "",
    "location": "Museum of the Order of St John",
    "city": "",
    "country": "United Kingdom",
    "attribution": "generally accepted",
    "image": "https://commons.wikimedia.org/wiki/Special:FilePath/Rogier%20van%20der%20Weyden%20%28c.1399-1464%29%20%28school%20of%29%20-%20Weston%20Triptych%20%28John%20the%20Baptist%29%20%28triptych%2C%20left%20wing%2C%20outside%29%20-%20LDOSJ1876B%20-%20Museum%20of%20the%20Order%20of%20St%20John.jpg?width=500",
    "qid": "Q118629894",
    "wikidata": "https://www.wikidata.org/wiki/Q118629894",
    "_source": {
     "source": "Wikidata",
     "url": "https://www.wikidata.org/wiki/Q118629894",
     "note": "harvested: painting by this creator with an image and a documented collection"
    }
   }
  },
  {
   "type": "Feature",
   "geometry": {
    "type": "Point",
    "coordinates": [
     -0.117712,
     51.511568
    ]
   },
   "properties": {
    "painter": "Rogier van der Weyden",
    "title": "Branch of Holly (verso)",
    "year": "",
    "location": "Courtauld Gallery",
    "city": "City of Westminster",
    "country": "United Kingdom",
    "attribution": "generally accepted",
    "image": "https://commons.wikimedia.org/wiki/Special:FilePath/Rogier%20van%20der%20Weyden%20%28c.1399-1464%29%20%28workshop%20of%29%20-%20Branch%20of%20Holly%20%28verso%29%20-%20P.1987.XX.486.v%20-%20Courtauld%20Gallery.jpg?width=500",
    "qid": "Q118630338",
    "wikidata": "https://www.wikidata.org/wiki/Q118630338",
    "_source": {
     "source": "Wikidata",
     "url": "https://www.wikidata.org/wiki/Q118630338",
     "note": "harvested: painting by this creator with an image and a documented collection"
    }
   }
  }
 ]
}