{
 "type": "FeatureCollection",
 "_note": "Generated by scripts/build.py from Wikidata (creator = Caravaggio Q42207). Do not edit by hand — put manual fixes in data/overlay/enrich.json.",
 "features": [
  {
   "type": "Feature",
   "geometry": {
    "type": "Point",
    "coordinates": [
     11.277747,
     43.759539
    ]
   },
   "properties": {
    "title": "Boy Peeling Pears",
    "year": "1592",
    "city": "Florence",
    "country": "Italy",
    "location": "Fondazione Roberto Longhi",
    "kind": "museum",
    "attribution": "generally accepted",
    "image": "https://commons.wikimedia.org/wiki/Special:FilePath/CARAVAGGIO%2C%20A%20boy%20peeling%20fruit%20%281593%29.jpg?width=420",
    "wikidata": "https://www.wikidata.org/wiki/Q102641148"
   }
  },
  {
   "type": "Feature",
   "geometry": {
    "type": "Point",
    "coordinates": [
     8.4,
     49.0119
    ]
   },
   "properties": {
    "title": "Prophet with book",
    "city": "Karlsruhe",
    "country": "Germany",
    "location": "Staatliche Kunsthalle Karlsruhe",
    "kind": "museum",
    "attribution": "generally accepted",
    "image": "https://commons.wikimedia.org/wiki/Special:FilePath/Caravaggio%20%28Nachfolger%29%20-%20Prophet%20mit%20Buch%20-%20467%20-%20Staatliche%20Kunsthalle%20Karlsruhe.jpg?width=420",
    "wikidata": "https://www.wikidata.org/wiki/Q104528133"
   }
  },
  {
   "type": "Feature",
   "geometry": {
    "type": "Point",
    "coordinates": [
     13.364722,
     52.508611
    ]
   },
   "properties": {
    "title": "Lamentation of Christ",
    "city": "Bezirk Mitte",
    "country": "Germany",
    "location": "Gemäldegalerie Berlin",
    "kind": "museum",
    "attribution": "generally accepted",
    "wikidata": "https://www.wikidata.org/wiki/Q107437716"
   }
  },
  {
   "type": "Feature",
   "geometry": {
    "type": "Point",
    "coordinates": [
     13.364722,
     52.508611
    ]
   },
   "properties": {
    "title": "The Holy Family with Child Saint John",
    "year": "1603",
    "city": "Bezirk Mitte",
    "country": "Germany",
    "location": "Gemäldegalerie Berlin",
    "kind": "museum",
    "attribution": "generally accepted",
    "image": "https://commons.wikimedia.org/wiki/Special:FilePath/Michelangelo%20Caravaggio%20055%20-%20color%20enhanced.jpg?width=420",
    "wikidata": "https://www.wikidata.org/wiki/Q107443198"
   }
  },
  {
   "type": "Feature",
   "geometry": {
    "type": "Point",
    "coordinates": [
     13.364722,
     52.508611
    ]
   },
   "properties": {
    "title": "The Healing of Tobit",
    "year": "1617",
    "city": "Bezirk Mitte",
    "country": "Germany",
    "location": "Gemäldegalerie Berlin",
    "kind": "museum",
    "attribution": "generally accepted",
    "image": "https://commons.wikimedia.org/wiki/Special:FilePath/Pittore%20caravaggesco%2C%20la%20guarigione%20di%20tobia%2C%201615-20%20ca.jpg?width=420",
    "wikidata": "https://www.wikidata.org/wiki/Q107445146"
   }
  },
  {
   "type": "Feature",
   "geometry": {
    "type": "Point",
    "coordinates": [
     5.577389,
     50.627472
    ]
   },
   "properties": {
    "title": "Q107493287",
    "year": "1600",
    "city": "Liège",
    "country": "Belgium",
    "location": "La Boverie",
    "kind": "museum",
    "attribution": "generally accepted",
    "wikidata": "https://www.wikidata.org/wiki/Q107493287"
   }
  },
  {
   "type": "Feature",
   "geometry": {
    "type": "Point",
    "coordinates": [
     11.25,
     43.7652
    ]
   },
   "properties": {
    "title": "Portrait of Fra Antonio Martelli",
    "year": "1607",
    "city": "Florence",
    "country": "Italy",
    "location": "Galleria Palatina",
    "kind": "museum",
    "attribution": "generally accepted",
    "image": "https://commons.wikimedia.org/wiki/Special:FilePath/Portrait%20of%20Fra%20Antonio%20Martelli-Caravaggio%20%281610%29.jpg?width=420",
    "wikipedia_es": "https://es.wikipedia.org/wiki/Retrato_de_fray_Antonio_Martelli",
    "wikipedia_en": "https://en.wikipedia.org/wiki/Portrait_of_Fra_Antonio_Martelli_(Caravaggio)",
    "wikipedia_it": "https://it.wikipedia.org/wiki/Ritratto_di_Antonio_Martelli",
    "wikidata": "https://www.wikidata.org/wiki/Q1113749"
   }
  },
  {
   "type": "Feature",
   "geometry": {
    "type": "Point",
    "coordinates": [
     16.3616,
     48.203881
    ]
   },
   "properties": {
    "title": "The Crowning with Thorns",
    "year": "1602",
    "city": "Vienna",
    "country": "Austria",
    "location": "Kunsthistorisches Museum",
    "kind": "museum",
    "attribution": "generally accepted",
    "image": "https://commons.wikimedia.org/wiki/Special:FilePath/The%20Crowning%20with%20Thorns-Caravaggio%20%281602%29.jpg?width=420",
    "wikipedia_es": "https://es.wikipedia.org/wiki/La_coronaci%C3%B3n_de_espinas_(Viena)",
    "wikipedia_en": "https://en.wikipedia.org/wiki/The_Crowning_with_Thorns_(Caravaggio,_Vienna)",
    "wikipedia_it": "https://it.wikipedia.org/wiki/Incoronazione_di_spine_(Caravaggio)",
    "wikidata": "https://www.wikidata.org/wiki/Q1117094"
   }
  },
  {
   "type": "Feature",
   "geometry": {
    "type": "Point",
    "coordinates": [
     12.487222,
     41.9075
    ]
   },
   "properties": {
    "title": "Jupiter, Neptune and Pluto",
    "year": "1599",
    "city": "Rome",
    "country": "Italy",
    "location": "Villa Ludovisi",
    "kind": "museum",
    "attribution": "generally accepted",
    "image": "https://commons.wikimedia.org/wiki/Special:FilePath/Caravaggio%20Jupiter%20Neptune%20Pluto.jpg?width=420",
    "wikipedia_es": "https://es.wikipedia.org/wiki/J%C3%BApiter,_Neptuno_y_Plut%C3%B3n",
    "wikipedia_en": "https://en.wikipedia.org/wiki/Jupiter,_Neptune_and_Pluto",
    "wikipedia_it": "https://it.wikipedia.org/wiki/Giove,_Nettuno_e_Plutone",
    "wikidata": "https://www.wikidata.org/wiki/Q1122537"
   }
  },
  {
   "type": "Feature",
   "geometry": {
    "type": "Point",
    "coordinates": [
     12.5,
     42.5
    ]
   },
   "properties": {
    "title": "The Burial of Saint Lucy",
    "year": "1608",
    "country": "Italy",
    "location": "Italy",
    "kind": "museum",
    "attribution": "generally accepted",
    "image": "https://commons.wikimedia.org/wiki/Special:FilePath/Burial%20of%20Saint%20Lucy-Caravaggio%20%281608%29.jpg?width=420",
    "wikipedia_es": "https://es.wikipedia.org/wiki/El_entierro_de_Santa_Luc%C3%ADa",
    "wikipedia_en": "https://en.wikipedia.org/wiki/The_Burial_of_Saint_Lucy",
    "wikipedia_it": "https://it.wikipedia.org/wiki/Seppellimento_di_santa_Lucia",
    "wikidata": "https://www.wikidata.org/wiki/Q1132479"
   }
  },
  {
   "type": "Feature",
   "geometry": {
    "type": "Point",
    "coordinates": [
     -2.28788,
     52.693
    ]
   },
   "properties": {
    "title": "The Calling of Saints Peter and Andrew",
    "city": "Blymhill and Weston-under-Lizard",
    "country": "United Kingdom",
    "location": "Weston Park",
    "kind": "museum",
    "attribution": "generally accepted",
    "image": "https://commons.wikimedia.org/wiki/Special:FilePath/Caravaggio%20%281571-1610%29%20%28after%29%20-%20The%20Calling%20of%20Saints%20Peter%20and%20Andrew%20-%20101.0115%20-%20Weston%20Park.jpg?width=420",
    "wikidata": "https://www.wikidata.org/wiki/Q120035767"
   }
  },
  {
   "type": "Feature",
   "geometry": {
    "type": "Point",
    "coordinates": [
     12.45277,
     41.90573
    ]
   },
   "properties": {
    "title": "The Entombment of Christ",
    "year": "1600",
    "city": "Vatican City",
    "country": "Vatican City",
    "location": "Pinacoteca Vaticana",
    "kind": "museum",
    "attribution": "generally accepted",
    "image": "https://commons.wikimedia.org/wiki/Special:FilePath/The%20Entombment%20of%20Christ-Caravaggio%20%28c.1602-3%29.jpg?width=420",
    "wikipedia_es": "https://es.wikipedia.org/wiki/Santo_Entierro_(Caravaggio)",
    "wikipedia_en": "https://en.wikipedia.org/wiki/The_Entombment_of_Christ_(Caravaggio)",
    "wikipedia_it": "https://it.wikipedia.org/wiki/Deposizione_(Caravaggio)",
    "wikidata": "https://www.wikidata.org/wiki/Q1213151"
   }
  },
  {
   "type": "Feature",
   "geometry": {
    "type": "Point",
    "coordinates": [
     -3.692222,
     40.413889
    ]
   },
   "properties": {
    "title": "Ecce Homo",
    "year": "1607-1700",
    "city": "Madrid",
    "country": "Spain",
    "location": "Museo del Prado",
    "kind": "museum",
    "attribution": "generally accepted",
    "image": "https://commons.wikimedia.org/wiki/Special:FilePath/Ecce%20homo%28Caravaggio%29.jpg?width=420",
    "wikipedia_es": "https://es.wikipedia.org/wiki/Ecce_Homo_(Caravaggio,_Madrid)",
    "wikipedia_en": "https://en.wikipedia.org/wiki/Ecce_Homo_(Caravaggio,_Madrid)",
    "wikidata": "https://www.wikidata.org/wiki/Q125869859"
   }
  },
  {
   "type": "Feature",
   "geometry": {
    "type": "Point",
    "coordinates": [
     11.277747,
     43.759539
    ]
   },
   "properties": {
    "title": "Boy Bitten by a Lizard",
    "year": "1597",
    "city": "Florence",
    "country": "Italy",
    "location": "Fondazione Roberto Longhi",
    "kind": "museum",
    "attribution": "generally accepted",
    "image": "https://commons.wikimedia.org/wiki/Special:FilePath/Boy%20Bitten%20by%20a%20Lizard%20by%20Caravaggio%20%28Florence%29.jpg?width=420",
    "wikidata": "https://www.wikidata.org/wiki/Q131543672"
   }
  },
  {
   "type": "Feature",
   "geometry": {
    "type": "Point",
    "coordinates": [
     12.481145,
     41.897669
    ]
   },
   "properties": {
    "title": "Young Saint John the Baptist with ram",
    "year": "1602",
    "city": "Rome",
    "country": "Italy",
    "location": "Galleria Doria Pamphilj",
    "kind": "museum",
    "attribution": "generally accepted",
    "image": "https://commons.wikimedia.org/wiki/Special:FilePath/Michelangelo%20Merisi%20da%20Caravaggio%2C%20Saint%20John%20the%20Baptist%20%28Youth%20with%20a%20Ram%29%20%28c.%201602%2C%20Yorck%20Project%29.jpg?width=420",
    "wikidata": "https://www.wikidata.org/wiki/Q131613900"
   }
  },
  {
   "type": "Feature",
   "geometry": {
    "type": "Point",
    "coordinates": [
     -2.28045,
     51.5455
    ]
   },
   "properties": {
    "title": "The Lute Player",
    "city": "Badminton",
    "country": "United Kingdom",
    "location": "Badminton House",
    "kind": "museum",
    "attribution": "generally accepted",
    "image": "https://commons.wikimedia.org/wiki/Special:FilePath/Caravaggioapollo.jpg?width=420",
    "wikidata": "https://www.wikidata.org/wiki/Q131627548"
   }
  },
  {
   "type": "Feature",
   "geometry": {
    "type": "Point",
    "coordinates": [
     13.36643,
     38.116687
    ]
   },
   "properties": {
    "title": "Nativity with Saint Francis and Saint Lawrence",
    "year": "1600",
    "city": "Palermo",
    "country": "Italy",
    "location": "Oratory of San Lorenzo",
    "kind": "church",
    "attribution": "generally accepted",
    "image": "https://commons.wikimedia.org/wiki/Special:FilePath/Caravaggio-Nativity%281600%29.jpg?width=420",
    "wikipedia_es": "https://es.wikipedia.org/wiki/Natividad_con_San_Francisco_y_San_Lorenzo",
    "wikipedia_en": "https://en.wikipedia.org/wiki/Nativity_with_Saint_Francis_and_Saint_Lawrence",
    "wikipedia_it": "https://it.wikipedia.org/wiki/Nativit%C3%A0_con_i_santi_Lorenzo_e_Francesco_d%27Assisi",
    "wikidata": "https://www.wikidata.org/wiki/Q1433194"
   }
  },
  {
   "type": "Feature",
   "geometry": {
    "type": "Point",
    "coordinates": [
     12.482528,
     41.898222
    ]
   },
   "properties": {
    "title": "The Conversion of Saint Paul",
    "year": "1600",
    "city": "Rome",
    "country": "Italy",
    "location": "Palazzo Chigi-Odescalchi",
    "kind": "museum",
    "attribution": "generally accepted",
    "image": "https://commons.wikimedia.org/wiki/Special:FilePath/The%20Conversion%20of%20Saint%20Paul-Caravaggio%20%28c.%201600-1%29.jpg?width=420",
    "wikipedia_es": "https://es.wikipedia.org/wiki/La_conversi%C3%B3n_de_San_Pablo_(Caravaggio)",
    "wikipedia_en": "https://en.wikipedia.org/wiki/The_Conversion_of_Saint_Paul_(Caravaggio)",
    "wikipedia_it": "https://it.wikipedia.org/wiki/Conversione_di_san_Paolo_(Caravaggio_Odescalchi)",
    "wikidata": "https://www.wikidata.org/wiki/Q1448203"
   }
  },
  {
   "type": "Feature",
   "geometry": {
    "type": "Point",
    "coordinates": [
     11.094886,
     43.880222
    ]
   },
   "properties": {
    "title": "The Crowning with Thorns",
    "year": "1604",
    "city": "Prato",
    "country": "Italy",
    "location": "Palazzo degli Alberti",
    "kind": "museum",
    "attribution": "generally accepted",
    "image": "https://commons.wikimedia.org/wiki/Special:FilePath/CaravaggioCrowning01.jpg?width=420",
    "wikipedia_es": "https://es.wikipedia.org/wiki/La_coronaci%C3%B3n_de_espinas_(Caravaggio,_Prato)",
    "wikipedia_en": "https://en.wikipedia.org/wiki/The_Crowning_with_Thorns_(Caravaggio,_Prato)",
    "wikipedia_it": "https://it.wikipedia.org/wiki/Incoronazione_di_spine_(Caravaggio_Prato)",
    "wikidata": "https://www.wikidata.org/wiki/Q1448701"
   }
  },
  {
   "type": "Feature",
   "geometry": {
    "type": "Point",
    "coordinates": [
     6.18234,
     48.69346
    ]
   },
   "properties": {
    "title": "Annunciation",
    "year": "1609",
    "city": "Nancy",
    "country": "France",
    "location": "Museum of Fine Arts of Nancy",
    "kind": "museum",
    "attribution": "generally accepted",
    "image": "https://commons.wikimedia.org/wiki/Special:FilePath/Caravaggio%20-%20The%20Annunciation.JPG?width=420",
    "wikipedia_es": "https://es.wikipedia.org/wiki/La_Anunciaci%C3%B3n_(Caravaggio)",
    "wikipedia_en": "https://en.wikipedia.org/wiki/Annunciation_(Caravaggio)",
    "wikipedia_it": "https://it.wikipedia.org/wiki/Annunciazione_(Caravaggio)",
    "wikidata": "https://www.wikidata.org/wiki/Q1448728"
   }
  },
  {
   "type": "Feature",
   "geometry": {
    "type": "Point",
    "coordinates": [
     -0.337499,
     51.4034
    ]
   },
   "properties": {
    "title": "The Calling of Saints Peter and Andrew",
    "year": "1603-1606",
    "city": "London Borough of Richmond upon Thames",
    "country": "United Kingdom",
    "location": "Hampton Court Palace",
    "kind": "museum",
    "attribution": "generally accepted",
    "image": "https://commons.wikimedia.org/wiki/Special:FilePath/Uqueen3.jpg?width=420",
    "wikipedia_es": "https://es.wikipedia.org/wiki/La_vocaci%C3%B3n_de_los_santos_Andr%C3%A9s_y_Pedro",
    "wikipedia_en": "https://en.wikipedia.org/wiki/The_Calling_of_Saints_Peter_and_Andrew",
    "wikipedia_it": "https://it.wikipedia.org/wiki/Vocazione_dei_santi_Pietro_e_Andrea",
    "wikidata": "https://www.wikidata.org/wiki/Q1460179"
   }
  },
  {
   "type": "Feature",
   "geometry": {
    "type": "Point",
    "coordinates": [
     12.492144,
     41.91421
    ]
   },
   "properties": {
    "title": "Portrait of Pope Paul V",
    "year": "1605",
    "city": "Rome",
    "country": "Italy",
    "location": "Galleria Borghese",
    "kind": "museum",
    "attribution": "generally accepted",
    "image": "https://commons.wikimedia.org/wiki/Special:FilePath/Pope%20Paul%20V.jpg?width=420",
    "wikipedia_es": "https://es.wikipedia.org/wiki/Retrato_de_Paulo_V",
    "wikipedia_en": "https://en.wikipedia.org/wiki/Portrait_of_Pope_Paul_V",
    "wikipedia_it": "https://it.wikipedia.org/wiki/Ritratto_di_papa_Paolo_V",
    "wikidata": "https://www.wikidata.org/wiki/Q1460271"
   }
  },
  {
   "type": "Feature",
   "geometry": {
    "type": "Point",
    "coordinates": [
     12.482778,
     41.893056
    ]
   },
   "properties": {
    "title": "The Fortune Teller",
    "year": "1594",
    "city": "Rome",
    "country": "Italy",
    "location": "Capitoline Museums",
    "kind": "museum",
    "attribution": "generally accepted",
    "image": "https://commons.wikimedia.org/wiki/Special:FilePath/The%20Fortune%20Teller-Caravaggio%20%28Rome%29.jpg?width=420",
    "wikipedia_it": "https://it.wikipedia.org/wiki/Buona_ventura_(Caravaggio_Roma)",
    "wikidata": "https://www.wikidata.org/wiki/Q16534183"
   }
  },
  {
   "type": "Feature",
   "geometry": {
    "type": "Point",
    "coordinates": [
     11.249219,
     43.770777
    ]
   },
   "properties": {
    "title": "Portrait of Maffeo Barberini (Pope Urban VIII)",
    "year": "1593",
    "city": "Florence",
    "country": "Italy",
    "location": "Palazzo Corsini",
    "kind": "museum",
    "attribution": "generally accepted",
    "image": "https://commons.wikimedia.org/wiki/Special:FilePath/Portrait%20of%20Pope%20Urban%20VIII-Caravaggio%20%28Maffeo%20Barberini%29.jpg?width=420",
    "wikipedia_it": "https://it.wikipedia.org/wiki/Ritratto_di_Maffeo_Barberini_(Corsini)",
    "wikidata": "https://www.wikidata.org/wiki/Q16596970"
   }
  },
  {
   "type": "Feature",
   "geometry": {
    "type": "Point",
    "coordinates": [
     -1.26056,
     51.75556
    ]
   },
   "properties": {
    "title": "The Cardsharps",
    "year": "1595",
    "city": "Oxford",
    "country": "United Kingdom",
    "location": "Ashmolean Museum",
    "kind": "museum",
    "attribution": "generally accepted",
    "image": "https://commons.wikimedia.org/wiki/Special:FilePath/Caravaggio%20I%20bari%20%28Mahon%29.jpg?width=420",
    "wikipedia_it": "https://it.wikipedia.org/wiki/I_bari_(Mahon)",
    "wikidata": "https://www.wikidata.org/wiki/Q17992160"
   }
  },
  {
   "type": "Feature",
   "geometry": {
    "type": "Point",
    "coordinates": [
     11.255278,
     43.768333
    ]
   },
   "properties": {
    "title": "Bacchus",
    "year": "1598",
    "city": "Florence",
    "country": "Italy",
    "location": "Uffizi Gallery",
    "kind": "museum",
    "attribution": "generally accepted",
    "image": "https://commons.wikimedia.org/wiki/Special:FilePath/Baco%2C%20por%20Caravaggio.jpg?width=420",
    "wikipedia_es": "https://es.wikipedia.org/wiki/Baco_(Caravaggio)",
    "wikipedia_en": "https://en.wikipedia.org/wiki/Bacchus_(Caravaggio)",
    "wikipedia_it": "https://it.wikipedia.org/wiki/Bacco_(Caravaggio)",
    "wikidata": "https://www.wikidata.org/wiki/Q2011510"
   }
  },
  {
   "type": "Feature",
   "geometry": {
    "type": "Point",
    "coordinates": [
     9.187815,
     45.471955
    ]
   },
   "properties": {
    "title": "Supper at Emmaus",
    "year": "1606",
    "city": "Milan",
    "country": "Italy",
    "location": "Pinacoteca di Brera",
    "kind": "museum",
    "attribution": "generally accepted",
    "image": "https://commons.wikimedia.org/wiki/Special:FilePath/Caravaggio%20%E2%80%94%20Supper%20at%20Emmaus.jpg?width=420",
    "wikipedia_es": "https://es.wikipedia.org/wiki/Los_disc%C3%ADpulos_de_Ema%C3%BAs_(Mil%C3%A1n)",
    "wikipedia_en": "https://en.wikipedia.org/wiki/Supper_at_Emmaus_(Caravaggio,_Milan)",
    "wikipedia_it": "https://it.wikipedia.org/wiki/Cena_in_Emmaus_(Caravaggio_Milano)",
    "wikidata": "https://www.wikidata.org/wiki/Q2097931"
   }
  },
  {
   "type": "Feature",
   "geometry": {
    "type": "Point",
    "coordinates": [
     14.250346,
     40.86699
    ]
   },
   "properties": {
    "title": "The Flagellation of Christ",
    "year": "1607",
    "city": "Naples",
    "country": "Italy",
    "location": "Museo di Capodimonte",
    "kind": "museum",
    "attribution": "generally accepted",
    "image": "https://commons.wikimedia.org/wiki/Special:FilePath/The%20Flagellation%20of%20Christ-Caravaggio%20%281607%29.jpg?width=420",
    "wikipedia_es": "https://es.wikipedia.org/wiki/La_flagelaci%C3%B3n_de_Cristo_(Caravaggio)",
    "wikipedia_en": "https://en.wikipedia.org/wiki/The_Flagellation_of_Christ_(Caravaggio)",
    "wikipedia_it": "https://it.wikipedia.org/wiki/Flagellazione_di_Cristo_(Caravaggio)",
    "wikidata": "https://www.wikidata.org/wiki/Q2264942"
   }
  },
  {
   "type": "Feature",
   "geometry": {
    "type": "Point",
    "coordinates": [
     9.185952,
     45.46378
    ]
   },
   "properties": {
    "title": "Basket of Fruit",
    "year": "1600",
    "city": "Milan",
    "country": "Italy",
    "location": "Pinacoteca Ambrosiana",
    "kind": "museum",
    "attribution": "generally accepted",
    "image": "https://commons.wikimedia.org/wiki/Special:FilePath/Caravaggio%20-%20Natura%20morta%20con%20frutta%20%28collezione%20dell%E2%80%99Ambrosiana%29.jpg?width=420",
    "wikipedia_es": "https://es.wikipedia.org/wiki/Cesto_con_frutas",
    "wikipedia_en": "https://en.wikipedia.org/wiki/Basket_of_Fruit_(Caravaggio)",
    "wikipedia_it": "https://it.wikipedia.org/wiki/Canestra_di_frutta",
    "wikidata": "https://www.wikidata.org/wiki/Q2270291"
   }
  },
  {
   "type": "Feature",
   "geometry": {
    "type": "Point",
    "coordinates": [
     -73.963333,
     40.779444
    ]
   },
   "properties": {
    "title": "The Denial of Saint Peter",
    "year": "1610",
    "city": "Manhattan",
    "country": "United States",
    "location": "Metropolitan Museum of Art",
    "kind": "museum",
    "attribution": "generally accepted",
    "image": "https://commons.wikimedia.org/wiki/Special:FilePath/The%20Denial%20of%20Saint%20Peter-Caravaggio%20%281610%29.jpg?width=420",
    "wikipedia_es": "https://es.wikipedia.org/wiki/La_negaci%C3%B3n_de_San_Pedro",
    "wikipedia_en": "https://en.wikipedia.org/wiki/The_Denial_of_Saint_Peter_(Caravaggio)",
    "wikipedia_it": "https://it.wikipedia.org/wiki/Negazione_di_san_Pietro",
    "wikidata": "https://www.wikidata.org/wiki/Q2270778"
   }
  },
  {
   "type": "Feature",
   "geometry": {
    "type": "Point",
    "coordinates": [
     -3.692222,
     40.413889
    ]
   },
   "properties": {
    "title": "David and Goliath",
    "year": "1600",
    "city": "Madrid",
    "country": "Spain",
    "location": "Museo del Prado",
    "kind": "museum",
    "attribution": "generally accepted",
    "image": "https://commons.wikimedia.org/wiki/Special:FilePath/David%20and%20Goliath%20by%20Caravaggio.jpg?width=420",
    "wikipedia_es": "https://es.wikipedia.org/wiki/David_vencedor_de_Goliat_(Caravaggio)",
    "wikipedia_en": "https://en.wikipedia.org/wiki/David_and_Goliath_(Caravaggio)",
    "wikipedia_it": "https://it.wikipedia.org/wiki/Davide_e_Golia_(Caravaggio)",
    "wikidata": "https://www.wikidata.org/wiki/Q2270955"
   }
  },
  {
   "type": "Feature",
   "geometry": {
    "type": "Point",
    "coordinates": [
     12.476656,
     41.911503
    ]
   },
   "properties": {
    "title": "Conversion on the Way to Damascus",
    "year": "1600",
    "city": "Rome",
    "country": "Italy",
    "location": "Cerasi Chapel",
    "kind": "church",
    "attribution": "generally accepted",
    "image": "https://commons.wikimedia.org/wiki/Special:FilePath/Conversion%20on%20the%20Way%20to%20Damascus-Caravaggio%20%28c.1600-1%29.jpg?width=420",
    "wikipedia_es": "https://es.wikipedia.org/wiki/La_conversi%C3%B3n_de_San_Pablo_en_el_camino_a_Damasco",
    "wikipedia_en": "https://en.wikipedia.org/wiki/Conversion_on_the_Way_to_Damascus",
    "wikipedia_it": "https://it.wikipedia.org/wiki/Conversione_di_san_Paolo_(Caravaggio)",
    "wikidata": "https://www.wikidata.org/wiki/Q2273517"
   }
  },
  {
   "type": "Feature",
   "geometry": {
    "type": "Point",
    "coordinates": [
     12.488568,
     41.905024
    ]
   },
   "properties": {
    "title": "Saint Francis in Meditation",
    "year": "1606",
    "city": "Rome",
    "country": "Italy",
    "location": "Santa Maria della Concezione dei Cappuccini",
    "kind": "church",
    "attribution": "generally accepted",
    "image": "https://commons.wikimedia.org/wiki/Special:FilePath/Caravaggio%20-%20San%20Francesco%20in%20meditazione%20%281606-1607%29.jpg?width=420",
    "wikipedia_es": "https://es.wikipedia.org/wiki/San_Francisco_en_oraci%C3%B3n_(Caravaggio,_Roma)",
    "wikipedia_en": "https://en.wikipedia.org/wiki/Saint_Francis_in_Prayer_(Caravaggio)",
    "wikipedia_it": "https://it.wikipedia.org/wiki/San_Francesco_in_meditazione_(Caravaggio_Roma)",
    "wikidata": "https://www.wikidata.org/wiki/Q2275353"
   }
  },
  {
   "type": "Feature",
   "geometry": {
    "type": "Point",
    "coordinates": [
     10.020917,
     45.137917
    ]
   },
   "properties": {
    "title": "Saint Francis in Meditation",
    "year": "1606",
    "city": "Cremona",
    "country": "Italy",
    "location": "Museo Civico Ala Ponzone",
    "kind": "museum",
    "attribution": "generally accepted",
    "image": "https://commons.wikimedia.org/wiki/Special:FilePath/Saint%20Francis%20in%20Meditation-Caravaggio%20%28Cremona%29.jpg?width=420",
    "wikipedia_es": "https://es.wikipedia.org/wiki/San_Francisco_en_oraci%C3%B3n_(Caravaggio,_Cremona)",
    "wikipedia_en": "https://en.wikipedia.org/wiki/Saint_Francis_in_Meditation_(Caravaggio)",
    "wikipedia_it": "https://it.wikipedia.org/wiki/San_Francesco_in_meditazione_(Caravaggio_Cremona)",
    "wikidata": "https://www.wikidata.org/wiki/Q2275371"
   }
  },
  {
   "type": "Feature",
   "geometry": {
    "type": "Point",
    "coordinates": [
     15.561121,
     38.2088
    ]
   },
   "properties": {
    "title": "The Raising of Lazarus",
    "year": "1609",
    "city": "Messina",
    "country": "Italy",
    "location": "Regional museum of Messina",
    "kind": "museum",
    "attribution": "generally accepted",
    "image": "https://commons.wikimedia.org/wiki/Special:FilePath/Michelangelo%20Caravaggio%20006.jpg?width=420",
    "wikipedia_es": "https://es.wikipedia.org/wiki/La_resurrecci%C3%B3n_de_L%C3%A1zaro_(Caravaggio)",
    "wikipedia_en": "https://en.wikipedia.org/wiki/The_Raising_of_Lazarus_(Caravaggio)",
    "wikipedia_it": "https://it.wikipedia.org/wiki/Resurrezione_di_Lazzaro_(Caravaggio)",
    "wikidata": "https://www.wikidata.org/wiki/Q2277635"
   }
  },
  {
   "type": "Feature",
   "geometry": {
    "type": "Point",
    "coordinates": [
     11.255278,
     43.768333
    ]
   },
   "properties": {
    "title": "Sacrifice of Isaac",
    "year": "1603",
    "city": "Florence",
    "country": "Italy",
    "location": "Uffizi Gallery",
    "kind": "museum",
    "attribution": "generally accepted",
    "image": "https://commons.wikimedia.org/wiki/Special:FilePath/Sacrifice%20of%20Isaac-Caravaggio%20%28Uffizi%29.jpg?width=420",
    "wikipedia_es": "https://es.wikipedia.org/wiki/El_sacrificio_de_Isaac_(Caravaggio,_Florencia)",
    "wikidata": "https://www.wikidata.org/wiki/Q2284829"
   }
  },
  {
   "type": "Feature",
   "geometry": {
    "type": "Point",
    "coordinates": [
     11.255278,
     43.768333
    ]
   },
   "properties": {
    "title": "Medusa",
    "year": "1597",
    "city": "Florence",
    "country": "Italy",
    "location": "Uffizi Gallery",
    "kind": "museum",
    "attribution": "generally accepted",
    "image": "https://commons.wikimedia.org/wiki/Special:FilePath/Caravaggio%20-%20Medusa%20-%20Google%20Art%20Project.jpg?width=420",
    "wikipedia_es": "https://es.wikipedia.org/wiki/La_cabeza_de_Medusa",
    "wikipedia_en": "https://en.wikipedia.org/wiki/Medusa_(Caravaggio)",
    "wikipedia_it": "https://it.wikipedia.org/wiki/Scudo_con_testa_di_Medusa",
    "wikidata": "https://www.wikidata.org/wiki/Q2293905"
   }
  },
  {
   "type": "Feature",
   "geometry": {
    "type": "Point",
    "coordinates": [
     12.492144,
     41.91421
    ]
   },
   "properties": {
    "title": "Self-Portrait as Bacchus",
    "year": "1595",
    "city": "Rome",
    "country": "Italy",
    "location": "Galleria Borghese",
    "kind": "museum",
    "attribution": "generally accepted",
    "image": "https://commons.wikimedia.org/wiki/Special:FilePath/Young%20Sick%20Bacchus-Caravaggio%20%281593%29.jpg?width=420",
    "wikipedia_es": "https://es.wikipedia.org/wiki/Baco_enfermo",
    "wikipedia_en": "https://en.wikipedia.org/wiki/Young_Sick_Bacchus",
    "wikipedia_it": "https://it.wikipedia.org/wiki/Bacchino_malato",
    "wikidata": "https://www.wikidata.org/wiki/Q2293936"
   }
  },
  {
   "type": "Feature",
   "geometry": {
    "type": "Point",
    "coordinates": [
     -0.128333,
     51.508889
    ]
   },
   "properties": {
    "title": "Salome with the Head of John the Baptist",
    "year": "1607",
    "city": "Westminster",
    "country": "United Kingdom",
    "location": "National Gallery",
    "kind": "museum",
    "attribution": "generally accepted",
    "image": "https://commons.wikimedia.org/wiki/Special:FilePath/Salome%20with%20the%20Head%20of%20John%20the%20Baptist-Caravaggio%20%281610%29.jpg?width=420",
    "wikipedia_es": "https://es.wikipedia.org/wiki/Salom%C3%A9_con_la_cabeza_de_Juan_el_Bautista_(Caravaggio,_Londres)",
    "wikipedia_en": "https://en.wikipedia.org/wiki/Salome_with_the_Head_of_John_the_Baptist_(Caravaggio,_London)",
    "wikipedia_it": "https://it.wikipedia.org/wiki/Salom%C3%A8_con_la_testa_del_Battista_(Caravaggio_Londra)",
    "wikidata": "https://www.wikidata.org/wiki/Q2318325"
   }
  },
  {
   "type": "Feature",
   "geometry": {
    "type": "Point",
    "coordinates": [
     -3.715447,
     40.415696
    ]
   },
   "properties": {
    "title": "Salome with the Head of John the Baptist",
    "year": "1609",
    "city": "Madrid",
    "country": "Spain",
    "location": "Royal Collections Gallery",
    "kind": "museum",
    "attribution": "generally accepted",
    "image": "https://commons.wikimedia.org/wiki/Special:FilePath/Salom%C3%A9%20con%20la%20cabeza%20del%20Bautista%20%28Caravaggio%29.jpg?width=420",
    "wikipedia_es": "https://es.wikipedia.org/wiki/Salom%C3%A9_con_la_cabeza_de_Juan_el_Bautista_(Caravaggio,_Madrid)",
    "wikipedia_en": "https://en.wikipedia.org/wiki/Salome_with_the_Head_of_John_the_Baptist_(Caravaggio,_Madrid)",
    "wikipedia_it": "https://it.wikipedia.org/wiki/Salom%C3%A8_con_la_testa_del_Battista_(Caravaggio_Madrid)",
    "wikidata": "https://www.wikidata.org/wiki/Q2318957"
   }
  },
  {
   "type": "Feature",
   "geometry": {
    "type": "Point",
    "coordinates": [
     8.931815,
     44.411545
    ]
   },
   "properties": {
    "title": "Ecce Homo",
    "year": "1605",
    "city": "Genoa",
    "country": "Italy",
    "location": "Palazzo Bianco",
    "kind": "museum",
    "attribution": "generally accepted",
    "image": "https://commons.wikimedia.org/wiki/Special:FilePath/Caravaggio%20%28Michelangelo%20Merisi%29%20-%20Ecce%20Homo%20-%20Google%20Art%20Project.jpg?width=420",
    "wikipedia_es": "https://es.wikipedia.org/wiki/Ecce_Homo_(Caravaggio)",
    "wikipedia_en": "https://en.wikipedia.org/wiki/Ecce_Homo_(Caravaggio,_Genoa)",
    "wikipedia_it": "https://it.wikipedia.org/wiki/Ecce_Homo_(Caravaggio)",
    "wikidata": "https://www.wikidata.org/wiki/Q2325834"
   }
  },
  {
   "type": "Feature",
   "geometry": {
    "type": "Point",
    "coordinates": [
     15.561121,
     38.2088
    ]
   },
   "properties": {
    "title": "Adoration of the Shepherds",
    "year": "1609",
    "city": "Messina",
    "country": "Italy",
    "location": "Regional museum of Messina",
    "kind": "museum",
    "attribution": "generally accepted",
    "image": "https://commons.wikimedia.org/wiki/Special:FilePath/Adoration%20of%20the%20Shepherds-Caravaggio%20%281609%29.jpg?width=420",
    "wikipedia_es": "https://es.wikipedia.org/wiki/Adoraci%C3%B3n_de_los_pastores_(Caravaggio)",
    "wikipedia_en": "https://en.wikipedia.org/wiki/Adoration_of_the_Shepherds_(Caravaggio)",
    "wikipedia_it": "https://it.wikipedia.org/wiki/Adorazione_dei_pastori_(Caravaggio)",
    "wikidata": "https://www.wikidata.org/wiki/Q2327715"
   }
  },
  {
   "type": "Feature",
   "geometry": {
    "type": "Point",
    "coordinates": [
     12.474722,
     41.899444
    ]
   },
   "properties": {
    "title": "The Inspiration of Saint Matthew",
    "year": "1602",
    "city": "Rome",
    "country": "Italy",
    "location": "Contarelli Chapel",
    "kind": "church",
    "attribution": "generally accepted",
    "image": "https://commons.wikimedia.org/wiki/Special:FilePath/Caravaggio%20-%20La%20inspiraci%C3%B3n%20de%20San%20Mateo%20%28San%20Luigi%20dei%20Francesi%2C%20Roma%29.jpg?width=420",
    "wikipedia_es": "https://es.wikipedia.org/wiki/La_inspiraci%C3%B3n_de_San_Mateo",
    "wikipedia_en": "https://en.wikipedia.org/wiki/The_Inspiration_of_Saint_Matthew",
    "wikipedia_it": "https://it.wikipedia.org/wiki/San_Matteo_e_l%27angelo_(Caravaggio_Roma)",
    "wikidata": "https://www.wikidata.org/wiki/Q2337873"
   }
  },
  {
   "type": "Feature",
   "geometry": {
    "type": "Point",
    "coordinates": [
     12.474667,
     41.899583
    ]
   },
   "properties": {
    "title": "The Martyrdom of Saint Matthew",
    "year": "1600",
    "city": "Rome",
    "country": "Italy",
    "location": "San Luigi dei Francesi",
    "kind": "church",
    "attribution": "generally accepted",
    "image": "https://commons.wikimedia.org/wiki/Special:FilePath/Caravaggio%20%E2%80%94%20The%20Martyrdom%20of%20Saint%20Matthew.jpg?width=420",
    "wikipedia_es": "https://es.wikipedia.org/wiki/El_martirio_de_San_Mateo_(Caravaggio)",
    "wikipedia_en": "https://en.wikipedia.org/wiki/The_Martyrdom_of_Saint_Matthew_(Caravaggio)",
    "wikipedia_it": "https://it.wikipedia.org/wiki/Martirio_di_san_Matteo",
    "wikidata": "https://www.wikidata.org/wiki/Q2338417"
   }
  },
  {
   "type": "Feature",
   "geometry": {
    "type": "Point",
    "coordinates": [
     13.394722,
     52.521944
    ]
   },
   "properties": {
    "title": "Portrait of a Courtesan",
    "year": "1590-1601",
    "city": "Bezirk Mitte",
    "country": "Germany",
    "location": "Bode Museum",
    "kind": "museum",
    "attribution": "generally accepted",
    "image": "https://commons.wikimedia.org/wiki/Special:FilePath/Caravaggio%20%28Michelangelo%20Merisi%29%20%281571%20-%201610%29%20-%20Half-length%20portrait%20of%20a%20young%20woman%20-%20356%20-%20Gem%C3%A4ldegalerie.jpg?width=420",
    "wikipedia_es": "https://es.wikipedia.org/wiki/Retrato_de_una_cortesana",
    "wikipedia_en": "https://en.wikipedia.org/wiki/Portrait_of_a_Courtesan_(Caravaggio)",
    "wikipedia_it": "https://it.wikipedia.org/wiki/Ritratto_di_Fillide_Melandroni",
    "wikidata": "https://www.wikidata.org/wiki/Q2395137"
   }
  },
  {
   "type": "Feature",
   "geometry": {
    "type": "Point",
    "coordinates": [
     13.038626,
     52.403257
    ]
   },
   "properties": {
    "title": "The Incredulity of Saint Thomas",
    "year": "1601",
    "city": "Potsdam",
    "country": "Germany",
    "location": "Sanssouci Palace",
    "kind": "museum",
    "attribution": "generally accepted",
    "image": "https://commons.wikimedia.org/wiki/Special:FilePath/Caravaggio%20incredulity.jpg?width=420",
    "wikipedia_es": "https://es.wikipedia.org/wiki/La_incredulidad_de_santo_Tom%C3%A1s_(Caravaggio)",
    "wikipedia_en": "https://en.wikipedia.org/wiki/The_Incredulity_of_Saint_Thomas_(Caravaggio)",
    "wikipedia_it": "https://it.wikipedia.org/wiki/Incredulit%C3%A0_di_san_Tommaso_(Caravaggio)",
    "wikidata": "https://www.wikidata.org/wiki/Q2419166"
   }
  },
  {
   "type": "Feature",
   "geometry": {
    "type": "Point",
    "coordinates": [
     11.25,
     43.7652
    ]
   },
   "properties": {
    "title": "Sleeping Cupid",
    "year": "1608",
    "city": "Florence",
    "country": "Italy",
    "location": "Galleria Palatina",
    "kind": "museum",
    "attribution": "generally accepted",
    "image": "https://commons.wikimedia.org/wiki/Special:FilePath/Sleeping%20Cupid-Caravaggio%20%281608%29.jpg?width=420",
    "wikipedia_es": "https://es.wikipedia.org/wiki/Cupido_durmiendo",
    "wikipedia_en": "https://en.wikipedia.org/wiki/Sleeping_Cupid_(Caravaggio)",
    "wikipedia_it": "https://it.wikipedia.org/wiki/Amorino_dormiente",
    "wikidata": "https://www.wikidata.org/wiki/Q2429754"
   }
  },
  {
   "type": "Feature",
   "geometry": {
    "type": "Point",
    "coordinates": [
     12.489856,
     41.903324
    ]
   },
   "properties": {
    "title": "Judith Beheading Holofernes",
    "year": "1599",
    "city": "Rome",
    "country": "Italy",
    "location": "Palazzo Barberini",
    "kind": "museum",
    "attribution": "generally accepted",
    "image": "https://commons.wikimedia.org/wiki/Special:FilePath/Judith%20Beheading%20Holofernes%20-%20Caravaggio.jpg?width=420",
    "wikipedia_es": "https://es.wikipedia.org/wiki/Judit_y_Holofernes_(Caravaggio)",
    "wikipedia_en": "https://en.wikipedia.org/wiki/Judith_Beheading_Holofernes_(Caravaggio)",
    "wikipedia_it": "https://it.wikipedia.org/wiki/Giuditta_e_Oloferne_(Caravaggio)",
    "wikidata": "https://www.wikidata.org/wiki/Q2470123"
   }
  },
  {
   "type": "Feature",
   "geometry": {
    "type": "Point",
    "coordinates": [
     -0.337499,
     51.4034
    ]
   },
   "properties": {
    "title": "Boy Peeling Fruit",
    "year": "1592",
    "city": "London Borough of Richmond upon Thames",
    "country": "United Kingdom",
    "location": "Hampton Court Palace",
    "kind": "museum",
    "attribution": "generally accepted",
    "image": "https://commons.wikimedia.org/wiki/Special:FilePath/Michelangelo%20Merisi%20da%20Caravaggio%20%28Milan%201571-Port%27%20Ercole%201610%29%20-%20Boy%20Peeling%20Fruit%20-%20RCIN%20402612%20-%20Royal%20Collection.jpg?width=420",
    "wikipedia_es": "https://es.wikipedia.org/wiki/Muchacho_pelando_fruta",
    "wikipedia_en": "https://en.wikipedia.org/wiki/Boy_Peeling_Fruit",
    "wikipedia_it": "https://it.wikipedia.org/wiki/Ragazzo_che_monda_un_frutto",
    "wikidata": "https://www.wikidata.org/wiki/Q2574120"
   }
  },
  {
   "type": "Feature",
   "geometry": {
    "type": "Point",
    "coordinates": [
     30.743272,
     46.482663
    ]
   },
   "properties": {
    "title": "The Taking of Christ",
    "year": "1600",
    "city": "Odesa",
    "country": "Ukraine",
    "location": "Odesa Museum of Western and Eastern Art",
    "kind": "museum",
    "attribution": "generally accepted",
    "image": "https://commons.wikimedia.org/wiki/Special:FilePath/Caravaggio%20-%20Taking%20of%20Christ%20-%20Odessa.jpg?width=420",
    "wikidata": "https://www.wikidata.org/wiki/Q25796776"
   }
  },
  {
   "type": "Feature",
   "geometry": {
    "type": "Point",
    "coordinates": [
     -72.673086,
     41.763711
    ]
   },
   "properties": {
    "title": "Saint Francis of Assisi in Ecstasy",
    "year": "1594",
    "city": "Hartford",
    "country": "United States",
    "location": "Wadsworth Atheneum Museum of Art",
    "kind": "museum",
    "attribution": "generally accepted",
    "image": "https://commons.wikimedia.org/wiki/Special:FilePath/Saint%20Francis%20of%20Assisi%20in%20Ecstasy-Caravaggio%20%28c.1595%29.jpg?width=420",
    "wikipedia_es": "https://es.wikipedia.org/wiki/San_Francisco_de_As%C3%ADs_en_%C3%A9xtasis_(Caravaggio)",
    "wikipedia_en": "https://en.wikipedia.org/wiki/Saint_Francis_of_Assisi_in_Ecstasy_(Caravaggio)",
    "wikipedia_it": "https://it.wikipedia.org/wiki/San_Francesco_in_estasi_(Caravaggio)",
    "wikidata": "https://www.wikidata.org/wiki/Q2609235"
   }
  },
  {
   "type": "Feature",
   "geometry": {
    "type": "Point",
    "coordinates": [
     2.335833,
     48.861111
    ]
   },
   "properties": {
    "title": "The Fortune Teller",
    "year": "1594",
    "city": "Saint-Germain-l'Auxerrois",
    "country": "France",
    "location": "Louvre Museum",
    "kind": "museum",
    "attribution": "generally accepted",
    "image": "https://commons.wikimedia.org/wiki/Special:FilePath/The%20Fortune%20Teller-Caravaggio%20%28Louvre%29.jpg?width=420",
    "wikipedia_es": "https://es.wikipedia.org/wiki/La_buenaventura_(Caravaggio)",
    "wikipedia_en": "https://en.wikipedia.org/wiki/The_Fortune_Teller_(Caravaggio)",
    "wikipedia_it": "https://it.wikipedia.org/wiki/Buona_ventura_(Caravaggio_Parigi)",
    "wikidata": "https://www.wikidata.org/wiki/Q2610675"
   }
  },
  {
   "type": "Feature",
   "geometry": {
    "type": "Point",
    "coordinates": [
     12.492144,
     41.91421
    ]
   },
   "properties": {
    "title": "Boy with a Basket of Fruit",
    "year": "1594",
    "city": "Rome",
    "country": "Italy",
    "location": "Galleria Borghese",
    "kind": "museum",
    "attribution": "generally accepted",
    "image": "https://commons.wikimedia.org/wiki/Special:FilePath/Boy%20with%20a%20Basket%20of%20Fruit-Caravaggio%20%281593%29.jpg?width=420",
    "wikipedia_es": "https://es.wikipedia.org/wiki/Ni%C3%B1o_con_un_cesto_de_frutas",
    "wikipedia_en": "https://en.wikipedia.org/wiki/Boy_with_a_Basket_of_Fruit",
    "wikipedia_it": "https://it.wikipedia.org/wiki/Fanciullo_con_canestro_di_frutta",
    "wikidata": "https://www.wikidata.org/wiki/Q2610936"
   }
  },
  {
   "type": "Feature",
   "geometry": {
    "type": "Point",
    "coordinates": [
     14.260426,
     40.851871
    ]
   },
   "properties": {
    "title": "The Seven Works of Mercy",
    "year": "1600-1607",
    "city": "Naples",
    "country": "Italy",
    "location": "Pio Monte della Misericordia",
    "kind": "church",
    "attribution": "generally accepted",
    "image": "https://commons.wikimedia.org/wiki/Special:FilePath/The%20Seven%20Works%20of%20Mercy-Caravaggio%20%281607%29.jpg?width=420",
    "wikipedia_es": "https://es.wikipedia.org/wiki/Siete_obras_de_misericordia",
    "wikipedia_en": "https://en.wikipedia.org/wiki/The_Seven_Works_of_Mercy_(Caravaggio)",
    "wikipedia_it": "https://it.wikipedia.org/wiki/Sette_opere_di_Misericordia",
    "wikidata": "https://www.wikidata.org/wiki/Q2626595"
   }
  },
  {
   "type": "Feature",
   "geometry": {
    "type": "Point",
    "coordinates": [
     -3.694925,
     40.416041
    ]
   },
   "properties": {
    "title": "Saint Catherine of Alexandria",
    "year": "1598",
    "city": "Madrid",
    "country": "Spain",
    "location": "Thyssen-Bornemisza Museum",
    "kind": "museum",
    "attribution": "generally accepted",
    "image": "https://commons.wikimedia.org/wiki/Special:FilePath/Saint%20Catherine%20of%20Alexandria%20%28Caravaggio%29.jpg?width=420",
    "wikipedia_es": "https://es.wikipedia.org/wiki/Santa_Catalina_de_Alejandr%C3%ADa_(Caravaggio)",
    "wikipedia_en": "https://en.wikipedia.org/wiki/Saint_Catherine_of_Alexandria_(Caravaggio)",
    "wikipedia_it": "https://it.wikipedia.org/wiki/Santa_Caterina_d%27Alessandria_(Caravaggio)",
    "wikidata": "https://www.wikidata.org/wiki/Q2627034"
   }
  },
  {
   "type": "Feature",
   "geometry": {
    "type": "Point",
    "coordinates": [
     12.492144,
     41.91421
    ]
   },
   "properties": {
    "title": "David with the Head of Goliath",
    "year": "1605",
    "city": "Rome",
    "country": "Italy",
    "location": "Galleria Borghese",
    "kind": "museum",
    "attribution": "generally accepted",
    "image": "https://commons.wikimedia.org/wiki/Special:FilePath/David%20with%20the%20Head%20of%20Goliath-Caravaggio%20%281610%29.jpg?width=420",
    "wikipedia_es": "https://es.wikipedia.org/wiki/David_con_la_cabeza_de_Goliat",
    "wikipedia_en": "https://en.wikipedia.org/wiki/David_with_the_Head_of_Goliath_(Caravaggio,_Rome)",
    "wikipedia_it": "https://it.wikipedia.org/wiki/Davide_con_la_testa_di_Golia_(Caravaggio_Roma)",
    "wikidata": "https://www.wikidata.org/wiki/Q2627056"
   }
  },
  {
   "type": "Feature",
   "geometry": {
    "type": "Point",
    "coordinates": [
     12.47426,
     41.900802
    ]
   },
   "properties": {
    "title": "Madonna di Loreto",
    "year": "1605",
    "city": "Rome",
    "country": "Italy",
    "location": "Basilica of Saint Augustine in Campo Marzio",
    "kind": "church",
    "attribution": "generally accepted",
    "image": "https://commons.wikimedia.org/wiki/Special:FilePath/Madonna%20di%20Loreto-Caravaggio%20%28c.1604-6%29.jpg?width=420",
    "wikipedia_es": "https://es.wikipedia.org/wiki/Madonna_de_Loreto",
    "wikipedia_en": "https://en.wikipedia.org/wiki/Madonna_di_Loreto_(Caravaggio)",
    "wikipedia_it": "https://it.wikipedia.org/wiki/Madonna_dei_Pellegrini",
    "wikidata": "https://www.wikidata.org/wiki/Q2713203"
   }
  },
  {
   "type": "Feature",
   "geometry": {
    "type": "Point",
    "coordinates": [
     12.492144,
     41.91421
    ]
   },
   "properties": {
    "title": "Saint Jerome",
    "year": "1606",
    "city": "Rome",
    "country": "Italy",
    "location": "Galleria Borghese",
    "kind": "museum",
    "attribution": "generally accepted",
    "image": "https://commons.wikimedia.org/wiki/Special:FilePath/Caravaggio%20-%20Saint%20Jerome%20-%20Galleria%20Borghese.jpg?width=420",
    "wikipedia_es": "https://es.wikipedia.org/wiki/San_Jer%C3%B3nimo_escribiendo_(Caravaggio,_Roma)",
    "wikipedia_en": "https://en.wikipedia.org/wiki/Saint_Jerome_Writing",
    "wikipedia_it": "https://it.wikipedia.org/wiki/San_Girolamo_scrivente_(Roma)",
    "wikidata": "https://www.wikidata.org/wiki/Q2715177"
   }
  },
  {
   "type": "Feature",
   "geometry": {
    "type": "Point",
    "coordinates": [
     12.492144,
     41.91421
    ]
   },
   "properties": {
    "title": "Madonna and Child with Saint Anne",
    "year": "1605",
    "city": "Rome",
    "country": "Italy",
    "location": "Galleria Borghese",
    "kind": "museum",
    "attribution": "generally accepted",
    "image": "https://commons.wikimedia.org/wiki/Special:FilePath/Madonna%20and%20Child%20with%20St.%20Anne-Caravaggio%20%28c.%201605-6%29.jpg?width=420",
    "wikipedia_es": "https://es.wikipedia.org/wiki/Madonna_con_el_ni%C3%B1o_y_Santa_Ana",
    "wikipedia_en": "https://en.wikipedia.org/wiki/Madonna_and_Child_with_Saint_Anne_(Dei_Palafrenieri)",
    "wikipedia_it": "https://it.wikipedia.org/wiki/Madonna_dei_Palafrenieri",
    "wikidata": "https://www.wikidata.org/wiki/Q2715302"
   }
  },
  {
   "type": "Feature",
   "geometry": {
    "type": "Point",
    "coordinates": [
     16.3616,
     48.203881
    ]
   },
   "properties": {
    "title": "David with the Head of Goliath",
    "year": "1607",
    "city": "Vienna",
    "country": "Austria",
    "location": "Kunsthistorisches Museum",
    "kind": "museum",
    "attribution": "generally accepted",
    "image": "https://commons.wikimedia.org/wiki/Special:FilePath/David%20with%20the%20Head%20of%20Goliath-Caravaggio%20%28c.1606-7%29.jpg?width=420",
    "wikipedia_es": "https://es.wikipedia.org/wiki/David_con_la_cabeza_de_Goliat_(Viena)",
    "wikipedia_en": "https://en.wikipedia.org/wiki/David_with_the_Head_of_Goliath_(Caravaggio,_Vienna)",
    "wikipedia_it": "https://it.wikipedia.org/wiki/Davide_con_la_testa_di_Golia_(Caravaggio_Vienna)",
    "wikidata": "https://www.wikidata.org/wiki/Q2721037"
   }
  },
  {
   "type": "Feature",
   "geometry": {
    "type": "Point",
    "coordinates": [
     14.512778,
     35.897778
    ]
   },
   "properties": {
    "title": "The Beheading of Saint John the Baptist",
    "year": "1608",
    "city": "Valletta",
    "country": "Malta",
    "location": "St. John's Co-Cathedral",
    "kind": "church",
    "attribution": "generally accepted",
    "image": "https://commons.wikimedia.org/wiki/Special:FilePath/La%20decapitaci%C3%B3n%20de%20San%20Juan%20Bautista%2C%20por%20Caravaggio.jpg?width=420",
    "wikipedia_es": "https://es.wikipedia.org/wiki/La_decapitaci%C3%B3n_de_San_Juan_Bautista_(Caravaggio)",
    "wikipedia_en": "https://en.wikipedia.org/wiki/The_Beheading_of_Saint_John_the_Baptist_(Caravaggio)",
    "wikipedia_it": "https://it.wikipedia.org/wiki/Decollazione_di_san_Giovanni_Battista_(Caravaggio)",
    "wikidata": "https://www.wikidata.org/wiki/Q2727560"
   }
  },
  {
   "type": "Feature",
   "geometry": {
    "type": "Point",
    "coordinates": [
     12.481145,
     41.897669
    ]
   },
   "properties": {
    "title": "Penitent Magdalene",
    "year": "1593",
    "city": "Rome",
    "country": "Italy",
    "location": "Galleria Doria Pamphilj",
    "kind": "museum",
    "attribution": "generally accepted",
    "image": "https://commons.wikimedia.org/wiki/Special:FilePath/Penitent%20Magdalene-Caravaggio%20%281594-6%29.jpg?width=420",
    "wikipedia_es": "https://es.wikipedia.org/wiki/Magdalena_penitente_(Caravaggio)",
    "wikipedia_en": "https://en.wikipedia.org/wiki/Penitent_Magdalene_(Caravaggio)",
    "wikipedia_it": "https://it.wikipedia.org/wiki/Maddalena_penitente_(Caravaggio)",
    "wikidata": "https://www.wikidata.org/wiki/Q2732274"
   }
  },
  {
   "type": "Feature",
   "geometry": {
    "type": "Point",
    "coordinates": [
     12.489527,
     41.90278
    ]
   },
   "properties": {
    "title": "Portrait of Maffeo Barberini, later Pope Urban VIII",
    "year": "1598",
    "city": "Rome",
    "country": "Italy",
    "location": "Galleria Nazionale d'Arte Antica",
    "kind": "museum",
    "attribution": "generally accepted",
    "image": "https://commons.wikimedia.org/wiki/Special:FilePath/Portrait%20of%20Maffeo%20Barberini-Caravaggio%20%28c.%201598%29.jpg?width=420",
    "wikipedia_es": "https://es.wikipedia.org/wiki/Retrato_de_Maffeo_Barberini",
    "wikipedia_en": "https://en.wikipedia.org/wiki/Portrait_of_Maffeo_Barberini",
    "wikipedia_it": "https://it.wikipedia.org/wiki/Ritratto_di_Maffeo_Barberini",
    "wikidata": "https://www.wikidata.org/wiki/Q2734111"
   }
  },
  {
   "type": "Feature",
   "geometry": {
    "type": "Point",
    "coordinates": [
     -83.064722,
     42.359444
    ]
   },
   "properties": {
    "title": "Martha and Mary Magdalene",
    "year": "1598",
    "city": "Detroit",
    "country": "United States",
    "location": "Detroit Institute of Arts",
    "kind": "museum",
    "attribution": "generally accepted",
    "image": "https://commons.wikimedia.org/wiki/Special:FilePath/Caravaggio%20%281571%E2%80%931610%29%2C%20Martha%20and%20Mary%20Magdalene%20%28The%20Conversion%20of%20the%20Magdalen%29%2C%20c.%201598.jpg?width=420",
    "wikipedia_es": "https://es.wikipedia.org/wiki/Marta_y_Mar%C3%ADa_(Caravaggio)",
    "wikipedia_en": "https://en.wikipedia.org/wiki/Martha_and_Mary_Magdalene_(Caravaggio)",
    "wikipedia_it": "https://it.wikipedia.org/wiki/Marta_e_Maria_Maddalena",
    "wikidata": "https://www.wikidata.org/wiki/Q2734679"
   }
  },
  {
   "type": "Feature",
   "geometry": {
    "type": "Point",
    "coordinates": [
     4.334167,
     52.038333
    ]
   },
   "properties": {
    "title": "Salome with the head of John the Baptist",
    "year": "1624",
    "country": "Netherlands",
    "location": "Cultural Heritage Agency of the Netherlands Art Collection",
    "kind": "museum",
    "attribution": "generally accepted",
    "image": "https://commons.wikimedia.org/wiki/Special:FilePath/M.%20Merisi%20-%20Salome%20met%20het%20hoofd%20van%20Johannes%20de%20Doper%20-%20R5253%20-%20Cultural%20Heritage%20Agency%20of%20the%20Netherlands%20Art%20Collection.jpg?width=420",
    "wikidata": "https://www.wikidata.org/wiki/Q28108359"
   }
  },
  {
   "type": "Feature",
   "geometry": {
    "type": "Point",
    "coordinates": [
     6.12547,
     45.89935
    ]
   },
   "properties": {
    "title": "Descent from the Cross",
    "year": "1600",
    "city": "Annecy",
    "country": "France",
    "location": "St. Peter's Cathedral",
    "kind": "church",
    "attribution": "generally accepted",
    "image": "https://commons.wikimedia.org/wiki/Special:FilePath/1%20Annecy%2Ccathedral22.jpg?width=420",
    "wikidata": "https://www.wikidata.org/wiki/Q29338617"
   }
  },
  {
   "type": "Feature",
   "geometry": {
    "type": "Point",
    "coordinates": [
     11.571776,
     48.149583
    ]
   },
   "properties": {
    "title": "Lute Player",
    "year": "1591",
    "city": "Munich",
    "country": "Germany",
    "location": "Bavarian State Painting Collections",
    "kind": "museum",
    "attribution": "generally accepted",
    "image": "https://commons.wikimedia.org/wiki/Special:FilePath/The%20Lute%20Player%2C%20Master%20of%20the%20Lute%20Player.jpg?width=420",
    "wikidata": "https://www.wikidata.org/wiki/Q30095295"
   }
  },
  {
   "type": "Feature",
   "geometry": {
    "type": "Point",
    "coordinates": [
     -0.128333,
     51.508889
    ]
   },
   "properties": {
    "title": "Supper at Emmaus",
    "year": "1601",
    "city": "Westminster",
    "country": "United Kingdom",
    "location": "National Gallery",
    "kind": "museum",
    "attribution": "generally accepted",
    "image": "https://commons.wikimedia.org/wiki/Special:FilePath/Caravaggio%20-%20Supper%20at%20Emmaus%20-%20National%20Gallery%20London.jpeg?width=420",
    "wikipedia_es": "https://es.wikipedia.org/wiki/Los_disc%C3%ADpulos_de_Ema%C3%BAs_(Caravaggio,_Londres)",
    "wikipedia_en": "https://en.wikipedia.org/wiki/Supper_at_Emmaus_(Caravaggio,_London)",
    "wikipedia_it": "https://it.wikipedia.org/wiki/Cena_in_Emmaus_(Caravaggio_Londra)",
    "wikidata": "https://www.wikidata.org/wiki/Q318947"
   }
  },
  {
   "type": "Feature",
   "geometry": {
    "type": "Point",
    "coordinates": [
     11.25,
     43.7652
    ]
   },
   "properties": {
    "title": "The Toothpuller",
    "year": "1608",
    "city": "Florence",
    "country": "Italy",
    "location": "Galleria Palatina",
    "kind": "museum",
    "attribution": "generally accepted",
    "image": "https://commons.wikimedia.org/wiki/Special:FilePath/Toothpuller.jpg?width=420",
    "wikidata": "https://www.wikidata.org/wiki/Q3202347"
   }
  },
  {
   "type": "Feature",
   "geometry": {
    "type": "Point",
    "coordinates": [
     -73.963245,
     40.779451
    ]
   },
   "properties": {
    "title": "The Holy Family with Saint John the Baptist",
    "year": "1600",
    "city": "Manhattan",
    "country": "United States",
    "location": "The Met Fifth Avenue",
    "kind": "museum",
    "attribution": "generally accepted",
    "image": "https://commons.wikimedia.org/wiki/Special:FilePath/Caravaggio%20-%20Holy%20Family%20with%20St.%20John%20the%20Baptist%20%28Met%29.jpg?width=420",
    "wikipedia_es": "https://es.wikipedia.org/wiki/La_Sagrada_Familia_y_San_Juan_Bautista_(Caravaggio)",
    "wikipedia_it": "https://it.wikipedia.org/wiki/Sacra_Famiglia_con_san_Giovannino_(Caravaggio_New_York)",
    "wikidata": "https://www.wikidata.org/wiki/Q3212682"
   }
  },
  {
   "type": "Feature",
   "geometry": {
    "type": "Point",
    "coordinates": [
     -81.611667,
     41.508889
    ]
   },
   "properties": {
    "title": "The Crucifixion of Saint Andrew",
    "year": "1607",
    "city": "Cleveland",
    "country": "United States",
    "location": "Cleveland Museum of Art",
    "kind": "museum",
    "attribution": "generally accepted",
    "image": "https://commons.wikimedia.org/wiki/Special:FilePath/Caravaggio%20-%20The%20Crucifixion%20of%20Saint%20Andrew%20-%201976.2%20-%20Cleveland%20Museum%20of%20Art.tiff?width=420",
    "wikipedia_es": "https://es.wikipedia.org/wiki/La_crucifixi%C3%B3n_de_San_Andr%C3%A9s",
    "wikipedia_en": "https://en.wikipedia.org/wiki/The_Crucifixion_of_Saint_Andrew_(Caravaggio)",
    "wikipedia_it": "https://it.wikipedia.org/wiki/Crocifissione_di_sant%27Andrea_(Caravaggio)",
    "wikidata": "https://www.wikidata.org/wiki/Q3221991"
   }
  },
  {
   "type": "Feature",
   "geometry": {
    "type": "Point",
    "coordinates": [
     12.482778,
     41.893056
    ]
   },
   "properties": {
    "title": "Young Saint John the Baptist with ram",
    "year": "1602",
    "city": "Rome",
    "country": "Italy",
    "location": "Capitoline Museums",
    "kind": "museum",
    "attribution": "generally accepted",
    "image": "https://commons.wikimedia.org/wiki/Special:FilePath/Michelangelo%20Merisi%20da%20Caravaggio%2C%20Saint%20John%20the%20Baptist%20%28Youth%20with%20a%20Ram%29%20%28c.%201602%29.jpg?width=420",
    "wikipedia_es": "https://es.wikipedia.org/wiki/Joven_con_un_cordero",
    "wikipedia_it": "https://it.wikipedia.org/wiki/San_Giovanni_Battista_(Caravaggio_Capitolino-Pamphilj)",
    "wikidata": "https://www.wikidata.org/wiki/Q3223625"
   }
  },
  {
   "type": "Feature",
   "geometry": {
    "type": "Point",
    "coordinates": [
     -74.656111,
     40.345278
    ]
   },
   "properties": {
    "title": "Sacrifice of Isaac",
    "year": "1590",
    "city": "Princeton",
    "country": "United States",
    "location": "Princeton University",
    "kind": "museum",
    "attribution": "generally accepted",
    "image": "https://commons.wikimedia.org/wiki/Special:FilePath/Sacrifice%20of%20Isaac-Caravaggio%20%28c.%201603%29.jpg?width=420",
    "wikipedia_es": "https://es.wikipedia.org/wiki/El_sacrificio_de_Isaac_(Caravaggio,_Princeton)",
    "wikidata": "https://www.wikidata.org/wiki/Q3226847"
   }
  },
  {
   "type": "Feature",
   "geometry": {
    "type": "Point",
    "coordinates": [
     -104.989345,
     39.737188
    ]
   },
   "properties": {
    "title": "Still Life with Fruit",
    "year": "1601",
    "city": "Denver",
    "country": "United States",
    "location": "Denver Art Museum",
    "kind": "museum",
    "attribution": "generally accepted",
    "image": "https://commons.wikimedia.org/wiki/Special:FilePath/Caravaggio%20-%20Still%20Life%20with%20Fruit%20%28circa%201603%29.png?width=420",
    "wikipedia_es": "https://es.wikipedia.org/wiki/Bodeg%C3%B3n_con_frutas_(Caravaggio)",
    "wikipedia_en": "https://en.wikipedia.org/wiki/Still_Life_with_Fruit_on_a_Stone_Ledge",
    "wikipedia_it": "https://it.wikipedia.org/wiki/Natura_morta_con_frutta",
    "wikidata": "https://www.wikidata.org/wiki/Q3337119"
   }
  },
  {
   "type": "Feature",
   "geometry": {
    "type": "Point",
    "coordinates": [
     -4.023889,
     39.856944
    ]
   },
   "properties": {
    "title": "Saint John the Baptist",
    "year": "1598",
    "city": "Toledo",
    "country": "Spain",
    "location": "Museo Catedralicio",
    "kind": "museum",
    "attribution": "generally accepted",
    "image": "https://commons.wikimedia.org/wiki/Special:FilePath/Caravaggio-Baptist-Toledo.jpg?width=420",
    "wikipedia_es": "https://es.wikipedia.org/wiki/San_Juan_Bautista_(Catedral_de_Toledo)",
    "wikidata": "https://www.wikidata.org/wiki/Q3463868"
   }
  },
  {
   "type": "Feature",
   "geometry": {
    "type": "Point",
    "coordinates": [
     12.46659,
     41.89333
    ]
   },
   "properties": {
    "title": "Saint John the Baptist",
    "year": "1604",
    "city": "Rome",
    "country": "Italy",
    "location": "Galleria Nazionale d'Arte Antica di Palazzo Corsini",
    "kind": "museum",
    "attribution": "generally accepted",
    "image": "https://commons.wikimedia.org/wiki/Special:FilePath/Caravaggio%20-%20San%20Giovanni%20Battista%20%28Galleria%20Corsini%29.jpg?width=420",
    "wikipedia_es": "https://es.wikipedia.org/wiki/Juan_Bautista_(Galer%C3%ADa_Nacional_de_Arte_Antiguo)",
    "wikidata": "https://www.wikidata.org/wiki/Q3463869"
   }
  },
  {
   "type": "Feature",
   "geometry": {
    "type": "Point",
    "coordinates": [
     -94.58096,
     39.04497
    ]
   },
   "properties": {
    "title": "Saint John the Baptist in the Wilderness",
    "year": "1605",
    "city": "Kansas City",
    "country": "United States",
    "location": "The Nelson-Atkins Museum of Art",
    "kind": "museum",
    "attribution": "generally accepted",
    "image": "https://commons.wikimedia.org/wiki/Special:FilePath/Michelangelo%20Merisi%2C%20called%20Caravaggio%20-%20Saint%20John%20the%20Baptist%20in%20the%20Wilderness%20-%20Google%20Art%20Project.jpg?width=420",
    "wikipedia_es": "https://es.wikipedia.org/wiki/Juan_Bautista_(Kansas_City)",
    "wikidata": "https://www.wikidata.org/wiki/Q3463877"
   }
  },
  {
   "type": "Feature",
   "geometry": {
    "type": "Point",
    "coordinates": [
     14.511389,
     35.896389
    ]
   },
   "properties": {
    "title": "Saint John the Baptist at the fountain",
    "year": "1610",
    "city": "Valletta",
    "country": "Malta",
    "location": "MUŻA",
    "kind": "museum",
    "attribution": "generally accepted",
    "image": "https://commons.wikimedia.org/wiki/Special:FilePath/Caravaggio%20Baptist%20Collezione%20Bonello%2C%20Malta.jpg?width=420",
    "wikipedia_es": "https://es.wikipedia.org/wiki/Juan_Bautista_en_la_fuente",
    "wikipedia_en": "https://en.wikipedia.org/wiki/St_John_the_Baptist_at_a_Spring",
    "wikipedia_it": "https://it.wikipedia.org/wiki/Giovanni_Battista_alla_sorgente",
    "wikidata": "https://www.wikidata.org/wiki/Q3463878"
   }
  },
  {
   "type": "Feature",
   "geometry": {
    "type": "Point",
    "coordinates": [
     13.364722,
     52.508611
    ]
   },
   "properties": {
    "title": "Amor Vincit Omnia",
    "year": "1601",
    "city": "Bezirk Mitte",
    "country": "Germany",
    "location": "Gemäldegalerie Berlin",
    "kind": "museum",
    "attribution": "generally accepted",
    "image": "https://commons.wikimedia.org/wiki/Special:FilePath/Caravaggio%20-%20Cupid%20as%20Victor%20-%20Google%20Art%20Project.jpg?width=420",
    "wikipedia_es": "https://es.wikipedia.org/wiki/El_amor_victorioso",
    "wikipedia_en": "https://en.wikipedia.org/wiki/Amor_Vincit_Omnia_(Caravaggio)",
    "wikipedia_it": "https://it.wikipedia.org/wiki/Amor_vincit_omnia_(Caravaggio)",
    "wikidata": "https://www.wikidata.org/wiki/Q474024"
   }
  },
  {
   "type": "Feature",
   "geometry": {
    "type": "Point",
    "coordinates": [
     14.512778,
     35.897778
    ]
   },
   "properties": {
    "title": "Saint Jerome Writing",
    "year": "1607",
    "city": "Valletta",
    "country": "Malta",
    "location": "St. John's Co-Cathedral",
    "kind": "church",
    "attribution": "generally accepted",
    "image": "https://commons.wikimedia.org/wiki/Special:FilePath/Caravaggio%20-%20Saint%20Jerome%20in%20his%20study%20-%20Oratory%20of%20St%20John%20the%20Baptist%2C%20St%20John%E2%80%99s%20Co-Cathedral%2C%20Valletta.jpg?width=420",
    "wikipedia_es": "https://es.wikipedia.org/wiki/San_Jer%C3%B3nimo_escribiendo_(Caravaggio,_La_Valeta)",
    "wikipedia_en": "https://en.wikipedia.org/wiki/Saint_Jerome_Writing_(Caravaggio,_Valletta)",
    "wikipedia_it": "https://it.wikipedia.org/wiki/San_Girolamo_scrivente_(Malta)",
    "wikidata": "https://www.wikidata.org/wiki/Q510799"
   }
  },
  {
   "type": "Feature",
   "geometry": {
    "type": "Point",
    "coordinates": [
     -6.25255,
     53.34091
    ]
   },
   "properties": {
    "title": "The Taking of Christ",
    "year": "1602",
    "city": "Dublin City",
    "country": "Ireland",
    "location": "National Gallery of Ireland",
    "kind": "museum",
    "attribution": "generally accepted",
    "image": "https://commons.wikimedia.org/wiki/Special:FilePath/Caravaggio%20-%20The%20Taking%20of%20Christ%20restored.jpg?width=420",
    "wikidata": "https://www.wikidata.org/wiki/Q541376"
   }
  },
  {
   "type": "Feature",
   "geometry": {
    "type": "Point",
    "coordinates": [
     30.313611,
     59.940556
    ]
   },
   "properties": {
    "title": "The Lute Player",
    "year": "1595",
    "city": "Saint Petersburg",
    "country": "Russia",
    "location": "Hermitage Museum",
    "kind": "museum",
    "attribution": "generally accepted",
    "image": "https://commons.wikimedia.org/wiki/Special:FilePath/Michelangelo%20Caravaggio%20020.jpg?width=420",
    "wikidata": "https://www.wikidata.org/wiki/Q55647084"
   }
  },
  {
   "type": "Feature",
   "geometry": {
    "type": "Point",
    "coordinates": [
     -73.963333,
     40.779444
    ]
   },
   "properties": {
    "title": "The Lute Player",
    "year": "1596",
    "city": "Manhattan",
    "country": "United States",
    "location": "Metropolitan Museum of Art",
    "kind": "museum",
    "attribution": "generally accepted",
    "image": "https://commons.wikimedia.org/wiki/Special:FilePath/The%20Lute%20Player-Caravaggio%20%28Metropolitan%20Museum%20of%20Art%29.jpg?width=420",
    "wikidata": "https://www.wikidata.org/wiki/Q55647114"
   }
  },
  {
   "type": "Feature",
   "geometry": {
    "type": "Point",
    "coordinates": [
     13.364722,
     52.508611
    ]
   },
   "properties": {
    "title": "Saint Matthew and the Angel",
    "year": "1602",
    "city": "Bezirk Mitte",
    "country": "Germany",
    "location": "Gemäldegalerie Berlin",
    "kind": "museum",
    "attribution": "generally accepted",
    "image": "https://commons.wikimedia.org/wiki/Special:FilePath/Caravaggio%20%28Michelangelo%20Merisi%29%20%281571%20-%201610%29%20-%20The%20Evangelist%20Matthew%20-%20365%20-%20Gem%C3%A4ldegalerie.jpg?width=420",
    "wikipedia_es": "https://es.wikipedia.org/wiki/San_Mateo_y_el_%C3%A1ngel_(Caravaggio,_destruido)",
    "wikipedia_en": "https://en.wikipedia.org/wiki/Saint_Matthew_and_the_Angel",
    "wikipedia_it": "https://it.wikipedia.org/wiki/San_Matteo_e_l%27angelo_(Caravaggio_opera_d%27arte_perduta)",
    "wikidata": "https://www.wikidata.org/wiki/Q577248"
   }
  },
  {
   "type": "Feature",
   "geometry": {
    "type": "Point",
    "coordinates": [
     -0.128333,
     51.508889
    ]
   },
   "properties": {
    "title": "Boy Bitten by a Lizard",
    "year": "1594",
    "city": "Westminster",
    "country": "United Kingdom",
    "location": "National Gallery",
    "kind": "museum",
    "attribution": "generally accepted",
    "image": "https://commons.wikimedia.org/wiki/Special:FilePath/Caravaggio%20-%20Boy%20Bitten%20by%20a%20Lizard.jpg?width=420",
    "wikipedia_es": "https://es.wikipedia.org/wiki/Chico_mordido_por_una_lagartija",
    "wikipedia_en": "https://en.wikipedia.org/wiki/Boy_Bitten_by_a_Lizard",
    "wikipedia_it": "https://it.wikipedia.org/wiki/Ragazzo_morso_da_un_ramarro",
    "wikidata": "https://www.wikidata.org/wiki/Q585437"
   }
  },
  {
   "type": "Feature",
   "geometry": {
    "type": "Point",
    "coordinates": [
     2.335833,
     48.861111
    ]
   },
   "properties": {
    "title": "Death of the Virgin",
    "year": "1603-1604",
    "city": "Saint-Germain-l'Auxerrois",
    "country": "France",
    "location": "Louvre Museum",
    "kind": "museum",
    "attribution": "generally accepted",
    "image": "https://commons.wikimedia.org/wiki/Special:FilePath/Death%20of%20the%20Virgin-Caravaggio%20%281606%29.jpg?width=420",
    "wikipedia_es": "https://es.wikipedia.org/wiki/Muerte_de_la_Virgen_(Caravaggio)",
    "wikipedia_en": "https://en.wikipedia.org/wiki/Death_of_the_Virgin_(Caravaggio)",
    "wikipedia_it": "https://it.wikipedia.org/wiki/Morte_della_Vergine_(Caravaggio)",
    "wikidata": "https://www.wikidata.org/wiki/Q597114"
   }
  },
  {
   "type": "Feature",
   "geometry": {
    "type": "Point",
    "coordinates": [
     1.836162,
     41.592868
    ]
   },
   "properties": {
    "title": "Saint Jerome penitent",
    "year": "1600",
    "city": "Monistrol de Montserrat",
    "country": "Spain",
    "location": "Museum of Montserrat",
    "kind": "museum",
    "attribution": "generally accepted",
    "image": "https://commons.wikimedia.org/wiki/Special:FilePath/Caravaggio%20-%20Saint%20Jerome%20-%20Montserrat.jpg?width=420",
    "wikipedia_es": "https://es.wikipedia.org/wiki/San_Jer%C3%B3nimo_en_meditaci%C3%B3n",
    "wikipedia_en": "https://en.wikipedia.org/wiki/Saint_Jerome_in_Meditation_(Caravaggio)",
    "wikipedia_it": "https://it.wikipedia.org/wiki/San_Girolamo_in_meditazione",
    "wikidata": "https://www.wikidata.org/wiki/Q626791"
   }
  },
  {
   "type": "Feature",
   "geometry": {
    "type": "Point",
    "coordinates": [
     -73.963333,
     40.779444
    ]
   },
   "properties": {
    "title": "The Musicians",
    "year": "1595",
    "city": "Manhattan",
    "country": "United States",
    "location": "Metropolitan Museum of Art",
    "kind": "museum",
    "attribution": "generally accepted",
    "image": "https://commons.wikimedia.org/wiki/Special:FilePath/The%20Musicians%20MET%20DP-687-001.jpg?width=420",
    "wikipedia_es": "https://es.wikipedia.org/wiki/Los_m%C3%BAsicos",
    "wikipedia_en": "https://en.wikipedia.org/wiki/The_Musicians_(Caravaggio)",
    "wikipedia_it": "https://it.wikipedia.org/wiki/Concerto_(Caravaggio)",
    "wikidata": "https://www.wikidata.org/wiki/Q655705"
   }
  },
  {
   "type": "Feature",
   "geometry": {
    "type": "Point",
    "coordinates": [
     -97.365,
     32.748611
    ]
   },
   "properties": {
    "title": "The Cardsharps",
    "year": "1596",
    "city": "Fort Worth",
    "country": "United States",
    "location": "Museo d'arte Kimbell",
    "kind": "museum",
    "attribution": "generally accepted",
    "image": "https://commons.wikimedia.org/wiki/Special:FilePath/Caravaggio%20-%20The%20Cardsharps%20%281596-97%29%20Kimbell%20Art%20Museum.jpg?width=420",
    "wikipedia_es": "https://es.wikipedia.org/wiki/Jugadores_de_cartas",
    "wikipedia_en": "https://en.wikipedia.org/wiki/The_Cardsharps",
    "wikipedia_it": "https://it.wikipedia.org/wiki/I_bari",
    "wikidata": "https://www.wikidata.org/wiki/Q663133"
   }
  },
  {
   "type": "Feature",
   "geometry": {
    "type": "Point",
    "coordinates": [
     11.780949,
     43.093483
    ]
   },
   "properties": {
    "title": "Portrait of a gentleman (Scipione Borghese?)",
    "year": "1601",
    "city": "Montepulciano",
    "country": "Italy",
    "location": "Museo Civico di Montepulciano",
    "kind": "museum",
    "attribution": "generally accepted",
    "image": "https://commons.wikimedia.org/wiki/Special:FilePath/Michelangelo%20Merisi%20known%20as%20Caravaggio%20-%20Portrait%20of%20a%20gentleman%20%28Scipione%20Borghese%3F%29%20-%20Google%20Art%20Project.jpg?width=420",
    "wikidata": "https://www.wikidata.org/wiki/Q67204634"
   }
  },
  {
   "type": "Feature",
   "geometry": {
    "type": "Point",
    "coordinates": [
     12.476656,
     41.911503
    ]
   },
   "properties": {
    "title": "Crucifixion of Saint Peter",
    "year": "1600",
    "city": "Rome",
    "country": "Italy",
    "location": "Cerasi Chapel",
    "kind": "church",
    "attribution": "generally accepted",
    "image": "https://commons.wikimedia.org/wiki/Special:FilePath/Crucifixion%20of%20Saint%20Peter-Caravaggio%20%28c.1600%29.jpg?width=420",
    "wikipedia_es": "https://es.wikipedia.org/wiki/Crucifixi%C3%B3n_de_San_Pedro_(Caravaggio)",
    "wikipedia_en": "https://en.wikipedia.org/wiki/Crucifixion_of_Saint_Peter_(Caravaggio)",
    "wikipedia_it": "https://it.wikipedia.org/wiki/Crocifissione_di_san_Pietro_(Caravaggio)",
    "wikidata": "https://www.wikidata.org/wiki/Q685916"
   }
  },
  {
   "type": "Feature",
   "geometry": {
    "type": "Point",
    "coordinates": [
     16.3616,
     48.203881
    ]
   },
   "properties": {
    "title": "Madonna of the Rosary",
    "year": "1607",
    "city": "Vienna",
    "country": "Austria",
    "location": "Kunsthistorisches Museum",
    "kind": "museum",
    "attribution": "generally accepted",
    "image": "https://commons.wikimedia.org/wiki/Special:FilePath/Michelangelo%20Merisi%2C%20called%20Caravaggio%20-%20Madonna%20of%20the%20Rosary%20-%20Google%20Art%20Project.jpg?width=420",
    "wikipedia_es": "https://es.wikipedia.org/wiki/Madonna_del_Rosario_(Caravaggio)",
    "wikipedia_en": "https://en.wikipedia.org/wiki/Madonna_of_the_Rosary_(Caravaggio)",
    "wikipedia_it": "https://it.wikipedia.org/wiki/Madonna_del_Rosario_(Caravaggio)",
    "wikidata": "https://www.wikidata.org/wiki/Q698228"
   }
  },
  {
   "type": "Feature",
   "geometry": {
    "type": "Point",
    "coordinates": [
     12.481145,
     41.897669
    ]
   },
   "properties": {
    "title": "Rest on the Flight into Egypt",
    "year": "1597",
    "city": "Rome",
    "country": "Italy",
    "location": "Galleria Doria Pamphilj",
    "kind": "museum",
    "attribution": "generally accepted",
    "image": "https://commons.wikimedia.org/wiki/Special:FilePath/Rest%20on%20the%20Flight%20into%20Egypt-Caravaggio%20%28c.1597%29.jpg?width=420",
    "wikipedia_es": "https://es.wikipedia.org/wiki/Descanso_en_la_huida_a_Egipto_(Caravaggio)",
    "wikipedia_en": "https://en.wikipedia.org/wiki/Rest_on_the_Flight_into_Egypt_(Caravaggio)",
    "wikipedia_it": "https://it.wikipedia.org/wiki/Riposo_durante_la_fuga_in_Egitto_(Caravaggio)",
    "wikidata": "https://www.wikidata.org/wiki/Q745098"
   }
  },
  {
   "type": "Feature",
   "geometry": {
    "type": "Point",
    "coordinates": [
     12.489527,
     41.90278
    ]
   },
   "properties": {
    "title": "Narcissuss",
    "year": "1600",
    "city": "Rome",
    "country": "Italy",
    "location": "Galleria Nazionale d'Arte Antica",
    "kind": "museum",
    "attribution": "generally accepted",
    "image": "https://commons.wikimedia.org/wiki/Special:FilePath/Caravaggio%20-%20Narciso%20%281597-1599%29.jpg?width=420",
    "wikipedia_es": "https://es.wikipedia.org/wiki/Narciso_(Caravaggio)",
    "wikipedia_en": "https://en.wikipedia.org/wiki/Narcissus_(Caravaggio)",
    "wikipedia_it": "https://it.wikipedia.org/wiki/Narciso_(Caravaggio)",
    "wikidata": "https://www.wikidata.org/wiki/Q746716"
   }
  },
  {
   "type": "Feature",
   "geometry": {
    "type": "Point",
    "coordinates": [
     -71.802222,
     42.273056
    ]
   },
   "properties": {
    "title": "The Vision of Saint Jerome",
    "city": "Worcester",
    "country": "United States",
    "location": "Museo de Arte de Worcester",
    "kind": "museum",
    "attribution": "generally accepted",
    "image": "https://commons.wikimedia.org/wiki/Special:FilePath/Follower%20of%20Michelangelo%20Merisi%20da%20Caravaggio%20-%20The%20Vision%20of%20Saint%20Jerome%2C%201960.13.jpg?width=420",
    "wikidata": "https://www.wikidata.org/wiki/Q79035845"
   }
  },
  {
   "type": "Feature",
   "geometry": {
    "type": "Point",
    "coordinates": [
     12.492144,
     41.91421
    ]
   },
   "properties": {
    "title": "Saint John the Baptist",
    "year": "1610",
    "city": "Rome",
    "country": "Italy",
    "location": "Galleria Borghese",
    "kind": "museum",
    "attribution": "generally accepted",
    "image": "https://commons.wikimedia.org/wiki/Special:FilePath/John%20the%20Baptist%20%28Galleria%20Borghese%29-Caravaggio%20%281610%29.jpg?width=420",
    "wikipedia_es": "https://es.wikipedia.org/wiki/Juan_Bautista_(Galer%C3%ADa_Borghese)",
    "wikipedia_it": "https://it.wikipedia.org/wiki/San_Giovanni_Battista_(Caravaggio_Borghese)",
    "wikidata": "https://www.wikidata.org/wiki/Q9015206"
   }
  },
  {
   "type": "Feature",
   "geometry": {
    "type": "Point",
    "coordinates": [
     1.094722,
     49.444722
    ]
   },
   "properties": {
    "title": "Christ at the Column",
    "year": "1606",
    "city": "Rouen",
    "country": "France",
    "location": "Musée des Beaux-Arts de Rouen",
    "kind": "museum",
    "attribution": "generally accepted",
    "image": "https://commons.wikimedia.org/wiki/Special:FilePath/Christ%20at%20the%20Column-Caravaggio%20%28c.%201607%29.jpg?width=420",
    "wikipedia_es": "https://es.wikipedia.org/wiki/Cristo_en_la_columna_(Caravaggio)",
    "wikipedia_en": "https://en.wikipedia.org/wiki/Christ_at_the_Column_(Caravaggio)",
    "wikipedia_it": "https://it.wikipedia.org/wiki/Flagellazione_di_Cristo_(Caravaggio_Rouen)",
    "wikidata": "https://www.wikidata.org/wiki/Q931837"
   }
  },
  {
   "type": "Feature",
   "geometry": {
    "type": "Point",
    "coordinates": [
     2.335833,
     48.861111
    ]
   },
   "properties": {
    "title": "Portrait of Alof de Wignacourt and his Page",
    "year": "1600",
    "country": "France",
    "location": "Department of Paintings of the Louvre",
    "kind": "museum",
    "attribution": "generally accepted",
    "image": "https://commons.wikimedia.org/wiki/Special:FilePath/Portrait%20d%27Alof%20de%20Wignacourt%20-%20Le%20Caravage%20-%20Mus%C3%A9e%20du%20Louvre%20Peintures%20INV%2057%20%3B%20MR%20103.jpg?width=420",
    "wikipedia_es": "https://es.wikipedia.org/wiki/Retrato_del_gran_maestre_de_la_Orden_de_Malta_Alof_de_Wignacourt",
    "wikipedia_en": "https://en.wikipedia.org/wiki/Portrait_of_Alof_de_Wignacourt_and_his_Page",
    "wikipedia_it": "https://it.wikipedia.org/wiki/Ritratto_di_Alof_de_Wignacourt",
    "wikidata": "https://www.wikidata.org/wiki/Q945164"
   }
  },
  {
   "type": "Feature",
   "geometry": {
    "type": "Point",
    "coordinates": [
     12.474722,
     41.899444
    ]
   },
   "properties": {
    "title": "The Calling of Saint Matthew",
    "year": "1609",
    "city": "Rome",
    "country": "Italy",
    "location": "Contarelli Chapel",
    "kind": "church",
    "attribution": "generally accepted",
    "image": "https://commons.wikimedia.org/wiki/Special:FilePath/Caravaggio%20%E2%80%94%20The%20Calling%20of%20Saint%20Matthew.jpg?width=420",
    "wikipedia_es": "https://es.wikipedia.org/wiki/La_vocaci%C3%B3n_de_San_Mateo_(Caravaggio)",
    "wikipedia_en": "https://en.wikipedia.org/wiki/The_Calling_of_Saint_Matthew",
    "wikipedia_it": "https://it.wikipedia.org/wiki/Vocazione_di_san_Matteo",
    "wikidata": "https://www.wikidata.org/wiki/Q969377"
   }
  },
  {
   "type": "Feature",
   "geometry": {
    "type": "Point",
    "coordinates": [
     13.394722,
     52.521944
    ]
   },
   "properties": {
    "title": "Christ on the Mount of Olives",
    "year": "1603-1605",
    "city": "Bezirk Mitte",
    "country": "Germany",
    "location": "Bode Museum",
    "kind": "museum",
    "attribution": "generally accepted",
    "image": "https://commons.wikimedia.org/wiki/Special:FilePath/Caravaggio%20%28Michelangelo%20Merisi%29%20%281571%20-%201610%29%20-%20Christ%20on%20the%20mount%20of%20olives%20-%20359%20-%20Gem%C3%A4ldegalerie.jpg?width=420",
    "wikipedia_es": "https://es.wikipedia.org/wiki/Cristo_en_el_Monte_de_los_Olivos_(Caravaggio)",
    "wikipedia_en": "https://en.wikipedia.org/wiki/Christ_on_the_Mount_of_Olives_(Caravaggio)",
    "wikipedia_it": "https://it.wikipedia.org/wiki/Cristo_sul_Monte_degli_Ulivi_(Caravaggio)",
    "wikidata": "https://www.wikidata.org/wiki/Q976354"
   }
  }
 ]
}